{"type":"FeatureCollection","features":[{"type":"Feature","properties":{"featurecla":"Lake","scalerank":0,"name":"Lake Ontario","name_abb":"L. Ontario","name_alt":"Great Lakes","note":null,"delta":null,"dam_name":null,"year":-99,"admin":"admin-0","min_zoom":1,"min_label":3,"label":"Lake Ontario","wikidataid":"Q1062","name_ar":"\u0628\u062d\u064a\u0631\u0629 \u0623\u0648\u0646\u062a\u0627\u0631\u064a\u0648","name_bn":"\u09b2\u09c7\u0995 \u0985\u09a8\u09cd\u099f\u09be\u09b0\u09bf\u0993","name_de":"Ontariosee","name_en":"Ontario","name_es":"Ontario","name_fr":"Ontario","name_el":"\u039b\u03af\u03bc\u03bd\u03b7 \u039f\u03bd\u03c4\u03ac\u03c1\u03b9\u03bf","name_hi":"\u0913\u0923\u094d\u091f\u093e\u0930\u093f\u092f\u094b \u091d\u0940\u0932","name_hu":"Ontario-t\u00f3","name_id":"Ontario","name_it":"Ontario","name_ja":"\u30aa\u30f3\u30bf\u30ea\u30aa\u6e56","name_ko":"\uc628\ud0c0\ub9ac\uc624\ud638","name_nl":"Ontariomeer","name_pl":"Ontario","name_pt":"Ont\u00e1rio","name_ru":"\u041e\u043d\u0442\u0430\u0440\u0438\u043e","name_sv":"Ontariosj\u00f6n","name_tr":"Ontario","name_vi":"Ontario","name_zh":"\u5b89\u5927\u7565\u6e56","ne_id":1159106765,"name_fa":"\u062f\u0631\u06cc\u0627\u0686\u0647 \u0627\u0646\u062a\u0627\u0631\u06cc\u0648","name_he":"\u05d9\u05de\u05ea \u05d0\u05d5\u05e0\u05d8\u05e8\u05d9\u05d5","name_uk":"\u041e\u043d\u0442\u0430\u0440\u0456\u043e","name_ur":"\u062c\u06be\u06cc\u0644 \u0627\u0646\u0679\u0627\u0631\u06cc\u0648","name_zht":"\u5b89\u5927\u7565\u6e56"},"bbox":[-79.774735,43.190102,-75.770205,44.504437],"geometry":{"type":"Polygon","coordinates":[[[-76.087236,43.970461],[-76.120057,43.96634],[-76.133451,43.956626],[-76.140515,43.941613],[-76.141693,43.92925],[-76.145814,43.916887],[-76.161268,43.901285],[-76.204834,43.874498],[-76.215873,43.860369],[-76.243249,43.874498],[-76.238244,43.880974],[-76.228972,43.901285],[-76.278425,43.883918],[-76.291671,43.874498],[-76.303152,43.858603],[-76.297264,43.851538],[-76.282399,43.846534],[-76.266798,43.835936],[-76.261058,43.831227],[-76.248253,43.823868],[-76.243249,43.819158],[-76.240158,43.811799],[-76.240011,43.804145],[-76.238686,43.796492],[-76.225292,43.777064],[-76.216461,43.749688],[-76.209691,43.737325],[-76.218964,43.717896],[-76.220435,43.69523],[-76.216609,43.671093],[-76.209691,43.648132],[-76.201154,43.661967],[-76.191735,43.671387],[-76.180843,43.674331],[-76.168186,43.668443],[-76.210427,43.623406],[-76.215431,43.601328],[-76.188055,43.58661],[-76.207336,43.573364],[-76.246339,43.538334],[-76.266798,43.53127],[-76.33406,43.520967],[-76.359964,43.524499],[-76.401469,43.536274],[-76.419278,43.533919],[-76.471234,43.495357],[-76.490367,43.484171],[-76.594867,43.447376],[-76.633134,43.427065],[-76.667869,43.401455],[-76.712759,43.338755],[-76.736897,43.351119],[-76.751027,43.353768],[-76.757208,43.342582],[-76.762507,43.338461],[-76.826973,43.316678],[-76.930147,43.300783],[-76.935299,43.297839],[-76.941333,43.289008],[-76.941775,43.281649],[-76.940597,43.275467],[-76.942216,43.270463],[-76.945896,43.264281],[-76.945601,43.261338],[-76.947073,43.259277],[-76.956346,43.256922],[-76.966501,43.256039],[-76.975774,43.2581],[-76.983722,43.263104],[-76.990492,43.270463],[-76.98799,43.27429],[-76.983133,43.284298],[-77.366689,43.297839],[-77.412463,43.290774],[-77.538009,43.256922],[-77.583194,43.257217],[-77.624699,43.271346],[-77.69623,43.319033],[-77.701087,43.320799],[-77.723606,43.325215],[-77.7239,43.335812],[-77.748774,43.344643],[-78.106573,43.394096],[-78.226968,43.379966],[-78.380185,43.396156],[-78.689414,43.361422],[-78.754175,43.338167],[-78.862059,43.324332],[-78.990696,43.286947],[-79.059283,43.278116],[-79.079005,43.271346],[-79.174379,43.259572],[-79.195574,43.249858],[-79.230603,43.228958],[-79.291242,43.210413],[-79.309492,43.198933],[-79.330392,43.190102],[-79.353206,43.193928],[-79.395005,43.209824],[-79.444458,43.213651],[-79.544984,43.20953],[-79.593701,43.216006],[-79.692313,43.241321],[-79.740442,43.261926],[-79.772527,43.291657],[-79.774735,43.329336],[-79.748684,43.362305],[-79.683041,43.41529],[-79.616956,43.49418],[-79.611804,43.51508],[-79.609155,43.536568],[-79.601207,43.558645],[-79.589286,43.571009],[-79.570888,43.582195],[-79.549694,43.590142],[-79.529088,43.59338],[-79.508188,43.600151],[-79.495089,43.615458],[-79.484639,43.633708],[-79.470804,43.648132],[-79.447255,43.651959],[-79.386174,43.6446],[-79.371456,43.6446],[-79.355119,43.659612],[-79.33834,43.670504],[-79.280203,43.699057],[-79.200872,43.754103],[-79.156129,43.772648],[-79.135082,43.784423],[-79.128459,43.792076],[-79.116684,43.81121],[-79.107706,43.819158],[-79.09652,43.825045],[-79.088425,43.826517],[-79.062668,43.825634],[-79.041032,43.829755],[-78.977303,43.860369],[-78.952723,43.865667],[-78.878396,43.860369],[-78.854847,43.863312],[-78.810692,43.876853],[-78.670134,43.897164],[-78.607434,43.915415],[-78.582119,43.914532],[-78.501316,43.901285],[-78.480122,43.904523],[-78.422426,43.92925],[-78.279512,43.958686],[-78.020766,43.97782],[-78.001633,43.982235],[-77.906553,43.985768],[-77.803231,44.019031],[-77.782184,44.021386],[-77.718307,44.008434],[-77.675183,44.004313],[-77.68475,44.01491],[-77.701528,44.020208],[-77.737147,44.025507],[-77.725961,44.03787],[-77.708888,44.044641],[-77.69049,44.043169],[-77.675183,44.031689],[-77.660759,44.037576],[-77.61631,44.045524],[-77.600709,44.045229],[-77.531828,44.017854],[-77.541836,44.010494],[-77.553316,44.005785],[-77.566121,44.003724],[-77.579515,44.004313],[-77.563766,43.991066],[-77.491794,43.95221],[-77.47737,43.948678],[-77.439103,43.949561],[-77.360066,43.968106],[-77.318414,43.972227],[-77.291626,43.956626],[-77.271904,43.965162],[-77.250563,43.970167],[-77.264251,43.947795],[-77.283973,43.94544],[-77.325773,43.962513],[-77.300457,43.923363],[-77.256156,43.921008],[-77.207144,43.938081],[-77.168141,43.956626],[-77.181534,43.935726],[-77.236286,43.88068],[-77.219949,43.876264],[-77.168141,43.874498],[-77.16711,43.871849],[-77.168141,43.867139],[-77.168288,43.862429],[-77.164903,43.860369],[-77.130609,43.860369],[-77.122809,43.861841],[-77.116333,43.865079],[-77.110298,43.870671],[-77.085424,43.887156],[-76.976362,43.915415],[-76.924849,43.937198],[-76.90807,43.942202],[-76.864946,43.942791],[-76.849786,43.946912],[-76.856556,43.959569],[-76.887317,43.965751],[-76.971064,43.951622],[-77.003591,43.962513],[-77.02979,43.94073],[-77.041564,43.938081],[-77.044508,43.956626],[-77.036413,43.97105],[-77.013011,43.988123],[-77.017279,43.997248],[-76.991375,44.012849],[-76.927351,44.032866],[-76.901152,44.052],[-76.898209,44.05877],[-76.895854,44.074077],[-76.890555,44.082319],[-76.884668,44.087323],[-76.871274,44.096154],[-76.852582,44.112344],[-76.850227,44.115877],[-76.876867,44.113522],[-76.890997,44.108223],[-76.920728,44.084674],[-77.009037,44.049645],[-77.028759,44.051705],[-77.062611,44.05877],[-77.081892,44.055827],[-77.12119,44.044641],[-77.133994,44.045229],[-77.108238,44.073194],[-77.091606,44.105574],[-77.066291,44.182403],[-77.082628,44.179754],[-77.141648,44.163858],[-77.171526,44.150906],[-77.185361,44.148257],[-77.247177,44.148257],[-77.262337,44.144724],[-77.287652,44.127063],[-77.298985,44.120881],[-77.298985,44.113522],[-77.290449,44.114111],[-77.264251,44.113522],[-77.264251,44.10734],[-77.306492,44.094683],[-77.327686,44.094977],[-77.340049,44.10734],[-77.33166,44.110578],[-77.326656,44.114699],[-77.318855,44.127063],[-77.324595,44.130301],[-77.327686,44.133833],[-77.330041,44.137365],[-77.333132,44.140898],[-77.325037,44.141781],[-77.305314,44.148257],[-77.305314,44.154438],[-77.389355,44.147962],[-77.40687,44.14914],[-77.415112,44.148257],[-77.42409,44.143547],[-77.443077,44.130006],[-77.452938,44.127063],[-77.490175,44.120881],[-77.552433,44.090267],[-77.586432,44.079376],[-77.583636,44.099392],[-77.572891,44.114405],[-77.555965,44.123825],[-77.508573,44.128829],[-77.376698,44.172395],[-77.345348,44.177693],[-77.336223,44.181226],[-77.327097,44.180931],[-77.315764,44.1721],[-77.306492,44.168274],[-77.293981,44.168862],[-77.271757,44.175633],[-77.263367,44.180637],[-77.255125,44.187702],[-77.246442,44.193883],[-77.236286,44.195355],[-77.224953,44.190351],[-77.204936,44.172689],[-77.192279,44.168568],[-77.17079,44.171806],[-77.038473,44.215077],[-77.014188,44.217138],[-76.99947,44.215077],[-77.002266,44.210073],[-77.020959,44.199182],[-77.034794,44.187113],[-77.039651,44.180637],[-77.044508,44.168568],[-77.049218,44.141486],[-77.039356,44.136188],[-77.021989,44.143547],[-76.921758,44.203009],[-76.914987,44.194178],[-76.90704,44.187702],[-76.897914,44.183581],[-76.887464,44.182403],[-76.896148,44.170334],[-76.906745,44.166802],[-76.931913,44.168568],[-76.946337,44.166507],[-76.974008,44.156793],[-76.986812,44.154438],[-77.003738,44.146491],[-77.072472,44.092916],[-77.063494,44.088795],[-77.053339,44.085852],[-77.042594,44.084969],[-77.031556,44.085557],[-77.034499,44.082025],[-77.036707,44.078787],[-77.039651,44.075549],[-77.044508,44.072605],[-77.044508,44.066424],[-76.973713,44.076726],[-76.962674,44.082319],[-76.953255,44.098509],[-76.931325,44.110578],[-76.887464,44.127063],[-76.836687,44.164152],[-76.794593,44.172689],[-76.73675,44.203009],[-76.695686,44.217138],[-76.659332,44.22332],[-76.65109,44.227146],[-76.637991,44.235977],[-76.63019,44.233622],[-76.624009,44.227146],[-76.616502,44.22332],[-76.544236,44.22538],[-76.523042,44.23009],[-76.503466,44.23951],[-76.486541,44.254228],[-76.477121,44.259232],[-76.468584,44.255111],[-76.460489,44.247752],[-76.452394,44.243925],[-76.441356,44.24628],[-76.407651,44.264236],[-76.332588,44.292201],[-76.322433,44.299266],[-76.315221,44.306036],[-76.307273,44.310746],[-76.260322,44.320165],[-76.235742,44.33194],[-76.168186,44.332529],[-76.151701,44.339299],[-76.108283,44.36226],[-76.089002,44.367264],[-76.009523,44.374623],[-75.973905,44.38522],[-75.941525,44.40141],[-75.844532,44.487659],[-75.811858,44.504437],[-75.791988,44.497078],[-75.779184,44.48236],[-75.772266,44.463815],[-75.770205,44.446153],[-75.780803,44.432318],[-75.845415,44.40141],[-75.84674,44.398172],[-75.847623,44.392579],[-75.849095,44.386103],[-75.852922,44.381099],[-75.856601,44.379333],[-75.908998,44.363731],[-75.914297,44.357255],[-75.923863,44.347836],[-76.053825,44.265708],[-76.183493,44.223025],[-76.357462,44.131478],[-76.366146,44.117349],[-76.3607,44.09586],[-76.347012,44.088795],[-76.32935,44.084969],[-76.311541,44.072605],[-76.306537,44.061125],[-76.309186,44.053472],[-76.313013,44.046996],[-76.311541,44.039048],[-76.304329,44.033455],[-76.295204,44.032572],[-76.28755,44.037282],[-76.284165,44.048762],[-76.274746,44.062008],[-76.209691,44.085557],[-76.201007,44.072017],[-76.161268,44.077315],[-76.146991,44.066424],[-76.154351,44.061419],[-76.157147,44.058181],[-76.161268,44.045229],[-76.153615,44.051117],[-76.145372,44.055532],[-76.136394,44.058181],[-76.126533,44.05877],[-76.132715,44.045818],[-76.144342,44.032572],[-76.158325,44.022269],[-76.18467,44.012555],[-76.201743,44.00078],[-76.212193,43.9893],[-76.206011,43.983707],[-76.143901,43.983707],[-76.125356,43.988123],[-76.097833,44.006962],[-76.08179,44.011083],[-76.065158,44.007845],[-76.057946,43.999603],[-76.060301,43.988417],[-76.071929,43.976348],[-76.087236,43.970461]],[[-76.05147,44.340182],[-76.05147,44.332529],[-76.038371,44.329291],[-76.037488,44.319871],[-76.038665,44.308391],[-76.030865,44.299266],[-76.02174,44.300737],[-75.993039,44.319577],[-75.975377,44.324875],[-75.9533,44.337239],[-75.933283,44.35284],[-75.918712,44.370796],[-75.916063,44.373445],[-75.914444,44.376389],[-75.914297,44.381099],[-75.927837,44.38051],[-75.93814,44.376095],[-75.955213,44.360493],[-75.960659,44.376095],[-75.973022,44.36903],[-75.99613,44.340182],[-76.003047,44.346364],[-76.000398,44.348424],[-75.999221,44.348424],[-75.99819,44.349602],[-75.99613,44.353723],[-76.007757,44.353723],[-76.017618,44.351368],[-76.025566,44.347247],[-76.030865,44.340182],[-76.03322,44.340771],[-76.037488,44.34136],[-76.043522,44.34136],[-76.05147,44.340182]],[[-76.158325,44.285136],[-76.160091,44.276011],[-76.15803,44.267769],[-76.150671,44.264236],[-76.126533,44.268652],[-76.08856,44.29014],[-76.065158,44.299266],[-76.065305,44.303387],[-76.066777,44.306625],[-76.071929,44.312806],[-76.078552,44.313395],[-76.086205,44.309863],[-76.095331,44.307508],[-76.106075,44.312806],[-76.117849,44.305447],[-76.143753,44.299266],[-76.154498,44.292201],[-76.158325,44.285136]],[[-76.640493,44.175633],[-76.636813,44.198887],[-76.660068,44.200654],[-76.716145,44.182403],[-76.794298,44.162681],[-76.815198,44.1512],[-76.814609,44.132361],[-76.778403,44.122942],[-76.736456,44.120881],[-76.719383,44.124119],[-76.703193,44.124708],[-76.658891,44.163269],[-76.640493,44.175633]],[[-76.313896,44.288963],[-76.353194,44.264236],[-76.275481,44.269535],[-76.238686,44.279838],[-76.205864,44.301915],[-76.195414,44.312806],[-76.241924,44.310746],[-76.279161,44.303681],[-76.313896,44.288963]],[[-76.416187,44.222731],[-76.435027,44.22332],[-76.406032,44.215372],[-76.252815,44.216255],[-76.222054,44.219787],[-76.195414,44.230679],[-76.181285,44.240982],[-76.190705,44.244514],[-76.225881,44.243925],[-76.244279,44.242748],[-76.271508,44.238038],[-76.359964,44.237155],[-76.379686,44.233622],[-76.416187,44.222731]],[[-76.408534,44.13501],[-76.359964,44.154438],[-76.379686,44.161798],[-76.365262,44.177988],[-76.356284,44.184758],[-76.353782,44.187407],[-76.350986,44.189173],[-76.346276,44.189173],[-76.367912,44.200948],[-76.401322,44.210956],[-76.435468,44.214194],[-76.459606,44.206247],[-76.499345,44.166507],[-76.502289,44.150023],[-76.469173,44.148257],[-76.473441,44.140603],[-76.47771,44.134716],[-76.483008,44.130006],[-76.489631,44.127063],[-76.489631,44.120881],[-76.480064,44.125296],[-76.471086,44.126768],[-76.456074,44.127063],[-76.448862,44.125591],[-76.441356,44.122058],[-76.433261,44.120292],[-76.42443,44.124119],[-76.408534,44.13501]],[[-76.215873,44.031689],[-76.212782,44.042874],[-76.223968,44.043758],[-76.241335,44.038165],[-76.256201,44.031689],[-76.274451,44.019325],[-76.280338,44.008728],[-76.277395,43.976348],[-76.24163,43.996954],[-76.228236,44.009317],[-76.215873,44.031689]]]}}]}