{"type":"FeatureCollection","features":[{"type":"Feature","properties":{"name":"Scarborough—Rouge Park"},"geometry":{"type":"MultiPolygon","coordinates":[[[[-79.1595,43.83163],[-79.15156,43.81413],[-79.14961,43.8128],[-79.14644,43.81136],[-79.14614,43.81102],[-79.14636,43.81059],[-79.14579,43.81017],[-79.14399,43.81004],[-79.14329,43.81075],[-79.14268,43.8103],[-79.14306,43.8099],[-79.14283,43.80965],[-79.14189,43.80977],[-79.14174,43.8094],[-79.14056,43.80896],[-79.14051,43.80859],[-79.13901,43.80843],[-79.13786,43.80763],[-79.13738,43.80798],[-79.13549,43.80808],[-79.13387,43.8064],[-79.1344,43.80482],[-79.13417,43.80401],[-79.13342,43.80316],[-79.13421,43.80201],[-79.13518,43.80126],[-79.13513,43.80098],[-79.13095,43.80183],[-79.12791,43.80048],[-79.1254,43.80027],[-79.1242,43.79917],[-79.12431,43.79761],[-79.12341,43.79725],[-79.12186,43.79747],[-79.12039,43.79623],[-79.12019,43.79573],[-79.12121,43.79531],[-79.12117,43.79484],[-79.11757,43.79447],[-79.11545,43.79481],[-79.11449,43.7928],[-79.1341,43.77452],[-79.14415,43.76623],[-79.14559,43.7656],[-79.15033,43.76004],[-79.15237,43.75862],[-79.15643,43.75846],[-79.17039,43.75459],[-79.17287,43.75357],[-79.17859,43.75048],[-79.186,43.76741],[-79.1869,43.77071],[-79.1935,43.78564],[-79.19376,43.78787],[-79.19604,43.7933],[-79.19691,43.79652],[-79.21564,43.79369],[-79.21827,43.80004],[-79.21816,43.80107],[-79.21714,43.80337],[-79.2174,43.80501],[-79.2201,43.80823],[-79.22433,43.81056],[-79.22529,43.81155],[-79.22784,43.81697],[-79.22902,43.81828],[-79.23058,43.82187],[-79.23058,43.82252],[-79.23014,43.82303],[-79.23139,43.82397],[-79.23232,43.82579],[-79.21782,43.83073],[-79.21919,43.83245],[-79.22161,43.83236],[-79.2238,43.83398],[-79.22408,43.83509],[-79.22383,43.83548],[-79.22183,43.83647],[-79.22278,43.83742],[-79.22263,43.83851],[-79.22374,43.83921],[-79.22602,43.83968],[-79.22669,43.84108],[-79.22773,43.8421],[-79.20448,43.84725],[-79.17027,43.85545],[-79.1595,43.83163]]]]}},{"type":"Feature","properties":{"name":"Scarborough North"},"geometry":{"type":"MultiPolygon","coordinates":[[[[-79.22137,43.83234],[-79.21919,43.83245],[-79.21782,43.83073],[-79.23232,43.82579],[-79.23139,43.82397],[-79.23014,43.82303],[-79.23058,43.82252],[-79.23058,43.82187],[-79.22902,43.81828],[-79.22784,43.81697],[-79.22529,43.81155],[-79.22433,43.81056],[-79.2201,43.80823],[-79.2174,43.80501],[-79.21714,43.80337],[-79.21816,43.80107],[-79.21827,43.80004],[-79.21564,43.79369],[-79.22054,43.79201],[-79.22815,43.78798],[-79.23461,43.78577],[-79.24643,43.78284],[-79.27477,43.77729],[-79.27695,43.78266],[-79.2787,43.7857],[-79.28653,43.80432],[-79.28874,43.80694],[-79.29732,43.82594],[-79.22773,43.8421],[-79.22669,43.84108],[-79.22602,43.83968],[-79.22374,43.83921],[-79.22263,43.83851],[-79.22278,43.83742],[-79.22183,43.83647],[-79.22383,43.83548],[-79.22403,43.8346],[-79.22349,43.83368],[-79.22137,43.83234]]]]}},{"type":"Feature","properties":{"name":"Beaches—East York"},"geometry":{"type":"MultiPolygon","coordinates":[[[[-79.29742,43.71223],[-79.29054,43.69673],[-79.28315,43.67863],[-79.28189,43.67833],[-79.27845,43.67038],[-79.29844,43.65767],[-79.30042,43.65611],[-79.30901,43.6521],[-79.31348,43.64856],[-79.31421,43.64831],[-79.31316,43.65726],[-79.31239,43.65823],[-79.31538,43.66085],[-79.31528,43.66188],[-79.31488,43.66233],[-79.32954,43.69794],[-79.32958,43.69826],[-79.3267,43.70166],[-79.32745,43.70145],[-79.3315,43.70167],[-79.33212,43.70312],[-79.33304,43.70342],[-79.33285,43.70524],[-79.33146,43.70627],[-79.33005,43.70645],[-79.32821,43.70797],[-79.32576,43.70821],[-79.32436,43.70983],[-79.32269,43.71033],[-79.32064,43.71038],[-79.31881,43.71103],[-79.31862,43.71157],[-79.31945,43.71258],[-79.32166,43.71242],[-79.32027,43.71375],[-79.32096,43.71445],[-79.32007,43.71478],[-79.32002,43.71555],[-79.30062,43.7198],[-79.29742,43.71223]]]]}},{"type":"Feature","properties":{"name":"Mississauga—Malton"},"geometry":{"type":"MultiPolygon","coordinates":[[[[-79.63428,43.7335],[-79.63385,43.73339],[-79.63219,43.73487],[-79.63029,43.73531],[-79.58882,43.66461],[-79.63634,43.62166],[-79.63368,43.61947],[-79.6321,43.61698],[-79.63178,43.61558],[-79.63199,43.61367],[-79.63236,43.61274],[-79.63398,43.61084],[-79.64452,43.60078],[-79.65292,43.60677],[-79.65773,43.60251],[-79.66083,43.60457],[-79.66541,43.60458],[-79.66782,43.60572],[-79.66953,43.60594],[-79.67021,43.60408],[-79.67351,43.60117],[-79.67528,43.60038],[-79.67935,43.59963],[-79.68092,43.59895],[-79.69084,43.59033],[-79.69388,43.58926],[-79.69723,43.58676],[-79.71805,43.60205],[-79.71815,43.60353],[-79.71531,43.60459],[-79.71455,43.60598],[-79.71243,43.60729],[-79.71244,43.60778],[-79.71413,43.60923],[-79.71545,43.60981],[-79.7181,43.60946],[-79.72064,43.60727],[-79.72146,43.60716],[-79.7237,43.6087],[-79.72762,43.6107],[-79.72873,43.61163],[-79.72911,43.61226],[-79.70779,43.62071],[-79.72123,43.63101],[-79.72397,43.63497],[-79.73286,43.63988],[-79.71347,43.65074],[-79.70764,43.65366],[-79.69069,43.66869],[-79.6776,43.69401],[-79.67257,43.70093],[-79.67316,43.70682],[-79.63938,43.73703],[-79.63428,43.7335]]]]}},{"type":"Feature","properties":{"name":"Scarborough—Agincourt"},"geometry":{"type":"MultiPolygon","coordinates":[[[[-79.29727,43.82595],[-79.28874,43.80694],[-79.28653,43.80432],[-79.2787,43.7857],[-79.27695,43.78266],[-79.27477,43.77729],[-79.31084,43.76892],[-79.31467,43.76843],[-79.3197,43.76836],[-79.33182,43.79401],[-79.34131,43.81564],[-79.29727,43.82595]]]]}},{"type":"Feature","properties":{"name":"Markham—Unionville"},"geometry":{"type":"MultiPolygon","coordinates":[[[[-79.27426,43.93529],[-79.26859,43.91214],[-79.26405,43.89198],[-79.26748,43.89055],[-79.28627,43.88617],[-79.2889,43.88522],[-79.2818,43.8564],[-79.33062,43.8453],[-79.3412,43.84329],[-79.36812,43.83922],[-79.37154,43.85038],[-79.38708,43.91382],[-79.38963,43.92303],[-79.35304,43.9313],[-79.3532,43.93195],[-79.30276,43.9433],[-79.30288,43.94381],[-79.27812,43.9495],[-79.27766,43.94342],[-79.27426,43.93529]]]]}},{"type":"Feature","properties":{"name":"Don Valley North"},"geometry":{"type":"MultiPolygon","coordinates":[[[[-79.31979,43.76857],[-79.31965,43.76836],[-79.32887,43.76822],[-79.3724,43.76588],[-79.37834,43.76513],[-79.38705,43.76332],[-79.38804,43.76658],[-79.39622,43.80326],[-79.34131,43.81564],[-79.33182,43.79401],[-79.31979,43.76857]]]]}},{"type":"Feature","properties":{"name":"Etobicoke Centre"},"geometry":{"type":"MultiPolygon","coordinates":[[[[-79.51674,43.69692],[-79.51358,43.69726],[-79.51184,43.69678],[-79.51197,43.69598],[-79.5126,43.69544],[-79.51268,43.69351],[-79.51327,43.6926],[-79.51321,43.69097],[-79.51264,43.68874],[-79.51151,43.68729],[-79.51022,43.68386],[-79.50921,43.68256],[-79.50601,43.68234],[-79.50543,43.68138],[-79.50554,43.68051],[-79.5072,43.67923],[-79.50882,43.67643],[-79.5114,43.67488],[-79.5124,43.67376],[-79.51127,43.66859],[-79.51156,43.66774],[-79.51305,43.66663],[-79.51319,43.66577],[-79.51282,43.66394],[-79.5122,43.66261],[-79.51096,43.66205],[-79.50973,43.66207],[-79.50654,43.66307],[-79.50556,43.66278],[-79.51729,43.65793],[-79.52055,43.6501],[-79.52243,43.64824],[-79.52544,43.65051],[-79.52683,43.65107],[-79.52975,43.65111],[-79.53084,43.65075],[-79.53103,43.65011],[-79.53211,43.65019],[-79.53267,43.65216],[-79.53697,43.65256],[-79.53754,43.65294],[-79.53718,43.65418],[-79.53789,43.65496],[-79.5386,43.65523],[-79.54005,43.65494],[-79.54021,43.65448],[-79.53972,43.65368],[-79.54047,43.65355],[-79.53535,43.64179],[-79.55962,43.63635],[-79.55681,43.62866],[-79.56364,43.62705],[-79.56387,43.62785],[-79.56429,43.62815],[-79.56703,43.62819],[-79.56851,43.62666],[-79.57004,43.62695],[-79.57501,43.62553],[-79.577,43.62633],[-79.57969,43.6269],[-79.58096,43.62775],[-79.58517,43.62872],[-79.58602,43.62965],[-79.58513,43.63137],[-79.58537,43.6332],[-79.58579,43.63381],[-79.58553,43.63489],[-79.58594,43.63551],[-79.58532,43.63745],[-79.58683,43.63917],[-79.58738,43.64061],[-79.58821,43.64133],[-79.58814,43.64203],[-79.58857,43.64268],[-79.59238,43.64471],[-79.59545,43.64327],[-79.59669,43.64304],[-79.59853,43.64315],[-79.59918,43.6437],[-79.60193,43.64412],[-79.60279,43.64469],[-79.60498,43.64445],[-79.60566,43.6449],[-79.60713,43.64461],[-79.60879,43.64645],[-79.58882,43.66461],[-79.59114,43.66856],[-79.58432,43.67105],[-79.58186,43.67225],[-79.56863,43.67408],[-79.5632,43.67454],[-79.57068,43.69149],[-79.52597,43.7016],[-79.52135,43.70014],[-79.52075,43.69868],[-79.51976,43.69784],[-79.51842,43.6972],[-79.51674,43.69692]]]]}},{"type":"Feature","properties":{"name":"Mississauga East—Cooksville"},"geometry":{"type":"MultiPolygon","coordinates":[[[[-79.60713,43.64461],[-79.60566,43.6449],[-79.60498,43.64445],[-79.60279,43.64469],[-79.60193,43.64412],[-79.59918,43.6437],[-79.59853,43.64315],[-79.59669,43.64304],[-79.59545,43.64327],[-79.59238,43.64471],[-79.58857,43.64268],[-79.58814,43.64203],[-79.58821,43.64133],[-79.58738,43.64061],[-79.58683,43.63917],[-79.58532,43.63745],[-79.58594,43.63551],[-79.58553,43.63489],[-79.58579,43.63381],[-79.58537,43.6332],[-79.58513,43.63137],[-79.58602,43.62965],[-79.58517,43.62872],[-79.58096,43.62775],[-79.57969,43.6269],[-79.577,43.62633],[-79.57501,43.62553],[-79.57004,43.62695],[-79.56851,43.62666],[-79.56703,43.62819],[-79.56463,43.62824],[-79.56387,43.62785],[-79.56342,43.62668],[-79.56354,43.62501],[-79.56429,43.62442],[-79.56507,43.62459],[-79.56553,43.62425],[-79.56593,43.62277],[-79.56558,43.62155],[-79.56663,43.62107],[-79.56681,43.62052],[-79.56683,43.61904],[-79.56639,43.61831],[-79.56782,43.61667],[-79.56835,43.61439],[-79.56665,43.61345],[-79.5646,43.61336],[-79.56393,43.61254],[-79.56713,43.61072],[-79.56726,43.60967],[-79.56891,43.60858],[-79.57005,43.60711],[-79.57676,43.60132],[-79.5791,43.59985],[-79.59368,43.58725],[-79.59503,43.58511],[-79.59608,43.5841],[-79.62258,43.56089],[-79.62481,43.56238],[-79.62995,43.56392],[-79.646,43.57512],[-79.63893,43.58059],[-79.638,43.58199],[-79.63083,43.58727],[-79.62912,43.5893],[-79.6219,43.59374],[-79.62097,43.59545],[-79.62108,43.59703],[-79.62224,43.5983],[-79.62944,43.60354],[-79.63237,43.605],[-79.63677,43.608],[-79.63236,43.61274],[-79.63178,43.61558],[-79.6321,43.61698],[-79.63368,43.61947],[-79.63634,43.62166],[-79.60945,43.64595],[-79.60879,43.64645],[-79.60713,43.64461]]]]}},{"type":"Feature","properties":{"name":"Mississauga Centre"},"geometry":{"type":"MultiPolygon","coordinates":[[[[-79.62499,43.60032],[-79.62183,43.59796],[-79.62108,43.59703],[-79.62097,43.59545],[-79.62149,43.59421],[-79.62912,43.5893],[-79.63083,43.58727],[-79.638,43.58199],[-79.63893,43.58059],[-79.646,43.57512],[-79.63292,43.566],[-79.6485,43.55231],[-79.65055,43.54786],[-79.65407,43.54522],[-79.65808,43.54323],[-79.65845,43.54394],[-79.65806,43.54498],[-79.65557,43.54754],[-79.65501,43.54877],[-79.65535,43.54962],[-79.65718,43.55107],[-79.65775,43.5519],[-79.66142,43.55329],[-79.66408,43.55603],[-79.66756,43.55569],[-79.6688,43.55748],[-79.67037,43.55903],[-79.67109,43.55932],[-79.67181,43.56036],[-79.67308,43.56094],[-79.67386,43.56192],[-79.67754,43.56172],[-79.67968,43.56281],[-79.6836,43.56149],[-79.68494,43.56331],[-79.68466,43.56394],[-79.68299,43.56473],[-79.68304,43.56524],[-79.6837,43.56572],[-79.68801,43.56693],[-79.69045,43.56658],[-79.69098,43.56741],[-79.69084,43.5686],[-79.69355,43.57057],[-79.6879,43.57517],[-79.68521,43.57787],[-79.69723,43.58676],[-79.69388,43.58926],[-79.69084,43.59033],[-79.68092,43.59895],[-79.67935,43.59963],[-79.67528,43.60038],[-79.67351,43.60117],[-79.67021,43.60408],[-79.66953,43.60594],[-79.66782,43.60572],[-79.66541,43.60458],[-79.66083,43.60457],[-79.65773,43.60251],[-79.65292,43.60677],[-79.64452,43.60078],[-79.63677,43.608],[-79.63237,43.605],[-79.62944,43.60354],[-79.62499,43.60032]]]]}},{"type":"Feature","properties":{"name":"Mississauga—Lakeshore"},"geometry":{"type":"MultiPolygon","coordinates":[[[[-79.56672,43.60883],[-79.56481,43.60834],[-79.56475,43.60795],[-79.56536,43.60726],[-79.56518,43.6071],[-79.5628,43.60682],[-79.56064,43.60579],[-79.56052,43.6054],[-79.55901,43.60449],[-79.55894,43.60395],[-79.55668,43.60283],[-79.55613,43.60217],[-79.5558,43.59971],[-79.5542,43.59905],[-79.55373,43.59848],[-79.55378,43.59586],[-79.55279,43.59545],[-79.54923,43.59538],[-79.54883,43.5951],[-79.54858,43.5942],[-79.54953,43.59235],[-79.54951,43.5908],[-79.54647,43.58883],[-79.54785,43.58731],[-79.54446,43.58545],[-79.54387,43.58139],[-79.52296,43.56034],[-79.54001,43.54506],[-79.54119,43.54365],[-79.61616,43.47491],[-79.68167,43.52276],[-79.66007,43.5422],[-79.65407,43.54522],[-79.65055,43.54786],[-79.6485,43.55231],[-79.63292,43.566],[-79.62995,43.56392],[-79.62481,43.56238],[-79.62258,43.56089],[-79.59608,43.5841],[-79.59503,43.58511],[-79.59368,43.58725],[-79.5791,43.59985],[-79.57676,43.60132],[-79.57005,43.60711],[-79.56839,43.60902],[-79.56726,43.60967],[-79.56672,43.60883]]]]}},{"type":"Feature","properties":{"name":"York Centre"},"geometry":{"type":"MultiPolygon","coordinates":[[[[-79.43997,43.76155],[-79.43898,43.76151],[-79.43845,43.76085],[-79.43773,43.76058],[-79.43769,43.76004],[-79.43808,43.75957],[-79.43793,43.75912],[-79.43541,43.75907],[-79.43482,43.7584],[-79.43367,43.75815],[-79.43365,43.75749],[-79.43324,43.75723],[-79.43017,43.75745],[-79.42835,43.7553],[-79.42818,43.75423],[-79.42374,43.75169],[-79.42247,43.74972],[-79.42039,43.7493],[-79.41928,43.74971],[-79.41776,43.74975],[-79.41617,43.75056],[-79.41587,43.75148],[-79.41514,43.75196],[-79.41423,43.75156],[-79.4114,43.75168],[-79.41474,43.74946],[-79.41765,43.74623],[-79.41985,43.74464],[-79.43699,43.73421],[-79.4423,43.73151],[-79.47091,43.72526],[-79.49068,43.72043],[-79.50196,43.71842],[-79.50782,43.71775],[-79.51321,43.73938],[-79.51037,43.73952],[-79.49693,43.74253],[-79.49736,43.74294],[-79.49734,43.74358],[-79.49793,43.74359],[-79.49765,43.74388],[-79.49789,43.74409],[-79.49778,43.74581],[-79.50161,43.74705],[-79.50466,43.74916],[-79.49753,43.75053],[-79.49458,43.75233],[-79.49206,43.75297],[-79.49088,43.75285],[-79.48946,43.75182],[-79.48816,43.75202],[-79.49449,43.77774],[-79.49415,43.78015],[-79.4944,43.78156],[-79.47008,43.78728],[-79.44574,43.7924],[-79.44537,43.79082],[-79.44659,43.78895],[-79.44662,43.78811],[-79.43997,43.76155]]]]}},{"type":"Feature","properties":{"name":"Markham—Thornhill"},"geometry":{"type":"MultiPolygon","coordinates":[[[[-79.25165,43.8652],[-79.24983,43.86479],[-79.24882,43.86384],[-79.24634,43.86395],[-79.24574,43.86367],[-79.24556,43.86124],[-79.24462,43.86019],[-79.24289,43.8593],[-79.24135,43.85908],[-79.24015,43.8596],[-79.23821,43.8592],[-79.23515,43.85989],[-79.23458,43.85903],[-79.23182,43.8578],[-79.23205,43.8557],[-79.23277,43.85484],[-79.23386,43.85455],[-79.23492,43.85307],[-79.23499,43.85238],[-79.23542,43.85193],[-79.23557,43.85023],[-79.23247,43.85051],[-79.23106,43.84982],[-79.23099,43.84702],[-79.23143,43.84522],[-79.23126,43.84487],[-79.22896,43.84386],[-79.22773,43.8421],[-79.35513,43.81242],[-79.39442,43.80365],[-79.39622,43.80326],[-79.39777,43.80505],[-79.40603,43.83834],[-79.39251,43.83694],[-79.38322,43.83708],[-79.3412,43.84329],[-79.3248,43.84651],[-79.28251,43.85626],[-79.27169,43.85831],[-79.26624,43.85992],[-79.25188,43.86566],[-79.25165,43.8652]]]]}},{"type":"Feature","properties":{"name":"Willowdale"},"geometry":{"type":"MultiPolygon","coordinates":[[[[-79.39816,43.75998],[-79.4114,43.75168],[-79.41423,43.75156],[-79.41514,43.75196],[-79.41587,43.75148],[-79.41617,43.75056],[-79.41701,43.75006],[-79.42039,43.7493],[-79.42263,43.7498],[-79.42275,43.7504],[-79.42374,43.75169],[-79.42818,43.75423],[-79.42835,43.7553],[-79.43038,43.75757],[-79.43324,43.75723],[-79.43365,43.75749],[-79.43367,43.75815],[-79.43482,43.7584],[-79.43541,43.75907],[-79.43793,43.75912],[-79.43808,43.75957],[-79.43769,43.76004],[-79.43773,43.76058],[-79.43845,43.76085],[-79.43898,43.76151],[-79.43997,43.76154],[-79.44662,43.78811],[-79.44659,43.78895],[-79.44537,43.79082],[-79.44574,43.7924],[-79.39622,43.80326],[-79.38804,43.76658],[-79.38705,43.76332],[-79.39391,43.76175],[-79.39816,43.75998]]]]}},{"type":"Feature","properties":{"name":"Don Valley East"},"geometry":{"type":"MultiPolygon","coordinates":[[[[-79.31993,43.71516],[-79.32007,43.71478],[-79.32096,43.71445],[-79.32027,43.71375],[-79.32166,43.71242],[-79.31945,43.71258],[-79.31862,43.71157],[-79.31881,43.71103],[-79.32064,43.71038],[-79.32269,43.71033],[-79.32436,43.70983],[-79.32576,43.70821],[-79.32795,43.70807],[-79.33005,43.70645],[-79.33207,43.70598],[-79.33285,43.70524],[-79.33304,43.70342],[-79.33413,43.703],[-79.33467,43.70312],[-79.33391,43.70532],[-79.33369,43.70757],[-79.33448,43.70998],[-79.33788,43.70888],[-79.3385,43.7098],[-79.33945,43.71024],[-79.33944,43.71072],[-79.3402,43.71133],[-79.34026,43.71186],[-79.3395,43.7126],[-79.33985,43.71307],[-79.34141,43.71274],[-79.34285,43.71342],[-79.34502,43.71528],[-79.34681,43.71525],[-79.34706,43.71613],[-79.34866,43.71637],[-79.35015,43.71579],[-79.35243,43.71583],[-79.35267,43.71621],[-79.35001,43.71718],[-79.3504,43.71865],[-79.34886,43.72317],[-79.34892,43.7246],[-79.34975,43.726],[-79.3546,43.73063],[-79.35534,43.73196],[-79.36166,43.7602],[-79.36209,43.76488],[-79.36297,43.76633],[-79.32887,43.76822],[-79.3197,43.76836],[-79.31523,43.75786],[-79.30933,43.74091],[-79.30062,43.7198],[-79.32002,43.71555],[-79.31993,43.71516]]]]}},{"type":"Feature","properties":{"name":"Scarborough—Guildwood"},"geometry":{"type":"MultiPolygon","coordinates":[[[[-79.18094,43.75584],[-79.17859,43.75048],[-79.1894,43.74463],[-79.21218,43.72725],[-79.2189,43.74317],[-79.22876,43.74103],[-79.23521,43.75643],[-79.23526,43.75771],[-79.24541,43.75554],[-79.24562,43.75686],[-79.25488,43.78124],[-79.24045,43.78419],[-79.23186,43.78663],[-79.22684,43.78855],[-79.22054,43.79201],[-79.21596,43.79361],[-79.19691,43.79652],[-79.19604,43.7933],[-79.19376,43.78787],[-79.1935,43.78564],[-79.1869,43.77071],[-79.186,43.76741],[-79.18094,43.75584]]]]}},{"type":"Feature","properties":{"name":"Scarborough Southwest"},"geometry":{"type":"MultiPolygon","coordinates":[[[[-79.24543,43.69132],[-79.25447,43.68694],[-79.26693,43.67884],[-79.27845,43.67038],[-79.28189,43.67833],[-79.28315,43.67863],[-79.29054,43.69673],[-79.29593,43.70866],[-79.30264,43.72479],[-79.2712,43.73143],[-79.25827,43.73456],[-79.2189,43.74317],[-79.21218,43.72725],[-79.21377,43.72597],[-79.21852,43.72101],[-79.22158,43.7102],[-79.23268,43.69984],[-79.24543,43.69132]]]]}},{"type":"Feature","properties":{"name":"Scarborough Centre"},"geometry":{"type":"MultiPolygon","coordinates":[[[[-79.24542,43.75561],[-79.23526,43.75771],[-79.23521,43.75643],[-79.22876,43.74103],[-79.2712,43.73143],[-79.30264,43.72479],[-79.30933,43.74091],[-79.31523,43.75786],[-79.3197,43.76836],[-79.31467,43.76843],[-79.31084,43.76892],[-79.27369,43.77754],[-79.25488,43.78124],[-79.25215,43.77456],[-79.25075,43.77004],[-79.24562,43.75686],[-79.24542,43.75561]]]]}},{"type":"Feature","properties":{"name":"Don Valley West"},"geometry":{"type":"MultiPolygon","coordinates":[[[[-79.35235,43.71575],[-79.35015,43.71579],[-79.34866,43.71637],[-79.34706,43.71613],[-79.34681,43.71525],[-79.34502,43.71528],[-79.34285,43.71342],[-79.34141,43.71274],[-79.33985,43.71307],[-79.3395,43.7126],[-79.34026,43.71186],[-79.3402,43.71133],[-79.33944,43.71072],[-79.33945,43.71024],[-79.3385,43.7098],[-79.33788,43.70888],[-79.33448,43.70998],[-79.33383,43.7085],[-79.33368,43.70705],[-79.33415,43.70429],[-79.33467,43.70312],[-79.33637,43.70292],[-79.33922,43.70123],[-79.34148,43.69943],[-79.34308,43.69904],[-79.34421,43.69831],[-79.34592,43.69853],[-79.34826,43.69992],[-79.34976,43.69996],[-79.35041,43.69974],[-79.35148,43.69872],[-79.3546,43.69831],[-79.35592,43.69716],[-79.35672,43.69554],[-79.35773,43.69528],[-79.3589,43.69559],[-79.35984,43.69539],[-79.3618,43.69417],[-79.3613,43.69292],[-79.36018,43.69221],[-79.3599,43.6915],[-79.36182,43.68863],[-79.36288,43.68881],[-79.36357,43.68791],[-79.36366,43.6892],[-79.3623,43.69068],[-79.36193,43.69174],[-79.36256,43.69299],[-79.36373,43.69356],[-79.36681,43.69444],[-79.37087,43.69065],[-79.37483,43.69274],[-79.37661,43.69314],[-79.38137,43.69508],[-79.38187,43.69467],[-79.38483,43.69402],[-79.38647,43.69817],[-79.38702,43.7005],[-79.39121,43.71112],[-79.39899,43.70958],[-79.40218,43.7251],[-79.4081,43.74979],[-79.40838,43.7536],[-79.39813,43.76],[-79.39284,43.76206],[-79.37553,43.76557],[-79.36297,43.76633],[-79.36209,43.76488],[-79.36166,43.7602],[-79.35534,43.73196],[-79.3546,43.73063],[-79.34975,43.726],[-79.34892,43.7246],[-79.34886,43.72317],[-79.3504,43.71865],[-79.35001,43.71718],[-79.35267,43.71621],[-79.35235,43.71575]]]]}},{"type":"Feature","properties":{"name":"Eglinton—Lawrence"},"geometry":{"type":"MultiPolygon","coordinates":[[[[-79.46445,43.69221],[-79.46553,43.69406],[-79.46869,43.70536],[-79.47252,43.72487],[-79.4437,43.73111],[-79.44065,43.73215],[-79.42666,43.7403],[-79.41881,43.74532],[-79.41474,43.74946],[-79.40838,43.7536],[-79.4081,43.74979],[-79.40218,43.7251],[-79.39836,43.70673],[-79.44733,43.69636],[-79.4628,43.69289],[-79.46445,43.69221]]]]}},{"type":"Feature","properties":{"name":"Toronto—St. Paul's"},"geometry":{"type":"MultiPolygon","coordinates":[[[[-79.38912,43.69312],[-79.38874,43.69268],[-79.38907,43.69252],[-79.38873,43.69172],[-79.39092,43.6913],[-79.39077,43.69096],[-79.39011,43.6906],[-79.38971,43.6897],[-79.38644,43.68772],[-79.39079,43.68677],[-79.3903,43.68558],[-79.39284,43.68502],[-79.3912,43.68112],[-79.40137,43.67679],[-79.42942,43.67103],[-79.43098,43.67471],[-79.43022,43.67473],[-79.4303,43.67496],[-79.4338,43.68302],[-79.43325,43.68329],[-79.43463,43.68709],[-79.43824,43.68636],[-79.43868,43.68713],[-79.4461,43.68556],[-79.45027,43.69569],[-79.39836,43.70673],[-79.39899,43.70958],[-79.39121,43.71112],[-79.38702,43.7005],[-79.38647,43.69817],[-79.38483,43.69402],[-79.38912,43.69312]]]]}},{"type":"Feature","properties":{"name":"King—Vaughan"},"geometry":{"type":"MultiPolygon","coordinates":[[[[-79.50471,44.04273],[-79.50217,44.03165],[-79.50118,44.02294],[-79.49827,44.012],[-79.48909,43.97103],[-79.48539,43.9569],[-79.48263,43.94394],[-79.47862,43.92769],[-79.47751,43.92335],[-79.47532,43.917],[-79.4691,43.89189],[-79.46557,43.87663],[-79.46326,43.86815],[-79.45866,43.84772],[-79.49953,43.83928],[-79.50599,43.8369],[-79.529,43.83191],[-79.53503,43.83013],[-79.54629,43.82787],[-79.5477,43.84275],[-79.5485,43.84691],[-79.55378,43.8456],[-79.56103,43.84477],[-79.5863,43.83968],[-79.59138,43.83814],[-79.61674,43.83268],[-79.61959,43.83155],[-79.62044,43.83191],[-79.6315,43.82953],[-79.63352,43.82988],[-79.63516,43.8292],[-79.6369,43.82794],[-79.63854,43.82736],[-79.65957,43.8227],[-79.65975,43.82344],[-79.6786,43.81932],[-79.69576,43.8487],[-79.69491,43.84929],[-79.69495,43.85004],[-79.69763,43.8519],[-79.70463,43.86366],[-79.75247,43.94955],[-79.77549,43.98976],[-79.70211,44.00574],[-79.64372,44.0189],[-79.62939,44.02159],[-79.6044,44.02699],[-79.53571,44.04261],[-79.53185,44.04341],[-79.52857,44.04325],[-79.52222,44.04427],[-79.51908,44.04519],[-79.51481,44.04724],[-79.50622,44.04919],[-79.50471,44.04273]]]]}},{"type":"Feature","properties":{"name":"Richmond Hill"},"geometry":{"type":"MultiPolygon","coordinates":[[[[-79.4192,43.8912],[-79.41867,43.89119],[-79.41845,43.89084],[-79.41613,43.89115],[-79.41184,43.88919],[-79.4083,43.88915],[-79.4069,43.88583],[-79.40316,43.88412],[-79.40177,43.88189],[-79.40047,43.87828],[-79.37959,43.8833],[-79.37154,43.85038],[-79.36812,43.83922],[-79.38066,43.83732],[-79.39118,43.8369],[-79.40603,43.83834],[-79.40635,43.83957],[-79.45449,43.82926],[-79.46326,43.86815],[-79.46735,43.88411],[-79.42249,43.89372],[-79.41978,43.89359],[-79.4192,43.8912]]]]}},{"type":"Feature","properties":{"name":"Brampton East"},"geometry":{"type":"MultiPolygon","coordinates":[[[[-79.64533,43.76155],[-79.6431,43.75767],[-79.64086,43.75173],[-79.6378,43.74844],[-79.63029,43.73531],[-79.63219,43.73487],[-79.63385,43.73339],[-79.63526,43.73399],[-79.63938,43.73703],[-79.67151,43.7083],[-79.67966,43.71441],[-79.68374,43.71704],[-79.74855,43.7652],[-79.7516,43.76264],[-79.75517,43.75613],[-79.75731,43.75414],[-79.78184,43.77219],[-79.77813,43.77558],[-79.7756,43.77898],[-79.77392,43.78059],[-79.7602,43.79123],[-79.75809,43.79244],[-79.69824,43.84558],[-79.69701,43.84784],[-79.69576,43.8487],[-79.65867,43.785],[-79.64533,43.76155]]]]}},{"type":"Feature","properties":{"name":"Toronto—Danforth"},"geometry":{"type":"MultiPolygon","coordinates":[[[[-79.33198,43.70292],[-79.3315,43.70167],[-79.32745,43.70145],[-79.3267,43.70166],[-79.32958,43.69826],[-79.32954,43.69794],[-79.31488,43.66233],[-79.31528,43.66188],[-79.31538,43.66085],[-79.31239,43.65823],[-79.31316,43.65726],[-79.31421,43.64831],[-79.31694,43.61472],[-79.34374,43.61081],[-79.34647,43.61071],[-79.34761,43.62568],[-79.34915,43.63162],[-79.35957,43.64539],[-79.34727,43.65068],[-79.34958,43.65365],[-79.35428,43.65789],[-79.35749,43.66867],[-79.35938,43.67017],[-79.36044,43.67196],[-79.36301,43.67343],[-79.36295,43.67516],[-79.36487,43.6768],[-79.36362,43.67784],[-79.36368,43.67878],[-79.36582,43.68047],[-79.36642,43.68131],[-79.36486,43.68265],[-79.36322,43.68328],[-79.36166,43.68511],[-79.36161,43.68565],[-79.3626,43.68812],[-79.36128,43.68928],[-79.3599,43.6915],[-79.35984,43.69186],[-79.3613,43.69292],[-79.36187,43.69381],[-79.3618,43.69417],[-79.36071,43.69493],[-79.3589,43.69559],[-79.35773,43.69528],[-79.35672,43.69554],[-79.35592,43.69716],[-79.35487,43.69815],[-79.35148,43.69872],[-79.35015,43.69987],[-79.34826,43.69992],[-79.34592,43.69853],[-79.34421,43.69831],[-79.34308,43.69904],[-79.34148,43.69943],[-79.33922,43.70123],[-79.33589,43.70313],[-79.33389,43.703],[-79.33304,43.70342],[-79.33198,43.70292]]]]}},{"type":"Feature","properties":{"name":"Etobicoke—Lakeshore"},"geometry":{"type":"MultiPolygon","coordinates":[[[[-79.5,43.65222],[-79.49765,43.652],[-79.49236,43.65223],[-79.49156,43.65168],[-79.49074,43.64998],[-79.49276,43.64734],[-79.49262,43.64577],[-79.49053,43.64344],[-79.48991,43.64163],[-79.48873,43.6414],[-79.48526,43.64222],[-79.48496,43.64192],[-79.48509,43.6394],[-79.4847,43.6384],[-79.48281,43.63808],[-79.47898,43.63832],[-79.47734,43.6379],[-79.47509,43.63401],[-79.47253,43.63254],[-79.46968,43.63153],[-79.46376,43.62367],[-79.47692,43.6084],[-79.49348,43.59279],[-79.50809,43.57526],[-79.51929,43.56331],[-79.52296,43.56034],[-79.54387,43.58139],[-79.54446,43.58545],[-79.54785,43.58731],[-79.54647,43.58883],[-79.54951,43.5908],[-79.54953,43.59235],[-79.54858,43.5942],[-79.54883,43.5951],[-79.54923,43.59538],[-79.55279,43.59545],[-79.55378,43.59586],[-79.55373,43.59848],[-79.5542,43.59905],[-79.5558,43.59971],[-79.55613,43.60217],[-79.55668,43.60283],[-79.55894,43.60395],[-79.55901,43.60449],[-79.56052,43.6054],[-79.56064,43.60579],[-79.5628,43.60682],[-79.56518,43.6071],[-79.56536,43.60726],[-79.56475,43.60795],[-79.56481,43.60834],[-79.56554,43.60869],[-79.56633,43.60858],[-79.56616,43.60878],[-79.56708,43.60904],[-79.56713,43.61072],[-79.56393,43.61254],[-79.56469,43.6134],[-79.56665,43.61345],[-79.56827,43.61425],[-79.56782,43.61667],[-79.56639,43.61831],[-79.56683,43.61904],[-79.56681,43.62052],[-79.56663,43.62107],[-79.56558,43.62155],[-79.56593,43.62277],[-79.56549,43.62432],[-79.56507,43.62459],[-79.56429,43.62442],[-79.56354,43.62501],[-79.56342,43.62668],[-79.56364,43.62705],[-79.55681,43.62866],[-79.55962,43.63635],[-79.53535,43.64179],[-79.54047,43.65355],[-79.53972,43.65368],[-79.54021,43.65448],[-79.54005,43.65494],[-79.5386,43.65523],[-79.53789,43.65496],[-79.53718,43.65418],[-79.53754,43.65294],[-79.53697,43.65256],[-79.53267,43.65216],[-79.53211,43.65019],[-79.53103,43.65011],[-79.53084,43.65075],[-79.52975,43.65111],[-79.52683,43.65107],[-79.52544,43.65051],[-79.52243,43.64824],[-79.52055,43.6501],[-79.51729,43.65793],[-79.50556,43.66278],[-79.49952,43.659],[-79.49948,43.65782],[-79.50218,43.65552],[-79.50275,43.65477],[-79.50294,43.65356],[-79.50252,43.65289],[-79.50148,43.6524],[-79.5,43.65222]]]]}},{"type":"Feature","properties":{"name":"Parkdale—High Park"},"geometry":{"type":"MultiPolygon","coordinates":[[[[-79.45392,43.66107],[-79.44444,43.6514],[-79.44113,43.64866],[-79.4383,43.64705],[-79.42808,43.64233],[-79.42864,43.6422],[-79.42541,43.63387],[-79.42866,43.63292],[-79.42487,43.62478],[-79.45459,43.62814],[-79.46071,43.62681],[-79.46376,43.62367],[-79.46968,43.63153],[-79.47253,43.63254],[-79.47509,43.63401],[-79.47734,43.6379],[-79.47898,43.63832],[-79.48281,43.63808],[-79.4847,43.6384],[-79.48509,43.6394],[-79.48496,43.64192],[-79.48526,43.64222],[-79.48873,43.6414],[-79.48991,43.64163],[-79.49053,43.64344],[-79.49262,43.64577],[-79.49276,43.64734],[-79.49074,43.64998],[-79.49156,43.65168],[-79.49236,43.65223],[-79.49765,43.652],[-79.50148,43.6524],[-79.50252,43.65289],[-79.50294,43.65356],[-79.50275,43.65477],[-79.49948,43.65782],[-79.49952,43.659],[-79.50576,43.66287],[-79.50729,43.66296],[-79.51048,43.66201],[-79.5122,43.66261],[-79.50936,43.66462],[-79.50617,43.6654],[-79.47351,43.66736],[-79.46,43.66724],[-79.45392,43.66107]]]]}},{"type":"Feature","properties":{"name":"University—Rosedale"},"geometry":{"type":"MultiPolygon","coordinates":[[[[-79.36265,43.69031],[-79.36359,43.68934],[-79.36375,43.68842],[-79.36357,43.68791],[-79.36288,43.68881],[-79.3622,43.68853],[-79.36259,43.68771],[-79.36161,43.68565],[-79.36166,43.68511],[-79.36322,43.68328],[-79.36486,43.68265],[-79.36642,43.68131],[-79.36582,43.68047],[-79.36368,43.67878],[-79.36362,43.67784],[-79.36487,43.6768],[-79.36295,43.67516],[-79.36301,43.67343],[-79.36044,43.67196],[-79.35962,43.67049],[-79.3611,43.67003],[-79.36585,43.67164],[-79.3682,43.67182],[-79.36991,43.6726],[-79.37715,43.6732],[-79.37684,43.67235],[-79.37945,43.67181],[-79.37938,43.67114],[-79.37989,43.66997],[-79.38886,43.66819],[-79.38584,43.66081],[-79.38309,43.66137],[-79.38091,43.65632],[-79.40374,43.65174],[-79.40558,43.65237],[-79.42076,43.64933],[-79.42942,43.67103],[-79.40137,43.67679],[-79.3912,43.68112],[-79.39284,43.68502],[-79.3903,43.68558],[-79.39079,43.68677],[-79.38644,43.68772],[-79.38971,43.6897],[-79.39011,43.6906],[-79.39077,43.69096],[-79.39092,43.6913],[-79.38873,43.69172],[-79.38907,43.69252],[-79.38874,43.69268],[-79.38912,43.69312],[-79.38187,43.69467],[-79.38137,43.69508],[-79.37661,43.69314],[-79.37483,43.69274],[-79.37087,43.69065],[-79.36681,43.69444],[-79.36256,43.69299],[-79.3621,43.69243],[-79.36194,43.69137],[-79.36265,43.69031]]]]}},{"type":"Feature","properties":{"name":"Toronto Centre"},"geometry":{"type":"MultiPolygon","coordinates":[[[[-79.37554,43.67309],[-79.36991,43.6726],[-79.3682,43.67182],[-79.36585,43.67164],[-79.36125,43.67005],[-79.36047,43.67002],[-79.35962,43.67049],[-79.3579,43.6692],[-79.35734,43.66833],[-79.35428,43.65789],[-79.35035,43.65433],[-79.35475,43.65193],[-79.37173,43.64803],[-79.37649,43.64578],[-79.37696,43.64687],[-79.37912,43.64598],[-79.38154,43.65169],[-79.38232,43.65215],[-79.38375,43.65571],[-79.38091,43.65632],[-79.38135,43.65741],[-79.38309,43.66137],[-79.38584,43.66081],[-79.38886,43.66819],[-79.37989,43.66997],[-79.37938,43.67114],[-79.37945,43.67181],[-79.37684,43.67235],[-79.37715,43.6732],[-79.37554,43.67309]]]]}},{"type":"Feature","properties":{"name":"Markham—Stouffville"},"geometry":{"type":"MultiPolygon","coordinates":[[[[-79.21155,43.94699],[-79.19844,43.91774],[-79.18228,43.88317],[-79.17027,43.85545],[-79.20448,43.84725],[-79.22773,43.8421],[-79.22896,43.84386],[-79.23126,43.84487],[-79.23143,43.84522],[-79.23099,43.84702],[-79.23106,43.84982],[-79.23247,43.85051],[-79.23557,43.85023],[-79.23542,43.85193],[-79.23499,43.85238],[-79.23492,43.85307],[-79.23386,43.85455],[-79.23277,43.85484],[-79.23205,43.8557],[-79.23182,43.8578],[-79.23458,43.85903],[-79.23515,43.85989],[-79.23821,43.8592],[-79.24015,43.8596],[-79.24135,43.85908],[-79.24289,43.8593],[-79.24462,43.86019],[-79.24556,43.86124],[-79.24574,43.86367],[-79.24634,43.86395],[-79.24882,43.86384],[-79.24983,43.86479],[-79.25122,43.86497],[-79.25188,43.86566],[-79.26903,43.859],[-79.2818,43.8564],[-79.2889,43.88522],[-79.28627,43.88617],[-79.26748,43.89055],[-79.26405,43.89198],[-79.2741,43.9348],[-79.27784,43.94414],[-79.27812,43.9495],[-79.30288,43.94381],[-79.30276,43.9433],[-79.3532,43.93195],[-79.35304,43.9313],[-79.38963,43.92303],[-79.39027,43.92669],[-79.39028,43.92883],[-79.38927,43.93603],[-79.38931,43.93884],[-79.39181,43.94942],[-79.39263,43.95583],[-79.39306,43.9677],[-79.39281,43.97196],[-79.3923,43.97368],[-79.39237,43.97536],[-79.39277,43.97833],[-79.39456,43.9858],[-79.39576,43.99441],[-79.39655,43.99677],[-79.3976,43.99852],[-79.40303,44.00403],[-79.40425,44.00578],[-79.40508,44.00765],[-79.40996,44.0306],[-79.41639,44.05006],[-79.42024,44.06843],[-79.27617,44.10127],[-79.22476,43.98316],[-79.22106,43.97417],[-79.21445,43.95347],[-79.21155,43.94699]]]]}},{"type":"Feature","properties":{"name":"Etobicoke North"},"geometry":{"type":"MultiPolygon","coordinates":[[[[-79.57957,43.76242],[-79.57748,43.76227],[-79.57933,43.76082],[-79.58077,43.76016],[-79.58055,43.75919],[-79.58111,43.75876],[-79.58252,43.75854],[-79.58344,43.75884],[-79.58392,43.7586],[-79.58372,43.75751],[-79.58511,43.75702],[-79.58504,43.75612],[-79.58416,43.75524],[-79.58428,43.75444],[-79.58305,43.75374],[-79.58318,43.75291],[-79.58295,43.75255],[-79.58015,43.75171],[-79.57783,43.75033],[-79.57313,43.75026],[-79.57306,43.74884],[-79.57243,43.74874],[-79.57109,43.74918],[-79.57205,43.74787],[-79.57333,43.74794],[-79.57336,43.74734],[-79.57278,43.74695],[-79.56441,43.74548],[-79.56216,43.7442],[-79.56246,43.743],[-79.56205,43.7428],[-79.56003,43.74245],[-79.5592,43.74307],[-79.55832,43.74272],[-79.55817,43.74112],[-79.55775,43.74101],[-79.55684,43.74148],[-79.55703,43.74235],[-79.55628,43.74315],[-79.55294,43.74351],[-79.55119,43.74422],[-79.55008,43.74383],[-79.54988,43.74348],[-79.55043,43.74248],[-79.54929,43.74259],[-79.54947,43.74191],[-79.5476,43.7418],[-79.54642,43.74098],[-79.54628,43.74],[-79.54836,43.73907],[-79.54844,43.73837],[-79.54964,43.73805],[-79.55038,43.73686],[-79.55032,43.73609],[-79.54898,43.7359],[-79.5506,43.7349],[-79.55043,43.73357],[-79.548,43.73251],[-79.5469,43.73161],[-79.54596,43.73148],[-79.54481,43.73234],[-79.54414,43.73236],[-79.54395,43.73181],[-79.54484,43.73112],[-79.54483,43.73076],[-79.54367,43.73001],[-79.5414,43.72956],[-79.54049,43.72954],[-79.53963,43.73044],[-79.53928,43.73116],[-79.53944,43.73215],[-79.53875,43.73205],[-79.53851,43.73172],[-79.53884,43.72895],[-79.53827,43.72705],[-79.53937,43.72634],[-79.54109,43.72606],[-79.54143,43.7255],[-79.54074,43.72375],[-79.54065,43.72256],[-79.54122,43.72173],[-79.54247,43.72083],[-79.54415,43.71816],[-79.54397,43.71748],[-79.54293,43.7169],[-79.54141,43.71693],[-79.54093,43.71665],[-79.54061,43.71523],[-79.53803,43.7146],[-79.53788,43.71241],[-79.53908,43.71132],[-79.53946,43.71002],[-79.53853,43.70886],[-79.53567,43.70808],[-79.53549,43.70612],[-79.53593,43.70463],[-79.53135,43.70491],[-79.52949,43.70381],[-79.52863,43.70258],[-79.52597,43.7016],[-79.57068,43.69149],[-79.5632,43.67454],[-79.56863,43.67408],[-79.58186,43.67225],[-79.58432,43.67105],[-79.59114,43.66856],[-79.6378,43.74844],[-79.6393,43.74984],[-79.63645,43.75105],[-79.63111,43.75163],[-79.58054,43.76301],[-79.57957,43.76242]]]]}},{"type":"Feature","properties":{"name":"York South—Weston"},"geometry":{"type":"MultiPolygon","coordinates":[[[[-79.46802,43.70291],[-79.46553,43.69406],[-79.46315,43.68952],[-79.46128,43.68323],[-79.46766,43.68189],[-79.46644,43.6806],[-79.47055,43.67969],[-79.46928,43.67663],[-79.46,43.66724],[-79.47351,43.66736],[-79.50617,43.6654],[-79.50936,43.66462],[-79.5122,43.66261],[-79.51319,43.66577],[-79.51305,43.66663],[-79.51156,43.66774],[-79.51127,43.66859],[-79.5124,43.67376],[-79.5114,43.67488],[-79.50882,43.67643],[-79.5072,43.67923],[-79.50554,43.68051],[-79.50543,43.68138],[-79.50601,43.68234],[-79.50921,43.68256],[-79.51022,43.68386],[-79.51151,43.68729],[-79.51264,43.68874],[-79.51321,43.69097],[-79.51327,43.6926],[-79.51268,43.69351],[-79.5126,43.69544],[-79.51197,43.69598],[-79.51184,43.69678],[-79.51358,43.69726],[-79.51623,43.69688],[-79.51902,43.69741],[-79.52075,43.69868],[-79.52135,43.70014],[-79.52863,43.70258],[-79.52949,43.70381],[-79.53135,43.70491],[-79.53593,43.70463],[-79.53549,43.70612],[-79.53567,43.70808],[-79.53853,43.70886],[-79.53946,43.71002],[-79.53908,43.71132],[-79.53811,43.71205],[-79.53783,43.71299],[-79.52683,43.71553],[-79.49977,43.71879],[-79.49025,43.72052],[-79.47252,43.72487],[-79.46802,43.70291]]]]}},{"type":"Feature","properties":{"name":"Humber River—Black Creek"},"geometry":{"type":"MultiPolygon","coordinates":[[[[-79.48997,43.75932],[-79.48816,43.75202],[-79.48946,43.75182],[-79.49088,43.75285],[-79.49206,43.75297],[-79.49458,43.75233],[-79.49753,43.75053],[-79.50466,43.74916],[-79.50161,43.74705],[-79.49778,43.74581],[-79.49789,43.74409],[-79.49765,43.74388],[-79.49793,43.74359],[-79.49734,43.74358],[-79.49736,43.74294],[-79.49693,43.74253],[-79.51037,43.73952],[-79.51321,43.73938],[-79.50782,43.71775],[-79.52527,43.71582],[-79.53783,43.71299],[-79.53803,43.7146],[-79.54061,43.71523],[-79.54093,43.71665],[-79.54141,43.71693],[-79.54338,43.71704],[-79.54397,43.71748],[-79.54415,43.71816],[-79.54247,43.72083],[-79.54122,43.72173],[-79.54065,43.72256],[-79.54074,43.72375],[-79.54143,43.7255],[-79.54109,43.72606],[-79.53937,43.72634],[-79.53827,43.72705],[-79.53884,43.72895],[-79.53855,43.73191],[-79.53944,43.73215],[-79.53928,43.73116],[-79.53963,43.73044],[-79.54049,43.72954],[-79.5414,43.72956],[-79.54367,43.73001],[-79.54483,43.73076],[-79.54484,43.73112],[-79.54395,43.73181],[-79.54414,43.73236],[-79.54481,43.73234],[-79.54596,43.73148],[-79.5469,43.73161],[-79.548,43.73251],[-79.5505,43.73369],[-79.5506,43.7349],[-79.54898,43.7359],[-79.55032,43.73609],[-79.55038,43.73686],[-79.54964,43.73805],[-79.54844,43.73837],[-79.54836,43.73907],[-79.54628,43.74],[-79.54642,43.74098],[-79.5476,43.7418],[-79.54947,43.74191],[-79.54929,43.74259],[-79.55043,43.74248],[-79.54988,43.74348],[-79.55008,43.74383],[-79.55119,43.74422],[-79.55294,43.74351],[-79.55657,43.74301],[-79.55703,43.74235],[-79.55684,43.74148],[-79.55775,43.74101],[-79.55835,43.74141],[-79.55808,43.74223],[-79.55832,43.74272],[-79.5592,43.74307],[-79.56003,43.74245],[-79.56205,43.7428],[-79.56246,43.743],[-79.56216,43.7442],[-79.56441,43.74548],[-79.57278,43.74695],[-79.57336,43.74734],[-79.57333,43.74794],[-79.57205,43.74787],[-79.57109,43.74918],[-79.57243,43.74874],[-79.57306,43.74884],[-79.57313,43.75026],[-79.57783,43.75033],[-79.58015,43.75171],[-79.58295,43.75255],[-79.58318,43.75291],[-79.58305,43.75374],[-79.58428,43.75444],[-79.58416,43.75524],[-79.58513,43.75648],[-79.58511,43.75702],[-79.58372,43.75751],[-79.58392,43.7586],[-79.58344,43.75884],[-79.58252,43.75854],[-79.58111,43.75876],[-79.58055,43.75919],[-79.58077,43.76016],[-79.57933,43.76082],[-79.57748,43.76227],[-79.57775,43.76248],[-79.57927,43.76226],[-79.58054,43.76301],[-79.56678,43.76617],[-79.52299,43.77508],[-79.4944,43.78156],[-79.49415,43.78015],[-79.49449,43.77774],[-79.48997,43.75932]]]]}},{"type":"Feature","properties":{"name":"Thornhill"},"geometry":{"type":"MultiPolygon","coordinates":[[[[-79.45449,43.82927],[-79.40635,43.83957],[-79.39794,43.80554],[-79.39746,43.80453],[-79.39622,43.80326],[-79.47008,43.78728],[-79.51702,43.77642],[-79.53493,43.77267],[-79.54512,43.81591],[-79.54629,43.82787],[-79.53503,43.83013],[-79.529,43.83191],[-79.50599,43.8369],[-79.49953,43.83928],[-79.45866,43.84772],[-79.45449,43.82927]]]]}},{"type":"Feature","properties":{"name":"Vaughan—Woodbridge"},"geometry":{"type":"MultiPolygon","coordinates":[[[[-79.54645,43.82952],[-79.54512,43.81591],[-79.53493,43.77267],[-79.57104,43.76524],[-79.63171,43.7515],[-79.63645,43.75105],[-79.6393,43.74984],[-79.64103,43.75205],[-79.6431,43.75767],[-79.6786,43.81932],[-79.65975,43.82344],[-79.65957,43.8227],[-79.63854,43.82736],[-79.6369,43.82794],[-79.63516,43.8292],[-79.63352,43.82988],[-79.6315,43.82953],[-79.62044,43.83191],[-79.61959,43.83155],[-79.61674,43.83268],[-79.59138,43.83814],[-79.5863,43.83968],[-79.56103,43.84477],[-79.55378,43.8456],[-79.5485,43.84691],[-79.5477,43.84275],[-79.54645,43.82952]]]]}},{"type":"Feature","properties":{"name":"Spadina—Fort York"},"geometry":{"type":"MultiPolygon","coordinates":[[[[-79.35952,43.64534],[-79.34915,43.63162],[-79.34761,43.62568],[-79.34647,43.61071],[-79.36298,43.61178],[-79.37734,43.61071],[-79.38314,43.60954],[-79.38719,43.60935],[-79.39016,43.60994],[-79.39313,43.61225],[-79.39448,43.61533],[-79.39588,43.61743],[-79.40453,43.62271],[-79.40611,43.62764],[-79.42487,43.62478],[-79.42866,43.63292],[-79.42541,43.63387],[-79.42864,43.6422],[-79.42808,43.64233],[-79.42383,43.64089],[-79.42141,43.64066],[-79.42474,43.64943],[-79.42076,43.64933],[-79.40558,43.65237],[-79.40374,43.65174],[-79.38375,43.65571],[-79.38232,43.65215],[-79.38154,43.65169],[-79.37912,43.64598],[-79.37696,43.64687],[-79.37649,43.64578],[-79.37173,43.64803],[-79.35475,43.65193],[-79.35035,43.65433],[-79.34727,43.65068],[-79.35952,43.64534]]]]}},{"type":"Feature","properties":{"name":"Davenport"},"geometry":{"type":"MultiPolygon","coordinates":[[[[-79.44611,43.68557],[-79.43868,43.68713],[-79.43824,43.68636],[-79.43463,43.68709],[-79.43325,43.68329],[-79.4338,43.68302],[-79.43022,43.67473],[-79.43098,43.67471],[-79.42076,43.64933],[-79.42474,43.64943],[-79.42141,43.64066],[-79.42383,43.64089],[-79.42675,43.64173],[-79.4383,43.64705],[-79.44232,43.64953],[-79.46928,43.67663],[-79.47055,43.67969],[-79.46644,43.6806],[-79.46766,43.68189],[-79.46128,43.68323],[-79.46294,43.68896],[-79.46459,43.69216],[-79.4628,43.69289],[-79.45027,43.69569],[-79.44611,43.68557]]]]}},{"type":"Feature","properties":{"name":"Pickering—Uxbridge"},"geometry":{"type":"MultiPolygon","coordinates":[[[[-79.08813,43.90418],[-79.08792,43.90364],[-79.08704,43.90383],[-79.08265,43.8927],[-79.07799,43.89458],[-79.07522,43.88748],[-79.06977,43.87534],[-79.07836,43.87021],[-79.07778,43.86887],[-79.07814,43.86879],[-79.07126,43.85301],[-79.07067,43.85383],[-79.07022,43.85392],[-79.06996,43.85355],[-79.06954,43.85374],[-79.06947,43.854],[-79.06997,43.85435],[-79.06988,43.85539],[-79.06787,43.85461],[-79.06677,43.85499],[-79.0609,43.84226],[-79.05611,43.84437],[-79.0516,43.84571],[-79.04816,43.83738],[-79.04776,43.83745],[-79.0387,43.81605],[-79.04392,43.81567],[-79.04764,43.81397],[-79.0513,43.81155],[-79.05252,43.81054],[-79.05208,43.80949],[-79.05649,43.80772],[-79.05684,43.80854],[-79.05943,43.80779],[-79.05799,43.80439],[-79.06098,43.80231],[-79.06862,43.80553],[-79.0711,43.80245],[-79.07797,43.80536],[-79.0755,43.80843],[-79.07687,43.81165],[-79.08025,43.81233],[-79.07898,43.80946],[-79.08448,43.81009],[-79.08626,43.80993],[-79.08705,43.81259],[-79.08811,43.81246],[-79.0875,43.80981],[-79.0878,43.80979],[-79.08842,43.81248],[-79.08795,43.80977],[-79.08862,43.80971],[-79.08925,43.81242],[-79.08948,43.8124],[-79.08885,43.80969],[-79.08999,43.80959],[-79.09111,43.81221],[-79.09318,43.81157],[-79.09329,43.81184],[-79.09713,43.80971],[-79.1028,43.8054],[-79.10375,43.80438],[-79.10316,43.80307],[-79.10702,43.7995],[-79.10742,43.80044],[-79.1076,43.80026],[-79.10723,43.79936],[-79.10839,43.79765],[-79.11121,43.79651],[-79.11152,43.79722],[-79.11479,43.79481],[-79.11757,43.79447],[-79.12117,43.79484],[-79.12121,43.79531],[-79.12019,43.79573],[-79.12039,43.79623],[-79.12186,43.79747],[-79.12341,43.79725],[-79.12431,43.79761],[-79.1242,43.79917],[-79.1254,43.80027],[-79.12791,43.80048],[-79.13095,43.80183],[-79.13519,43.80103],[-79.13342,43.80316],[-79.13417,43.80401],[-79.1344,43.80482],[-79.13387,43.8064],[-79.13549,43.80808],[-79.13738,43.80798],[-79.13786,43.80763],[-79.13901,43.80843],[-79.14051,43.80859],[-79.14056,43.80896],[-79.14174,43.8094],[-79.14189,43.80977],[-79.14283,43.80965],[-79.14306,43.8099],[-79.14268,43.8103],[-79.14329,43.81075],[-79.14399,43.81004],[-79.14579,43.81017],[-79.14636,43.81059],[-79.14614,43.81102],[-79.14644,43.81136],[-79.14961,43.8128],[-79.15156,43.81413],[-79.17066,43.85631],[-79.18228,43.88317],[-79.19844,43.91774],[-79.214,43.95229],[-79.21903,43.96721],[-79.22106,43.97417],[-79.22476,43.98316],[-79.27617,44.10127],[-79.32802,44.2233],[-79.15613,44.26314],[-79.11714,44.17079],[-79.07177,44.06657],[-79.06156,44.04207],[-79.03972,43.99146],[-79.01704,43.94036],[-79.00852,43.92246],[-79.08813,43.90418]]]]}}]}