{"type":"FeatureCollection","features":[{"type":"Feature","geometry":{"type":"Point","coordinates":[-79.415549,43.779745]},"properties":{"name":"Finch Station","lines":"1","arr":["1"],"terminus":1,"mode":"tram","color":"#D5C82B","colorDark":"#756e18","angle":0,"metro":1,"snapDist":46,"label":1}},{"type":"Feature","geometry":{"type":"Point","coordinates":[-79.412483,43.767954]},"properties":{"name":"North York Centre Station","lines":"1","arr":["1"],"terminus":0,"mode":"tram","color":"#D5C82B","colorDark":"#756e18","angle":0,"metro":1,"snapDist":5,"label":1}},{"type":"Feature","geometry":{"type":"Point","coordinates":[-79.410893,43.761129]},"properties":{"name":"Sheppard-Yonge Station","lines":"1, 4","arr":["1","4"],"terminus":1,"mode":"tram","color":"#7d2b8b","colorDark":"#45164e","angle":0,"metro":1,"snapDist":19,"label":1}},{"type":"Feature","geometry":{"type":"Point","coordinates":[-79.406148,43.743846]},"properties":{"name":"York Mills Station","lines":"1","arr":["1"],"terminus":0,"mode":"tram","color":"#D5C82B","colorDark":"#756e18","angle":0,"metro":1,"snapDist":5,"label":1}},{"type":"Feature","geometry":{"type":"Point","coordinates":[-79.40245,43.725941]},"properties":{"name":"Lawrence Station","lines":"1","arr":["1"],"terminus":0,"mode":"tram","color":"#D5C82B","colorDark":"#756e18","angle":0,"metro":1,"snapDist":5,"label":1}},{"type":"Feature","geometry":{"type":"Point","coordinates":[-79.398588,43.706124]},"properties":{"name":"Eglinton Station","lines":"1, 5","arr":["1","5"],"terminus":0,"mode":"tram","color":"#7d2b8b","colorDark":"#45164e","angle":0,"metro":1,"snapDist":1,"label":1}},{"type":"Feature","geometry":{"type":"Point","coordinates":[-79.397146,43.697632]},"properties":{"name":"Davisville Station","lines":"1","arr":["1"],"terminus":0,"mode":"tram","color":"#D5C82B","colorDark":"#756e18","angle":0,"metro":1,"snapDist":5,"label":1}},{"type":"Feature","geometry":{"type":"Point","coordinates":[-79.393223,43.688075]},"properties":{"name":"St Clair Station","lines":"1","arr":["1"],"terminus":0,"mode":"tram","color":"#D5C82B","colorDark":"#756e18","angle":0,"metro":1,"snapDist":6,"label":1}},{"type":"Feature","geometry":{"type":"Point","coordinates":[-79.39095,43.682707]},"properties":{"name":"Summerhill Station","lines":"1","arr":["1"],"terminus":0,"mode":"tram","color":"#D5C82B","colorDark":"#756e18","angle":0,"metro":1,"snapDist":3,"label":1}},{"type":"Feature","geometry":{"type":"Point","coordinates":[-79.38853,43.67661]},"properties":{"name":"Rosedale Station","lines":"1","arr":["1"],"terminus":0,"mode":"tram","color":"#D5C82B","colorDark":"#756e18","angle":0,"metro":1,"snapDist":16,"label":1}},{"type":"Feature","geometry":{"type":"Point","coordinates":[-79.385664,43.670545]},"properties":{"name":"Bloor Station","lines":"1","arr":["1"],"terminus":0,"mode":"tram","color":"#D5C82B","colorDark":"#756e18","angle":0,"metro":1,"snapDist":1,"label":1}},{"type":"Feature","geometry":{"type":"Point","coordinates":[-79.383832,43.665507]},"properties":{"name":"Wellesley Station","lines":"1","arr":["1"],"terminus":0,"mode":"tram","color":"#D5C82B","colorDark":"#756e18","angle":0,"metro":1,"snapDist":16,"label":1}},{"type":"Feature","geometry":{"type":"Point","coordinates":[-79.382889,43.660799]},"properties":{"name":"College Station","lines":"1","arr":["1"],"terminus":0,"mode":"tram","color":"#D5C82B","colorDark":"#756e18","angle":0,"metro":1,"snapDist":0,"label":1}},{"type":"Feature","geometry":{"type":"Point","coordinates":[-79.381045,43.656535]},"properties":{"name":"TMU Station","lines":"1","arr":["1"],"terminus":0,"mode":"tram","color":"#D5C82B","colorDark":"#756e18","angle":0,"metro":1,"snapDist":5,"label":1}},{"type":"Feature","geometry":{"type":"Point","coordinates":[-79.379417,43.652743]},"properties":{"name":"Queen Station","lines":"1","arr":["1"],"terminus":0,"mode":"tram","color":"#D5C82B","colorDark":"#756e18","angle":0,"metro":1,"snapDist":2,"label":1}},{"type":"Feature","geometry":{"type":"Point","coordinates":[-79.377828,43.649062]},"properties":{"name":"King Station","lines":"1","arr":["1"],"terminus":0,"mode":"tram","color":"#D5C82B","colorDark":"#756e18","angle":0,"metro":1,"snapDist":5,"label":1}},{"type":"Feature","geometry":{"type":"Point","coordinates":[-79.381422,43.645361]},"properties":{"name":"Vaughan Metropolitan Centre","lines":"1","arr":["1"],"terminus":0,"mode":"tram","color":"#D5C82B","colorDark":"#756e18","angle":0,"metro":1,"snapDist":22,"label":1}},{"type":"Feature","geometry":{"type":"Point","coordinates":[-79.385022,43.647934]},"properties":{"name":"St Andrew Station","lines":"1","arr":["1"],"terminus":0,"mode":"tram","color":"#D5C82B","colorDark":"#756e18","angle":0,"metro":1,"snapDist":2,"label":1}},{"type":"Feature","geometry":{"type":"Point","coordinates":[-79.386731,43.651089]},"properties":{"name":"Osgoode Station","lines":"1","arr":["1"],"terminus":0,"mode":"tram","color":"#D5C82B","colorDark":"#756e18","angle":0,"metro":1,"snapDist":4,"label":1}},{"type":"Feature","geometry":{"type":"Point","coordinates":[-79.388259,43.654633]},"properties":{"name":"St Patrick Station","lines":"1","arr":["1"],"terminus":0,"mode":"tram","color":"#D5C82B","colorDark":"#756e18","angle":0,"metro":1,"snapDist":6,"label":1}},{"type":"Feature","geometry":{"type":"Point","coordinates":[-79.390239,43.659917]},"properties":{"name":"Queen's Park Station","lines":"1","arr":["1"],"terminus":0,"mode":"tram","color":"#D5C82B","colorDark":"#756e18","angle":0,"metro":1,"snapDist":20,"label":1}},{"type":"Feature","geometry":{"type":"Point","coordinates":[-79.393309,43.666573]},"properties":{"name":"Museum Station","lines":"1","arr":["1"],"terminus":0,"mode":"tram","color":"#D5C82B","colorDark":"#756e18","angle":0,"metro":1,"snapDist":10,"label":1}},{"type":"Feature","geometry":{"type":"Point","coordinates":[-79.398815,43.668401]},"properties":{"name":"St George Station","lines":"1, 2","arr":["1","2"],"terminus":0,"mode":"tram","color":"#7d2b8b","colorDark":"#45164e","angle":0,"metro":1,"snapDist":0,"label":1}},{"type":"Feature","geometry":{"type":"Point","coordinates":[-79.40458,43.668447]},"properties":{"name":"Spadina Station","lines":"1, 2","arr":["1","2"],"terminus":0,"mode":"tram","color":"#7d2b8b","colorDark":"#45164e","angle":0,"metro":1,"snapDist":26,"label":1}},{"type":"Feature","geometry":{"type":"Point","coordinates":[-79.406876,43.674352]},"properties":{"name":"Dupont Station","lines":"1","arr":["1"],"terminus":0,"mode":"tram","color":"#D5C82B","colorDark":"#756e18","angle":0,"metro":1,"snapDist":1,"label":1}},{"type":"Feature","geometry":{"type":"Point","coordinates":[-79.415169,43.684671]},"properties":{"name":"St Clair West Station","lines":"1","arr":["1"],"terminus":0,"mode":"tram","color":"#D5C82B","colorDark":"#756e18","angle":0,"metro":1,"snapDist":40,"label":1}},{"type":"Feature","geometry":{"type":"Point","coordinates":[-79.436176,43.69936]},"properties":{"name":"Cedarvale Station","lines":"1, 5","arr":["1","5"],"terminus":0,"mode":"tram","color":"#7d2b8b","colorDark":"#45164e","angle":0,"metro":1,"snapDist":1,"label":1}},{"type":"Feature","geometry":{"type":"Point","coordinates":[-79.440658,43.708558]},"properties":{"name":"Glencairn Station","lines":"1","arr":["1"],"terminus":0,"mode":"tram","color":"#D5C82B","colorDark":"#756e18","angle":0,"metro":1,"snapDist":10,"label":1}},{"type":"Feature","geometry":{"type":"Point","coordinates":[-79.443974,43.715254]},"properties":{"name":"Lawrence West Station","lines":"1","arr":["1"],"terminus":0,"mode":"tram","color":"#D5C82B","colorDark":"#756e18","angle":0,"metro":1,"snapDist":5,"label":1}},{"type":"Feature","geometry":{"type":"Point","coordinates":[-79.447555,43.724585]},"properties":{"name":"Yorkdale Station","lines":"1","arr":["1"],"terminus":0,"mode":"tram","color":"#D5C82B","colorDark":"#756e18","angle":0,"metro":1,"snapDist":5,"label":1}},{"type":"Feature","geometry":{"type":"Point","coordinates":[-79.450144,43.734429]},"properties":{"name":"Wilson Station","lines":"1","arr":["1"],"terminus":0,"mode":"tram","color":"#D5C82B","colorDark":"#756e18","angle":0,"metro":1,"snapDist":8,"label":1}},{"type":"Feature","geometry":{"type":"Point","coordinates":[-79.462329,43.749687]},"properties":{"name":"Sheppard West Station","lines":"1","arr":["1"],"terminus":0,"mode":"tram","color":"#D5C82B","colorDark":"#756e18","angle":0,"metro":1,"snapDist":5,"label":1}},{"type":"Feature","geometry":{"type":"Point","coordinates":[-79.478794,43.753563]},"properties":{"name":"Downsview Park Station","lines":"1","arr":["1"],"terminus":0,"mode":"tram","color":"#D5C82B","colorDark":"#756e18","angle":0,"metro":1,"snapDist":29,"label":1}},{"type":"Feature","geometry":{"type":"Point","coordinates":[-79.491283,43.764313]},"properties":{"name":"Finch West Station","lines":"1, 6","arr":["1","6"],"terminus":1,"mode":"tram","color":"#7d2b8b","colorDark":"#45164e","angle":0,"metro":1,"snapDist":22,"label":1}},{"type":"Feature","geometry":{"type":"Point","coordinates":[-79.499865,43.774142]},"properties":{"name":"York University","lines":"1","arr":["1"],"terminus":0,"mode":"tram","color":"#D5C82B","colorDark":"#756e18","angle":0,"metro":1,"snapDist":5,"label":1}},{"type":"Feature","geometry":{"type":"Point","coordinates":[-79.509311,43.776823]},"properties":{"name":"Pioneer Village Station","lines":"1","arr":["1"],"terminus":0,"mode":"tram","color":"#D5C82B","colorDark":"#756e18","angle":0,"metro":1,"snapDist":9,"label":1}},{"type":"Feature","geometry":{"type":"Point","coordinates":[-79.523233,43.783428]},"properties":{"name":"Highway 407 Station","lines":"1","arr":["1"],"terminus":0,"mode":"tram","color":"#D5C82B","colorDark":"#756e18","angle":0,"metro":1,"snapDist":19,"label":1}},{"type":"Feature","geometry":{"type":"Point","coordinates":[-79.527482,43.794077]},"properties":{"name":"Vaughan Metropolitan Centre Station - Subway Platform","lines":"1","arr":["1"],"terminus":1,"mode":"tram","color":"#D5C82B","colorDark":"#756e18","angle":0,"metro":1,"snapDist":35,"label":1}},{"type":"Feature","geometry":{"type":"Point","coordinates":[-79.527339,43.793506]},"properties":{"name":"Vaughan Metropolitan Centre Station","lines":"1","arr":["1"],"terminus":1,"mode":"tram","color":"#D5C82B","colorDark":"#756e18","angle":0,"metro":1,"snapDist":73,"label":1}},{"type":"Feature","geometry":{"type":"Point","coordinates":[-79.379642,43.645738]},"properties":{"name":"Finch","lines":"1","arr":["1"],"terminus":0,"mode":"tram","color":"#D5C82B","colorDark":"#756e18","angle":0,"metro":1,"snapDist":13,"label":1}},{"type":"Feature","geometry":{"type":"Point","coordinates":[-79.415839,43.780778]},"properties":{"name":"Finch Station - Subway Platform","lines":"1","arr":["1"],"terminus":1,"mode":"tram","color":"#D5C82B","colorDark":"#756e18","angle":0,"metro":1,"snapDist":45,"label":1}},{"type":"Feature","geometry":{"type":"Point","coordinates":[-79.535362,43.63778]},"properties":{"name":"Kipling Station","lines":"2","arr":["2"],"terminus":1,"mode":"tram","color":"#008000","colorDark":"#004600","angle":0,"metro":1,"snapDist":30,"label":1}},{"type":"Feature","geometry":{"type":"Point","coordinates":[-79.524187,43.645505]},"properties":{"name":"Islington Station","lines":"2","arr":["2"],"terminus":0,"mode":"tram","color":"#008000","colorDark":"#004600","angle":0,"metro":1,"snapDist":12,"label":1}},{"type":"Feature","geometry":{"type":"Point","coordinates":[-79.509598,43.64847]},"properties":{"name":"Royal York Station","lines":"2","arr":["2"],"terminus":0,"mode":"tram","color":"#008000","colorDark":"#004600","angle":0,"metro":1,"snapDist":2,"label":1}},{"type":"Feature","geometry":{"type":"Point","coordinates":[-79.49415,43.649736]},"properties":{"name":"Old Mill Station","lines":"2","arr":["2"],"terminus":0,"mode":"tram","color":"#008000","colorDark":"#004600","angle":0,"metro":1,"snapDist":2,"label":1}},{"type":"Feature","geometry":{"type":"Point","coordinates":[-79.483765,43.649997]},"properties":{"name":"Jane Station","lines":"2","arr":["2"],"terminus":0,"mode":"tram","color":"#008000","colorDark":"#004600","angle":0,"metro":1,"snapDist":6,"label":1}},{"type":"Feature","geometry":{"type":"Point","coordinates":[-79.475798,43.651797]},"properties":{"name":"Runnymede Station","lines":"2","arr":["2"],"terminus":0,"mode":"tram","color":"#008000","colorDark":"#004600","angle":0,"metro":1,"snapDist":12,"label":1}},{"type":"Feature","geometry":{"type":"Point","coordinates":[-79.467844,43.653704]},"properties":{"name":"High Park Station","lines":"2","arr":["2"],"terminus":0,"mode":"tram","color":"#008000","colorDark":"#004600","angle":0,"metro":1,"snapDist":1,"label":1}},{"type":"Feature","geometry":{"type":"Point","coordinates":[-79.459578,43.655592]},"properties":{"name":"Keele Station","lines":"2","arr":["2"],"terminus":0,"mode":"tram","color":"#008000","colorDark":"#004600","angle":0,"metro":1,"snapDist":11,"label":1}},{"type":"Feature","geometry":{"type":"Point","coordinates":[-79.451921,43.657256]},"properties":{"name":"Dundas West Station","lines":"2","arr":["2"],"terminus":0,"mode":"tram","color":"#008000","colorDark":"#004600","angle":0,"metro":1,"snapDist":5,"label":1}},{"type":"Feature","geometry":{"type":"Point","coordinates":[-79.442438,43.659172]},"properties":{"name":"Lansdowne Station","lines":"2","arr":["2"],"terminus":0,"mode":"tram","color":"#008000","colorDark":"#004600","angle":0,"metro":1,"snapDist":12,"label":1}},{"type":"Feature","geometry":{"type":"Point","coordinates":[-79.434665,43.6604]},"properties":{"name":"Dufferin Station","lines":"2","arr":["2"],"terminus":0,"mode":"tram","color":"#008000","colorDark":"#004600","angle":0,"metro":1,"snapDist":35,"label":1}},{"type":"Feature","geometry":{"type":"Point","coordinates":[-79.426994,43.662209]},"properties":{"name":"Ossington Station","lines":"2","arr":["2"],"terminus":0,"mode":"tram","color":"#008000","colorDark":"#004600","angle":0,"metro":1,"snapDist":1,"label":1}},{"type":"Feature","geometry":{"type":"Point","coordinates":[-79.418084,43.664164]},"properties":{"name":"Christie Station","lines":"2","arr":["2"],"terminus":0,"mode":"tram","color":"#008000","colorDark":"#004600","angle":0,"metro":1,"snapDist":16,"label":1}},{"type":"Feature","geometry":{"type":"Point","coordinates":[-79.411427,43.66577]},"properties":{"name":"Bathurst Station","lines":"2","arr":["2"],"terminus":0,"mode":"tram","color":"#008000","colorDark":"#004600","angle":0,"metro":1,"snapDist":3,"label":1}},{"type":"Feature","geometry":{"type":"Point","coordinates":[-79.390976,43.670092]},"properties":{"name":"Bay Station","lines":"2","arr":["2"],"terminus":0,"mode":"tram","color":"#008000","colorDark":"#004600","angle":0,"metro":1,"snapDist":11,"label":1}},{"type":"Feature","geometry":{"type":"Point","coordinates":[-79.386349,43.670803]},"properties":{"name":"Yonge Station","lines":"2","arr":["2"],"terminus":0,"mode":"tram","color":"#008000","colorDark":"#004600","angle":0,"metro":1,"snapDist":25,"label":1}},{"type":"Feature","geometry":{"type":"Point","coordinates":[-79.37617,43.672241]},"properties":{"name":"Sherbourne Station","lines":"2","arr":["2"],"terminus":0,"mode":"tram","color":"#008000","colorDark":"#004600","angle":0,"metro":1,"snapDist":11,"label":1}},{"type":"Feature","geometry":{"type":"Point","coordinates":[-79.368833,43.673705]},"properties":{"name":"Castle Frank Station","lines":"2","arr":["2"],"terminus":0,"mode":"tram","color":"#008000","colorDark":"#004600","angle":0,"metro":1,"snapDist":13,"label":1}},{"type":"Feature","geometry":{"type":"Point","coordinates":[-79.358776,43.676636]},"properties":{"name":"Broadview Station","lines":"2","arr":["2"],"terminus":0,"mode":"tram","color":"#008000","colorDark":"#004600","angle":0,"metro":1,"snapDist":9,"label":1}},{"type":"Feature","geometry":{"type":"Point","coordinates":[-79.352506,43.678262]},"properties":{"name":"Chester Station","lines":"2","arr":["2"],"terminus":0,"mode":"tram","color":"#008000","colorDark":"#004600","angle":0,"metro":1,"snapDist":4,"label":1}},{"type":"Feature","geometry":{"type":"Point","coordinates":[-79.344939,43.679804]},"properties":{"name":"Pape Station","lines":"2","arr":["2"],"terminus":0,"mode":"tram","color":"#008000","colorDark":"#004600","angle":0,"metro":1,"snapDist":1,"label":1}},{"type":"Feature","geometry":{"type":"Point","coordinates":[-79.338365,43.681121]},"properties":{"name":"Donlands Station","lines":"2","arr":["2"],"terminus":0,"mode":"tram","color":"#008000","colorDark":"#004600","angle":0,"metro":1,"snapDist":8,"label":1}},{"type":"Feature","geometry":{"type":"Point","coordinates":[-79.330831,43.682684]},"properties":{"name":"Greenwood Station","lines":"2","arr":["2"],"terminus":0,"mode":"tram","color":"#008000","colorDark":"#004600","angle":0,"metro":1,"snapDist":2,"label":1}},{"type":"Feature","geometry":{"type":"Point","coordinates":[-79.322831,43.684386]},"properties":{"name":"Coxwell Station","lines":"2","arr":["2"],"terminus":0,"mode":"tram","color":"#008000","colorDark":"#004600","angle":0,"metro":1,"snapDist":1,"label":1}},{"type":"Feature","geometry":{"type":"Point","coordinates":[-79.313134,43.686495]},"properties":{"name":"Woodbine Station","lines":"2","arr":["2"],"terminus":0,"mode":"tram","color":"#008000","colorDark":"#004600","angle":0,"metro":1,"snapDist":0,"label":1}},{"type":"Feature","geometry":{"type":"Point","coordinates":[-79.301531,43.689089]},"properties":{"name":"Main Street Station","lines":"2","arr":["2"],"terminus":0,"mode":"tram","color":"#008000","colorDark":"#004600","angle":0,"metro":1,"snapDist":1,"label":1}},{"type":"Feature","geometry":{"type":"Point","coordinates":[-79.288709,43.694932]},"properties":{"name":"Victoria Park Station","lines":"2","arr":["2"],"terminus":0,"mode":"tram","color":"#008000","colorDark":"#004600","angle":0,"metro":1,"snapDist":4,"label":1}},{"type":"Feature","geometry":{"type":"Point","coordinates":[-79.279053,43.711559]},"properties":{"name":"Warden Station","lines":"2","arr":["2"],"terminus":0,"mode":"tram","color":"#008000","colorDark":"#004600","angle":0,"metro":1,"snapDist":10,"label":1}},{"type":"Feature","geometry":{"type":"Point","coordinates":[-79.26455,43.73226]},"properties":{"name":"Kennedy Station - Subway Platform","lines":"2","arr":["2"],"terminus":1,"mode":"tram","color":"#008000","colorDark":"#004600","angle":0,"metro":1,"snapDist":71,"label":1}},{"type":"Feature","geometry":{"type":"Point","coordinates":[-79.26455,43.73226]},"properties":{"name":"Kennedy Station","lines":"2, 5","arr":["2","5"],"terminus":1,"mode":"tram","color":"#7d2b8b","colorDark":"#45164e","angle":0,"metro":1,"snapDist":24,"label":1}},{"type":"Feature","geometry":{"type":"Point","coordinates":[-79.535362,43.63778]},"properties":{"name":"Kipling Station - Subway Platform","lines":"2","arr":["2"],"terminus":1,"mode":"tram","color":"#008000","colorDark":"#004600","angle":0,"metro":1,"snapDist":61,"label":1}},{"type":"Feature","geometry":{"type":"Point","coordinates":[-79.386757,43.766996]},"properties":{"name":"Bayview Station","lines":"4","arr":["4"],"terminus":0,"mode":"tram","color":"#B300B3","colorDark":"#620062","angle":0,"metro":1,"snapDist":10,"label":1}},{"type":"Feature","geometry":{"type":"Point","coordinates":[-79.376321,43.769228]},"properties":{"name":"Bessarion Station","lines":"4","arr":["4"],"terminus":0,"mode":"tram","color":"#B300B3","colorDark":"#620062","angle":0,"metro":1,"snapDist":2,"label":1}},{"type":"Feature","geometry":{"type":"Point","coordinates":[-79.365829,43.771088]},"properties":{"name":"Leslie Station","lines":"4","arr":["4"],"terminus":0,"mode":"tram","color":"#B300B3","colorDark":"#620062","angle":0,"metro":1,"snapDist":24,"label":1}},{"type":"Feature","geometry":{"type":"Point","coordinates":[-79.347223,43.775016]},"properties":{"name":"Don Mills Station - Subway Platform","lines":"4","arr":["4"],"terminus":1,"mode":"tram","color":"#B300B3","colorDark":"#620062","angle":0,"metro":1,"snapDist":78,"label":1}},{"type":"Feature","geometry":{"type":"Point","coordinates":[-79.347223,43.775016]},"properties":{"name":"Don Mills Station","lines":"4","arr":["4"],"terminus":1,"mode":"tram","color":"#B300B3","colorDark":"#620062","angle":0,"metro":1,"snapDist":87,"label":1}},{"type":"Feature","geometry":{"type":"Point","coordinates":[-79.409806,43.761746]},"properties":{"name":"Sheppard-Yonge Station - Subway Platform","lines":"4","arr":["4"],"terminus":1,"mode":"tram","color":"#B300B3","colorDark":"#620062","angle":0,"metro":1,"snapDist":25,"label":1}},{"type":"Feature","geometry":{"type":"Point","coordinates":[-79.48642,43.687844]},"properties":{"name":"Mount Dennis Station","lines":"5","arr":["5"],"terminus":1,"mode":"tram","color":"#FF8000","colorDark":"#8c4600","angle":0,"metro":1,"snapDist":1,"label":1}},{"type":"Feature","geometry":{"type":"Point","coordinates":[-79.475126,43.69006]},"properties":{"name":"Keelesdale Station","lines":"5","arr":["5"],"terminus":0,"mode":"tram","color":"#FF8000","colorDark":"#8c4600","angle":0,"metro":1,"snapDist":2,"label":1}},{"type":"Feature","geometry":{"type":"Point","coordinates":[-79.465728,43.692192]},"properties":{"name":"Caledonia Station","lines":"5","arr":["5"],"terminus":0,"mode":"tram","color":"#FF8000","colorDark":"#8c4600","angle":0,"metro":1,"snapDist":1,"label":1}},{"type":"Feature","geometry":{"type":"Point","coordinates":[-79.450015,43.695712]},"properties":{"name":"Fairbank Station","lines":"5","arr":["5"],"terminus":0,"mode":"tram","color":"#FF8000","colorDark":"#8c4600","angle":0,"metro":1,"snapDist":1,"label":1}},{"type":"Feature","geometry":{"type":"Point","coordinates":[-79.44327,43.697154]},"properties":{"name":"Oakwood Station","lines":"5","arr":["5"],"terminus":0,"mode":"tram","color":"#FF8000","colorDark":"#8c4600","angle":0,"metro":1,"snapDist":1,"label":1}},{"type":"Feature","geometry":{"type":"Point","coordinates":[-79.425742,43.700957]},"properties":{"name":"Forest Hill Station","lines":"5","arr":["5"],"terminus":0,"mode":"tram","color":"#FF8000","colorDark":"#8c4600","angle":0,"metro":1,"snapDist":7,"label":1}},{"type":"Feature","geometry":{"type":"Point","coordinates":[-79.416758,43.702871]},"properties":{"name":"Chaplin Station","lines":"5","arr":["5"],"terminus":0,"mode":"tram","color":"#FF8000","colorDark":"#8c4600","angle":0,"metro":1,"snapDist":8,"label":1}},{"type":"Feature","geometry":{"type":"Point","coordinates":[-79.408238,43.704693]},"properties":{"name":"Avenue Station","lines":"5","arr":["5"],"terminus":0,"mode":"tram","color":"#FF8000","colorDark":"#8c4600","angle":0,"metro":1,"snapDist":9,"label":1}},{"type":"Feature","geometry":{"type":"Point","coordinates":[-79.389968,43.708452]},"properties":{"name":"Mount Pleasant Station","lines":"5","arr":["5"],"terminus":0,"mode":"tram","color":"#FF8000","colorDark":"#8c4600","angle":0,"metro":1,"snapDist":6,"label":1}},{"type":"Feature","geometry":{"type":"Point","coordinates":[-79.377239,43.711048]},"properties":{"name":"Leaside Station","lines":"5","arr":["5"],"terminus":0,"mode":"tram","color":"#FF8000","colorDark":"#8c4600","angle":0,"metro":1,"snapDist":8,"label":1}},{"type":"Feature","geometry":{"type":"Point","coordinates":[-79.364566,43.713599]},"properties":{"name":"Laird Station","lines":"5","arr":["5"],"terminus":0,"mode":"tram","color":"#FF8000","colorDark":"#8c4600","angle":0,"metro":1,"snapDist":3,"label":1}},{"type":"Feature","geometry":{"type":"Point","coordinates":[-79.348971,43.717327]},"properties":{"name":"Sunnybrook Park Station","lines":"5","arr":["5"],"terminus":0,"mode":"tram","color":"#FF8000","colorDark":"#8c4600","angle":0,"metro":1,"snapDist":0,"label":1}},{"type":"Feature","geometry":{"type":"Point","coordinates":[-79.338956,43.720435]},"properties":{"name":"Don Valley Station","lines":"5","arr":["5"],"terminus":0,"mode":"tram","color":"#FF8000","colorDark":"#8c4600","angle":0,"metro":1,"snapDist":0,"label":1}},{"type":"Feature","geometry":{"type":"Point","coordinates":[-79.332719,43.722376]},"properties":{"name":"Aga Khan Park & Museum Station","lines":"5","arr":["5"],"terminus":0,"mode":"tram","color":"#FF8000","colorDark":"#8c4600","angle":0,"metro":1,"snapDist":0,"label":1}},{"type":"Feature","geometry":{"type":"Point","coordinates":[-79.326702,43.724035]},"properties":{"name":"Wynford Station","lines":"5","arr":["5"],"terminus":0,"mode":"tram","color":"#FF8000","colorDark":"#8c4600","angle":0,"metro":1,"snapDist":0,"label":1}},{"type":"Feature","geometry":{"type":"Point","coordinates":[-79.312578,43.725858]},"properties":{"name":"Sloane Station","lines":"5","arr":["5"],"terminus":0,"mode":"tram","color":"#FF8000","colorDark":"#8c4600","angle":0,"metro":1,"snapDist":0,"label":1}},{"type":"Feature","geometry":{"type":"Point","coordinates":[-79.301651,43.724812]},"properties":{"name":"O'Connor Station","lines":"5","arr":["5"],"terminus":0,"mode":"tram","color":"#FF8000","colorDark":"#8c4600","angle":0,"metro":1,"snapDist":0,"label":1}},{"type":"Feature","geometry":{"type":"Point","coordinates":[-79.296607,43.725833]},"properties":{"name":"Pharmacy Station","lines":"5","arr":["5"],"terminus":0,"mode":"tram","color":"#FF8000","colorDark":"#8c4600","angle":0,"metro":1,"snapDist":0,"label":1}},{"type":"Feature","geometry":{"type":"Point","coordinates":[-79.292469,43.726758]},"properties":{"name":"Hakimi Lebovic Station","lines":"5","arr":["5"],"terminus":0,"mode":"tram","color":"#FF8000","colorDark":"#8c4600","angle":0,"metro":1,"snapDist":1,"label":1}},{"type":"Feature","geometry":{"type":"Point","coordinates":[-79.288556,43.727634]},"properties":{"name":"Golden Mile Station","lines":"5","arr":["5"],"terminus":0,"mode":"tram","color":"#FF8000","colorDark":"#8c4600","angle":0,"metro":1,"snapDist":1,"label":1}},{"type":"Feature","geometry":{"type":"Point","coordinates":[-79.276937,43.730177]},"properties":{"name":"Birchmount Station","lines":"5","arr":["5"],"terminus":0,"mode":"tram","color":"#FF8000","colorDark":"#8c4600","angle":0,"metro":1,"snapDist":1,"label":1}},{"type":"Feature","geometry":{"type":"Point","coordinates":[-79.272183,43.73127]},"properties":{"name":"Ionview Station","lines":"5","arr":["5"],"terminus":0,"mode":"tram","color":"#FF8000","colorDark":"#8c4600","angle":0,"metro":1,"snapDist":1,"label":1}},{"type":"Feature","geometry":{"type":"Point","coordinates":[-79.601457,43.729915]},"properties":{"name":"Humber College Station","lines":"6","arr":["6"],"terminus":1,"mode":"tram","color":"#808080","colorDark":"#464646","angle":0,"metro":1,"snapDist":1,"label":1}},{"type":"Feature","geometry":{"type":"Point","coordinates":[-79.600695,43.734719]},"properties":{"name":"Westmore Station","lines":"6","arr":["6"],"terminus":0,"mode":"tram","color":"#808080","colorDark":"#464646","angle":0,"metro":1,"snapDist":4,"label":1}},{"type":"Feature","geometry":{"type":"Point","coordinates":[-79.591901,43.7367]},"properties":{"name":"Martin Grove Station","lines":"6","arr":["6"],"terminus":0,"mode":"tram","color":"#808080","colorDark":"#464646","angle":0,"metro":1,"snapDist":5,"label":1}},{"type":"Feature","geometry":{"type":"Point","coordinates":[-79.589214,43.741177]},"properties":{"name":"Albion Station","lines":"6","arr":["6"],"terminus":0,"mode":"tram","color":"#808080","colorDark":"#464646","angle":0,"metro":1,"snapDist":3,"label":1}},{"type":"Feature","geometry":{"type":"Point","coordinates":[-79.586948,43.743218]},"properties":{"name":"Stevenson Station","lines":"6","arr":["6"],"terminus":0,"mode":"tram","color":"#808080","colorDark":"#464646","angle":0,"metro":1,"snapDist":0,"label":1}},{"type":"Feature","geometry":{"type":"Point","coordinates":[-79.581795,43.743344]},"properties":{"name":"Mount Olive Station","lines":"6","arr":["6"],"terminus":0,"mode":"tram","color":"#808080","colorDark":"#464646","angle":0,"metro":1,"snapDist":5,"label":1}},{"type":"Feature","geometry":{"type":"Point","coordinates":[-79.568546,43.746243]},"properties":{"name":"Rowntree Mills Station","lines":"6","arr":["6"],"terminus":0,"mode":"tram","color":"#808080","colorDark":"#464646","angle":0,"metro":1,"snapDist":8,"label":1}},{"type":"Feature","geometry":{"type":"Point","coordinates":[-79.562522,43.747802]},"properties":{"name":"Pearldale Station","lines":"6","arr":["6"],"terminus":0,"mode":"tram","color":"#808080","colorDark":"#464646","angle":0,"metro":1,"snapDist":7,"label":1}},{"type":"Feature","geometry":{"type":"Point","coordinates":[-79.557562,43.748849]},"properties":{"name":"Duncanwoods Station","lines":"6","arr":["6"],"terminus":0,"mode":"tram","color":"#808080","colorDark":"#464646","angle":0,"metro":1,"snapDist":3,"label":1}},{"type":"Feature","geometry":{"type":"Point","coordinates":[-79.5523,43.74995]},"properties":{"name":"Milvan Rumike Station","lines":"6","arr":["6"],"terminus":0,"mode":"tram","color":"#808080","colorDark":"#464646","angle":0,"metro":1,"snapDist":2,"label":1}},{"type":"Feature","geometry":{"type":"Point","coordinates":[-79.542373,43.752026]},"properties":{"name":"Emery Station","lines":"6","arr":["6"],"terminus":0,"mode":"tram","color":"#808080","colorDark":"#464646","angle":0,"metro":1,"snapDist":6,"label":1}},{"type":"Feature","geometry":{"type":"Point","coordinates":[-79.536225,43.753292]},"properties":{"name":"Signet Arrow Station","lines":"6","arr":["6"],"terminus":0,"mode":"tram","color":"#808080","colorDark":"#464646","angle":0,"metro":1,"snapDist":0,"label":1}},{"type":"Feature","geometry":{"type":"Point","coordinates":[-79.524256,43.755954]},"properties":{"name":"Norfinch Oakdale Station","lines":"6","arr":["6"],"terminus":0,"mode":"tram","color":"#808080","colorDark":"#464646","angle":0,"metro":1,"snapDist":1,"label":1}},{"type":"Feature","geometry":{"type":"Point","coordinates":[-79.517723,43.757287]},"properties":{"name":"Jane and Finch Station","lines":"6","arr":["6"],"terminus":0,"mode":"tram","color":"#808080","colorDark":"#464646","angle":0,"metro":1,"snapDist":4,"label":1}},{"type":"Feature","geometry":{"type":"Point","coordinates":[-79.513363,43.758087]},"properties":{"name":"Driftwood Station","lines":"6","arr":["6"],"terminus":0,"mode":"tram","color":"#808080","colorDark":"#464646","angle":0,"metro":1,"snapDist":2,"label":1}},{"type":"Feature","geometry":{"type":"Point","coordinates":[-79.507893,43.759273]},"properties":{"name":"Tobermory Station","lines":"6","arr":["6"],"terminus":0,"mode":"tram","color":"#808080","colorDark":"#464646","angle":0,"metro":1,"snapDist":7,"label":1}},{"type":"Feature","geometry":{"type":"Point","coordinates":[-79.50002,43.761037]},"properties":{"name":"Sentinel Station","lines":"6","arr":["6"],"terminus":0,"mode":"tram","color":"#808080","colorDark":"#464646","angle":0,"metro":1,"snapDist":5,"label":1}},{"type":"Feature","geometry":{"type":"Point","coordinates":[-79.490854,43.763469]},"properties":{"name":"Finch West Station - Subway Platform","lines":"6","arr":["6"],"terminus":1,"mode":"tram","color":"#808080","colorDark":"#464646","angle":0,"metro":1,"snapDist":38,"label":1}},{"type":"Feature","geometry":{"type":"Point","coordinates":[-79.601467,43.729937]},"properties":{"name":"Humber College Station - Subway Platform","lines":"6","arr":["6"],"terminus":1,"mode":"tram","color":"#808080","colorDark":"#464646","angle":0,"metro":1,"snapDist":13,"label":1}}]}