{"type":"FeatureCollection", "features": [
{"type":"Feature","geometry":{"type":"MultiPolygon","coordinates":[[[[-79.38605,43.67039],[-79.38679,43.67023],[-79.38741,43.6701],[-79.38802,43.66997],[-79.38951,43.66967],[-79.39058,43.66945],[-79.39103,43.66936],[-79.39414,43.66872],[-79.39587,43.66833],[-79.39836,43.66783],[-79.40154,43.66716],[-79.40271,43.66691],[-79.40387,43.66666],[-79.40452,43.66652],[-79.40535,43.66636],[-79.40536,43.66636],[-79.40627,43.66616],[-79.40667,43.66608],[-79.40868,43.66568],[-79.40932,43.66552],[-79.40999,43.66539],[-79.41059,43.66525],[-79.41121,43.66512],[-79.41121,43.66511],[-79.41072,43.66383],[-79.41025,43.66267],[-79.40944,43.6607],[-79.40909,43.65981],[-79.40847,43.65829],[-79.40772,43.65648],[-79.40684,43.65429],[-79.40602,43.65231],[-79.40565,43.65139],[-79.4055,43.65101],[-79.4047,43.64897],[-79.4046,43.64871],[-79.40419,43.64768],[-79.40401,43.64719],[-79.40389,43.64682],[-79.40376,43.64647],[-79.40337,43.64552],[-79.40323,43.64519],[-79.40311,43.64489],[-79.4029,43.64441],[-79.4024,43.6432],[-79.4022,43.64265],[-79.40127,43.64037],[-79.40044,43.63831],[-79.40002,43.63734],[-79.39982,43.63683],[-79.39981,43.63682],[-79.39972,43.63663],[-79.39965,43.63649],[-79.39965,43.63648],[-79.39961,43.63644],[-79.39961,43.63643],[-79.39958,43.63641],[-79.39958,43.6364],[-79.3995,43.63634],[-79.39937,43.63626],[-79.39894,43.63606],[-79.39893,43.63605],[-79.39885,43.63601],[-79.39879,43.63598],[-79.39878,43.63597],[-79.39848,43.63578],[-79.39847,43.63577],[-79.39841,43.63572],[-79.3984,43.63571],[-79.39837,43.63568],[-79.39834,43.63564],[-79.39826,43.63556],[-79.3972,43.63431],[-79.39701,43.6341],[-79.39698,43.63404],[-79.39699,43.634],[-79.39704,43.63395],[-79.39736,43.63367],[-79.39548,43.63469],[-79.39683,43.63628],[-79.39676,43.63645],[-79.39591,43.63647],[-79.39496,43.63531],[-79.39443,43.63543],[-79.39288,43.6362],[-79.39184,43.6363],[-79.39186,43.63636],[-79.39291,43.63628],[-79.3944,43.63554],[-79.39452,43.63557],[-79.39519,43.63637],[-79.39506,43.6366],[-79.39325,43.63674],[-79.39309,43.63679],[-79.3919,43.63688],[-79.39191,43.63735],[-79.39184,43.63748],[-79.39127,43.63752],[-79.39103,43.637],[-79.38955,43.63713],[-79.38983,43.63781],[-79.38975,43.63795],[-79.38927,43.63805],[-79.38916,43.63799],[-79.38881,43.63718],[-79.38711,43.63736],[-79.38751,43.63837],[-79.38743,43.6385],[-79.38699,43.6385],[-79.38659,43.63739],[-79.3844,43.63761],[-79.38495,43.63888],[-79.38487,43.63902],[-79.38432,43.63911],[-79.38421,43.63905],[-79.38367,43.63769],[-79.37958,43.63807],[-79.38016,43.63944],[-79.37981,43.63963],[-79.37957,43.63946],[-79.37881,43.63835],[-79.37837,43.63852],[-79.37866,43.63893],[-79.37861,43.63908],[-79.37781,43.63936],[-79.37763,43.63923],[-79.37736,43.63932],[-79.37714,43.63898],[-79.37519,43.6397],[-79.37529,43.64007],[-79.37479,43.64017],[-79.37423,43.64059],[-79.37436,43.64076],[-79.37469,43.64081],[-79.37512,43.64146],[-79.37507,43.64161],[-79.3746,43.64178],[-79.37449,43.64175],[-79.37353,43.64033],[-79.36827,43.64227],[-79.36906,43.64347],[-79.36901,43.64361],[-79.36837,43.64385],[-79.36826,43.64381],[-79.36744,43.64259],[-79.3602,43.6453],[-79.36093,43.64639],[-79.3608,43.64702],[-79.36063,43.64706],[-79.35943,43.64559],[-79.35451,43.64774],[-79.35434,43.64765],[-79.34766,43.65042],[-79.34746,43.65052],[-79.3473,43.65075],[-79.34732,43.65081],[-79.34742,43.65099],[-79.34772,43.65141],[-79.34952,43.65359],[-79.34966,43.65373],[-79.35174,43.65556],[-79.35279,43.65645],[-79.35354,43.65705],[-79.35421,43.65767],[-79.35439,43.65802],[-79.3544,43.65804],[-79.35443,43.65815],[-79.35448,43.65841],[-79.35464,43.65892],[-79.35473,43.65931],[-79.3548,43.65958],[-79.35485,43.65972],[-79.3549,43.65986],[-79.35517,43.66071],[-79.35548,43.66185],[-79.35552,43.66199],[-79.35561,43.66228],[-79.3558,43.66285],[-79.35584,43.66299],[-79.35591,43.66327],[-79.356,43.66355],[-79.35605,43.66368],[-79.35609,43.6638],[-79.35613,43.66392],[-79.35613,43.66393],[-79.35616,43.66405],[-79.3562,43.66418],[-79.35627,43.66442],[-79.35635,43.66466],[-79.35643,43.66503],[-79.35653,43.66539],[-79.35658,43.66552],[-79.35732,43.66819],[-79.35735,43.66827],[-79.35738,43.66837],[-79.35739,43.66837],[-79.35743,43.66846],[-79.35747,43.66855],[-79.3575,43.66863],[-79.35751,43.66864],[-79.35751,43.66865],[-79.35756,43.66872],[-79.35761,43.66879],[-79.35781,43.66902],[-79.35788,43.66908],[-79.35789,43.66908],[-79.35797,43.66915],[-79.35815,43.66926],[-79.35854,43.66956],[-79.35875,43.66967],[-79.35913,43.66994],[-79.35923,43.67],[-79.35933,43.67005],[-79.35933,43.67006],[-79.35971,43.67046],[-79.35972,43.67047],[-79.35975,43.67055],[-79.35979,43.67065],[-79.35984,43.67074],[-79.35992,43.67092],[-79.35992,43.67093],[-79.35996,43.67102],[-79.36001,43.67112],[-79.36009,43.6713],[-79.36013,43.67139],[-79.36018,43.67148],[-79.36022,43.67156],[-79.36023,43.67157],[-79.36028,43.67165],[-79.36034,43.67174],[-79.3604,43.67181],[-79.36046,43.67189],[-79.36052,43.67197],[-79.36053,43.67197],[-79.36061,43.67204],[-79.3607,43.67211],[-79.36088,43.67224],[-79.36156,43.67268],[-79.36157,43.67268],[-79.36166,43.67273],[-79.36167,43.67273],[-79.36176,43.67278],[-79.36185,43.67283],[-79.36205,43.67291],[-79.36224,43.67297],[-79.36257,43.67302],[-79.36258,43.67303],[-79.36269,43.67307],[-79.36278,43.67313],[-79.3628,43.67314],[-79.36286,43.67319],[-79.36293,43.67323],[-79.363,43.67332],[-79.36305,43.67345],[-79.36306,43.67347],[-79.36305,43.67355],[-79.36304,43.6737],[-79.36301,43.67387],[-79.36299,43.67395],[-79.36299,43.67396],[-79.36296,43.67403],[-79.36294,43.67412],[-79.36293,43.67421],[-79.3629,43.67431],[-79.36288,43.6744],[-79.36288,43.67449],[-79.36288,43.6745],[-79.36289,43.67457],[-79.36289,43.67458],[-79.36291,43.67464],[-79.36291,43.67465],[-79.36295,43.67473],[-79.36298,43.67481],[-79.36299,43.67481],[-79.36303,43.67487],[-79.36311,43.67494],[-79.36339,43.67532],[-79.36425,43.67516],[-79.36631,43.67477],[-79.36673,43.67467],[-79.36674,43.67467],[-79.36677,43.67465],[-79.36679,43.67464],[-79.36688,43.67462],[-79.367,43.67458],[-79.367,43.67457],[-79.36709,43.67453],[-79.36719,43.67448],[-79.36727,43.67443],[-79.36737,43.67437],[-79.36992,43.67258],[-79.37069,43.67202],[-79.37127,43.67189],[-79.37138,43.67189],[-79.37318,43.67215],[-79.37485,43.67233],[-79.37589,43.67247],[-79.37646,43.67245],[-79.37686,43.67236],[-79.37907,43.67192],[-79.37947,43.67183],[-79.38057,43.67161],[-79.38238,43.67122],[-79.38316,43.67105],[-79.38605,43.67039]],[[-79.38556,43.63757],[-79.3857,43.63766],[-79.38565,43.63808],[-79.38521,43.63809],[-79.38507,43.6377],[-79.38556,43.63757]]],[[[-79.4049,43.62784],[-79.40476,43.62743],[-79.40428,43.62644],[-79.40276,43.62676],[-79.40256,43.62672],[-79.40152,43.62614],[-79.39986,43.62498],[-79.39899,43.62423],[-79.3982,43.62368],[-79.39749,43.62297],[-79.39685,43.62247],[-79.39644,43.62226],[-79.39606,43.62193],[-79.39539,43.62145],[-79.39388,43.62006],[-79.39275,43.61868],[-79.39233,43.61788],[-79.39189,43.61658],[-79.39161,43.61609],[-79.39156,43.61547],[-79.39161,43.61506],[-79.39087,43.61452],[-79.39046,43.61406],[-79.38994,43.61365],[-79.3899,43.6133],[-79.38961,43.61303],[-79.38985,43.6124],[-79.38967,43.61224],[-79.38896,43.61198],[-79.38835,43.61199],[-79.38806,43.61212],[-79.38681,43.6121],[-79.38606,43.61202],[-79.3849,43.61196],[-79.38402,43.61201],[-79.38304,43.61221],[-79.38241,43.61225],[-79.38211,43.61246],[-79.38103,43.61296],[-79.38081,43.61314],[-79.38054,43.6132],[-79.37969,43.61373],[-79.379,43.61377],[-79.37805,43.61403],[-79.37706,43.61447],[-79.37608,43.61444],[-79.37579,43.61456],[-79.37533,43.61493],[-79.37433,43.61547],[-79.37371,43.61585],[-79.37234,43.61647],[-79.37194,43.61634],[-79.37161,43.61647],[-79.37153,43.61675],[-79.37117,43.61714],[-79.37081,43.61732],[-79.37048,43.6176],[-79.36992,43.61777],[-79.36962,43.618],[-79.36758,43.6189],[-79.36715,43.61903],[-79.36645,43.61934],[-79.36332,43.62159],[-79.36152,43.62279],[-79.35782,43.62545],[-79.35678,43.62641],[-79.35607,43.62715],[-79.35518,43.62842],[-79.35456,43.62956],[-79.35436,43.62978],[-79.35327,43.62988],[-79.35211,43.62988],[-79.35099,43.62982],[-79.3502,43.62973],[-79.34976,43.62959],[-79.34954,43.63088],[-79.34939,43.63102],[-79.35029,43.63177],[-79.35252,43.63371],[-79.35428,43.63534],[-79.35433,43.63531],[-79.35311,43.63416],[-79.35313,43.634],[-79.35362,43.63371],[-79.35461,43.63337],[-79.35499,43.63339],[-79.35527,43.63326],[-79.35561,43.63351],[-79.35655,43.6333],[-79.35685,43.63306],[-79.35704,43.63274],[-79.35709,43.63243],[-79.35696,43.63216],[-79.3572,43.63162],[-79.35741,43.63145],[-79.35787,43.63158],[-79.35801,43.63128],[-79.35729,43.63115],[-79.35718,43.63044],[-79.35651,43.62976],[-79.35633,43.62903],[-79.35656,43.62866],[-79.35655,43.6285],[-79.35721,43.62768],[-79.35746,43.62751],[-79.35777,43.62706],[-79.35843,43.62635],[-79.35999,43.62515],[-79.3609,43.62462],[-79.36125,43.62451],[-79.36202,43.62411],[-79.36245,43.62383],[-79.36273,43.62347],[-79.3641,43.62279],[-79.36442,43.62214],[-79.36528,43.62173],[-79.36537,43.6219],[-79.36476,43.62225],[-79.36431,43.62281],[-79.36441,43.62313],[-79.36476,43.62317],[-79.36473,43.62344],[-79.36453,43.62348],[-79.36407,43.62312],[-79.36396,43.62312],[-79.363,43.62356],[-79.36281,43.6239],[-79.36288,43.62438],[-79.36323,43.62483],[-79.36364,43.62494],[-79.36424,43.62493],[-79.36446,43.62506],[-79.36474,43.62488],[-79.36513,43.62476],[-79.36565,43.62446],[-79.36581,43.62422],[-79.36554,43.6238],[-79.36526,43.62376],[-79.36524,43.62354],[-79.36654,43.6236],[-79.36762,43.62402],[-79.3682,43.62398],[-79.36908,43.62399],[-79.3705,43.62441],[-79.37078,43.62431],[-79.37116,43.62394],[-79.37132,43.62364],[-79.37104,43.62337],[-79.36915,43.62335],[-79.36825,43.62305],[-79.36812,43.62294],[-79.3677,43.62294],[-79.36728,43.62309],[-79.36618,43.62186],[-79.36588,43.62158],[-79.36595,43.62145],[-79.36631,43.62139],[-79.36719,43.62135],[-79.36805,43.62107],[-79.3686,43.62103],[-79.36933,43.62086],[-79.36972,43.62084],[-79.37014,43.62096],[-79.3705,43.62084],[-79.37063,43.62064],[-79.37051,43.62026],[-79.37014,43.61995],[-79.36993,43.61947],[-79.37004,43.61917],[-79.37025,43.61906],[-79.37076,43.61897],[-79.37149,43.61862],[-79.37186,43.61871],[-79.37266,43.61878],[-79.37361,43.61906],[-79.37389,43.61891],[-79.37427,43.61893],[-79.3743,43.61872],[-79.3748,43.61849],[-79.37592,43.61863],[-79.37663,43.61851],[-79.37694,43.61836],[-79.37719,43.61805],[-79.37718,43.61769],[-79.37732,43.61728],[-79.37771,43.61676],[-79.37847,43.61639],[-79.37929,43.6161],[-79.3798,43.61619],[-79.38012,43.61635],[-79.38031,43.61669],[-79.38113,43.61689],[-79.38119,43.61704],[-79.38089,43.61714],[-79.38059,43.61711],[-79.38022,43.61694],[-79.37975,43.61656],[-79.37924,43.61688],[-79.37921,43.617],[-79.37964,43.61764],[-79.38075,43.61893],[-79.38167,43.61955],[-79.38211,43.61971],[-79.38257,43.61977],[-79.38285,43.61959],[-79.38305,43.61964],[-79.38321,43.61988],[-79.38338,43.61987],[-79.38397,43.61962],[-79.38403,43.61947],[-79.38389,43.61924],[-79.38351,43.61901],[-79.3838,43.61857],[-79.38402,43.61856],[-79.38436,43.61834],[-79.38456,43.6187],[-79.38476,43.61863],[-79.38461,43.61832],[-79.38489,43.61825],[-79.38503,43.6188],[-79.38584,43.61917],[-79.38611,43.61911],[-79.38618,43.61937],[-79.38649,43.61965],[-79.38633,43.62031],[-79.38678,43.62051],[-79.38801,43.62074],[-79.38863,43.62097],[-79.38908,43.62099],[-79.3894,43.6208],[-79.38934,43.6205],[-79.38941,43.62021],[-79.38917,43.61966],[-79.38928,43.61916],[-79.38929,43.61852],[-79.38911,43.61786],[-79.38891,43.61736],[-79.38848,43.61701],[-79.38825,43.61693],[-79.38676,43.61667],[-79.38578,43.61638],[-79.38522,43.61632],[-79.38484,43.61642],[-79.38456,43.61623],[-79.38455,43.61602],[-79.38439,43.61573],[-79.3841,43.61575],[-79.38403,43.61556],[-79.38428,43.6154],[-79.38461,43.61531],[-79.38484,43.61509],[-79.38491,43.61485],[-79.38465,43.61468],[-79.38383,43.61452],[-79.38375,43.61445],[-79.38357,43.61372],[-79.38343,43.61346],[-79.38389,43.61342],[-79.38412,43.61347],[-79.38466,43.6139],[-79.3855,43.6141],[-79.38622,43.61415],[-79.38667,43.61445],[-79.38697,43.61484],[-79.38708,43.6151],[-79.38713,43.61564],[-79.38727,43.61585],[-79.38947,43.61654],[-79.38953,43.61659],[-79.3903,43.61814],[-79.39014,43.61906],[-79.39022,43.62192],[-79.39019,43.62228],[-79.39002,43.6226],[-79.39012,43.62282],[-79.38981,43.62376],[-79.38893,43.62444],[-79.38906,43.62471],[-79.38902,43.62504],[-79.38935,43.6254],[-79.38959,43.62596],[-79.38957,43.62653],[-79.38939,43.62709],[-79.38891,43.62746],[-79.3886,43.62781],[-79.38917,43.62815],[-79.38963,43.62965],[-79.38959,43.62976],[-79.38901,43.63011],[-79.38743,43.63051],[-79.38807,43.63192],[-79.38824,43.63197],[-79.38881,43.63176],[-79.38913,43.63171],[-79.38977,43.63183],[-79.39019,43.63165],[-79.3909,43.63145],[-79.39171,43.63129],[-79.39229,43.63138],[-79.3928,43.63197],[-79.39318,43.63194],[-79.39489,43.63364],[-79.39672,43.63266],[-79.4028,43.62934],[-79.4049,43.62784]],[[-79.36632,43.62346],[-79.36614,43.62313],[-79.36643,43.6231],[-79.36651,43.62335],[-79.36632,43.62346]],[[-79.38855,43.6141],[-79.38927,43.61425],[-79.38955,43.61448],[-79.38961,43.61478],[-79.38933,43.61503],[-79.38862,43.61513],[-79.38797,43.61516],[-79.38728,43.61505],[-79.3871,43.61471],[-79.3866,43.61422],[-79.38669,43.61403],[-79.38697,43.61405],[-79.3873,43.61352],[-79.38752,43.61339],[-79.38815,43.61351],[-79.3883,43.61359],[-79.38844,43.61404],[-79.38855,43.6141]]],[[[-79.36314,43.6256],[-79.36313,43.6255],[-79.36269,43.62509],[-79.36189,43.62471],[-79.36166,43.62487],[-79.36109,43.62507],[-79.36031,43.62562],[-79.35978,43.62584],[-79.35912,43.62626],[-79.35872,43.62668],[-79.35841,43.62718],[-79.35801,43.62746],[-79.35744,43.62824],[-79.35728,43.62905],[-79.35724,43.62946],[-79.35737,43.62965],[-79.35812,43.63027],[-79.35836,43.6304],[-79.35903,43.63003],[-79.36227,43.62704],[-79.36308,43.62583],[-79.36314,43.6256]]],[[[-79.3717,43.62186],[-79.3715,43.62168],[-79.37118,43.62158],[-79.37088,43.62161],[-79.36943,43.62153],[-79.36853,43.62155],[-79.36668,43.62176],[-79.36709,43.62252],[-79.36753,43.62255],[-79.36789,43.62268],[-79.36923,43.62268],[-79.36933,43.6225],[-79.36956,43.62248],[-79.36966,43.62274],[-79.37082,43.62272],[-79.37126,43.62261],[-79.37147,43.62246],[-79.37144,43.62225],[-79.3717,43.62186]]],[[[-79.38405,43.62491],[-79.38403,43.6247],[-79.38326,43.62292],[-79.38313,43.62295],[-79.38324,43.62342],[-79.38316,43.62354],[-79.38217,43.62364],[-79.38206,43.62357],[-79.38185,43.62294],[-79.38192,43.62281],[-79.38289,43.6226],[-79.38297,43.62242],[-79.38267,43.62197],[-79.38243,43.622],[-79.38226,43.62244],[-79.38156,43.62255],[-79.3813,43.62279],[-79.38105,43.62273],[-79.38102,43.62237],[-79.38114,43.62196],[-79.38114,43.6213],[-79.38126,43.62106],[-79.38147,43.621],[-79.3817,43.62119],[-79.38262,43.62133],[-79.38227,43.62094],[-79.3815,43.62077],[-79.38033,43.62036],[-79.37838,43.61994],[-79.37687,43.61968],[-79.37599,43.61938],[-79.37566,43.61943],[-79.37477,43.61928],[-79.37458,43.6192],[-79.37418,43.61935],[-79.37406,43.61927],[-79.37314,43.61926],[-79.37211,43.61911],[-79.37147,43.61914],[-79.37047,43.61943],[-79.37045,43.61955],[-79.3718,43.62101],[-79.37195,43.6211],[-79.37285,43.62117],[-79.37323,43.6211],[-79.37421,43.62104],[-79.37492,43.6212],[-79.37672,43.62148],[-79.37703,43.62168],[-79.3771,43.62187],[-79.37668,43.62197],[-79.37592,43.62163],[-79.3753,43.62154],[-79.37364,43.62141],[-79.37218,43.62158],[-79.37211,43.62166],[-79.37229,43.62218],[-79.37202,43.62277],[-79.37211,43.62308],[-79.37242,43.62336],[-79.3729,43.62366],[-79.37339,43.62369],[-79.37441,43.6235],[-79.37512,43.62361],[-79.37593,43.62339],[-79.3765,43.62344],[-79.37666,43.62327],[-79.37732,43.6231],[-79.37745,43.62276],[-79.37733,43.62224],[-79.37735,43.622],[-79.378,43.62224],[-79.378,43.62247],[-79.37881,43.6227],[-79.37877,43.62294],[-79.37819,43.62326],[-79.37828,43.6236],[-79.3788,43.62366],[-79.37944,43.6241],[-79.38011,43.62407],[-79.38055,43.62421],[-79.38076,43.62401],[-79.38094,43.62363],[-79.38137,43.62368],[-79.38173,43.62382],[-79.38317,43.62374],[-79.38327,43.62382],[-79.38335,43.62441],[-79.38325,43.62452],[-79.38256,43.62457],[-79.38246,43.62469],[-79.3828,43.6249],[-79.38281,43.62506],[-79.38241,43.62538],[-79.3817,43.62515],[-79.38144,43.62454],[-79.38123,43.62516],[-79.38135,43.62552],[-79.38192,43.62563],[-79.38243,43.62561],[-79.38294,43.62571],[-79.38346,43.62552],[-79.38405,43.62491]],[[-79.37436,43.61942],[-79.37473,43.61969],[-79.37464,43.61991],[-79.37425,43.61989],[-79.37379,43.61997],[-79.37333,43.61987],[-79.37266,43.61996],[-79.37231,43.61977],[-79.37237,43.61952],[-79.37256,43.61945],[-79.37301,43.61957],[-79.37367,43.61958],[-79.37422,43.61954],[-79.37436,43.61942]]],[[[-79.37985,43.61883],[-79.37971,43.61853],[-79.37859,43.61725],[-79.3782,43.61732],[-79.37787,43.61769],[-79.37787,43.61809],[-79.37765,43.61847],[-79.37778,43.61856],[-79.3792,43.61889],[-79.37956,43.61891],[-79.37985,43.61883]]],[[[-79.38777,43.62591],[-79.38767,43.62532],[-79.38774,43.62483],[-79.38734,43.62377],[-79.38721,43.62361],[-79.38695,43.62261],[-79.38639,43.62151],[-79.38607,43.62139],[-79.38474,43.62115],[-79.38418,43.62101],[-79.38329,43.62086],[-79.38306,43.62087],[-79.38307,43.62114],[-79.38385,43.62271],[-79.38466,43.62474],[-79.38464,43.6249],[-79.38438,43.62514],[-79.38442,43.62541],[-79.38461,43.62587],[-79.38499,43.62637],[-79.38526,43.62661],[-79.38624,43.62731],[-79.38648,43.6277],[-79.38689,43.62707],[-79.38741,43.6266],[-79.38764,43.62626],[-79.38777,43.62591]]],[[[-79.3858,43.61974],[-79.38567,43.61947],[-79.38526,43.61928],[-79.38476,43.61948],[-79.38463,43.61966],[-79.38485,43.62],[-79.38506,43.62011],[-79.38551,43.62011],[-79.3858,43.61974]]],[[[-79.38616,43.61532],[-79.38594,43.61503],[-79.38566,43.61488],[-79.38539,43.61491],[-79.38531,43.61523],[-79.38564,43.61589],[-79.38592,43.61584],[-79.38616,43.61555],[-79.38616,43.61532]]]]},"properties":{"name":"Downtown","info":"The central core: Financial District, waterfront and the dense grid south of Bloor.","lp":[-79.38362,43.65487]}},
{"type":"Feature","geometry":{"type":"Polygon","coordinates":[[[-79.39824,43.70614],[-79.39785,43.70435],[-79.39767,43.70329],[-79.39751,43.70251],[-79.39734,43.7018],[-79.39704,43.7003],[-79.39695,43.69979],[-79.39664,43.6983],[-79.39647,43.69737],[-79.3962,43.69613],[-79.39613,43.69578],[-79.39613,43.69577],[-79.39613,43.69576],[-79.39613,43.69573],[-79.39615,43.69569],[-79.39622,43.69566],[-79.3969,43.69561],[-79.39804,43.69585],[-79.40009,43.69639],[-79.40127,43.69673],[-79.40277,43.69713],[-79.40557,43.698],[-79.40588,43.69818],[-79.40609,43.69819],[-79.40667,43.6984],[-79.40778,43.69879],[-79.40871,43.69911],[-79.4091,43.69924],[-79.40916,43.6993],[-79.4094,43.69985],[-79.4094,43.70016],[-79.41026,43.70234],[-79.4108,43.70369],[-79.41096,43.70408],[-79.41323,43.70361],[-79.41989,43.70219],[-79.42089,43.702],[-79.42209,43.70174],[-79.42314,43.70151],[-79.42556,43.70099],[-79.42434,43.69795],[-79.42404,43.69727],[-79.42333,43.6955],[-79.42258,43.69371],[-79.4203,43.68809],[-79.41996,43.68721],[-79.41924,43.68541],[-79.41313,43.68666],[-79.41259,43.68531],[-79.41357,43.68511],[-79.41389,43.68488],[-79.41799,43.68406],[-79.41826,43.68427],[-79.41874,43.68423],[-79.41854,43.68376],[-79.41849,43.68363],[-79.41843,43.6835],[-79.41766,43.68156],[-79.41748,43.68105],[-79.41709,43.68011],[-79.41676,43.67925],[-79.41658,43.67878],[-79.41644,43.67833],[-79.41579,43.67673],[-79.41553,43.67607],[-79.41485,43.67434],[-79.41473,43.67402],[-79.41481,43.67389],[-79.41675,43.67347],[-79.42182,43.67243],[-79.42185,43.67242],[-79.42123,43.67077],[-79.42029,43.66834],[-79.4202,43.66812],[-79.41993,43.66739],[-79.41976,43.66693],[-79.41975,43.66691],[-79.41962,43.66657],[-79.41947,43.66617],[-79.41879,43.66444],[-79.41857,43.66395],[-79.41842,43.66359],[-79.41841,43.66359],[-79.41722,43.66383],[-79.41612,43.66407],[-79.41599,43.66409],[-79.41486,43.66434],[-79.41365,43.66462],[-79.41244,43.66488],[-79.41244,43.66489],[-79.41185,43.665],[-79.41181,43.665],[-79.41121,43.66512],[-79.40999,43.66539],[-79.40932,43.66552],[-79.40868,43.66568],[-79.40747,43.66591],[-79.40667,43.66608],[-79.40627,43.66616],[-79.40627,43.66617],[-79.40536,43.66636],[-79.40535,43.66636],[-79.40452,43.66652],[-79.40387,43.66666],[-79.40271,43.66691],[-79.40154,43.66716],[-79.39836,43.66783],[-79.39588,43.66833],[-79.39414,43.66872],[-79.39103,43.66936],[-79.39058,43.66945],[-79.38951,43.66967],[-79.38802,43.66997],[-79.38741,43.6701],[-79.38679,43.67023],[-79.38605,43.67039],[-79.38316,43.67105],[-79.38238,43.67122],[-79.38057,43.67161],[-79.37947,43.67183],[-79.37907,43.67192],[-79.37685,43.67236],[-79.37646,43.67245],[-79.37589,43.67247],[-79.37485,43.67233],[-79.37318,43.67215],[-79.37138,43.67189],[-79.37127,43.67189],[-79.3707,43.67201],[-79.36992,43.67258],[-79.36737,43.67437],[-79.36727,43.67443],[-79.36719,43.67448],[-79.36718,43.67448],[-79.36709,43.67453],[-79.367,43.67457],[-79.36699,43.67458],[-79.36688,43.67462],[-79.36678,43.67465],[-79.36675,43.67466],[-79.36672,43.67467],[-79.36631,43.67477],[-79.36474,43.67507],[-79.36446,43.67512],[-79.36432,43.67515],[-79.36425,43.67516],[-79.36339,43.67532],[-79.36347,43.6754],[-79.36376,43.67565],[-79.36403,43.67594],[-79.36433,43.67623],[-79.36468,43.67645],[-79.36491,43.67668],[-79.36493,43.67672],[-79.36493,43.67679],[-79.36485,43.67698],[-79.3648,43.67702],[-79.36445,43.67723],[-79.36444,43.67723],[-79.36411,43.67748],[-79.36384,43.67779],[-79.3636,43.67806],[-79.3636,43.67807],[-79.3636,43.67843],[-79.36373,43.6788],[-79.36405,43.67909],[-79.36418,43.6792],[-79.36419,43.6792],[-79.36426,43.67919],[-79.36447,43.67902],[-79.36671,43.67852],[-79.36681,43.67856],[-79.36719,43.67904],[-79.36719,43.67917],[-79.36753,43.6796],[-79.36788,43.68067],[-79.36795,43.68117],[-79.36785,43.6815],[-79.36648,43.68406],[-79.36754,43.68653],[-79.36729,43.68798],[-79.36728,43.68822],[-79.36741,43.68875],[-79.36773,43.68925],[-79.36835,43.68977],[-79.3695,43.69033],[-79.37057,43.6907],[-79.37082,43.69094],[-79.37339,43.69234],[-79.37445,43.6928],[-79.37639,43.69339],[-79.37676,43.69336],[-79.37754,43.69365],[-79.37993,43.69472],[-79.37995,43.69507],[-79.37445,43.69622],[-79.37322,43.6965],[-79.37174,43.69675],[-79.3725,43.69873],[-79.37285,43.69956],[-79.37338,43.70094],[-79.37413,43.703],[-79.37494,43.70511],[-79.37601,43.70781],[-79.37695,43.7103],[-79.37716,43.71105],[-79.37749,43.71309],[-79.37886,43.71278],[-79.379,43.71272],[-79.38151,43.71222],[-79.38158,43.71216],[-79.38381,43.71169],[-79.38397,43.7117],[-79.38563,43.71137],[-79.38574,43.71143],[-79.38602,43.71217],[-79.38621,43.71222],[-79.38631,43.71251],[-79.38621,43.71266],[-79.38645,43.71314],[-79.38735,43.71545],[-79.38829,43.71908],[-79.38844,43.71905],[-79.38977,43.71878],[-79.39416,43.71789],[-79.39912,43.71687],[-79.40048,43.71661],[-79.40044,43.71637],[-79.40023,43.71546],[-79.40011,43.71495],[-79.39929,43.71091],[-79.399,43.70958],[-79.39887,43.70909],[-79.39824,43.70614]]]},"properties":{"name":"Midtown","info":"Bloor to roughly Eglinton: the Annex, Yonge & St. Clair, Davisville.","lp":[-79.39909,43.68186]}},
{"type":"Feature","geometry":{"type":"Polygon","coordinates":[[[-79.39824,43.70614],[-79.39863,43.70799],[-79.39887,43.70909],[-79.39929,43.71091],[-79.40011,43.71495],[-79.40023,43.71546],[-79.40044,43.71637],[-79.40045,43.71657],[-79.40039,43.71662],[-79.39912,43.71687],[-79.39769,43.71716],[-79.39416,43.71789],[-79.38829,43.71908],[-79.38925,43.72368],[-79.38961,43.72453],[-79.38946,43.7247],[-79.39016,43.7281],[-79.39054,43.72914],[-79.39085,43.72982],[-79.39065,43.72999],[-79.39127,43.73244],[-79.39241,43.73691],[-79.40445,43.73428],[-79.40457,43.73436],[-79.40493,43.73601],[-79.40884,43.73514],[-79.41698,43.73334],[-79.41615,43.72884],[-79.41588,43.72774],[-79.41457,43.7245],[-79.41352,43.71886],[-79.4136,43.71874],[-79.42222,43.71703],[-79.42112,43.71419],[-79.42061,43.7131],[-79.41937,43.71007],[-79.41945,43.70993],[-79.42701,43.70834],[-79.42729,43.70823],[-79.43616,43.70638],[-79.43969,43.70561],[-79.43886,43.70214],[-79.43893,43.70202],[-79.44068,43.70161],[-79.44005,43.70005],[-79.44014,43.69991],[-79.43939,43.69804],[-79.43602,43.69877],[-79.4299,43.70006],[-79.42761,43.70057],[-79.42556,43.70099],[-79.42314,43.70151],[-79.42089,43.702],[-79.41988,43.70219],[-79.41323,43.70361],[-79.41104,43.70407],[-79.41096,43.70405],[-79.41093,43.704],[-79.4108,43.70369],[-79.41026,43.70234],[-79.40986,43.70132],[-79.4094,43.70017],[-79.40943,43.69991],[-79.40914,43.69926],[-79.40871,43.69911],[-79.40778,43.69879],[-79.40667,43.6984],[-79.40617,43.69822],[-79.4061,43.69819],[-79.40586,43.69817],[-79.40556,43.69799],[-79.40278,43.69713],[-79.40127,43.69673],[-79.40009,43.69639],[-79.39804,43.69585],[-79.39691,43.69561],[-79.39611,43.69567],[-79.3962,43.69613],[-79.39647,43.69737],[-79.39664,43.6983],[-79.39695,43.69979],[-79.39704,43.7003],[-79.39734,43.70179],[-79.39767,43.70329],[-79.39785,43.70435],[-79.39824,43.70614]]]},"properties":{"name":"Uptown","info":"Around and north of Yonge & Eglinton up to the 401.","lp":[-79.40508,43.72486]}},
{"type":"Feature","geometry":{"type":"Polygon","coordinates":[[[-79.48278,43.66682],[-79.48331,43.66679],[-79.48286,43.66571],[-79.48314,43.66528],[-79.48313,43.6649],[-79.48169,43.66155],[-79.48144,43.66068],[-79.48263,43.66043],[-79.48299,43.66041],[-79.48851,43.65916],[-79.48812,43.65827],[-79.48698,43.65539],[-79.48452,43.64942],[-79.48488,43.6491],[-79.48508,43.64908],[-79.49262,43.64744],[-79.49277,43.64712],[-79.49282,43.64673],[-79.49279,43.64621],[-79.4927,43.64591],[-79.49252,43.64561],[-79.49173,43.64494],[-79.49155,43.64472],[-79.49098,43.64384],[-79.49059,43.64308],[-79.49019,43.642],[-79.4898,43.64145],[-79.48944,43.64123],[-79.48911,43.64121],[-79.48821,43.64152],[-79.48751,43.64181],[-79.48667,43.64202],[-79.48598,43.64211],[-79.48545,43.64209],[-79.48505,43.64189],[-79.48499,43.64172],[-79.48502,43.64088],[-79.48511,43.64028],[-79.48513,43.63963],[-79.48504,43.63883],[-79.48484,43.63848],[-79.48425,43.63815],[-79.48385,43.63805],[-79.48248,43.63797],[-79.48188,43.63799],[-79.48086,43.63809],[-79.47985,43.63814],[-79.47885,43.63812],[-79.47813,43.63799],[-79.47752,43.63774],[-79.47708,43.63721],[-79.47687,43.63673],[-79.47683,43.63645],[-79.47652,43.63596],[-79.47584,43.63475],[-79.4755,43.63411],[-79.47512,43.63385],[-79.47386,43.63325],[-79.4728,43.63282],[-79.47202,43.63236],[-79.47123,43.6317],[-79.47098,43.63194],[-79.47029,43.63222],[-79.46924,43.63278],[-79.46877,43.63317],[-79.46839,43.63376],[-79.46804,43.63404],[-79.46731,43.63425],[-79.46716,43.6344],[-79.46599,43.63459],[-79.46522,43.63503],[-79.46504,43.63522],[-79.46391,43.63571],[-79.4632,43.63578],[-79.46256,43.63577],[-79.46166,43.6364],[-79.46126,43.63636],[-79.46074,43.6366],[-79.46019,43.63676],[-79.45943,43.63678],[-79.45903,43.63684],[-79.45877,43.63676],[-79.45831,43.63702],[-79.4579,43.63718],[-79.45691,43.63722],[-79.45583,43.63734],[-79.45521,43.63748],[-79.45447,43.63741],[-79.45382,43.63729],[-79.45293,43.63695],[-79.45276,43.63681],[-79.4524,43.63671],[-79.45092,43.6365],[-79.45057,43.63658],[-79.44989,43.63655],[-79.44936,43.63627],[-79.44893,43.63619],[-79.44838,43.63643],[-79.44763,43.63653],[-79.44574,43.63593],[-79.44398,43.63518],[-79.44392,43.63501],[-79.44325,43.63473],[-79.44292,43.63473],[-79.44244,43.63489],[-79.44199,43.63496],[-79.44115,43.63488],[-79.44072,43.6347],[-79.44004,43.63426],[-79.44002,43.63395],[-79.43941,43.63362],[-79.4393,43.6335],[-79.43932,43.63319],[-79.43826,43.63271],[-79.43773,43.63254],[-79.43692,43.63216],[-79.43586,43.63182],[-79.43519,43.63146],[-79.43371,43.63091],[-79.43366,43.63086],[-79.43172,43.63043],[-79.42948,43.63002],[-79.42721,43.62972],[-79.42597,43.62966],[-79.4237,43.62985],[-79.42011,43.63012],[-79.41873,43.62951],[-79.41842,43.62947],[-79.41791,43.62955],[-79.41783,43.62971],[-79.41739,43.6299],[-79.41497,43.6303],[-79.41456,43.63011],[-79.41429,43.63009],[-79.41422,43.62982],[-79.41455,43.62953],[-79.41486,43.62965],[-79.41558,43.62958],[-79.416,43.62936],[-79.41611,43.6291],[-79.41636,43.62892],[-79.41655,43.62864],[-79.41646,43.62846],[-79.41621,43.62837],[-79.41634,43.62819],[-79.41754,43.62799],[-79.4179,43.6278],[-79.41844,43.62797],[-79.41903,43.62787],[-79.41932,43.62799],[-79.41934,43.62816],[-79.41915,43.62849],[-79.41962,43.62883],[-79.41934,43.62899],[-79.4194,43.62919],[-79.41963,43.62932],[-79.42008,43.62925],[-79.42247,43.62906],[-79.42209,43.62855],[-79.42212,43.62814],[-79.42254,43.62773],[-79.42238,43.62746],[-79.42221,43.62741],[-79.4214,43.62754],[-79.42084,43.62739],[-79.42047,43.62723],[-79.42001,43.62676],[-79.41969,43.62677],[-79.41942,43.62688],[-79.41822,43.62649],[-79.4167,43.62628],[-79.41639,43.62629],[-79.41502,43.6264],[-79.41508,43.62655],[-79.41651,43.6264],[-79.41831,43.6266],[-79.41854,43.62685],[-79.41834,43.62704],[-79.41809,43.62706],[-79.41775,43.62691],[-79.4178,43.62738],[-79.4173,43.62793],[-79.41631,43.62808],[-79.4161,43.62786],[-79.41565,43.62765],[-79.41555,43.62715],[-79.41537,43.62708],[-79.41454,43.62717],[-79.41418,43.62715],[-79.41348,43.62697],[-79.41307,43.62725],[-79.4128,43.62735],[-79.41225,43.62739],[-79.41146,43.6273],[-79.41105,43.62738],[-79.41038,43.6278],[-79.41006,43.6282],[-79.41006,43.62857],[-79.41023,43.62915],[-79.40987,43.62939],[-79.40915,43.62952],[-79.40905,43.62978],[-79.40928,43.63021],[-79.40945,43.63069],[-79.40946,43.63102],[-79.4099,43.63095],[-79.40993,43.63117],[-79.40963,43.63123],[-79.40879,43.6317],[-79.40864,43.63297],[-79.40853,43.63306],[-79.40665,43.63285],[-79.40511,43.63311],[-79.40501,43.63308],[-79.40344,43.63334],[-79.40165,43.63414],[-79.40154,43.63412],[-79.4004,43.633],[-79.40042,43.63284],[-79.40296,43.63148],[-79.403,43.63128],[-79.40236,43.63104],[-79.40201,43.63118],[-79.39761,43.63355],[-79.39744,43.63373],[-79.39693,43.63401],[-79.3972,43.63431],[-79.39814,43.63543],[-79.39826,43.63557],[-79.39834,43.63564],[-79.39837,43.63568],[-79.3984,43.63571],[-79.39841,43.63572],[-79.39847,43.63578],[-79.39848,43.63578],[-79.39859,43.63586],[-79.3987,43.63592],[-79.39878,43.63597],[-79.39878,43.63598],[-79.39885,43.63601],[-79.39894,43.63605],[-79.39894,43.63606],[-79.39936,43.63626],[-79.3995,43.63634],[-79.39957,43.6364],[-79.3996,43.63643],[-79.39961,43.63644],[-79.39964,43.63648],[-79.39965,43.63649],[-79.39981,43.63682],[-79.39982,43.63683],[-79.40002,43.63734],[-79.40044,43.63831],[-79.4022,43.64265],[-79.4024,43.6432],[-79.4029,43.64441],[-79.40311,43.64489],[-79.40323,43.64519],[-79.40337,43.64552],[-79.40376,43.64647],[-79.40389,43.64682],[-79.40401,43.64719],[-79.40419,43.64768],[-79.4055,43.65101],[-79.4056,43.65127],[-79.40565,43.65139],[-79.40602,43.65231],[-79.40684,43.65429],[-79.40772,43.65648],[-79.40847,43.65829],[-79.40909,43.65981],[-79.40944,43.66071],[-79.41025,43.66267],[-79.41072,43.66383],[-79.41121,43.66511],[-79.41181,43.665],[-79.41185,43.665],[-79.41244,43.66489],[-79.41244,43.66488],[-79.41365,43.66462],[-79.41486,43.66434],[-79.41612,43.66407],[-79.41722,43.66383],[-79.41834,43.6636],[-79.41835,43.6636],[-79.41836,43.6636],[-79.41839,43.66361],[-79.41843,43.66363],[-79.41845,43.66366],[-79.41879,43.66444],[-79.41947,43.66617],[-79.41959,43.66649],[-79.41962,43.66657],[-79.41993,43.66739],[-79.4202,43.66812],[-79.42029,43.66834],[-79.42181,43.67231],[-79.42174,43.67244],[-79.41675,43.67347],[-79.4147,43.67391],[-79.41469,43.67391],[-79.41485,43.67434],[-79.41553,43.67607],[-79.41579,43.67673],[-79.41644,43.67833],[-79.41644,43.67834],[-79.41658,43.67878],[-79.41676,43.67925],[-79.41709,43.68011],[-79.41748,43.68105],[-79.41767,43.68157],[-79.41843,43.6835],[-79.41849,43.68363],[-79.42072,43.68316],[-79.42079,43.68311],[-79.42328,43.68259],[-79.42355,43.68272],[-79.42465,43.6825],[-79.42471,43.6823],[-79.42611,43.68198],[-79.42646,43.68199],[-79.42895,43.68147],[-79.4291,43.68159],[-79.43395,43.68058],[-79.43996,43.67928],[-79.44237,43.67877],[-79.44248,43.67883],[-79.44356,43.68145],[-79.44495,43.68489],[-79.46014,43.68157],[-79.46044,43.6819],[-79.46114,43.68175],[-79.46122,43.68164],[-79.46547,43.68072],[-79.46544,43.68033],[-79.47038,43.67929],[-79.47057,43.67949],[-79.47177,43.67924],[-79.47264,43.67921],[-79.4734,43.67903],[-79.47383,43.67938],[-79.476,43.67887],[-79.47583,43.67837],[-79.47372,43.67673],[-79.47366,43.67628],[-79.47388,43.67568],[-79.47359,43.67532],[-79.47364,43.67516],[-79.4742,43.67498],[-79.47836,43.67408],[-79.47836,43.67376],[-79.47884,43.67364],[-79.47862,43.67311],[-79.47869,43.67297],[-79.48078,43.67251],[-79.48012,43.67088],[-79.48019,43.67074],[-79.48394,43.66991],[-79.48356,43.66899],[-79.48268,43.66696],[-79.48278,43.66682]],[[-79.4138,43.63024],[-79.41176,43.6306],[-79.41151,43.63088],[-79.41048,43.63106],[-79.41053,43.63079],[-79.41037,43.63059],[-79.41047,43.6303],[-79.41076,43.63024],[-79.41085,43.62989],[-79.41127,43.62982],[-79.41155,43.62954],[-79.41204,43.62938],[-79.41234,43.62935],[-79.413,43.6296],[-79.41311,43.62974],[-79.41376,43.62997],[-79.4138,43.63024]],[[-79.41464,43.62807],[-79.41436,43.62832],[-79.41423,43.62802],[-79.41436,43.6278],[-79.41487,43.62773],[-79.41513,43.62799],[-79.41504,43.62815],[-79.41464,43.62807]],[[-79.41879,43.62752],[-79.41848,43.62734],[-79.4187,43.62722],[-79.41879,43.62752]],[[-79.41976,43.62783],[-79.41933,43.62765],[-79.41943,43.62748],[-79.41974,43.62759],[-79.41976,43.62783]],[[-79.47074,43.64723],[-79.47098,43.64768],[-79.4707,43.64791],[-79.47053,43.64752],[-79.4698,43.64719],[-79.46977,43.64694],[-79.46957,43.64661],[-79.46934,43.64648],[-79.46912,43.64587],[-79.46906,43.64552],[-79.46863,43.645],[-79.46859,43.64463],[-79.46839,43.64409],[-79.4682,43.64384],[-79.46751,43.64369],[-79.46759,43.64353],[-79.46743,43.64321],[-79.46743,43.6428],[-79.46733,43.64259],[-79.46688,43.64229],[-79.46635,43.6421],[-79.46622,43.64193],[-79.46598,43.64197],[-79.46554,43.64184],[-79.46535,43.64168],[-79.46453,43.64138],[-79.46372,43.64122],[-79.46304,43.64136],[-79.46281,43.64119],[-79.46284,43.64083],[-79.46266,43.64051],[-79.46233,43.63962],[-79.46245,43.6393],[-79.46427,43.63876],[-79.46469,43.63883],[-79.46536,43.63863],[-79.46569,43.63837],[-79.46619,43.63808],[-79.46636,43.63806],[-79.46667,43.63837],[-79.4667,43.63858],[-79.46655,43.63887],[-79.46669,43.63912],[-79.46651,43.63943],[-79.46673,43.63957],[-79.46683,43.63979],[-79.46724,43.64005],[-79.46764,43.64047],[-79.46784,43.64083],[-79.46827,43.64137],[-79.46851,43.64191],[-79.46879,43.64229],[-79.46916,43.64292],[-79.46932,43.64356],[-79.46929,43.64376],[-79.46949,43.64412],[-79.46952,43.64442],[-79.46973,43.64469],[-79.46971,43.64488],[-79.46999,43.64526],[-79.47008,43.64567],[-79.47054,43.64654],[-79.47057,43.64691],[-79.47074,43.64723]]]},"properties":{"name":"West End","info":"Old Toronto west of Bathurst: Parkdale, the Junction, Roncesvalles, Little Italy.","lp":[-79.43953,43.65698]}},
{"type":"Feature","geometry":{"type":"Polygon","coordinates":[[[-79.36496,43.67673],[-79.36495,43.67673],[-79.36469,43.67646],[-79.36468,43.67646],[-79.36434,43.67623],[-79.36432,43.67622],[-79.36403,43.67594],[-79.36376,43.67565],[-79.36347,43.6754],[-79.3634,43.67533],[-79.36339,43.67532],[-79.3631,43.67492],[-79.36304,43.67488],[-79.36303,43.67487],[-79.36302,43.67485],[-79.36299,43.67481],[-79.36298,43.6748],[-79.36291,43.67465],[-79.36289,43.67459],[-79.36289,43.67457],[-79.36289,43.67456],[-79.36288,43.67449],[-79.36288,43.67441],[-79.36288,43.67439],[-79.36294,43.67413],[-79.36299,43.67395],[-79.36301,43.67387],[-79.36304,43.67369],[-79.36306,43.67354],[-79.36306,43.67347],[-79.36306,43.67346],[-79.36304,43.6734],[-79.36304,43.67339],[-79.36301,43.67332],[-79.36295,43.67324],[-79.36279,43.67313],[-79.36269,43.67308],[-79.36258,43.67303],[-79.36257,43.67303],[-79.36245,43.673],[-79.36233,43.67298],[-79.36223,43.67296],[-79.36206,43.67292],[-79.36195,43.67286],[-79.36186,43.67283],[-79.36185,43.67283],[-79.36176,43.67278],[-79.36167,43.67273],[-79.36166,43.67273],[-79.36157,43.67269],[-79.36156,43.67268],[-79.36053,43.67198],[-79.36052,43.67196],[-79.36046,43.67189],[-79.36045,43.67188],[-79.3604,43.67181],[-79.36034,43.67174],[-79.36028,43.67165],[-79.36023,43.67157],[-79.36022,43.67156],[-79.36018,43.67148],[-79.36013,43.67139],[-79.36009,43.6713],[-79.36005,43.67121],[-79.36001,43.67112],[-79.36001,43.67111],[-79.35996,43.67102],[-79.35992,43.67093],[-79.35984,43.67074],[-79.35979,43.67065],[-79.35975,43.67055],[-79.35971,43.67047],[-79.35971,43.67046],[-79.35966,43.67038],[-79.35959,43.67028],[-79.35942,43.67013],[-79.35942,43.67012],[-79.35933,43.67006],[-79.35875,43.66967],[-79.35853,43.66956],[-79.35814,43.66926],[-79.35781,43.66902],[-79.35781,43.66901],[-79.3578,43.66901],[-79.35776,43.66896],[-79.35774,43.66893],[-79.35761,43.6688],[-79.35755,43.66872],[-79.35751,43.66865],[-79.35751,43.66864],[-79.35743,43.66846],[-79.35739,43.66837],[-79.35738,43.66837],[-79.35735,43.66827],[-79.35732,43.66819],[-79.35718,43.6677],[-79.35658,43.66552],[-79.35635,43.66466],[-79.35613,43.66393],[-79.35609,43.6638],[-79.35605,43.66368],[-79.356,43.66355],[-79.35591,43.66327],[-79.3558,43.66285],[-79.35576,43.6627],[-79.35572,43.66257],[-79.35561,43.66228],[-79.35548,43.66185],[-79.35544,43.66171],[-79.35538,43.66143],[-79.35517,43.66071],[-79.35503,43.66028],[-79.3549,43.65986],[-79.35485,43.65972],[-79.35473,43.65932],[-79.35471,43.65919],[-79.35465,43.65892],[-79.35439,43.65803],[-79.35435,43.65791],[-79.35434,43.65791],[-79.35428,43.65779],[-79.35421,43.65767],[-79.35411,43.65756],[-79.35354,43.65705],[-79.35279,43.65645],[-79.35174,43.65556],[-79.34951,43.65359],[-79.34772,43.65141],[-79.34732,43.65081],[-79.34731,43.65078],[-79.34731,43.65075],[-79.34733,43.6507],[-79.34745,43.65053],[-79.34766,43.65042],[-79.35427,43.64768],[-79.35435,43.64765],[-79.35434,43.64744],[-79.35508,43.6471],[-79.35484,43.64678],[-79.35488,43.64663],[-79.35671,43.64583],[-79.35636,43.64541],[-79.35447,43.64619],[-79.35412,43.64589],[-79.35415,43.64574],[-79.35817,43.644],[-79.35661,43.64217],[-79.35259,43.64391],[-79.35247,43.64388],[-79.35227,43.64352],[-79.35232,43.64339],[-79.35624,43.64172],[-79.35409,43.6391],[-79.33373,43.65068],[-79.33499,43.65221],[-79.33496,43.65236],[-79.33161,43.65381],[-79.33149,43.65378],[-79.33017,43.65222],[-79.32544,43.65359],[-79.3251,43.65325],[-79.32514,43.6531],[-79.33296,43.64974],[-79.35334,43.63813],[-79.35118,43.63556],[-79.35094,43.63548],[-79.35076,43.63521],[-79.35052,43.63514],[-79.35027,43.63523],[-79.3481,43.63357],[-79.34783,43.63367],[-79.34726,43.63322],[-79.3471,43.63321],[-79.34702,43.63418],[-79.34684,43.63459],[-79.34656,43.63473],[-79.34553,43.63499],[-79.34506,43.63555],[-79.3442,43.63621],[-79.34388,43.63653],[-79.34381,43.63671],[-79.34325,43.63723],[-79.34284,43.63752],[-79.34242,43.63772],[-79.34158,43.63803],[-79.34159,43.63839],[-79.3413,43.63866],[-79.34053,43.63917],[-79.33921,43.63938],[-79.33855,43.63939],[-79.33801,43.63934],[-79.33742,43.6394],[-79.33649,43.63918],[-79.33638,43.63928],[-79.33581,43.63938],[-79.33547,43.63989],[-79.33617,43.63943],[-79.33646,43.63942],[-79.3369,43.63962],[-79.33734,43.63995],[-79.33745,43.64011],[-79.33735,43.64036],[-79.33672,43.64097],[-79.33633,43.64129],[-79.33623,43.64146],[-79.33593,43.6416],[-79.33571,43.64191],[-79.33531,43.64205],[-79.33524,43.64232],[-79.33457,43.64295],[-79.33386,43.64356],[-79.33354,43.64394],[-79.33322,43.64416],[-79.33233,43.64496],[-79.33128,43.64563],[-79.33096,43.64588],[-79.33047,43.64657],[-79.32946,43.64708],[-79.32888,43.6474],[-79.3284,43.6476],[-79.32816,43.64761],[-79.32747,43.64735],[-79.32739,43.64705],[-79.32687,43.64686],[-79.32659,43.64696],[-79.32596,43.64692],[-79.32572,43.64678],[-79.3256,43.64656],[-79.32537,43.64553],[-79.32598,43.64482],[-79.32685,43.64396],[-79.32731,43.64385],[-79.32785,43.64392],[-79.32737,43.64357],[-79.32713,43.64318],[-79.32711,43.64279],[-79.32735,43.64227],[-79.32756,43.64212],[-79.32741,43.64176],[-79.32745,43.64154],[-79.32768,43.6412],[-79.32816,43.64089],[-79.32866,43.64082],[-79.32858,43.64056],[-79.32871,43.64031],[-79.32899,43.64004],[-79.32941,43.63984],[-79.32987,43.63974],[-79.32974,43.63936],[-79.32986,43.63903],[-79.3301,43.63888],[-79.33055,43.63872],[-79.3303,43.63826],[-79.33023,43.63789],[-79.32978,43.6375],[-79.32966,43.63721],[-79.32948,43.63708],[-79.32892,43.63726],[-79.32866,43.63748],[-79.32859,43.63767],[-79.32885,43.63804],[-79.3288,43.63818],[-79.32822,43.63878],[-79.32773,43.63922],[-79.32714,43.63986],[-79.3268,43.64035],[-79.32659,43.64045],[-79.32624,43.64028],[-79.32506,43.63991],[-79.32471,43.64007],[-79.32475,43.6402],[-79.32618,43.64076],[-79.32623,43.6409],[-79.32533,43.64227],[-79.32446,43.64425],[-79.32456,43.64445],[-79.32435,43.64513],[-79.32424,43.6452],[-79.32173,43.64483],[-79.32158,43.64465],[-79.32174,43.64378],[-79.32195,43.64331],[-79.32232,43.64155],[-79.32262,43.64121],[-79.3226,43.64048],[-79.32269,43.64023],[-79.32281,43.63951],[-79.32299,43.63898],[-79.32297,43.63828],[-79.32341,43.63752],[-79.32409,43.63694],[-79.32448,43.63645],[-79.3253,43.63589],[-79.32597,43.63574],[-79.3262,43.63546],[-79.32624,43.63489],[-79.32591,43.63478],[-79.32565,43.63451],[-79.32546,43.63409],[-79.32543,43.63376],[-79.32559,43.63351],[-79.32603,43.63302],[-79.32642,43.63266],[-79.32643,43.63202],[-79.32679,43.63167],[-79.32729,43.63167],[-79.32826,43.63193],[-79.32896,43.63204],[-79.32923,43.63226],[-79.32924,43.63245],[-79.32871,43.63316],[-79.32964,43.63301],[-79.33088,43.63263],[-79.3314,43.6323],[-79.33189,43.63213],[-79.3323,43.63192],[-79.33345,43.63153],[-79.33385,43.63148],[-79.33451,43.63157],[-79.33467,43.6314],[-79.33486,43.63092],[-79.33542,43.63063],[-79.33597,43.63007],[-79.33634,43.62992],[-79.33646,43.62937],[-79.3363,43.62916],[-79.33537,43.62967],[-79.33503,43.62973],[-79.3345,43.62946],[-79.33412,43.62938],[-79.33376,43.62959],[-79.33372,43.62981],[-79.33391,43.63019],[-79.33382,43.63044],[-79.33312,43.63068],[-79.3327,43.63067],[-79.33237,43.63043],[-79.33195,43.63049],[-79.33152,43.63118],[-79.33115,43.63127],[-79.33044,43.63125],[-79.33015,43.6313],[-79.32894,43.63096],[-79.32865,43.63071],[-79.32868,43.63041],[-79.32883,43.63011],[-79.32936,43.62945],[-79.32961,43.62886],[-79.32998,43.62833],[-79.33062,43.62812],[-79.33082,43.62783],[-79.33122,43.62755],[-79.33147,43.62727],[-79.33144,43.62696],[-79.33166,43.62667],[-79.33128,43.62644],[-79.33089,43.62611],[-79.33043,43.62676],[-79.33003,43.62711],[-79.32959,43.6274],[-79.32931,43.6275],[-79.32844,43.62738],[-79.32794,43.62755],[-79.32829,43.62801],[-79.3282,43.62847],[-79.32774,43.62901],[-79.32741,43.6291],[-79.32692,43.629],[-79.3267,43.62903],[-79.32651,43.62937],[-79.32727,43.62946],[-79.32738,43.62954],[-79.32729,43.62992],[-79.32657,43.63083],[-79.32604,43.63137],[-79.32534,43.63226],[-79.32435,43.63334],[-79.32403,43.63352],[-79.32354,43.6334],[-79.32313,43.63338],[-79.32299,43.633],[-79.32323,43.63211],[-79.32337,43.63177],[-79.3237,43.63129],[-79.32356,43.63078],[-79.32361,43.63057],[-79.32406,43.63013],[-79.32445,43.62996],[-79.3256,43.62962],[-79.32572,43.62949],[-79.32534,43.62928],[-79.32507,43.62941],[-79.32458,43.62952],[-79.3242,43.62975],[-79.32384,43.6297],[-79.32365,43.62956],[-79.32356,43.62906],[-79.32376,43.62768],[-79.32376,43.62667],[-79.32383,43.62648],[-79.32406,43.62639],[-79.32489,43.62667],[-79.32682,43.62727],[-79.32732,43.62723],[-79.32718,43.62687],[-79.32659,43.62666],[-79.32558,43.62648],[-79.32522,43.62638],[-79.3242,43.62584],[-79.32404,43.62564],[-79.32397,43.62502],[-79.32408,43.62438],[-79.3242,43.62304],[-79.32442,43.62269],[-79.3247,43.62259],[-79.32749,43.62264],[-79.32884,43.62247],[-79.33204,43.6222],[-79.33302,43.62229],[-79.33321,43.62239],[-79.33332,43.62263],[-79.33334,43.62303],[-79.33295,43.62407],[-79.33199,43.62551],[-79.33133,43.62571],[-79.33215,43.62617],[-79.33269,43.62584],[-79.33317,43.62584],[-79.33414,43.62559],[-79.33422,43.62524],[-79.33435,43.62513],[-79.33487,43.62525],[-79.33543,43.62569],[-79.33571,43.62616],[-79.33573,43.62639],[-79.3356,43.62655],[-79.33491,43.62708],[-79.33499,43.62743],[-79.33527,43.62752],[-79.3359,43.62757],[-79.33653,43.62748],[-79.33691,43.62753],[-79.3373,43.6278],[-79.33755,43.62857],[-79.33752,43.62886],[-79.33772,43.62907],[-79.3382,43.62889],[-79.3386,43.62896],[-79.33936,43.62935],[-79.3394,43.62919],[-79.33839,43.62774],[-79.33824,43.62739],[-79.33789,43.62695],[-79.33731,43.62593],[-79.33725,43.62562],[-79.33682,43.62532],[-79.3367,43.62495],[-79.33675,43.62453],[-79.33695,43.62414],[-79.33743,43.62358],[-79.33748,43.62282],[-79.33815,43.62219],[-79.3387,43.62206],[-79.33903,43.62217],[-79.33931,43.62271],[-79.33963,43.62305],[-79.34083,43.62386],[-79.34122,43.62367],[-79.34167,43.62337],[-79.34238,43.62323],[-79.34287,43.62345],[-79.3432,43.62339],[-79.34315,43.62311],[-79.34284,43.62283],[-79.3426,43.62275],[-79.34223,43.62286],[-79.34127,43.6225],[-79.34113,43.62239],[-79.34111,43.62204],[-79.34058,43.62165],[-79.34007,43.62149],[-79.33975,43.62119],[-79.33965,43.62072],[-79.34005,43.62017],[-79.3407,43.61972],[-79.34124,43.6195],[-79.34211,43.61936],[-79.3427,43.61951],[-79.34287,43.61986],[-79.34278,43.62024],[-79.34297,43.62103],[-79.34332,43.62171],[-79.34313,43.62187],[-79.34332,43.62209],[-79.34388,43.62211],[-79.34478,43.62183],[-79.34441,43.62162],[-79.34355,43.62074],[-79.34338,43.62033],[-79.34344,43.61973],[-79.3439,43.61888],[-79.34445,43.61835],[-79.34468,43.61802],[-79.34435,43.6177],[-79.34378,43.61674],[-79.34369,43.61621],[-79.34369,43.61534],[-79.34383,43.61486],[-79.34395,43.61383],[-79.34392,43.61341],[-79.34368,43.61309],[-79.34342,43.61301],[-79.34291,43.61316],[-79.34278,43.61339],[-79.34269,43.6139],[-79.3424,43.61464],[-79.34184,43.61519],[-79.3418,43.6154],[-79.34243,43.61581],[-79.34261,43.61628],[-79.34225,43.6172],[-79.34152,43.61832],[-79.34083,43.61892],[-79.34011,43.61937],[-79.33984,43.61946],[-79.33876,43.61948],[-79.33834,43.61922],[-79.33772,43.61924],[-79.33752,43.61941],[-79.33754,43.61989],[-79.33726,43.621],[-79.3369,43.62136],[-79.33633,43.62128],[-79.336,43.62137],[-79.33542,43.62109],[-79.33538,43.62093],[-79.33623,43.61995],[-79.33608,43.61964],[-79.33567,43.61947],[-79.33506,43.61946],[-79.33483,43.61958],[-79.33454,43.61988],[-79.33388,43.62014],[-79.33241,43.62042],[-79.33186,43.62041],[-79.33068,43.62033],[-79.32951,43.62009],[-79.32826,43.61964],[-79.32799,43.61947],[-79.32786,43.61923],[-79.32758,43.61912],[-79.32725,43.61912],[-79.32698,43.61924],[-79.32687,43.6196],[-79.32713,43.61998],[-79.32806,43.62048],[-79.32871,43.62098],[-79.32882,43.62122],[-79.32883,43.62153],[-79.32864,43.6217],[-79.32771,43.62192],[-79.32743,43.62191],[-79.32656,43.62207],[-79.32603,43.62208],[-79.32547,43.62198],[-79.32486,43.6216],[-79.32478,43.62137],[-79.32485,43.621],[-79.32502,43.62061],[-79.32511,43.62019],[-79.32505,43.61943],[-79.32564,43.61854],[-79.32633,43.61811],[-79.32688,43.61796],[-79.32713,43.61769],[-79.32675,43.61748],[-79.32624,43.61765],[-79.32571,43.61777],[-79.3253,43.61779],[-79.32461,43.61759],[-79.32443,43.61743],[-79.32406,43.61727],[-79.32354,43.61734],[-79.32349,43.61764],[-79.32362,43.61779],[-79.3241,43.61812],[-79.32423,43.61838],[-79.32426,43.61889],[-79.32406,43.62084],[-79.32383,43.62188],[-79.32371,43.62207],[-79.32304,43.62229],[-79.3231,43.62269],[-79.32353,43.62292],[-79.32365,43.62314],[-79.3236,43.62379],[-79.32328,43.62517],[-79.32313,43.62548],[-79.32285,43.62575],[-79.3228,43.62607],[-79.32314,43.62633],[-79.32327,43.62673],[-79.32328,43.62716],[-79.32308,43.62824],[-79.3229,43.62883],[-79.32252,43.62905],[-79.32235,43.62936],[-79.32236,43.62958],[-79.32266,43.6298],[-79.32289,43.63032],[-79.32272,43.63154],[-79.32232,43.63271],[-79.32208,43.63293],[-79.32163,43.63307],[-79.32143,43.63338],[-79.32154,43.63354],[-79.32236,43.63387],[-79.32294,43.63426],[-79.32312,43.63448],[-79.32316,43.63478],[-79.32311,43.63527],[-79.32295,43.63571],[-79.32212,43.63896],[-79.32168,43.64025],[-79.3212,43.64123],[-79.32067,43.64171],[-79.32071,43.64195],[-79.3211,43.64212],[-79.32128,43.64242],[-79.3213,43.64267],[-79.32101,43.64366],[-79.32035,43.64552],[-79.31988,43.64586],[-79.31978,43.64611],[-79.32002,43.64659],[-79.32007,43.64698],[-79.31994,43.64796],[-79.31999,43.6482],[-79.32021,43.64845],[-79.32009,43.64941],[-79.31988,43.65007],[-79.31963,43.65112],[-79.31945,43.6516],[-79.31841,43.65346],[-79.31813,43.65412],[-79.31772,43.6547],[-79.31698,43.65537],[-79.31682,43.65557],[-79.31613,43.65601],[-79.31605,43.65617],[-79.31623,43.6567],[-79.31669,43.65729],[-79.3163,43.65758],[-79.31534,43.65753],[-79.31495,43.65739],[-79.31448,43.6574],[-79.31371,43.65758],[-79.31314,43.65792],[-79.31314,43.65807],[-79.3137,43.65849],[-79.31434,43.65891],[-79.31507,43.65925],[-79.31561,43.65958],[-79.31717,43.66076],[-79.31708,43.66095],[-79.31711,43.66139],[-79.31703,43.66149],[-79.31484,43.66198],[-79.31435,43.66162],[-79.31394,43.66158],[-79.3134,43.66164],[-79.3134,43.66133],[-79.31404,43.66119],[-79.31441,43.66092],[-79.3141,43.6607],[-79.31386,43.66037],[-79.31296,43.65965],[-79.31275,43.65955],[-79.31266,43.65927],[-79.31207,43.65881],[-79.31193,43.65854],[-79.31171,43.65836],[-79.31184,43.65796],[-79.3117,43.65774],[-79.31224,43.65725],[-79.31262,43.65708],[-79.31257,43.65685],[-79.31218,43.65675],[-79.31196,43.65689],[-79.31163,43.65692],[-79.3111,43.65684],[-79.31075,43.65662],[-79.31056,43.6566],[-79.31023,43.65693],[-79.31111,43.65719],[-79.31117,43.65732],[-79.31093,43.65791],[-79.31057,43.65825],[-79.31029,43.65837],[-79.30999,43.65816],[-79.3096,43.65807],[-79.30946,43.65824],[-79.30899,43.65812],[-79.30837,43.65788],[-79.30747,43.65768],[-79.30682,43.65721],[-79.3069,43.65687],[-79.30719,43.65692],[-79.30772,43.65677],[-79.30795,43.65662],[-79.3083,43.65625],[-79.30833,43.65606],[-79.30876,43.65591],[-79.30926,43.6559],[-79.30964,43.65607],[-79.31006,43.65613],[-79.31109,43.65597],[-79.31125,43.65576],[-79.31121,43.65548],[-79.31102,43.65528],[-79.31065,43.65516],[-79.31033,43.6552],[-79.31022,43.65541],[-79.30972,43.65541],[-79.30935,43.6552],[-79.30878,43.65443],[-79.30862,43.65416],[-79.30835,43.65436],[-79.30842,43.65498],[-79.30829,43.65534],[-79.30776,43.65613],[-79.3072,43.65647],[-79.3069,43.65658],[-79.30638,43.65662],[-79.30607,43.65653],[-79.30539,43.65644],[-79.30503,43.65664],[-79.3051,43.65705],[-79.30597,43.65793],[-79.30612,43.65841],[-79.30608,43.65867],[-79.30569,43.65925],[-79.30527,43.6594],[-79.30497,43.65986],[-79.30513,43.66012],[-79.30567,43.66038],[-79.30612,43.6604],[-79.30638,43.6603],[-79.30634,43.66008],[-79.30678,43.65989],[-79.30716,43.66],[-79.3076,43.66032],[-79.30767,43.6605],[-79.30775,43.66131],[-79.30763,43.66162],[-79.30704,43.66241],[-79.30642,43.66303],[-79.30559,43.66339],[-79.30447,43.6641],[-79.30407,43.66424],[-79.3031,43.66475],[-79.30248,43.66494],[-79.30221,43.66487],[-79.30207,43.66506],[-79.3014,43.66524],[-79.30088,43.66546],[-79.30054,43.66548],[-79.30029,43.66537],[-79.29947,43.66567],[-79.299,43.6655],[-79.29846,43.66553],[-79.29788,43.66529],[-79.29762,43.66534],[-79.29696,43.66534],[-79.29594,43.66565],[-79.29516,43.66596],[-79.29517,43.66625],[-79.29466,43.66623],[-79.29392,43.66703],[-79.29354,43.66729],[-79.29307,43.66736],[-79.29218,43.66783],[-79.29158,43.668],[-79.2914,43.66799],[-79.29054,43.66841],[-79.29019,43.66852],[-79.28967,43.66857],[-79.28928,43.66869],[-79.28853,43.66875],[-79.28823,43.66902],[-79.28714,43.66937],[-79.2864,43.66947],[-79.28609,43.66945],[-79.28558,43.66983],[-79.28514,43.66994],[-79.28494,43.66975],[-79.2843,43.67014],[-79.28353,43.67027],[-79.28306,43.67043],[-79.2827,43.67039],[-79.28246,43.67062],[-79.28187,43.67072],[-79.28154,43.67092],[-79.28124,43.67085],[-79.28064,43.67114],[-79.28025,43.67122],[-79.28002,43.67138],[-79.28106,43.67389],[-79.28122,43.67396],[-79.28438,43.6816],[-79.28625,43.6861],[-79.28776,43.68978],[-79.29261,43.68873],[-79.29272,43.68878],[-79.29431,43.69247],[-79.29485,43.69236],[-79.29493,43.69223],[-79.30333,43.69029],[-79.30352,43.6905],[-79.30415,43.6904],[-79.30831,43.68945],[-79.30888,43.68928],[-79.30819,43.68766],[-79.30826,43.68753],[-79.31349,43.68631],[-79.31361,43.68638],[-79.31485,43.68918],[-79.32512,43.68697],[-79.3287,43.68621],[-79.33136,43.68563],[-79.33872,43.68405],[-79.33885,43.68415],[-79.34796,43.6824],[-79.34807,43.68246],[-79.34875,43.68408],[-79.35721,43.68244],[-79.35734,43.68202],[-79.35765,43.6817],[-79.36032,43.68165],[-79.36063,43.68169],[-79.36128,43.68167],[-79.36174,43.68173],[-79.36238,43.68169],[-79.36234,43.68126],[-79.36174,43.67981],[-79.36181,43.67968],[-79.36418,43.6792],[-79.36405,43.67909],[-79.36405,43.67908],[-79.36375,43.67881],[-79.36372,43.67877],[-79.3636,43.67844],[-79.3636,43.67841],[-79.3636,43.6781],[-79.3636,43.67807],[-79.36362,43.67803],[-79.36384,43.67779],[-79.3641,43.67749],[-79.36412,43.67747],[-79.36445,43.67723],[-79.36483,43.67701],[-79.36496,43.67673]],[[-79.33819,43.62856],[-79.33848,43.62834],[-79.33867,43.62852],[-79.33828,43.62873],[-79.33819,43.62856]]]},"properties":{"name":"East End","info":"Old Toronto east of the Don: Riverdale, Leslieville, the Danforth, the Beaches.","lp":[-79.34016,43.66759]}}
]}