{"type":"FeatureCollection","asof":"2026-10-10T09:57","today":"2026-10-10","features":[{"type":"Feature","properties":{"proj":"ontario","name":"Ontario Line","street":"Beth Nealson Dr","extent":"Beth Nealson Dr 14 m North of Thorncliffe Park Dr to 32 m South of Wicksteed Ave","kind":"closed","art":false,"start":"2026-09-02T00:00","end":"2026-12-31T00:00","hours":"24h","days":"daily","both":true,"who":"Leaside Vallley Builders","desc":"Full Road Closure of Beth Nealson Drive required for the following activities Re alignment and Regrading and Lowering of Beth Nealson Drive Installation of new watermain, storm and Sanitary sewers Installation of THEST H"},"geometry":{"type":"LineString","coordinates":[[-79.34453,43.70942],[-79.34458,43.70947],[-79.34467,43.70953],[-79.34482,43.70964],[-79.34491,43.7097],[-79.34497,43.70975],[-79.34501,43.70979],[-79.34503,43.70982],[-79.34503,43.70982],[-79.34508,43.70988],[-79.34511,43.70994],[-79.34638,43.71312]]}},{"type":"Feature","properties":{"proj":"other","name":"Other Metrolinx work","street":"Craig Alan Crt","extent":"Craig Alan Crt 16 m East of Chapman Rd to 6 m Southwest of end of road","kind":"closed","art":false,"start":"2026-03-09T07:00","end":"2027-03-05T19:00","hours":"24h","days":"daily","both":true,"who":"Green Infrastructure Partners Inc","desc":"Basement Flooding Protection Program, Phase 4, Assignments 36-01, 36-03, 36-06, 36-09, 36-11, and 36-17"},"geometry":{"type":"LineString","coordinates":[[-79.51843,43.68907],[-79.51781,43.6892],[-79.51775,43.68925]]}},{"type":"Feature","properties":{"proj":"up","name":"GO Expansion (Barrie line)","street":"Dupont St","extent":"Dupont St at Campbell Ave to 74 m East of C N R","kind":"closed","art":true,"start":"2026-07-01T07:00","end":"2026-12-31T20:00","hours":"24h","days":"daily","both":true,"who":"Graham Construction and Engineering LP","desc":"Excavation, sidewalk demolition, duct bank installation, chamber installation, backfilling and sidewalk new works/reinstatement."},"geometry":{"type":"LineString","coordinates":[[-79.45003,43.66599],[-79.44865,43.66627],[-79.44862,43.66627],[-79.44862,43.66627],[-79.44773,43.66646]]}},{"type":"Feature","properties":{"proj":"up","name":"GO Expansion (Lakeshore East line)","street":"Highview Ave","extent":"Highview Ave at Birchmount Rd to 5 m East of Birchmount Rd","kind":"closed","art":false,"start":"2026-09-14T00:01","end":"2027-03-02T23:59","hours":"24h","days":"daily","both":true,"who":"ONxpress Civils Contractor GP","desc":"The Long-term closure is to cover Stage 1 (east side of Birchmount Bridge) advanced works, Support of Excavation (SOE) works, and associated activities, including, but not limited to, site preparation, demolition, excava"},"geometry":{"type":"LineString","coordinates":[[-79.26519,43.69993],[-79.26514,43.69994]]}},{"type":"Feature","properties":{"proj":"ontario","name":"Ontario Line","street":"James St","extent":"James St 23m North of Queen St W","kind":"closed","art":false,"start":"2026-01-01T00:00","end":"2026-12-31T23:59","hours":"24h","days":"daily","both":false,"who":"Ontario Transit Group","desc":"Extension of Queen Station Site Staging RoDARS. Southbound curb lane closed through/adjacent to Queen St. E. and Victoria St. intersection. Queen St. fully closed between Victoria St. and Bay St. Permit extension request"},"geometry":{"type":"Point","coordinates":[-79.38083,43.65233]}},{"type":"Feature","properties":{"proj":"eglwest","name":"Eglinton Crosstown West extension","street":"Jane St","extent":"Jane St 8 m North of Eglinton Ave West Trl to 14 m North of Eglinton Ave West Trl","kind":"closed","art":true,"start":"2026-08-24T21:00","end":"2026-11-30T05:00","hours":"21:00–05:00","days":"daily","both":true,"who":"Aecon Infrastructure Management Inc","desc":"This work is for the installation of falsework spanning across Jane Street, north of Eglinton Avenue - at the intersection of Jane and Eglinton. At the centreline of Jane Street a shoring tower will be installed. The tra"},"geometry":{"type":"LineString","coordinates":[[-79.49879,43.68438],[-79.49882,43.68448],[-79.49882,43.68448],[-79.49888,43.68466],[-79.49888,43.68466],[-79.49892,43.68478]]}},{"type":"Feature","properties":{"proj":"ontario","name":"Ontario Line","street":"Lipton Ave","extent":"Lipton Ave 50 m East of Pape Ave to 17 m West of end of road","kind":"closed","art":false,"start":"2026-05-31T00:00","end":"2026-12-31T23:59","hours":"24h","days":"daily","both":true,"who":"GREEN INFRASTRUCTURE PARTNERS INC.","desc":"Area 2 & 3 Pape Support of excavation - underpinning"},"geometry":{"type":"LineString","coordinates":[[-79.34456,43.6798],[-79.34416,43.67989]]}},{"type":"Feature","properties":{"proj":"ontario","name":"Ontario Line","street":"Ln W Pape S Cosburn","extent":"Ln W Pape S Cosburn 5 m North of Gowan Ave to 13 m South of Cosburn Ave","kind":"closed","art":false,"start":"2026-05-19T07:00","end":"2026-12-31T17:00","hours":"24h","days":"daily","both":true,"who":"Pape North Connect","desc":"Noise wall installation."},"geometry":{"type":"LineString","coordinates":[[-79.34907,43.68838],[-79.34923,43.6888],[-79.34921,43.68884],[-79.34934,43.68921]]}},{"type":"Feature","properties":{"proj":"eglwest","name":"Eglinton Crosstown West extension","street":"Matane Crt","extent":"Matane Crt at end of road to 69 m South of end of road","kind":"closed","art":false,"start":"2026-03-10T07:00","end":"2027-03-05T19:00","hours":"24h","days":"daily","both":true,"who":"Green Infrastructure Partners Inc","desc":"Basement Flooding Protection Program, Phase 4, Assignments 36-01, 36-03, 36-06, 36-09, 36-11, and 36-17"},"geometry":{"type":"LineString","coordinates":[[-79.52071,43.68853],[-79.52075,43.6885],[-79.52075,43.68844],[-79.52063,43.68813],[-79.5206,43.68804],[-79.52059,43.68798],[-79.52062,43.68794],[-79.5207,43.68791],[-79.52071,43.68791]]}},{"type":"Feature","properties":{"proj":"ontario","name":"Ontario Line","street":"Pape Ave","extent":"Pape Ave at Langley Ave to 7 m North of end of road","kind":"closed","art":false,"start":"2026-05-21T08:00","end":"2027-01-16T23:59","hours":"24h","days":"daily","both":true,"who":"Pape North Connect","desc":"Ontario Line - PTUS"},"geometry":{"type":"LineString","coordinates":[[-79.34131,43.67025],[-79.34117,43.66994],[-79.34117,43.66994],[-79.3411,43.66976]]}},{"type":"Feature","properties":{"proj":"ontario","name":"Ontario Line","street":"Queen St W","extent":"Queen St W 43m West of Yonge St","kind":"closed","art":true,"start":"2026-01-01T00:00","end":"2026-12-31T23:59","hours":"24h","days":"daily","both":true,"who":"Ontario Transit Group","desc":"Extension of Queen Station Site Staging RoDARS. Southbound curb lane closed through/adjacent to Queen St. E. and Victoria St. intersection. Queen St. fully closed between Victoria St. and Bay St. Permit extension request"},"geometry":{"type":"Point","coordinates":[-79.37977,43.65233]}},{"type":"Feature","properties":{"proj":"eglwest","name":"Eglinton Crosstown West extension","street":"Scarlett Rd","extent":"Scarlett Rd at Eglinton Ave W to 44 m Northwest of Eglinton Ave W","kind":"closed","art":true,"start":"2026-06-03T05:00","end":"2026-12-31T18:00","hours":"24h","days":"daily","both":true,"who":"Aecon Infrastructure Management Inc","desc":"Traffic staging for the Northwest corner of Scarlett and Eglinton - stage 2."},"geometry":{"type":"LineString","coordinates":[[-79.51146,43.68396],[-79.51172,43.68431]]}},{"type":"Feature","properties":{"proj":"l2east","name":"Line 2 East extension","street":"Winter Ave","extent":"Winter Ave 40 m South of Eglinton Ave E to Eglinton Ave E","kind":"closed","art":false,"start":"2026-08-17T00:00","end":"2026-12-31T19:00","hours":"24h","days":"daily","both":true,"who":"Scarborough Transit Connect","desc":"Realignment of Eglinton Ave E for piling works. EEB 01 Stage 01."},"geometry":{"type":"LineString","coordinates":[[-79.25424,43.73502],[-79.25438,43.73536]]}},{"type":"Feature","properties":{"proj":"up","name":"GO Expansion (Barrie line)","street":"Woodborough Ave","extent":"Woodborough Ave 4 m Southeast of Castlefield Ave to 83 m Southeast of Castlefield Ave","kind":"closed","art":false,"start":"2026-09-28T07:00","end":"2027-02-11T19:00","hours":"24h","days":"daily","both":true,"who":"Green Infrastructure Partners Inc.","desc":"The work listed below is for City of Toronto BASEMENT FLOODING PROTECTION PROGRAM FAIRBANK SILVERTHORN CONTRACT 4, contract number 23ECS-MI-03FP. Installation of a new 2400mm x 1200mm box storm sewer on Woodborough Avenu"},"geometry":{"type":"LineString","coordinates":[[-79.46871,43.6963],[-79.46861,43.69624],[-79.46858,43.6962],[-79.46855,43.69614],[-79.46853,43.69607],[-79.46851,43.69598],[-79.46849,43.69589],[-79.46846,43.69584],[-79.46841,43.69577],[-79.46834,43.69573],[-79.46828,43.69569],[-79.46824,43.69567]]}},{"type":"Feature","properties":{"proj":"up","name":"GO Expansion (Barrie line)","street":"Woodborough Ave","extent":"Woodborough Ave 89 m Southeast of Castlefield Ave to 13 m Northwest of Carnarvon St","kind":"closed","art":false,"start":"2026-09-28T07:00","end":"2027-02-11T19:00","hours":"24h","days":"daily","both":true,"who":"Green Infrastructure Partners Inc.","desc":"The work listed below is for City of Toronto BASEMENT FLOODING PROTECTION PROGRAM FAIRBANK SILVERTHORN CONTRACT 4, contract number 23ECS-MI-03FP. Installation of a new 2400mm x 1200mm box storm sewer on Woodborough Avenu"},"geometry":{"type":"LineString","coordinates":[[-79.46817,43.69564],[-79.46813,43.69562],[-79.46665,43.69511]]}},{"type":"Feature","properties":{"proj":"up","name":"GO Expansion (Stouffville line)","street":"Birchmount Rd","extent":"Birchmount Rd 39 m North of Danforth Ave to 7 m North of Raleigh Ave","kind":"narrowed","art":true,"start":"2026-09-14T09:00","end":"2026-10-16T16:00","hours":"09:00–16:00","days":"daily","both":false,"who":"ONxpress Civils Contractor GP","desc":"Completion of SUE Quality Level A and B investigations at the following locations: 1. Birchmount Road, including 390, 370, 357, 380, 381 Birchmount Rd 2. Birchmount Road at Highview Avenue 3. Mack Avenue at Birchmount Ro"},"geometry":{"type":"LineString","coordinates":[[-79.26414,43.69733],[-79.26447,43.69817],[-79.26447,43.69817],[-79.26489,43.69919],[-79.26519,43.69993],[-79.26519,43.69993],[-79.26563,43.70099],[-79.26563,43.70099],[-79.26588,43.70159],[-79.26588,43.70159],[-79.26604,43.70195],[-79.26604,43.70195],[-79.26607,43.70201]]}},{"type":"Feature","properties":{"proj":"up","name":"GO Expansion (Stouffville line)","street":"Birchmount Rd","extent":"Birchmount Rd 18 m North of Highview Ave to 6 m North of Raleigh Ave","kind":"narrowed","art":true,"start":"2026-09-21T09:00","end":"2026-10-16T16:00","hours":"09:00–16:00","days":"daily","both":false,"who":"ONxpress Civils Contractor GP","desc":"This closure is to support the utility works (temporary streetlighting)"},"geometry":{"type":"LineString","coordinates":[[-79.26525,43.70008],[-79.26563,43.70099],[-79.26563,43.70099],[-79.26588,43.70159],[-79.26588,43.70159],[-79.26604,43.70195],[-79.26604,43.70195],[-79.26606,43.702]]}},{"type":"Feature","properties":{"proj":"up","name":"GO Expansion (Stouffville line)","street":"Birchmount Rd","extent":"Birchmount Rd 7 m North of Highview Ave to 95 m North of Raleigh Ave","kind":"narrowed","art":true,"start":"2026-09-14T09:00","end":"2026-10-16T16:00","hours":"09:00–16:00","days":"daily","both":false,"who":"ONxpress Civils Contractor GP","desc":"Completion of SUE Quality Level A and B investigations at the following locations: 1. Birchmount Road, including 390, 370, 357, 380, 381 Birchmount Rd 2. Birchmount Road at Highview Avenue 3. Mack Avenue at Birchmount Ro"},"geometry":{"type":"LineString","coordinates":[[-79.26522,43.69999],[-79.26563,43.70099],[-79.26563,43.70099],[-79.26588,43.70159],[-79.26588,43.70159],[-79.26604,43.70195],[-79.26604,43.70195],[-79.26638,43.70277]]}},{"type":"Feature","properties":{"proj":"up","name":"GO Expansion (Stouffville line)","street":"Birchmount Rd","extent":"Birchmount Rd 21 m North of Raleigh Ave to 54 m South of Highview Ave","kind":"narrowed","art":true,"start":"2026-09-29T21:00","end":"2026-11-03T06:00","hours":"21:00–06:00","days":"daily","both":false,"who":"ONxpress Civils Contractor GP","desc":"This request is related to previous RoDRAS #Tor-RD042026-799 and Tor-RD042026-1134 to complete the remaining works as follows: Hydrogeology Work: Week 40 (September 28 to October 2) Locates for Decommissioning: Week 43 ("},"geometry":{"type":"LineString","coordinates":[[-79.26612,43.70214],[-79.26604,43.70195],[-79.26604,43.70195],[-79.26588,43.70159],[-79.26588,43.70159],[-79.26563,43.70099],[-79.26563,43.70099],[-79.26519,43.69993],[-79.26519,43.69993],[-79.265,43.69946]]}},{"type":"Feature","properties":{"proj":"up","name":"GO Expansion (Stouffville line)","street":"Birchmount Rd","extent":"Birchmount Rd 1 m North of Raleigh Ave to 3 m South of Highview Ave","kind":"narrowed","art":true,"start":"2026-09-29T21:00","end":"2026-11-03T06:00","hours":"21:00–06:00","days":"daily","both":false,"who":"ONxpress Civils Contractor GP","desc":"This request is related to previous RoDRAS #Tor-RD042026-799 and Tor-RD042026-1134 to complete the remaining works as follows: Hydrogeology Work: Week 40 (September 28 to October 2) Locates for Decommissioning: Week 43 ("},"geometry":{"type":"LineString","coordinates":[[-79.26604,43.70196],[-79.26604,43.70195],[-79.26604,43.70195],[-79.26588,43.70159],[-79.26588,43.70159],[-79.26563,43.70099],[-79.26563,43.70099],[-79.26519,43.69993],[-79.26519,43.69993],[-79.26518,43.69991]]}},{"type":"Feature","properties":{"proj":"up","name":"GO Expansion (Stouffville line)","street":"Birchmount Rd","extent":"Birchmount Rd 20 m North of C N R to 4 m North of Raleigh Ave","kind":"narrowed","art":true,"start":"2026-10-12T09:00","end":"2026-10-30T16:00","hours":"09:00–16:00","days":"daily","both":false,"who":"ONxpress Civils Contractor GP","desc":"To complete removing the Hydro Poles activities. Note: Please be advised that the proposed work will be undertaken under a single application package; however, the activities will be phased and completed sequentially. Th"},"geometry":{"type":"LineString","coordinates":[[-79.2657,43.70117],[-79.26588,43.70159],[-79.26588,43.70159],[-79.26604,43.70195],[-79.26604,43.70195],[-79.26605,43.70199]]}},{"type":"Feature","properties":{"proj":"up","name":"GO Expansion (Stouffville line)","street":"Birchmount Rd","extent":"Birchmount Rd 6 m North of Raleigh Ave to 8 m North of Highview Ave","kind":"narrowed","art":true,"start":"2026-10-12T09:00","end":"2026-10-30T16:00","hours":"09:00–16:00","days":"daily","both":false,"who":"ONxpress Civils Contractor GP","desc":"To complete removing the Hydro Poles activities. Note: Please be advised that the proposed work will be undertaken under a single application package; however, the activities will be phased and completed sequentially. Th"},"geometry":{"type":"LineString","coordinates":[[-79.26606,43.70201],[-79.26604,43.70195],[-79.26604,43.70195],[-79.26588,43.70159],[-79.26588,43.70159],[-79.26563,43.70099],[-79.26563,43.70099],[-79.26522,43.69999]]}},{"type":"Feature","properties":{"proj":"up","name":"GO Expansion (Stouffville line)","street":"Birchmount Rd","extent":"Birchmount Rd from Highview Ave to Raleigh Ave","kind":"narrowed","art":true,"start":"2026-09-14T00:01","end":"2027-03-02T23:59","hours":"24h","days":"daily","both":false,"who":"ONxpress Civils Contractor GP","desc":"The Long-term closure is to cover Stage 1 (east side of Birchmount Bridge) advanced works, Support of Excavation (SOE) works, and associated activities, including, but not limited to, site preparation, demolition, excava"},"geometry":{"type":"LineString","coordinates":[[-79.26519,43.69993],[-79.26563,43.70099],[-79.26563,43.70099],[-79.26588,43.70159],[-79.26588,43.70159],[-79.26604,43.70195]]}},{"type":"Feature","properties":{"proj":"up","name":"GO Expansion (Stouffville line)","street":"Birchmount Rd","extent":"Birchmount Rd at Mack Ave to 2 m South of Mack Ave","kind":"narrowed","art":true,"start":"2026-09-14T00:01","end":"2027-03-02T23:59","hours":"24h","days":"daily","both":false,"who":"ONxpress Civils Contractor GP","desc":"The Long-term closure is to cover Stage 1 (east side of Birchmount Bridge) advanced works, Support of Excavation (SOE) works, and associated activities, including, but not limited to, site preparation, demolition, excava"},"geometry":{"type":"LineString","coordinates":[[-79.26588,43.70159],[-79.26587,43.70157]]}},{"type":"Feature","properties":{"proj":"ontario","name":"Ontario Line","street":"Carlaw Ave","extent":"Carlaw Ave 5 m South of Gerrard St E to 7 m South of C N R","kind":"narrowed","art":true,"start":"2026-10-13T07:00","end":"2026-10-13T09:00","hours":"07:00–09:00","days":"daily","both":false,"who":"Trillium Guideway Partners","desc":"Ontario Line Elevated Guideway and Stations: The scope of work for the contract includes: three kilometres of an elevated guideway; five elevated stations (Riverside-Leslieville, Gerrard, Thorncliffe Park, Flemington Par"},"geometry":{"type":"LineString","coordinates":[[-79.34274,43.66758],[-79.34265,43.66734],[-79.34265,43.66734],[-79.34262,43.66728]]}},{"type":"Feature","properties":{"proj":"ontario","name":"Ontario Line","street":"Carlaw Ave","extent":"Carlaw Ave 7 m North of Gerrard St E to 46 m North of Gerrard St E","kind":"narrowed","art":true,"start":"2026-10-13T07:00","end":"2026-10-13T09:00","hours":"07:00–09:00","days":"daily","both":false,"who":"Trillium Guideway Partners","desc":"Ontario Line Elevated Guideway and Stations: The scope of work for the contract includes: three kilometres of an elevated guideway; five elevated stations (Riverside-Leslieville, Gerrard, Thorncliffe Park, Flemington Par"},"geometry":{"type":"LineString","coordinates":[[-79.34279,43.66769],[-79.34292,43.66802]]}},{"type":"Feature","properties":{"proj":"ontario","name":"Ontario Line","street":"Carlaw Ave","extent":"Carlaw Ave 11 m South of Ln S Victor W Carlaw to 11 m North of Gerrard St E","kind":"narrowed","art":true,"start":"2026-07-20T10:00","end":"2026-11-01T23:59","hours":"24h","days":"daily","both":false,"who":"Trillium Guideway Partners","desc":"Ontario Line Elevated Guideway and Stations: The scope of work for the contract includes: three kilometres of an elevated guideway; five elevated stations (Riverside-Leslieville, Gerrard, Thorncliffe Park, Flemington Par"},"geometry":{"type":"LineString","coordinates":[[-79.34319,43.66868],[-79.34309,43.66845],[-79.34309,43.66845],[-79.3428,43.66773]]}},{"type":"Feature","properties":{"proj":"ontario","name":"Ontario Line","street":"Danforth Ave","extent":"Danforth Ave 34 m East of Ln E Pape S Danforth to Pape Ave","kind":"narrowed","art":true,"start":"2026-07-01T00:00","end":"2026-12-31T23:59","hours":"24h","days":"daily","both":true,"who":"GREEN INFRASTRUCTURE PARTNERS INC.","desc":"This is a very short duration closure for taking reading of instruments at the road."},"geometry":{"type":"LineString","coordinates":[[-79.34396,43.67913],[-79.34437,43.67905],[-79.34437,43.67905],[-79.34484,43.67895]]}},{"type":"Feature","properties":{"proj":"ontario","name":"Ontario Line","street":"Danforth Ave","extent":"Danforth Ave 7 m East of Ln E Pape S Danforth to 15 m West of Eaton Ave","kind":"narrowed","art":true,"start":"2026-07-01T00:00","end":"2026-12-31T23:59","hours":"24h","days":"daily","both":false,"who":"GREEN INFRASTRUCTURE PARTNERS INC.","desc":"Traffic layout after jet grouting works at Danforth"},"geometry":{"type":"LineString","coordinates":[[-79.34428,43.67907],[-79.34326,43.67927]]}},{"type":"Feature","properties":{"proj":"l2east","name":"Line 2 East extension","street":"Danforth Rd","extent":"Danforth Rd 23 m North of Savarin St to 29 m South of Savarin St","kind":"narrowed","art":true,"start":"2026-10-13T22:00","end":"2026-10-14T04:00","hours":"22:00–04:00","days":"daily","both":false,"who":"STRABAG Inc.","desc":"Acoustic testing - utility monitoring."},"geometry":{"type":"LineString","coordinates":[[-79.24499,43.74343],[-79.24506,43.74323],[-79.24506,43.74323],[-79.24513,43.74298]]}},{"type":"Feature","properties":{"proj":"l2east","name":"Line 2 East extension","street":"Danforth Rd","extent":"Danforth Rd 9 m South of Eglinton Ave E to 33 m South of Eglinton Ave E","kind":"narrowed","art":true,"start":"2026-04-17T00:00","end":"2026-10-16T23:59","hours":"24h","days":"daily","both":false,"who":"STRABAG Inc.","desc":"Installation of headwall for ATSSE project"},"geometry":{"type":"LineString","coordinates":[[-79.2463,43.737],[-79.24641,43.7368]]}},{"type":"Feature","properties":{"proj":"l2east","name":"Line 2 East extension","street":"Danforth Rd","extent":"Danforth Rd 16 m North of Eglinton Ave E to 8 m South of No Frills Lane","kind":"narrowed","art":true,"start":"2026-04-17T00:00","end":"2026-10-16T23:59","hours":"24h","days":"daily","both":true,"who":"STRABAG Inc.","desc":"Installation of headwall for ATSSE project"},"geometry":{"type":"LineString","coordinates":[[-79.24619,43.73721],[-79.24579,43.73801]]}},{"type":"Feature","properties":{"proj":"l2east","name":"Line 2 East extension","street":"Danforth Rd","extent":"Danforth Rd at No Frills Lane to 22 m North of No Frills Lane","kind":"narrowed","art":true,"start":"2026-04-17T00:00","end":"2026-10-16T23:59","hours":"24h","days":"daily","both":true,"who":"STRABAG Inc.","desc":"Installation of headwall for ATSSE project"},"geometry":{"type":"LineString","coordinates":[[-79.24576,43.73808],[-79.24568,43.73827]]}},{"type":"Feature","properties":{"proj":"up","name":"GO Expansion (Barrie line)","street":"Davenport Rd","extent":"Davenport Rd 8 m West of Wiltshire Ave to 5 m West of Foundry Ave","kind":"narrowed","art":true,"start":"2026-07-02T07:00","end":"2026-12-31T08:00","hours":"24h","days":"daily","both":false,"who":"Graham Construction and Engineering LP","desc":"Retaining wall demolition and ramp construction"},"geometry":{"type":"LineString","coordinates":[[-79.45218,43.67089],[-79.45208,43.67091],[-79.45208,43.67091],[-79.45179,43.67097],[-79.45179,43.67097],[-79.45138,43.67104],[-79.45138,43.67104],[-79.45108,43.6711],[-79.45108,43.6711],[-79.44948,43.67136]]}},{"type":"Feature","properties":{"proj":"ontario","name":"Ontario Line","street":"Don Mills Rd","extent":"Don Mills Rd 36 m South of St Dennis Dr to 103 m South of St Dennis Dr","kind":"narrowed","art":true,"start":"2026-10-16T09:00","end":"2026-10-16T15:00","hours":"09:00–15:00","days":"daily","both":false,"who":"Trillium Guideway Partners","desc":"Ontario Line Elevated Guideway and Stations: The scope of work for the contract includes: three kilometres of an elevated guideway; five elevated stations (Riverside-Leslieville, Gerrard, Thorncliffe Park, Flemington Par"},"geometry":{"type":"LineString","coordinates":[[-79.33718,43.71625],[-79.33692,43.71567]]}},{"type":"Feature","properties":{"proj":"ontario","name":"Ontario Line","street":"Don Mills Rd","extent":"Don Mills Rd 29 m North of Gateway Blvd to 7 m North of Gateway Blvd","kind":"narrowed","art":true,"start":"2026-10-15T09:00","end":"2026-10-15T15:00","hours":"09:00–15:00","days":"daily","both":false,"who":"Trillium Guideway Partners","desc":"Ontario Line Elevated Guideway and Stations: The scope of work for the contract includes: three kilometres of an elevated guideway; five elevated stations (Riverside-Leslieville, Gerrard, Thorncliffe Park, Flemington Par"},"geometry":{"type":"LineString","coordinates":[[-79.33646,43.71465],[-79.33638,43.71446]]}},{"type":"Feature","properties":{"proj":"ontario","name":"Ontario Line","street":"Don Mills Rd","extent":"Don Mills Rd 3 m South of Gateway Blvd to 30 m South of Gateway Blvd","kind":"narrowed","art":true,"start":"2026-10-15T09:00","end":"2026-10-15T15:00","hours":"09:00–15:00","days":"daily","both":false,"who":"Trillium Guideway Partners","desc":"Ontario Line Elevated Guideway and Stations: The scope of work for the contract includes: three kilometres of an elevated guideway; five elevated stations (Riverside-Leslieville, Gerrard, Thorncliffe Park, Flemington Par"},"geometry":{"type":"LineString","coordinates":[[-79.33634,43.71438],[-79.33624,43.71415]]}},{"type":"Feature","properties":{"proj":"ontario","name":"Ontario Line","street":"Don Mills Rd","extent":"Don Mills Rd 23 m North of Gateway Blvd to 26 m South of Gateway Blvd","kind":"narrowed","art":true,"start":"2026-10-13T09:00","end":"2026-10-13T15:00","hours":"09:00–15:00","days":"daily","both":false,"who":"Trillium Guideway Partners","desc":"Ontario Line Elevated Guideway and Stations: The scope of work for the contract includes: three kilometres of an elevated guideway; five elevated stations (Riverside-Leslieville, Gerrard, Thorncliffe Park, Flemington Par"},"geometry":{"type":"LineString","coordinates":[[-79.33644,43.7146],[-79.33635,43.7144],[-79.33635,43.7144],[-79.33625,43.71418]]}},{"type":"Feature","properties":{"proj":"ontario","name":"Ontario Line","street":"Don Mills Rd","extent":"Don Mills Rd 141 m North of Rochefort Dr to 71 m North of Rochefort Dr","kind":"narrowed","art":true,"start":"2026-10-14T07:00","end":"2026-10-16T19:00","hours":"07:00–19:00","days":"daily","both":false,"who":"Trillium Guideway Partners","desc":"Ontario Line Elevated Guideway and Stations: The scope of work for the contract includes: three kilometres of an elevated guideway; five elevated stations (Riverside-Leslieville, Gerrard, Thorncliffe Park, Flemington Par"},"geometry":{"type":"LineString","coordinates":[[-79.33848,43.71922],[-79.33821,43.71862]]}},{"type":"Feature","properties":{"proj":"ontario","name":"Ontario Line","street":"Don Mills Rd","extent":"Don Mills Rd 26 m South of Eglinton Ave E to 74 m North of Rochefort Dr","kind":"narrowed","art":true,"start":"2026-09-30T00:00","end":"2026-10-30T23:59","hours":"24h","days":"daily","both":false,"who":"Trillium Guideway Partners","desc":"Ontario Line Elevated Guideway and Stations: The scope of work for the contract includes: three kilometres of an elevated guideway; five elevated stations (Riverside-Leslieville, Gerrard, Thorncliffe Park, Flemington Par"},"geometry":{"type":"LineString","coordinates":[[-79.33882,43.72027],[-79.33872,43.71984],[-79.33856,43.71939],[-79.33822,43.71865]]}},{"type":"Feature","properties":{"proj":"ontario","name":"Ontario Line","street":"Don Mills Rd","extent":"Don Mills Rd 28 m North of Eglinton Ave E to 16 m South of Kyle Lowry Rd","kind":"narrowed","art":true,"start":"2026-07-27T00:00","end":"2026-12-31T23:59","hours":"24h","days":"daily","both":false,"who":"Trillium Guideway Partners","desc":"Ontario Line Elevated Guideway and Stations: The scope of work for the contract includes: three kilometres of an elevated guideway; five elevated stations (Riverside-Leslieville, Gerrard, Thorncliffe Park, Flemington Par"},"geometry":{"type":"LineString","coordinates":[[-79.33894,43.72074],[-79.33919,43.72164]]}},{"type":"Feature","properties":{"proj":"ontario","name":"Ontario Line","street":"Don Mills Rd","extent":"Don Mills Rd 13 m South of St Dennis Dr to 23 m North of Gateway Blvd","kind":"narrowed","art":true,"start":"2026-07-21T00:00","end":"2027-01-16T23:59","hours":"24h","days":"daily","both":false,"who":"Trillium Guideway Partners","desc":"Ontario Line Elevated Guideway and Stations: The scope of work for the contract includes: three kilometres of an elevated guideway; five elevated stations (Riverside-Leslieville, Gerrard, Thorncliffe Park, Flemington Par"},"geometry":{"type":"LineString","coordinates":[[-79.33727,43.71644],[-79.33644,43.7146]]}},{"type":"Feature","properties":{"proj":"ontario","name":"Ontario Line","street":"Eastern Ave","extent":"Eastern Ave 14 m East of Lewis St to 3 m West of C N R","kind":"narrowed","art":true,"start":"2026-04-28T00:01","end":"2026-10-28T23:59","hours":"24h","days":"daily","both":true,"who":"RCP","desc":"To facilitate reconstruction of Eastern Avenue Bridge"},"geometry":{"type":"LineString","coordinates":[[-79.34736,43.65654],[-79.34637,43.65675],[-79.34637,43.65676]]}},{"type":"Feature","properties":{"proj":"ontario","name":"Ontario Line","street":"Eglinton Ave E","extent":"Eglinton Ave E 11 m Northeast of Don Mills Rd to 27 m Northeast of Don Mills Rd","kind":"narrowed","art":true,"start":"2026-09-02T00:00","end":"2026-11-13T23:59","hours":"24h","days":"daily","both":false,"who":"Trillium Guideway Partners","desc":"Ontario Line Elevated Guideway and Stations: The scope of work for the contract includes: three kilometres of an elevated guideway; five elevated stations (Riverside-Leslieville, Gerrard, Thorncliffe Park, Flemington Par"},"geometry":{"type":"LineString","coordinates":[[-79.33875,43.72054],[-79.33857,43.7206]]}},{"type":"Feature","properties":{"proj":"ontario","name":"Ontario Line","street":"Eglinton Ave E","extent":"Eglinton Ave E 62 m Northeast of Mike Palmateer Rd to 69 m Southwest of Don Mills Rd","kind":"narrowed","art":true,"start":"2026-09-02T00:00","end":"2026-11-13T23:59","hours":"24h","days":"daily","both":false,"who":"Trillium Guideway Partners","desc":"Ontario Line Elevated Guideway and Stations: The scope of work for the contract includes: three kilometres of an elevated guideway; five elevated stations (Riverside-Leslieville, Gerrard, Thorncliffe Park, Flemington Par"},"geometry":{"type":"LineString","coordinates":[[-79.34049,43.72001],[-79.33967,43.72026]]}},{"type":"Feature","properties":{"proj":"l2east","name":"Line 2 East extension","street":"Eglinton Ave E","extent":"Eglinton Ave E 39 m East of Bimbrok Rd to 19 m East of Falmouth Ave","kind":"narrowed","art":true,"start":"2026-10-15T22:00","end":"2026-10-16T04:00","hours":"22:00–04:00","days":"daily","both":false,"who":"STRABAG Inc.","desc":"Monitoring well decommissioning prior to TBM arrival."},"geometry":{"type":"LineString","coordinates":[[-79.25159,43.73595],[-79.25205,43.73585],[-79.25205,43.73585],[-79.25295,43.73566]]}},{"type":"Feature","properties":{"proj":"l2east","name":"Line 2 East extension","street":"Eglinton Ave E","extent":"Eglinton Ave E 40 m West of Huntington Ave to 6 m West of Falmouth Ave","kind":"narrowed","art":true,"start":"2026-08-17T00:00","end":"2026-12-31T19:00","hours":"24h","days":"daily","both":true,"who":"Scarborough Transit Connect","desc":"Realignment of Eglinton Ave E for piling works. EEB 01 Stage 01."},"geometry":{"type":"LineString","coordinates":[[-79.25609,43.73497],[-79.25561,43.73507],[-79.25561,43.73507],[-79.25438,43.73536],[-79.25438,43.73536],[-79.25325,43.7356]]}},{"type":"Feature","properties":{"proj":"l2east","name":"Line 2 East extension","street":"Eglinton Ave E","extent":"Eglinton Ave E 10 m East of Falmouth Ave to 16 m West of Brimley Rd","kind":"narrowed","art":true,"start":"2026-08-10T00:00","end":"2026-11-01T05:00","hours":"24h","days":"daily","both":true,"who":"STRABAG Inc.","desc":"Extension - JG-3/4 worksite for ATSSE project (TBM ground improvement)"},"geometry":{"type":"LineString","coordinates":[[-79.25305,43.73564],[-79.25205,43.73585],[-79.25205,43.73585],[-79.24827,43.73666]]}},{"type":"Feature","properties":{"proj":"ontario","name":"Ontario Line","street":"Eglinton Ave E","extent":"Eglinton Ave E 15 m Northeast of Don Mills Rd to 53 m Northeast of Don Mills Rd","kind":"narrowed","art":true,"start":"2026-07-28T00:00","end":"2026-12-31T23:59","hours":"24h","days":"daily","both":false,"who":"Trillium Guideway Partners","desc":"Ontario Line Elevated Guideway and Stations: The scope of work for the contract includes: three kilometres of an elevated guideway; five elevated stations (Riverside-Leslieville, Gerrard, Thorncliffe Park, Flemington Par"},"geometry":{"type":"LineString","coordinates":[[-79.3387,43.72055],[-79.33827,43.72069]]}},{"type":"Feature","properties":{"proj":"eglwest","name":"Eglinton Crosstown West extension","street":"Eglinton Ave W","extent":"Eglinton Ave W 35 m East of Islington Ave to 39 m West of Islington Ave","kind":"narrowed","art":true,"start":"2026-10-05T09:00","end":"2026-10-30T16:00","hours":"24h","days":"daily","both":false,"who":"West End Connectors","desc":"https://www.metrolinx.com/en/projects-and-programs/eglinton-crosstown-west-extension"},"geometry":{"type":"LineString","coordinates":[[-79.53859,43.67992],[-79.53901,43.67984],[-79.53901,43.67984],[-79.53947,43.67974]]}},{"type":"Feature","properties":{"proj":"eglwest","name":"Eglinton Crosstown West extension","street":"Eglinton Ave W","extent":"Eglinton Ave W 65 m West of Martin Grove Rd to 92 m East of Martin Grove Rd","kind":"narrowed","art":true,"start":"2026-10-05T09:00","end":"2026-10-14T16:00","hours":"24h","days":"daily","both":true,"who":"West End Connectors","desc":"https://www.metrolinx.com/en/projects-and-programs/eglinton-crosstown-west-extension"},"geometry":{"type":"LineString","coordinates":[[-79.56395,43.67431],[-79.56348,43.67437],[-79.56318,43.67448],[-79.56318,43.67448],[-79.56206,43.67467]]}},{"type":"Feature","properties":{"proj":"eglwest","name":"Eglinton Crosstown West extension","street":"Eglinton Ave W","extent":"Eglinton Ave W 179 m East of Jane St to 268 m West of Pearen St","kind":"narrowed","art":true,"start":"2026-09-21T05:00","end":"2026-12-04T17:00","hours":"24h","days":"daily","both":false,"who":"Aecon Infrastructure Management Inc","desc":"To construct the relocated Fergy Brown Park driveway entrance. It is only the entrance that is being constructed and will be complete to full granular and paving specifications. Coordination with Strabag has been complet"},"geometry":{"type":"LineString","coordinates":[[-79.49673,43.68502],[-79.49595,43.68528],[-79.49592,43.68529]]}},{"type":"Feature","properties":{"proj":"eglwest","name":"Eglinton Crosstown West extension","street":"Eglinton Ave W","extent":"Eglinton Ave W 268 m West of Pearen St to 268 m West of Pearen St","kind":"narrowed","art":true,"start":"2026-08-18T00:00","end":"2027-02-08T23:59","hours":"24h","days":"daily","both":false,"who":"STRABAG Inc.","desc":"Construction Staging: Jane Portal (extension received)."},"geometry":{"type":"LineString","coordinates":[[-79.49321,43.6861],[-79.49375,43.68596],[-79.49435,43.68578],[-79.49435,43.68578],[-79.49481,43.68565],[-79.49595,43.68528],[-79.49618,43.6852]]}},{"type":"Feature","properties":{"proj":"eglwest","name":"Eglinton Crosstown West extension","street":"Eglinton Ave W","extent":"Eglinton Ave W at Scarlett Rd to 68 m West of Scarlett Rd","kind":"narrowed","art":true,"start":"2026-06-03T05:00","end":"2026-12-31T18:00","hours":"24h","days":"daily","both":false,"who":"Aecon Infrastructure Management Inc","desc":"Traffic staging for the Northwest corner of Scarlett and Eglinton - stage 2."},"geometry":{"type":"LineString","coordinates":[[-79.51146,43.68396],[-79.51228,43.68381]]}},{"type":"Feature","properties":{"proj":"eglwest","name":"Eglinton Crosstown West extension","street":"Eglinton Ave W","extent":"Eglinton Ave W 68 m West of Scarlett Rd to Scarlett Rd","kind":"narrowed","art":true,"start":"2026-06-03T05:00","end":"2026-12-31T18:00","hours":"24h","days":"daily","both":false,"who":"Aecon Infrastructure Management Inc","desc":"Traffic staging for the Northwest corner of Scarlett and Eglinton - stage 2."},"geometry":{"type":"LineString","coordinates":[[-79.51228,43.68381],[-79.51146,43.68396]]}},{"type":"Feature","properties":{"proj":"eglwest","name":"Eglinton Crosstown West extension","street":"Eglinton Ave W","extent":"Eglinton Ave W 33 m East of C N R / C P R to 10 m East of Weston Rd","kind":"narrowed","art":true,"start":"2026-08-18T00:00","end":"2027-02-14T23:59","hours":"24h","days":"daily","both":false,"who":"STRABAG Inc.","desc":"Construction Staging: Mt. Dennis Portal (extension received)."},"geometry":{"type":"LineString","coordinates":[[-79.48668,43.68754],[-79.48708,43.68746],[-79.48708,43.68746],[-79.48828,43.68726],[-79.48942,43.68702]]}},{"type":"Feature","properties":{"proj":"up","name":"GO Expansion (Stouffville line)","street":"Finch Ave E","extent":"Finch Ave E 6 m East of Milliken Blvd to 67 m West of Midland Ave","kind":"narrowed","art":true,"start":"2026-05-04T00:00","end":"2026-11-19T23:59","hours":"24h","days":"daily","both":true,"who":"Smart Tracks Construction Partners General Partnership","desc":"Construction of utilities and a grade separation for Metrolinx. Work event is for the utility relocation and caisson portion of the work that occupies the roadway"},"geometry":{"type":"LineString","coordinates":[[-79.29423,43.80183],[-79.293,43.80213],[-79.29158,43.80247],[-79.29158,43.80247],[-79.29007,43.80283],[-79.28891,43.80313],[-79.28891,43.80313],[-79.28835,43.80326],[-79.28835,43.80326],[-79.28818,43.8033],[-79.28735,43.8035]]}},{"type":"Feature","properties":{"proj":"ontario","name":"Ontario Line","street":"Gerrard St E","extent":"Gerrard St E 12 m East of Carlaw Ave to 33 m East of C N R","kind":"narrowed","art":true,"start":"2026-06-29T00:00","end":"2026-11-01T23:59","hours":"24h","days":"daily","both":false,"who":"Trillium Guideway Partners","desc":"Ontario Line Elevated Guideway and Stations: The scope of work for the contract includes: three kilometres of an elevated guideway; five elevated stations (Riverside-Leslieville, Gerrard, Thorncliffe Park, Flemington Par"},"geometry":{"type":"LineString","coordinates":[[-79.34263,43.66766],[-79.3423,43.66773],[-79.3423,43.66773],[-79.34191,43.66781]]}},{"type":"Feature","properties":{"proj":"eglwest","name":"Eglinton Crosstown West extension","street":"Islington Ave","extent":"Islington Ave 36 m North of Eglinton Ave W to 7 m North of Eglinton Ave W","kind":"narrowed","art":true,"start":"2026-10-05T09:00","end":"2026-10-30T16:00","hours":"24h","days":"daily","both":false,"who":"West End Connectors","desc":"https://www.metrolinx.com/en/projects-and-programs/eglinton-crosstown-west-extension"},"geometry":{"type":"LineString","coordinates":[[-79.53915,43.68014],[-79.53904,43.6799]]}},{"type":"Feature","properties":{"proj":"ontario","name":"Ontario Line","street":"Jarvis St","extent":"Jarvis St 14 m North of Queen St E to 3 m North of Queen St E","kind":"narrowed","art":true,"start":"2026-10-13T10:00","end":"2026-10-23T15:00","hours":"10:00–15:00","days":"daily","both":false,"who":"Ontario Transit Group","desc":"Installation of GIMP instrumentation along Mutual St., Queen St. E., and Jarvis St. Work to be performed during daytime hours and primarily in curb lanes, with minimal impact to traffic. Flaggers and paid duty officer to"},"geometry":{"type":"LineString","coordinates":[[-79.37327,43.65384],[-79.37323,43.65374]]}},{"type":"Feature","properties":{"proj":"ontario","name":"Ontario Line","street":"Ln S Queen W Spadina","extent":"Ln S Queen W Spadina 19m West of Spadina Ave","kind":"narrowed","art":true,"start":"2026-01-01T09:00","end":"2026-10-31T16:00","hours":"09:00–16:00","days":"daily","both":false,"who":"Ontario Transit Group","desc":"Extension/reissue of previously submitted RoDARS (using old method) with new permit for the EB curb lane closure during working, non-peak hours adjacent to OTG's Queen-Spadina Station South Shaft location. Closure utiliz"},"geometry":{"type":"Point","coordinates":[-79.39661,43.64828]}},{"type":"Feature","properties":{"proj":"eglwest","name":"Eglinton Crosstown West extension","street":"Martin Grove Rd","extent":"Martin Grove Rd 8 m North of Eglinton Ave W to 68 m North of Eglinton Ave W","kind":"narrowed","art":true,"start":"2026-09-21T09:00","end":"2026-10-20T16:00","hours":"24h","days":"daily","both":true,"who":"West End Connectors","desc":"https://www.metrolinx.com/en/projects-and-programs/eglinton-crosstown-west-extension"},"geometry":{"type":"LineString","coordinates":[[-79.56321,43.67454],[-79.56343,43.67506]]}},{"type":"Feature","properties":{"proj":"eglwest","name":"Eglinton Crosstown West extension","street":"Martin Grove Rd","extent":"Martin Grove Rd 47 m South of Eglinton Ave West Trl to 5 m North of Eglinton Ave West Trl","kind":"narrowed","art":true,"start":"2026-09-21T09:00","end":"2026-10-20T16:00","hours":"24h","days":"daily","both":false,"who":"West End Connectors","desc":"https://www.metrolinx.com/en/projects-and-programs/eglinton-crosstown-west-extension"},"geometry":{"type":"LineString","coordinates":[[-79.56291,43.67389],[-79.5631,43.6743],[-79.5631,43.6743],[-79.56311,43.67434]]}},{"type":"Feature","properties":{"proj":"l2east","name":"Line 2 East extension","street":"McCowan Rd","extent":"McCowan Rd 24 m South of Hurley Cres to 9 m South of Ww S Ellesmere W Mccowan","kind":"narrowed","art":true,"start":"2026-10-05T07:00","end":"2026-10-16T17:00","hours":"24h","days":"daily","both":true,"who":"Scarborough Transit Connect","desc":"Watermain Reinstatement"},"geometry":{"type":"LineString","coordinates":[[-79.25031,43.76888],[-79.2504,43.76909],[-79.2504,43.76909],[-79.25076,43.77005],[-79.25078,43.7701]]}},{"type":"Feature","properties":{"proj":"l2east","name":"Line 2 East extension","street":"McCowan Rd","extent":"McCowan Rd 1 m South of Triton Rd to 12 m South of Triton Rd","kind":"narrowed","art":true,"start":"2026-10-12T20:00","end":"2026-10-16T05:00","hours":"20:00–05:00","days":"daily","both":false,"who":"Scarborough Transit Connect","desc":"Cleaning procedures for slope washouts"},"geometry":{"type":"LineString","coordinates":[[-79.25258,43.77543],[-79.25255,43.77534]]}},{"type":"Feature","properties":{"proj":"l2east","name":"Line 2 East extension","street":"McCowan Rd","extent":"McCowan Rd at Triton Rd to 39 m North of Triton Rd","kind":"narrowed","art":true,"start":"2026-09-01T00:00","end":"2026-10-30T23:59","hours":"24h","days":"daily","both":false,"who":"Scarborough Transit Connect","desc":"bypass plan for stage 3A"},"geometry":{"type":"LineString","coordinates":[[-79.25259,43.77544],[-79.25272,43.77577]]}},{"type":"Feature","properties":{"proj":"l2east","name":"Line 2 East extension","street":"McCowan Rd","extent":"McCowan Rd 97 m South of West Highland Creek to 18 m North of Lawrence Ave E","kind":"narrowed","art":true,"start":"2026-09-15T07:00","end":"2026-12-15T17:00","hours":"24h","days":"daily","both":false,"who":"Scarborough Transit Connect","desc":"Dropcurb and sidewalk under 10C"},"geometry":{"type":"LineString","coordinates":[[-79.24555,43.7567],[-79.24551,43.75655],[-79.24547,43.75632],[-79.24546,43.75613],[-79.24545,43.75573],[-79.24545,43.75571]]}},{"type":"Feature","properties":{"proj":"l2east","name":"Line 2 East extension","street":"McCowan Rd","extent":"McCowan Rd at Channel Nine Crt to 70 m South of Channel Nine Crt","kind":"narrowed","art":true,"start":"2026-09-03T00:00","end":"2026-12-31T23:59","hours":"24h","days":"daily","both":false,"who":"Scarborough Transit Connect","desc":"stage 1 implementation"},"geometry":{"type":"LineString","coordinates":[[-79.25648,43.78538],[-79.25624,43.78478]]}},{"type":"Feature","properties":{"proj":"ontario","name":"Ontario Line","street":"Millwood Rd","extent":"Millwood Rd 74 m West of Hepc to 74 m West of Hepc","kind":"narrowed","art":true,"start":"2026-10-03T00:00","end":"2026-10-31T23:59","hours":"24h","days":"daily","both":false,"who":"Leaside Valley Builders","desc":"The Don Valley Crossing is a key component of the new Ontario Line subway project in Toronto. https://www.metrolinx.com/en/projects-and-programs/ontario-line/what-were-building/don-valley-crossings"},"geometry":{"type":"LineString","coordinates":[[-79.35553,43.70196],[-79.35528,43.70199]]}},{"type":"Feature","properties":{"proj":"ontario","name":"Ontario Line","street":"Overlea Blvd","extent":"Overlea Blvd 36 m Northeast of Thorncliffe Park Dr to 157 m Northeast of Thorncliffe Park Dr","kind":"narrowed","art":true,"start":"2026-06-25T00:00","end":"2026-10-21T23:59","hours":"24h","days":"daily","both":false,"who":"Trillium Guideway Partners","desc":"Ontario Line Elevated Guideway and Stations: The scope of work for the contract includes: three kilometres of an elevated guideway; five elevated stations (Riverside-Leslieville, Gerrard, Thorncliffe Park, Flemington Par"},"geometry":{"type":"LineString","coordinates":[[-79.34958,43.7053],[-79.34931,43.70555],[-79.34921,43.70565],[-79.34913,43.70572],[-79.34905,43.7058],[-79.34896,43.70587],[-79.3488,43.70599],[-79.34869,43.70607],[-79.34861,43.70612]]}},{"type":"Feature","properties":{"proj":"ontario","name":"Ontario Line","street":"Pape Ave","extent":"Pape Ave from Danforth Ave to Gertrude Pl","kind":"narrowed","art":true,"start":"2026-07-01T00:00","end":"2026-12-31T23:59","hours":"24h","days":"daily","both":true,"who":"GREEN INFRASTRUCTURE PARTNERS INC.","desc":"This is a very short duration closure for taking reading of instruments at the road."},"geometry":{"type":"LineString","coordinates":[[-79.34484,43.67895],[-79.34502,43.67937],[-79.34503,43.67938],[-79.34503,43.67938],[-79.34516,43.67968],[-79.34516,43.67968],[-79.34543,43.68044]]}},{"type":"Feature","properties":{"proj":"ontario","name":"Ontario Line","street":"Queen St E","extent":"Queen St E 2 m East of Mutual St to 7 m West of Jarvis St","kind":"narrowed","art":true,"start":"2026-10-13T10:00","end":"2026-10-23T15:00","hours":"10:00–15:00","days":"daily","both":true,"who":"Ontario Transit Group","desc":"Installation of GIMP instrumentation along Mutual St., Queen St. E., and Jarvis St. Work to be performed during daytime hours and primarily in curb lanes, with minimal impact to traffic. Flaggers and paid duty officer to"},"geometry":{"type":"LineString","coordinates":[[-79.37426,43.65349],[-79.3733,43.6537]]}},{"type":"Feature","properties":{"proj":"ontario","name":"Ontario Line","street":"Queen St E","extent":"Queen St E 4 m East of De Grassi St to C N R","kind":"narrowed","art":true,"start":"2026-06-23T07:00","end":"2026-10-30T23:59","hours":"24h","days":"daily","both":false,"who":"Trillium Guideway Partners","desc":"Ontario Line Elevated Guideway and Stations: The scope of work for the contract includes: three kilometres of an elevated guideway; five elevated stations (Riverside-Leslieville, Gerrard, Thorncliffe Park, Flemington Par"},"geometry":{"type":"LineString","coordinates":[[-79.34603,43.65973],[-79.3458,43.65979]]}},{"type":"Feature","properties":{"proj":"ontario","name":"Ontario Line","street":"Queen St W","extent":"Queen St W from Cameron St to Spadina Ave","kind":"narrowed","art":true,"start":"2026-01-01T09:00","end":"2026-10-31T16:00","hours":"09:00–16:00","days":"daily","both":false,"who":"Ontario Transit Group","desc":"Extension/reissue of previously submitted RoDARS (using old method) with new permit for the EB curb lane closure during working, non-peak hours adjacent to OTG's Queen-Spadina Station South Shaft location. Closure utiliz"},"geometry":{"type":"LineString","coordinates":[[-79.39741,43.64854],[-79.39638,43.64877]]}},{"type":"Feature","properties":{"proj":"up","name":"GO Expansion (Barrie line)","street":"Sheppard Ave W","extent":"Sheppard Ave W 55 m East of Bakersfield St to 6 m West of Downsview Park Trl","kind":"narrowed","art":true,"start":"2026-08-20T09:00","end":"2026-11-30T16:00","hours":"09:00–16:00","days":"daily","both":true,"who":"Grascan Construction Ltd.","desc":"Metrolinx Contract RFP-2017-CBA-064: Construction of new railway bridge over Sheppard Ave West. NOTE: Only 1 sidewalk will be closed at a time (north OR south, never both). NOTE: Only 1 eastbound lane and / or 1 westboun"},"geometry":{"type":"LineString","coordinates":[[-79.47963,43.75446],[-79.4795,43.75449],[-79.47858,43.7547],[-79.47858,43.7547],[-79.47595,43.75529]]}}]}