{"type":"FeatureCollection","features":[{"type":"Feature","properties":{"id":"ontario","name":"Ontario Line","short":"Ontario Line","mode":"subway","color":"#1F8FB8","owner":"Metrolinx","opens":"Early 2030s (Metrolinx estimate)","length":"15.6 km, 15 stations","about":"A new subway from Exhibition Place through downtown to Don Valley station at Eglinton and Don Mills, partly elevated through Thorncliffe Park and Flemingdon Park.","link":"https://www.metrolinx.com/en/projects-and-programs/ontario-line"},"geometry":{"type":"MultiLineString","coordinates":[[[-79.414,43.63768],[-79.41551,43.63728],[-79.41645,43.63703],[-79.41738,43.63678],[-79.41831,43.63653],[-79.41877,43.6364],[-79.41993,43.63609],[-79.42109,43.63577],[-79.42155,43.63564],[-79.422,43.63549],[-79.4223,43.63538],[-79.42243,43.63533],[-79.42267,43.63524],[-79.4229,43.63516],[-79.423,43.63513],[-79.42334,43.635],[-79.4238,43.63486],[-79.42426,43.63473],[-79.42472,43.6346],[-79.42503,43.63452]],[[-79.35279,43.6521],[-79.35331,43.65182],[-79.35392,43.65151],[-79.35474,43.65111],[-79.35536,43.6508],[-79.35597,43.6505],[-79.35656,43.65022],[-79.35677,43.65012],[-79.35698,43.65003],[-79.35719,43.64994],[-79.35742,43.64986],[-79.35764,43.64979],[-79.35787,43.64974],[-79.35811,43.6497],[-79.35836,43.64966],[-79.3586,43.64964],[-79.35896,43.64963],[-79.35934,43.64963],[-79.36009,43.64964],[-79.36083,43.64965],[-79.36108,43.64965],[-79.36133,43.64967],[-79.36157,43.64969],[-79.36182,43.64973],[-79.36205,43.64979],[-79.36227,43.64987],[-79.3625,43.64997],[-79.3627,43.65008],[-79.36288,43.65021],[-79.36303,43.65035],[-79.36317,43.65049],[-79.36328,43.65066],[-79.36337,43.65083],[-79.36344,43.65099],[-79.3636,43.65134],[-79.36382,43.65185],[-79.36419,43.65271],[-79.36426,43.65288],[-79.36434,43.65305],[-79.36443,43.65322],[-79.36453,43.65339],[-79.36464,43.65354],[-79.36477,43.6537],[-79.36491,43.65385],[-79.36507,43.65398],[-79.36523,43.65412],[-79.36542,43.65425],[-79.3656,43.65436],[-79.3658,43.65447],[-79.36599,43.65456],[-79.3662,43.65465],[-79.36643,43.65473],[-79.36666,43.6548],[-79.36689,43.65486],[-79.36714,43.6549],[-79.36738,43.65494],[-79.36763,43.65496],[-79.36787,43.65498],[-79.36812,43.65498],[-79.36836,43.65497],[-79.36862,43.65495],[-79.36886,43.65492],[-79.3691,43.65487],[-79.36958,43.65478],[-79.37125,43.65442],[-79.37172,43.65431],[-79.37219,43.65421],[-79.37266,43.65409],[-79.37312,43.65396],[-79.37358,43.65382],[-79.37404,43.65369],[-79.3745,43.65355],[-79.37496,43.65342],[-79.37544,43.6533],[-79.37686,43.65299],[-79.37805,43.65274],[-79.38114,43.65206],[-79.3847,43.6513],[-79.3885,43.65048],[-79.39088,43.64997],[-79.39217,43.64969],[-79.39299,43.64951],[-79.39419,43.64926],[-79.39514,43.64906],[-79.39586,43.64891],[-79.39705,43.64866],[-79.39753,43.64856],[-79.39801,43.64846],[-79.39824,43.6484],[-79.39847,43.64833],[-79.3987,43.64825],[-79.39891,43.64817],[-79.39913,43.64807],[-79.39933,43.64797],[-79.39953,43.64786],[-79.39971,43.64774],[-79.39989,43.64762],[-79.40005,43.64749],[-79.40022,43.64734],[-79.40037,43.6472],[-79.4005,43.64705],[-79.40062,43.6469],[-79.40074,43.64674],[-79.40084,43.64657],[-79.40094,43.64641],[-79.40114,43.64608],[-79.40134,43.64575],[-79.40174,43.64509],[-79.40214,43.64445],[-79.40253,43.64379],[-79.40283,43.64329],[-79.40303,43.64296],[-79.40334,43.64247],[-79.40356,43.64215],[-79.4038,43.64184],[-79.40407,43.64153],[-79.40437,43.64124],[-79.40468,43.64097],[-79.40502,43.6407],[-79.40543,43.64041],[-79.40577,43.64019],[-79.40613,43.64],[-79.40654,43.6398],[-79.40697,43.63961],[-79.40741,43.63945],[-79.40786,43.6393],[-79.40832,43.63917],[-79.40926,43.63892],[-79.41154,43.63832],[-79.4137,43.63775]],[[-79.3525,43.65219],[-79.35231,43.6523],[-79.3518,43.65257],[-79.35157,43.65269],[-79.35106,43.65298],[-79.35072,43.65318],[-79.35034,43.65342]],[[-79.3492,43.70982],[-79.34927,43.70977],[-79.34939,43.70962],[-79.34951,43.70946],[-79.3496,43.70929],[-79.34966,43.70912],[-79.34971,43.70894],[-79.34973,43.70876],[-79.34973,43.70857],[-79.3497,43.7084],[-79.34965,43.70822],[-79.34958,43.70805],[-79.34936,43.70753],[-79.3492,43.70719],[-79.34914,43.70702],[-79.3491,43.70684],[-79.34908,43.70666],[-79.3491,43.70648],[-79.34913,43.7063],[-79.34921,43.70613],[-79.3493,43.70596],[-79.34943,43.70581],[-79.34956,43.70566],[-79.34986,43.70537],[-79.35091,43.70436],[-79.3515,43.70378],[-79.3518,43.70349],[-79.35209,43.7032],[-79.35223,43.70305],[-79.35237,43.7029],[-79.35249,43.70275],[-79.35261,43.7026],[-79.35272,43.70244],[-79.35282,43.70227],[-79.35291,43.7021],[-79.35298,43.70193],[-79.35304,43.70176],[-79.3531,43.70157],[-79.35313,43.70143],[-79.35315,43.70122],[-79.35316,43.70104],[-79.35315,43.70068],[-79.35308,43.70032],[-79.35297,43.69997],[-79.35256,43.69893],[-79.35223,43.69808],[-79.35184,43.69699]],[[-79.34127,43.67001],[-79.34128,43.67036],[-79.34134,43.67072],[-79.34146,43.67107],[-79.34159,43.67141],[-79.34182,43.67191],[-79.34203,43.67243],[-79.34237,43.67324],[-79.34272,43.67411],[-79.34292,43.67463],[-79.34304,43.67498],[-79.34314,43.67534],[-79.34323,43.67569],[-79.3433,43.67605],[-79.34337,43.67641],[-79.34344,43.67695],[-79.3435,43.6773],[-79.34356,43.67766],[-79.34364,43.67802],[-79.34374,43.67837],[-79.34385,43.67873],[-79.34397,43.67907],[-79.34416,43.6796],[-79.34435,43.68012],[-79.34455,43.68065],[-79.34463,43.68082],[-79.3447,43.68099],[-79.3448,43.68116],[-79.34491,43.68132],[-79.34503,43.68147],[-79.34531,43.68177],[-79.34573,43.68221],[-79.34593,43.68243],[-79.34603,43.68255],[-79.34611,43.68268],[-79.34621,43.68285],[-79.34637,43.68319],[-79.34646,43.68344],[-79.34672,43.68414],[-79.34688,43.68458],[-79.34708,43.6851],[-79.34728,43.68562],[-79.34744,43.68596],[-79.34781,43.68664],[-79.34813,43.68732],[-79.34837,43.6878],[-79.3485,43.68813],[-79.34864,43.68848],[-79.34895,43.68917],[-79.34921,43.68987],[-79.34941,43.69039],[-79.34955,43.69073],[-79.34966,43.69109],[-79.34976,43.69144],[-79.3499,43.69197],[-79.34999,43.69233],[-79.35009,43.69268],[-79.35021,43.69304],[-79.35034,43.69338],[-79.35049,43.69377],[-79.3507,43.69429],[-79.35096,43.69499],[-79.35129,43.69586],[-79.35159,43.69659]],[[-79.3495,43.65405],[-79.35017,43.65361]],[[-79.34923,43.65416],[-79.34874,43.65449],[-79.34851,43.65466],[-79.34829,43.65484],[-79.34785,43.65527],[-79.3474,43.65574],[-79.34715,43.65601],[-79.34694,43.65627],[-79.34676,43.65653]],[[-79.34568,43.71089],[-79.34595,43.71084],[-79.34673,43.7107],[-79.34714,43.71062],[-79.34762,43.71053],[-79.34786,43.71048],[-79.3481,43.71042],[-79.34833,43.71035],[-79.34854,43.71026],[-79.34874,43.71016],[-79.34893,43.71004],[-79.349,43.70999]],[[-79.34443,43.66493],[-79.34464,43.66452],[-79.34481,43.66418],[-79.34497,43.66388],[-79.34506,43.66367],[-79.3452,43.66334],[-79.34536,43.66291],[-79.34552,43.6624],[-79.34566,43.66187],[-79.34579,43.66136],[-79.34588,43.66093],[-79.34592,43.66067],[-79.34601,43.65975],[-79.3461,43.65875],[-79.34614,43.65832],[-79.34617,43.65808],[-79.34622,43.65782],[-79.3463,43.65754],[-79.34641,43.65729],[-79.34654,43.65704],[-79.34672,43.65675]],[[-79.34537,43.7109],[-79.34514,43.71094],[-79.34442,43.71108],[-79.34322,43.7113],[-79.3425,43.71143],[-79.34191,43.71154],[-79.34145,43.71162]],[[-79.34424,43.66514],[-79.34408,43.66546],[-79.3439,43.6658],[-79.34371,43.66613],[-79.3435,43.66645],[-79.34326,43.66677],[-79.34302,43.66708],[-79.34277,43.66739],[-79.34252,43.6677],[-79.34227,43.66801],[-79.34197,43.66839],[-79.34195,43.66842],[-79.34182,43.66861],[-79.34161,43.66894],[-79.34144,43.66928],[-79.34132,43.66963],[-79.3413,43.66978]],[[-79.34115,43.71168],[-79.33986,43.71192],[-79.33865,43.71215],[-79.33817,43.71224],[-79.33793,43.71229],[-79.3377,43.71235],[-79.33748,43.71243],[-79.33727,43.71253],[-79.33709,43.71265],[-79.33692,43.71278],[-79.33678,43.71294],[-79.33666,43.71309],[-79.33657,43.71327],[-79.33652,43.71344],[-79.33649,43.71362],[-79.3365,43.7138],[-79.33653,43.71398],[-79.33659,43.71416],[-79.33666,43.71433],[-79.33682,43.71467],[-79.33726,43.7157],[-79.33767,43.71661],[-79.33787,43.71707],[-79.33802,43.71742],[-79.33816,43.71776],[-79.33827,43.71812],[-79.33832,43.71847],[-79.33834,43.71883],[-79.33833,43.71919],[-79.33831,43.71955],[-79.33832,43.71992],[-79.33833,43.7201],[-79.33839,43.72046],[-79.33852,43.72093],[-79.33874,43.72173],[-79.33885,43.72214],[-79.339,43.72275],[-79.33915,43.72328],[-79.33926,43.72364],[-79.33945,43.72413]]]}},{"type":"Feature","properties":{"part":"station","id":"ontario","name":"Exhibition"},"geometry":{"type":"Point","coordinates":[-79.41952,43.63596]}},{"type":"Feature","properties":{"part":"station","id":"ontario","name":"King West"},"geometry":{"type":"Point","coordinates":[-79.40223,43.64398]}},{"type":"Feature","properties":{"part":"station","id":"ontario","name":"Osgoode"},"geometry":{"type":"Point","coordinates":[-79.38676,43.65088]}},{"type":"Feature","properties":{"part":"station","id":"ontario","name":"Queen"},"geometry":{"type":"Point","coordinates":[-79.37944,43.65237]}},{"type":"Feature","properties":{"part":"station","id":"ontario","name":"Moss Park"},"geometry":{"type":"Point","coordinates":[-79.37079,43.65445]}},{"type":"Feature","properties":{"part":"station","id":"ontario","name":"Distillery District"},"geometry":{"type":"Point","coordinates":[-79.36377,43.65172]}},{"type":"Feature","properties":{"part":"station","id":"ontario","name":"Leslieville"},"geometry":{"type":"Point","coordinates":[-79.34592,43.65978]}},{"type":"Feature","properties":{"part":"station","id":"ontario","name":"Gerrard"},"geometry":{"type":"Point","coordinates":[-79.34285,43.66738]}},{"type":"Feature","properties":{"part":"station","id":"ontario","name":"Don Valley"},"geometry":{"type":"Point","coordinates":[-79.3387,43.72143]}},{"type":"Feature","properties":{"part":"station","id":"ontario","name":"Flemingdon Park"},"geometry":{"type":"Point","coordinates":[-79.33703,43.71507]}},{"type":"Feature","properties":{"part":"station","id":"ontario","name":"Thorncliffe Park"},"geometry":{"type":"Point","coordinates":[-79.35041,43.70529]}},{"type":"Feature","properties":{"part":"station","id":"ontario","name":"Cosburn"},"geometry":{"type":"Point","coordinates":[-79.34916,43.68948]}},{"type":"Feature","properties":{"part":"station","id":"ontario","name":"Pape"},"geometry":{"type":"Point","coordinates":[-79.3446,43.68038]}},{"type":"Feature","properties":{"part":"station","id":"ontario","name":"Chinatown"},"geometry":{"type":"Point","coordinates":[-79.39649,43.6488]}},{"type":"Feature","properties":{"part":"station","id":"ontario","name":"East Harbour"},"geometry":{"type":"Point","coordinates":[-79.34785,43.65538]}},{"type":"Feature","properties":{"id":"l2east","name":"Line 2 East extension","short":"Line 2 extension","mode":"subway","color":"#00A64F","owner":"Metrolinx; the TTC will run it","length":"7.8 km, 3 stations","about":"Extends Line 2 Bloor–Danforth north-east from Kennedy to Sheppard Avenue and McCowan Road, replacing the closed Line 3.","link":"https://www.metrolinx.com/en/projects-and-programs/scarborough-subway-extension"},"geometry":{"type":"LineString","coordinates":[[-79.25876,43.7913],[-79.25822,43.78997],[-79.25702,43.7869],[-79.25625,43.78495],[-79.25604,43.7845],[-79.25546,43.78351],[-79.25517,43.78288],[-79.25481,43.78216],[-79.25466,43.78177],[-79.25427,43.78067],[-79.25374,43.77883],[-79.25343,43.77779],[-79.25322,43.77717],[-79.25178,43.77356],[-79.25166,43.77323],[-79.25154,43.77283],[-79.2513,43.77181],[-79.25117,43.77135],[-79.25013,43.76861],[-79.24884,43.76528],[-79.24708,43.76077],[-79.24662,43.75961],[-79.24602,43.75808],[-79.24556,43.75691],[-79.24549,43.75666],[-79.24545,43.75634],[-79.24535,43.75553],[-79.2453,43.75521],[-79.24506,43.75456],[-79.24446,43.75308],[-79.24439,43.75285],[-79.24437,43.75261],[-79.24438,43.75202],[-79.24439,43.75039],[-79.24447,43.74847],[-79.24452,43.74683],[-79.24455,43.746],[-79.24471,43.74453],[-79.24482,43.74392],[-79.24512,43.74285],[-79.24531,43.74211],[-79.24539,43.74154],[-79.24549,43.74021],[-79.24546,43.73932],[-79.24549,43.73886],[-79.24554,43.7386],[-79.2457,43.73815],[-79.24581,43.73793],[-79.24602,43.73761],[-79.24619,43.73735],[-79.24649,43.73716],[-79.24691,43.73695],[-79.24717,43.73684],[-79.24763,43.73673],[-79.24809,43.73666],[-79.249,43.73649],[-79.24965,43.73639],[-79.25153,43.73599],[-79.25246,43.73579],[-79.25289,43.73569],[-79.25371,43.7355],[-79.2546,43.7353],[-79.25654,43.73488],[-79.25761,43.73464],[-79.25902,43.73431],[-79.25958,43.73411],[-79.26004,43.73389],[-79.26051,43.73364],[-79.26086,43.73346],[-79.26126,43.73329]]}},{"type":"Feature","properties":{"part":"station","id":"l2east","name":"Lawrence–McCowan"},"geometry":{"type":"Point","coordinates":[-79.24535,43.75556]}},{"type":"Feature","properties":{"part":"station","id":"l2east","name":"Scarborough Centre"},"geometry":{"type":"Point","coordinates":[-79.25139,43.77217]}},{"type":"Feature","properties":{"part":"station","id":"l2east","name":"Sheppard–McCowan"},"geometry":{"type":"Point","coordinates":[-79.25814,43.78977]}},{"type":"Feature","properties":{"id":"eglwest","name":"Eglinton Crosstown West extension","short":"Line 5 extension","mode":"lrt","color":"#F58426","owner":"Metrolinx; the TTC will run it","length":"About 9 km, 7 stops","about":"Extends Line 5 Eglinton west from Mount Dennis to Renforth Drive, mostly underground.","link":"https://www.metrolinx.com/en/projects-and-programs/eglinton-crosstown-west-extension"},"geometry":{"type":"MultiLineString","coordinates":[[[-79.51544,43.68364],[-79.52064,43.6834],[-79.5229,43.68312],[-79.52725,43.68219],[-79.53113,43.68149],[-79.53939,43.6798],[-79.54515,43.67851],[-79.55102,43.67722],[-79.55796,43.67561],[-79.56266,43.67456],[-79.56436,43.67434],[-79.56777,43.67401],[-79.57086,43.67237],[-79.57356,43.67159],[-79.57756,43.67076],[-79.57815,43.67069],[-79.5787,43.67063],[-79.58033,43.67054],[-79.58078,43.67049],[-79.5818,43.6703],[-79.58549,43.66935],[-79.58619,43.66907],[-79.58678,43.66877],[-79.58725,43.6684],[-79.58754,43.6681],[-79.58776,43.66781],[-79.58789,43.66757],[-79.58847,43.66657],[-79.58868,43.66628],[-79.58904,43.66587],[-79.58947,43.66546],[-79.59026,43.66471],[-79.59152,43.66353]],[[-79.49426,43.68607],[-79.49826,43.68497],[-79.50117,43.6842],[-79.50322,43.68431],[-79.50519,43.68475],[-79.50654,43.68487],[-79.50843,43.68468],[-79.51299,43.68393],[-79.51513,43.68368]],[[-79.48802,43.68754],[-79.49143,43.68674],[-79.49397,43.68614]]]}},{"type":"Feature","properties":{"part":"station","id":"eglwest","name":"Scarlett"},"geometry":{"type":"Point","coordinates":[-79.5116,43.68416]}},{"type":"Feature","properties":{"part":"station","id":"eglwest","name":"Jane"},"geometry":{"type":"Point","coordinates":[-79.49892,43.6848]}},{"type":"Feature","properties":{"part":"station","id":"eglwest","name":"Royal York"},"geometry":{"type":"Point","coordinates":[-79.52661,43.68233]}},{"type":"Feature","properties":{"part":"station","id":"eglwest","name":"Islington"},"geometry":{"type":"Point","coordinates":[-79.53902,43.67987]}},{"type":"Feature","properties":{"part":"station","id":"eglwest","name":"Kipling"},"geometry":{"type":"Point","coordinates":[-79.55092,43.67724]}},{"type":"Feature","properties":{"part":"station","id":"eglwest","name":"Martin Grove"},"geometry":{"type":"Point","coordinates":[-79.56319,43.67449]}},{"type":"Feature","properties":{"part":"station","id":"eglwest","name":"Renforth"},"geometry":{"type":"Point","coordinates":[-79.58863,43.66635]}},{"type":"Feature","properties":{"id":"hazel","name":"Hazel McCallion Line","short":"Hazel McCallion Line","mode":"lrt","color":"#7E57C2","owner":"Metrolinx","length":"18 km, 19 stops","about":"Light rail along Hurontario Street from Port Credit GO in Mississauga to the Brampton Gateway Terminal.","link":"https://www.metrolinx.com/en/projects-and-programs/hazel-mccallion-line"},"geometry":{"type":"MultiLineString","coordinates":[[[-79.7333,43.66596],[-79.73178,43.66486],[-79.73073,43.66408],[-79.72933,43.66307],[-79.72793,43.66203],[-79.72432,43.65931],[-79.72318,43.65845],[-79.72253,43.65798],[-79.72101,43.65689],[-79.72018,43.65629],[-79.71931,43.65566],[-79.71695,43.65396]],[[-79.71607,43.6533],[-79.71494,43.65248],[-79.71297,43.65101],[-79.71246,43.6506],[-79.71204,43.6503],[-79.71152,43.64992],[-79.71102,43.64958],[-79.70931,43.64836],[-79.70849,43.64777],[-79.70779,43.64727],[-79.70671,43.64645],[-79.7053,43.6454],[-79.70243,43.64325],[-79.69956,43.64111],[-79.69702,43.63922],[-79.69581,43.63833],[-79.69383,43.63686],[-79.69258,43.63594],[-79.6918,43.63538],[-79.69121,43.63494]],[[-79.68517,43.63024],[-79.68605,43.63095],[-79.6877,43.63236],[-79.68903,43.63335],[-79.69096,43.6348]],[[-79.68495,43.63008],[-79.68416,43.62952]],[[-79.68393,43.62936],[-79.68324,43.62887],[-79.68105,43.62741],[-79.6797,43.62643],[-79.67951,43.62629],[-79.67935,43.62618],[-79.67756,43.62484],[-79.67501,43.62297],[-79.6723,43.62095],[-79.66845,43.61811],[-79.66359,43.61453]],[[-79.66337,43.61437],[-79.6604,43.61216],[-79.65651,43.60928],[-79.65463,43.60797],[-79.65292,43.60677],[-79.64909,43.60409],[-79.64704,43.60256],[-79.64682,43.60235],[-79.6466,43.60209],[-79.64632,43.60175],[-79.64607,43.60143],[-79.64599,43.60132],[-79.6459,43.60116],[-79.64576,43.60081],[-79.6457,43.60071],[-79.64564,43.60062],[-79.64557,43.60053],[-79.6455,43.60045],[-79.64542,43.60038]],[[-79.64479,43.59673],[-79.64523,43.59622],[-79.64621,43.59527],[-79.64699,43.59459]],[[-79.6447,43.59992],[-79.64446,43.59978],[-79.64424,43.59966],[-79.64412,43.59957],[-79.64401,43.5995]],[[-79.64445,43.59915],[-79.64447,43.59887],[-79.64445,43.59861],[-79.6444,43.59839],[-79.6443,43.59811],[-79.64421,43.59784],[-79.64421,43.59768],[-79.64422,43.59756],[-79.64427,43.59743],[-79.64437,43.59726],[-79.64446,43.59713],[-79.64457,43.597],[-79.64463,43.59693]],[[-79.64239,43.5984],[-79.64257,43.59851],[-79.64333,43.59902],[-79.64354,43.59915],[-79.64382,43.59933]],[[-79.60162,43.56965],[-79.6017,43.56972],[-79.60184,43.56985],[-79.60195,43.56995],[-79.602,43.56999],[-79.60301,43.57089],[-79.60362,43.57135],[-79.60461,43.57202],[-79.60467,43.57206],[-79.60482,43.57217],[-79.60495,43.57226],[-79.60536,43.57254],[-79.60575,43.57279],[-79.6068,43.5735],[-79.60744,43.57392],[-79.60751,43.57398],[-79.60762,43.57405],[-79.60773,43.57413],[-79.60781,43.57419],[-79.60809,43.57439],[-79.60858,43.57474],[-79.60989,43.57567],[-79.60998,43.57573],[-79.61011,43.57582],[-79.61023,43.57592],[-79.61037,43.57601],[-79.61167,43.57695],[-79.6124,43.57745],[-79.61304,43.57788],[-79.61356,43.57825],[-79.61404,43.57856],[-79.61411,43.57861],[-79.61423,43.57869],[-79.61432,43.57876],[-79.61442,43.57883],[-79.61451,43.5789],[-79.61491,43.57917],[-79.61549,43.57957],[-79.616,43.57994],[-79.61625,43.58012],[-79.61635,43.5802],[-79.61645,43.58027],[-79.61655,43.58034],[-79.6171,43.58075],[-79.61738,43.58096],[-79.61843,43.5817],[-79.61888,43.58202],[-79.61942,43.5824],[-79.61992,43.58274],[-79.62001,43.5828],[-79.62012,43.58288],[-79.62021,43.58294],[-79.62032,43.58302],[-79.62047,43.58313],[-79.62113,43.58358],[-79.62123,43.58366],[-79.62136,43.58376],[-79.62147,43.58385],[-79.62209,43.58434],[-79.62225,43.58444],[-79.62254,43.58467],[-79.62291,43.58491],[-79.6235,43.5853],[-79.62403,43.58564],[-79.62511,43.58639],[-79.62658,43.58742],[-79.62661,43.58744],[-79.62675,43.58754],[-79.62685,43.58761],[-79.6277,43.58824],[-79.62816,43.58857],[-79.62847,43.58879],[-79.62883,43.58904],[-79.62892,43.5891],[-79.62904,43.58919],[-79.62914,43.58927],[-79.62923,43.58934],[-79.62929,43.58938],[-79.62976,43.58972],[-79.63062,43.59034],[-79.63101,43.59062],[-79.63114,43.59072],[-79.63125,43.59079],[-79.63137,43.59089],[-79.63154,43.59101],[-79.63189,43.59127],[-79.6323,43.59157],[-79.63267,43.59181],[-79.633,43.59203],[-79.63316,43.59215],[-79.63329,43.59225],[-79.63342,43.59234],[-79.63353,43.59242],[-79.63398,43.59278],[-79.63446,43.59314],[-79.63494,43.59352],[-79.63502,43.59359],[-79.63513,43.59368],[-79.63522,43.59374],[-79.63541,43.5939],[-79.63641,43.59466],[-79.63655,43.59477],[-79.63669,43.59488],[-79.63681,43.59497],[-79.63757,43.59554],[-79.63832,43.59608],[-79.63842,43.59615],[-79.63852,43.59622],[-79.63859,43.59627],[-79.63862,43.59629],[-79.63933,43.59683],[-79.63988,43.59723],[-79.64021,43.59746],[-79.64041,43.59755],[-79.64047,43.59758],[-79.64052,43.5976],[-79.64055,43.59761],[-79.64066,43.59764],[-79.64076,43.59766],[-79.64078,43.59766],[-79.64087,43.59769],[-79.64097,43.59771],[-79.6412,43.59777],[-79.6414,43.59783],[-79.64158,43.59791],[-79.64173,43.59799],[-79.64191,43.59809],[-79.64202,43.59815],[-79.64216,43.59824]],[[-79.60139,43.5695],[-79.60089,43.56902],[-79.60011,43.56836],[-79.59914,43.56771],[-79.59723,43.56641]],[[-79.59701,43.56625],[-79.59458,43.56455],[-79.59084,43.56184],[-79.58665,43.55883],[-79.58587,43.55806]],[[-79.58572,43.55786],[-79.58559,43.55768],[-79.58523,43.55746],[-79.58425,43.55681]]]}},{"type":"Feature","properties":{"part":"station","id":"hazel","name":"Derry"},"geometry":{"type":"Point","coordinates":[-79.7068,43.64657]}},{"type":"Feature","properties":{"part":"station","id":"hazel","name":"Courtneypark"},"geometry":{"type":"Point","coordinates":[-79.69375,43.63685]}},{"type":"Feature","properties":{"part":"station","id":"hazel","name":"Ray Lawson"},"geometry":{"type":"Point","coordinates":[-79.72305,43.65842]}},{"type":"Feature","properties":{"part":"station","id":"hazel","name":"County Court"},"geometry":{"type":"Point","coordinates":[-79.72718,43.66153]}},{"type":"Feature","properties":{"part":"station","id":"hazel","name":"Brampton Gateway"},"geometry":{"type":"Point","coordinates":[-79.73287,43.66572]}},{"type":"Feature","properties":{"part":"station","id":"hazel","name":"Britannia"},"geometry":{"type":"Point","coordinates":[-79.67913,43.62602]}},{"type":"Feature","properties":{"part":"station","id":"hazel","name":"Matheson"},"geometry":{"type":"Point","coordinates":[-79.67,43.61927]}},{"type":"Feature","properties":{"part":"station","id":"hazel","name":"Bristol"},"geometry":{"type":"Point","coordinates":[-79.66326,43.61428]}},{"type":"Feature","properties":{"part":"station","id":"hazel","name":"Eglinton"},"geometry":{"type":"Point","coordinates":[-79.65252,43.60647]}},{"type":"Feature","properties":{"part":"station","id":"hazel","name":"Burnhamthorpe"},"geometry":{"type":"Point","coordinates":[-79.63554,43.59398]}},{"type":"Feature","properties":{"part":"station","id":"hazel","name":"Fairview"},"geometry":{"type":"Point","coordinates":[-79.62944,43.58958]}},{"type":"Feature","properties":{"part":"station","id":"hazel","name":"Cooksville"},"geometry":{"type":"Point","coordinates":[-79.62265,43.58474]}},{"type":"Feature","properties":{"part":"station","id":"hazel","name":"Dundas"},"geometry":{"type":"Point","coordinates":[-79.6166,43.5804]}},{"type":"Feature","properties":{"part":"station","id":"hazel","name":"Queensway"},"geometry":{"type":"Point","coordinates":[-79.60797,43.57436]}},{"type":"Feature","properties":{"part":"station","id":"hazel","name":"Mineola"},"geometry":{"type":"Point","coordinates":[-79.59089,43.56188]}},{"type":"Feature","properties":{"part":"station","id":"hazel","name":"Port Credit"},"geometry":{"type":"Point","coordinates":[-79.58482,43.55718]}},{"type":"Feature","properties":{"part":"station","id":"hazel","name":"Robert Speck"},"geometry":{"type":"Point","coordinates":[-79.63818,43.59599]}},{"type":"Feature","properties":{"part":"station","id":"hazel","name":"North Service"},"geometry":{"type":"Point","coordinates":[-79.60164,43.56959]}}]}