{"type":"FeatureCollection","features":[{"type":"Feature","properties":{"name":"Financial District","kind":"district"},"geometry":{"type":"Point","coordinates":[-79.381,43.6481]}},{"type":"Feature","properties":{"name":"Entertainment District","kind":"district"},"geometry":{"type":"Point","coordinates":[-79.3895,43.646]}},{"type":"Feature","properties":{"name":"King West","kind":"district"},"geometry":{"type":"Point","coordinates":[-79.401,43.644]}},{"type":"Feature","properties":{"name":"Fashion District","kind":"district"},"geometry":{"type":"Point","coordinates":[-79.3965,43.6478]}},{"type":"Feature","properties":{"name":"CityPlace","kind":"district"},"geometry":{"type":"Point","coordinates":[-79.3945,43.641]}},{"type":"Feature","properties":{"name":"South Core","kind":"district"},"geometry":{"type":"Point","coordinates":[-79.383,43.6418]}},{"type":"Feature","properties":{"name":"Harbourfront","kind":"district"},"geometry":{"type":"Point","coordinates":[-79.38,43.6385]}},{"type":"Feature","properties":{"name":"St. Lawrence","kind":"district"},"geometry":{"type":"Point","coordinates":[-79.3715,43.649]}},{"type":"Feature","properties":{"name":"Distillery District","kind":"district"},"geometry":{"type":"Point","coordinates":[-79.3596,43.6503]}},{"type":"Feature","properties":{"name":"Corktown","kind":"district"},"geometry":{"type":"Point","coordinates":[-79.3615,43.6548]}},{"type":"Feature","properties":{"name":"Canary District","kind":"district"},"geometry":{"type":"Point","coordinates":[-79.353,43.652]}},{"type":"Feature","properties":{"name":"East Bayfront","kind":"district"},"geometry":{"type":"Point","coordinates":[-79.367,43.644]}},{"type":"Feature","properties":{"name":"Garden District","kind":"district"},"geometry":{"type":"Point","coordinates":[-79.375,43.6582]}},{"type":"Feature","properties":{"name":"Yonge-Dundas","kind":"district"},"geometry":{"type":"Point","coordinates":[-79.3802,43.6561]}},{"type":"Feature","properties":{"name":"Discovery District","kind":"district"},"geometry":{"type":"Point","coordinates":[-79.3895,43.66]}},{"type":"Feature","properties":{"name":"Grange Park","kind":"district"},"geometry":{"type":"Point","coordinates":[-79.3925,43.6525]}},{"type":"Feature","properties":{"name":"Queen West","kind":"district"},"geometry":{"type":"Point","coordinates":[-79.402,43.6487]}},{"type":"Feature","properties":{"name":"West Queen West","kind":"district"},"geometry":{"type":"Point","coordinates":[-79.4185,43.6443]}},{"type":"Feature","properties":{"name":"Trinity Bellwoods","kind":"district"},"geometry":{"type":"Point","coordinates":[-79.4145,43.648]}},{"type":"Feature","properties":{"name":"Liberty Village","kind":"district"},"geometry":{"type":"Point","coordinates":[-79.42,43.638]}},{"type":"Feature","properties":{"name":"Fort York","kind":"district"},"geometry":{"type":"Point","coordinates":[-79.4045,43.638]}},{"type":"Feature","properties":{"name":"Church-Wellesley Village","kind":"village"},"geometry":{"type":"Point","coordinates":[-79.381,43.665]}},{"type":"Feature","properties":{"name":"Cabbagetown","kind":"village"},"geometry":{"type":"Point","coordinates":[-79.364,43.667]}},{"type":"Feature","properties":{"name":"St. James Town","kind":"district"},"geometry":{"type":"Point","coordinates":[-79.374,43.67]}},{"type":"Feature","properties":{"name":"Yorkville","kind":"village"},"geometry":{"type":"Point","coordinates":[-79.393,43.671]}},{"type":"Feature","properties":{"name":"The Annex","kind":"district"},"geometry":{"type":"Point","coordinates":[-79.407,43.669]}},{"type":"Feature","properties":{"name":"Harbord Village","kind":"village"},"geometry":{"type":"Point","coordinates":[-79.404,43.6612]}},{"type":"Feature","properties":{"name":"Baldwin Village","kind":"village"},"geometry":{"type":"Point","coordinates":[-79.3935,43.656]}},{"type":"Feature","properties":{"name":"Chinatown","kind":"enclave"},"geometry":{"type":"Point","coordinates":[-79.3985,43.653]}},{"type":"Feature","properties":{"name":"Kensington Market","kind":"enclave"},"geometry":{"type":"Point","coordinates":[-79.4005,43.6548]}},{"type":"Feature","properties":{"name":"Little Italy","kind":"enclave"},"geometry":{"type":"Point","coordinates":[-79.416,43.6555]}},{"type":"Feature","properties":{"name":"Little Portugal","kind":"enclave"},"geometry":{"type":"Point","coordinates":[-79.4255,43.649]}},{"type":"Feature","properties":{"name":"Koreatown","kind":"enclave"},"geometry":{"type":"Point","coordinates":[-79.4175,43.6643]}},{"type":"Feature","properties":{"name":"Greektown","kind":"enclave"},"geometry":{"type":"Point","coordinates":[-79.35,43.678]}},{"type":"Feature","properties":{"name":"East Chinatown","kind":"enclave"},"geometry":{"type":"Point","coordinates":[-79.349,43.6658]}},{"type":"Feature","properties":{"name":"Little India","kind":"enclave"},"geometry":{"type":"Point","coordinates":[-79.324,43.672]}},{"type":"Feature","properties":{"name":"Little Jamaica","kind":"enclave"},"geometry":{"type":"Point","coordinates":[-79.438,43.695]}},{"type":"Feature","properties":{"name":"Corso Italia","kind":"enclave"},"geometry":{"type":"Point","coordinates":[-79.443,43.6778]}},{"type":"Feature","properties":{"name":"Little Tibet","kind":"enclave"},"geometry":{"type":"Point","coordinates":[-79.444,43.6398]}},{"type":"Feature","properties":{"name":"Little Ethiopia","kind":"enclave"},"geometry":{"type":"Point","coordinates":[-79.329,43.6822]}},{"type":"Feature","properties":{"name":"Little Manila","kind":"enclave"},"geometry":{"type":"Point","coordinates":[-79.4385,43.7335]}},{"type":"Feature","properties":{"name":"Tehranto","kind":"enclave"},"geometry":{"type":"Point","coordinates":[-79.418,43.788]}},{"type":"Feature","properties":{"name":"Parkdale","kind":"village"},"geometry":{"type":"Point","coordinates":[-79.433,43.6372]}},{"type":"Feature","properties":{"name":"Roncesvalles","kind":"village"},"geometry":{"type":"Point","coordinates":[-79.449,43.648]}},{"type":"Feature","properties":{"name":"Bloordale","kind":"village"},"geometry":{"type":"Point","coordinates":[-79.438,43.6592]}},{"type":"Feature","properties":{"name":"Dufferin Grove","kind":"village"},"geometry":{"type":"Point","coordinates":[-79.4325,43.6557]}},{"type":"Feature","properties":{"name":"Junction Triangle","kind":"district"},"geometry":{"type":"Point","coordinates":[-79.448,43.664]}},{"type":"Feature","properties":{"name":"The Junction","kind":"village"},"geometry":{"type":"Point","coordinates":[-79.468,43.665]}},{"type":"Feature","properties":{"name":"Bloor West Village","kind":"village"},"geometry":{"type":"Point","coordinates":[-79.484,43.65]}},{"type":"Feature","properties":{"name":"Swansea","kind":"village"},"geometry":{"type":"Point","coordinates":[-79.48,43.642]}},{"type":"Feature","properties":{"name":"Baby Point","kind":"village"},"geometry":{"type":"Point","coordinates":[-79.495,43.658]}},{"type":"Feature","properties":{"name":"The Kingsway","kind":"village"},"geometry":{"type":"Point","coordinates":[-79.51,43.6545]}},{"type":"Feature","properties":{"name":"Humber Bay Shores","kind":"district"},"geometry":{"type":"Point","coordinates":[-79.478,43.624]}},{"type":"Feature","properties":{"name":"Mimico","kind":"village"},"geometry":{"type":"Point","coordinates":[-79.498,43.615]}},{"type":"Feature","properties":{"name":"New Toronto","kind":"village"},"geometry":{"type":"Point","coordinates":[-79.505,43.602]}},{"type":"Feature","properties":{"name":"Long Branch","kind":"village"},"geometry":{"type":"Point","coordinates":[-79.537,43.592]}},{"type":"Feature","properties":{"name":"Islington Village","kind":"village"},"geometry":{"type":"Point","coordinates":[-79.526,43.646]}},{"type":"Feature","properties":{"name":"Weston","kind":"village"},"geometry":{"type":"Point","coordinates":[-79.517,43.701]}},{"type":"Feature","properties":{"name":"Rexdale","kind":"district"},"geometry":{"type":"Point","coordinates":[-79.565,43.715]}},{"type":"Feature","properties":{"name":"Wychwood","kind":"village"},"geometry":{"type":"Point","coordinates":[-79.423,43.681]}},{"type":"Feature","properties":{"name":"Casa Loma","kind":"district"},"geometry":{"type":"Point","coordinates":[-79.4095,43.678]}},{"type":"Feature","properties":{"name":"Forest Hill Village","kind":"village"},"geometry":{"type":"Point","coordinates":[-79.414,43.688]}},{"type":"Feature","properties":{"name":"Deer Park","kind":"district"},"geometry":{"type":"Point","coordinates":[-79.3955,43.6885]}},{"type":"Feature","properties":{"name":"Summerhill","kind":"village"},"geometry":{"type":"Point","coordinates":[-79.391,43.683]}},{"type":"Feature","properties":{"name":"Rosedale","kind":"district"},"geometry":{"type":"Point","coordinates":[-79.38,43.68]}},{"type":"Feature","properties":{"name":"Davisville Village","kind":"village"},"geometry":{"type":"Point","coordinates":[-79.393,43.698]}},{"type":"Feature","properties":{"name":"Yonge & Eglinton","kind":"district"},"geometry":{"type":"Point","coordinates":[-79.3985,43.707]}},{"type":"Feature","properties":{"name":"Leaside","kind":"village"},"geometry":{"type":"Point","coordinates":[-79.366,43.706]}},{"type":"Feature","properties":{"name":"Lawrence Park","kind":"district"},"geometry":{"type":"Point","coordinates":[-79.396,43.723]}},{"type":"Feature","properties":{"name":"Riverdale","kind":"district"},"geometry":{"type":"Point","coordinates":[-79.3445,43.672]}},{"type":"Feature","properties":{"name":"Riverside","kind":"village"},"geometry":{"type":"Point","coordinates":[-79.351,43.658]}},{"type":"Feature","properties":{"name":"Leslieville","kind":"village"},"geometry":{"type":"Point","coordinates":[-79.333,43.662]}},{"type":"Feature","properties":{"name":"Port Lands","kind":"district"},"geometry":{"type":"Point","coordinates":[-79.34,43.645]}},{"type":"Feature","properties":{"name":"Upper Beaches","kind":"village"},"geometry":{"type":"Point","coordinates":[-79.309,43.679]}},{"type":"Feature","properties":{"name":"The Beaches","kind":"village"},"geometry":{"type":"Point","coordinates":[-79.296,43.671]}},{"type":"Feature","properties":{"name":"Danforth Village","kind":"village"},"geometry":{"type":"Point","coordinates":[-79.3125,43.6866]}},{"type":"Feature","properties":{"name":"Birch Cliff","kind":"village"},"geometry":{"type":"Point","coordinates":[-79.265,43.693]}},{"type":"Feature","properties":{"name":"Cliffside","kind":"village"},"geometry":{"type":"Point","coordinates":[-79.245,43.708]}},{"type":"Feature","properties":{"name":"Guildwood","kind":"village"},"geometry":{"type":"Point","coordinates":[-79.193,43.748]}},{"type":"Feature","properties":{"name":"Thorncliffe Park","kind":"district"},"geometry":{"type":"Point","coordinates":[-79.349,43.705]}},{"type":"Feature","properties":{"name":"Flemingdon Park","kind":"district"},"geometry":{"type":"Point","coordinates":[-79.334,43.717]}},{"type":"Feature","properties":{"name":"Don Mills","kind":"district"},"geometry":{"type":"Point","coordinates":[-79.344,43.735]}},{"type":"Feature","properties":{"name":"Downsview","kind":"district"},"geometry":{"type":"Point","coordinates":[-79.479,43.742]}},{"type":"Feature","properties":{"name":"North York Centre","kind":"district"},"geometry":{"type":"Point","coordinates":[-79.414,43.768]}},{"type":"Feature","properties":{"name":"Bayview Village","kind":"village"},"geometry":{"type":"Point","coordinates":[-79.385,43.769]}},{"type":"Feature","properties":{"name":"Agincourt","kind":"village"},"geometry":{"type":"Point","coordinates":[-79.278,43.785]}},{"type":"Feature","properties":{"name":"Scarborough Town Centre","kind":"district"},"geometry":{"type":"Point","coordinates":[-79.258,43.775]}}]}