{"type":"FeatureCollection", "features": [
{"type":"Feature","geometry":{"type":"LineString","coordinates":[[-79.3803,43.64445],[-79.39963,43.64045],[-79.40501,43.63972],[-79.40969,43.6385],[-79.42623,43.63397],[-79.42961,43.63337],[-79.4321,43.63334],[-79.43527,43.6338],[-79.43688,43.63428],[-79.44355,43.6371],[-79.4451,43.63766],[-79.44838,43.63851],[-79.45091,43.63894],[-79.4545,43.63924],[-79.45883,43.63909],[-79.46233,43.63844],[-79.46574,43.63737],[-79.47213,43.63459],[-79.47558,43.63254],[-79.48248,43.62737],[-79.49497,43.61789],[-79.49868,43.61549],[-79.50177,43.61367],[-79.54593,43.59173],[-79.54964,43.5896]]},"properties":{"line":"Lakeshore West","name":"Lakeshore West","color":"#98002E","offset":-2,"to":"Niagara Falls"}},
{"type":"Feature","geometry":{"type":"LineString","coordinates":[[-79.38033,43.64452],[-79.38886,43.64278],[-79.39053,43.64242],[-79.39387,43.64174],[-79.39467,43.64158],[-79.39541,43.64144],[-79.39965,43.64069],[-79.40046,43.64059],[-79.40144,43.64048],[-79.40218,43.64039],[-79.40316,43.64029],[-79.40415,43.6402],[-79.40504,43.64015],[-79.40581,43.64014],[-79.40662,43.64013],[-79.40737,43.64012],[-79.40928,43.64016],[-79.42189,43.64058],[-79.42433,43.64089],[-79.42742,43.64186],[-79.43849,43.64698],[-79.44123,43.64849],[-79.44396,43.65061],[-79.44794,43.6546],[-79.45801,43.66492],[-79.45972,43.66622],[-79.46118,43.66683],[-79.46369,43.66721],[-79.47225,43.66728],[-79.47463,43.66723],[-79.50073,43.66572],[-79.50644,43.66542],[-79.50876,43.66491],[-79.51072,43.66388],[-79.51632,43.65911],[-79.51784,43.65697],[-79.52022,43.65074],[-79.5214,43.64913],[-79.54375,43.63028],[-79.54505,43.62932],[-79.55899,43.6198],[-79.56868,43.61351]]},"properties":{"line":"Milton","name":"Milton","color":"#F57F25","offset":-1,"to":"Milton"}},
{"type":"Feature","geometry":{"type":"LineString","coordinates":[[-79.38039,43.64466],[-79.38677,43.64326],[-79.39193,43.64218],[-79.39463,43.64162],[-79.39541,43.64148],[-79.39634,43.64137],[-79.39717,43.64125],[-79.39803,43.64107],[-79.39885,43.64088],[-79.39967,43.64073],[-79.40586,43.64017],[-79.42028,43.64062],[-79.42298,43.6408],[-79.42537,43.6413],[-79.42691,43.64184],[-79.43219,43.6442],[-79.439,43.64747],[-79.44068,43.6486],[-79.44236,43.65085],[-79.44374,43.65405],[-79.44915,43.66733],[-79.4504,43.66971],[-79.45218,43.67194],[-79.45509,43.67415],[-79.45599,43.67511],[-79.46124,43.68314],[-79.4618,43.68445],[-79.46277,43.68834],[-79.46346,43.69025],[-79.46522,43.69323],[-79.46634,43.69692],[-79.46854,43.70486],[-79.47011,43.71232],[-79.47279,43.72604],[-79.47737,43.74882],[-79.47892,43.75639],[-79.48388,43.78101],[-79.48457,43.7847]]},"properties":{"line":"Barrie","name":"Barrie","color":"#003767","offset":0,"to":"Allandale Waterfront"}},
{"type":"Feature","geometry":{"type":"LineString","coordinates":[[-79.38036,43.64459],[-79.38886,43.64278],[-79.39053,43.64242],[-79.39144,43.64224],[-79.3924,43.64204],[-79.39335,43.64185],[-79.39431,43.64165],[-79.39507,43.6415],[-79.39601,43.64137],[-79.39686,43.64126],[-79.39864,43.64088],[-79.39938,43.64074],[-79.40034,43.6406],[-79.40109,43.64052],[-79.40187,43.64043],[-79.40362,43.64025],[-79.40454,43.64018],[-79.40544,43.64014],[-79.40702,43.64012],[-79.40784,43.64013],[-79.40869,43.64017],[-79.41876,43.64053],[-79.42137,43.64063],[-79.42299,43.64076],[-79.42387,43.6409],[-79.42482,43.6411],[-79.42574,43.64136],[-79.42663,43.64166],[-79.42731,43.64195],[-79.42795,43.64224],[-79.42873,43.6426],[-79.42949,43.64294],[-79.43106,43.64363],[-79.43813,43.64693],[-79.44015,43.64796],[-79.44078,43.64833],[-79.44134,43.64869],[-79.44188,43.64907],[-79.4424,43.64946],[-79.44304,43.64998],[-79.44354,43.65042],[-79.44414,43.65099],[-79.44458,43.65143],[-79.44515,43.65202],[-79.44572,43.65261],[-79.44629,43.6532],[-79.44687,43.65379],[-79.44802,43.65496],[-79.45024,43.65723],[-79.45073,43.65772],[-79.46904,43.67638],[-79.46965,43.67695],[-79.47028,43.67751],[-79.4709,43.67807],[-79.47138,43.67849],[-79.47197,43.67897],[-79.47446,43.68073],[-79.47502,43.68109],[-79.47579,43.68155],[-79.47656,43.68201],[-79.47735,43.68244],[-79.47795,43.68277],[-79.47876,43.68318],[-79.47938,43.68349],[-79.4802,43.68389],[-79.4816,43.68459],[-79.48225,43.68491],[-79.48287,43.68522],[-79.48882,43.68817],[-79.49348,43.69044],[-79.52018,43.70368],[-79.52234,43.70468],[-79.52633,43.70601],[-79.5305,43.70675],[-79.53397,43.70692],[-79.53646,43.70688],[-79.53994,43.70679],[-79.54069,43.70678],[-79.54318,43.70672],[-79.54417,43.7067],[-79.54492,43.70668],[-79.54567,43.70666],[-79.55738,43.70646],[-79.58762,43.70586],[-79.59121,43.70582],[-79.59465,43.70618],[-79.59705,43.70616],[-79.60067,43.70561],[-79.61356,43.70532]]},"properties":{"line":"Kitchener","name":"Kitchener","color":"#00853E","offset":1,"to":"Kitchener"}},
{"type":"Feature","geometry":{"type":"LineString","coordinates":[[-79.38369,43.64415],[-79.38677,43.64326],[-79.39193,43.64218],[-79.39531,43.6415],[-79.39605,43.6414],[-79.39688,43.6413],[-79.39775,43.64113],[-79.3987,43.64092],[-79.3995,43.64075],[-79.40309,43.64031],[-79.40407,43.64021],[-79.40482,43.64016],[-79.40581,43.64014],[-79.40869,43.64017],[-79.41876,43.64053],[-79.42137,43.64063],[-79.42299,43.64076],[-79.42387,43.6409],[-79.42466,43.64106],[-79.42548,43.64128],[-79.42626,43.64153],[-79.42695,43.64179],[-79.42762,43.64209],[-79.42839,43.64244],[-79.42922,43.64282],[-79.43013,43.64322],[-79.43125,43.64371],[-79.43813,43.64693],[-79.43957,43.64764],[-79.44017,43.64797],[-79.44083,43.64836],[-79.44147,43.64878],[-79.44203,43.64918],[-79.44255,43.64957],[-79.44304,43.64998],[-79.44352,43.6504],[-79.44398,43.65083],[-79.44459,43.65144],[-79.44586,43.65276],[-79.44776,43.6547],[-79.45024,43.65723],[-79.45073,43.65772],[-79.46435,43.6716],[-79.46665,43.67387],[-79.46797,43.67526],[-79.46854,43.67585],[-79.4691,43.67644],[-79.46971,43.67701],[-79.47034,43.67756],[-79.47097,43.67812],[-79.47161,43.67867],[-79.4721,43.67908],[-79.47264,43.67946],[-79.47336,43.67996],[-79.47407,43.68045],[-79.47461,43.68083],[-79.47537,43.68129],[-79.47613,43.68176],[-79.47691,43.6822],[-79.47767,43.68262],[-79.47941,43.68351],[-79.48109,43.68434],[-79.48266,43.68511],[-79.48922,43.68836],[-79.49304,43.69022],[-79.49478,43.69109],[-79.49818,43.69285],[-79.51369,43.70062],[-79.52197,43.7046],[-79.52439,43.70552],[-79.5279,43.70643],[-79.53057,43.70683],[-79.53503,43.70698],[-79.5402,43.70686],[-79.54166,43.70679],[-79.54282,43.70676],[-79.54464,43.70668],[-79.54648,43.70661],[-79.5581,43.70642],[-79.56215,43.70631],[-79.57824,43.70601],[-79.57912,43.70595],[-79.60198,43.70551],[-79.60917,43.7054],[-79.61343,43.70511]]},"properties":{"line":"UP","name":"UP Express","color":"#1F4E9C","offset":2,"to":"Pearson Airport"}},
{"type":"Feature","geometry":{"type":"LineString","coordinates":[[-79.3803,43.64445],[-79.37731,43.64509],[-79.37217,43.646],[-79.36345,43.64785],[-79.3611,43.64843],[-79.35658,43.64995],[-79.35509,43.65059],[-79.35429,43.65102],[-79.35349,43.65145],[-79.35269,43.65188],[-79.35189,43.65231],[-79.35114,43.65271],[-79.35049,43.65306],[-79.34971,43.6535],[-79.34911,43.65383],[-79.34855,43.65419],[-79.34785,43.6547],[-79.34737,43.65512],[-79.34694,43.65557],[-79.3466,43.65606],[-79.34632,43.65657],[-79.3461,43.65709],[-79.34582,43.65816],[-79.34524,43.66243],[-79.34456,43.66417],[-79.34312,43.66665],[-79.34072,43.66927],[-79.34016,43.66975],[-79.33965,43.67015],[-79.33913,43.67054],[-79.33858,43.67091],[-79.33802,43.67127],[-79.33741,43.67163],[-79.33666,43.67204],[-79.33603,43.67235],[-79.33519,43.67273],[-79.33439,43.67307],[-79.33368,43.67336],[-79.33215,43.67397],[-79.32977,43.67491],[-79.30852,43.68324],[-79.30355,43.68514],[-79.29879,43.68662],[-79.28003,43.69094],[-79.2785,43.69133],[-79.2769,43.69184],[-79.27464,43.69276],[-79.27194,43.69422],[-79.26955,43.696],[-79.26727,43.69847],[-79.25941,43.71027],[-79.2591,43.71077],[-79.25872,43.7114],[-79.25838,43.71191],[-79.25805,43.7124],[-79.25655,43.71467],[-79.25579,43.7158],[-79.25324,43.71965],[-79.25211,43.72133],[-79.25007,43.72442],[-79.2475,43.72826],[-79.24564,43.73045],[-79.24402,43.73188],[-79.24152,43.73357],[-79.22995,43.74082],[-79.22637,43.74323],[-79.22415,43.74502],[-79.2217,43.74726],[-79.21918,43.74876],[-79.21411,43.75021],[-79.21095,43.75129],[-79.20731,43.75284],[-79.20384,43.75384],[-79.16537,43.76128],[-79.16277,43.76185],[-79.15007,43.76508],[-79.14847,43.76558],[-79.14619,43.76666],[-79.13946,43.77094],[-79.13726,43.77275],[-79.13518,43.7749],[-79.12307,43.78787],[-79.12207,43.78912],[-79.11769,43.79516]]},"properties":{"line":"Lakeshore East","name":"Lakeshore East","color":"#FF0D00","offset":1,"to":"Durham College Oshawa"}},
{"type":"Feature","geometry":{"type":"LineString","coordinates":[[-79.38032,43.64452],[-79.37722,43.64518],[-79.37221,43.64602],[-79.36255,43.64809],[-79.3607,43.6486],[-79.35641,43.65005],[-79.35554,43.6504],[-79.35469,43.65085],[-79.35397,43.6512],[-79.35323,43.65158],[-79.35165,43.65243],[-79.35086,43.65286],[-79.35013,43.65326],[-79.34934,43.6537],[-79.34876,43.65405],[-79.34805,43.65455],[-79.34754,43.65496],[-79.34705,43.65543],[-79.34667,43.65594],[-79.34633,43.65657],[-79.3461,43.6571],[-79.34582,43.65818],[-79.34524,43.66243],[-79.34456,43.66417],[-79.34313,43.66664],[-79.34072,43.66927],[-79.34018,43.66973],[-79.33961,43.67018],[-79.33901,43.67062],[-79.33843,43.67101],[-79.33768,43.67148],[-79.33689,43.67192],[-79.33607,43.67233],[-79.33541,43.67264],[-79.33459,43.67299],[-79.33373,43.67334],[-79.33307,43.6736],[-79.3324,43.67387],[-79.32977,43.67491],[-79.30359,43.68518],[-79.29962,43.68652],[-79.28137,43.69067],[-79.27854,43.69136],[-79.27695,43.69187],[-79.27468,43.6928],[-79.27318,43.69357],[-79.26962,43.69604],[-79.26697,43.69898],[-79.26396,43.70349],[-79.26289,43.70512],[-79.26105,43.70787],[-79.26041,43.70885],[-79.25966,43.70998],[-79.25933,43.71047],[-79.2589,43.71112],[-79.25847,43.71176],[-79.25816,43.71226],[-79.25776,43.71292],[-79.25735,43.71357],[-79.25706,43.71407],[-79.25521,43.717],[-79.25317,43.71998],[-79.25289,43.72111],[-79.25308,43.72218],[-79.25426,43.72462],[-79.25512,43.72563],[-79.25699,43.72683],[-79.25909,43.72759],[-79.26033,43.72833],[-79.26119,43.7294],[-79.26315,43.73371],[-79.26444,43.73696],[-79.2686,43.74672],[-79.26988,43.74992],[-79.27017,43.75125],[-79.27581,43.76598],[-79.27665,43.76843],[-79.2797,43.77609],[-79.28047,43.77828],[-79.28244,43.78281],[-79.28395,43.78527],[-79.28614,43.79053],[-79.2907,43.80116],[-79.29277,43.80419],[-79.29617,43.81141],[-79.30188,43.82404],[-79.30261,43.82556]]},"properties":{"line":"Stouffville","name":"Stouffville","color":"#794500","offset":0,"to":"Old Elm"}},
{"type":"Feature","geometry":{"type":"LineString","coordinates":[[-79.38035,43.64459],[-79.37727,43.64524],[-79.37163,43.64619],[-79.36376,43.64786],[-79.36124,43.64847],[-79.35643,43.65008],[-79.35213,43.65227],[-79.35091,43.65367],[-79.35138,43.65483],[-79.35419,43.65724],[-79.35487,43.65821],[-79.35682,43.66471],[-79.35807,43.66848],[-79.35901,43.66952],[-79.36199,43.67194],[-79.364,43.67442],[-79.36478,43.67612],[-79.36713,43.67916],[-79.36759,43.68095],[-79.36638,43.68235],[-79.36353,43.6838],[-79.36243,43.68472],[-79.36213,43.68581],[-79.36275,43.68752],[-79.36266,43.68871],[-79.36084,43.69092],[-79.36002,43.693],[-79.35693,43.69689],[-79.35468,43.69862],[-79.35147,43.6999],[-79.34952,43.70019],[-79.3478,43.70003],[-79.34504,43.69923],[-79.34307,43.69929],[-79.34168,43.69978],[-79.33468,43.70482],[-79.33315,43.70573],[-79.33001,43.70719],[-79.32558,43.70952],[-79.32092,43.71115],[-79.32002,43.71204],[-79.31967,43.71436],[-79.31983,43.71561],[-79.32236,43.72091],[-79.32282,43.72209],[-79.32274,43.72351],[-79.32064,43.72811],[-79.32097,43.72972],[-79.32225,43.73048],[-79.32485,43.73098],[-79.3263,43.73169],[-79.32887,43.73339],[-79.33197,43.7343],[-79.33329,43.73498],[-79.33392,43.73616],[-79.33422,43.7381],[-79.33634,43.74115],[-79.33741,43.7422],[-79.33885,43.7426],[-79.34219,43.74276],[-79.34413,43.74301],[-79.34596,43.74357],[-79.34755,43.74441],[-79.34972,43.74659],[-79.35492,43.75314],[-79.36719,43.76872],[-79.36816,43.77043],[-79.36876,43.77364],[-79.3685,43.77488],[-79.36702,43.77864],[-79.36708,43.78047],[-79.36742,43.78185],[-79.37348,43.79859],[-79.37422,43.79992],[-79.37661,43.80329],[-79.37927,43.80578],[-79.3812,43.80738]]},"properties":{"line":"Richmond Hill","name":"Richmond Hill","color":"#0099C7","offset":-1,"to":"Bloomington"}}
]}