{"type":"FeatureCollection", "features": [
{"type":"Feature","geometry":{"type":"Polygon","coordinates":[[[-79.3905,43.71826],[-79.3906,43.71852],[-79.39045,43.71872],[-79.39137,43.71853],[-79.39304,43.71819],[-79.39314,43.71864],[-79.39346,43.71857],[-79.39345,43.71855],[-79.39411,43.71842],[-79.39429,43.7181],[-79.39459,43.71806],[-79.39467,43.71842],[-79.39492,43.71836],[-79.39497,43.71858],[-79.39525,43.71853],[-79.39605,43.71851],[-79.39631,43.7184],[-79.39636,43.71866],[-79.39664,43.7186],[-79.39657,43.71826],[-79.39719,43.71819],[-79.39713,43.71794],[-79.39758,43.71786],[-79.39757,43.7178],[-79.39788,43.71773],[-79.39793,43.71794],[-79.39814,43.7179],[-79.39812,43.71785],[-79.39851,43.71777],[-79.39849,43.7177],[-79.39903,43.7176],[-79.39897,43.71731],[-79.39942,43.71722],[-79.39945,43.71729],[-79.39965,43.71726],[-79.39962,43.71713],[-79.40003,43.71705],[-79.39992,43.71678],[-79.39978,43.71664],[-79.39969,43.71624],[-79.39943,43.71629],[-79.39936,43.716],[-79.39837,43.7162],[-79.39847,43.71648],[-79.39801,43.71648],[-79.39809,43.7167],[-79.39765,43.71679],[-79.39741,43.71683],[-79.39697,43.71692],[-79.39694,43.71679],[-79.39674,43.71683],[-79.39672,43.71674],[-79.39631,43.71683],[-79.39613,43.71689],[-79.39614,43.71693],[-79.39596,43.71697],[-79.39595,43.71693],[-79.39566,43.71699],[-79.39566,43.71703],[-79.39405,43.71736],[-79.39387,43.71755],[-79.39328,43.71767],[-79.39323,43.71744],[-79.3927,43.71755],[-79.39271,43.71759],[-79.39213,43.71771],[-79.39212,43.71767],[-79.39159,43.71778],[-79.39146,43.71745],[-79.39142,43.71745],[-79.39155,43.71778],[-79.39133,43.71783],[-79.39131,43.71778],[-79.39116,43.71779],[-79.39106,43.71753],[-79.39102,43.71754],[-79.39114,43.71785],[-79.39053,43.71797],[-79.39047,43.71796],[-79.39011,43.71804],[-79.3905,43.71826]]]},"properties":{"name":"Blythwood Road","lp":[-79.39592,43.71775],"since":2004}},
{"type":"Feature","geometry":{"type":"Polygon","coordinates":[[[-79.36561,43.66795],[-79.36564,43.66803],[-79.36599,43.66796],[-79.36612,43.66826],[-79.36629,43.66823],[-79.36635,43.66836],[-79.3669,43.66824],[-79.36694,43.66823],[-79.36829,43.66793],[-79.36865,43.66785],[-79.36847,43.66741],[-79.36857,43.66739],[-79.36838,43.66693],[-79.36773,43.66707],[-79.36766,43.6669],[-79.36831,43.66676],[-79.36744,43.66459],[-79.36747,43.66458],[-79.36733,43.66424],[-79.36642,43.66444],[-79.3664,43.66438],[-79.36617,43.66443],[-79.36608,43.66419],[-79.36544,43.66433],[-79.36554,43.66458],[-79.36541,43.66462],[-79.36467,43.66479],[-79.36479,43.66507],[-79.36486,43.66524],[-79.36479,43.66525],[-79.36484,43.66538],[-79.36468,43.66542],[-79.36457,43.66545],[-79.36476,43.66591],[-79.36488,43.66588],[-79.36489,43.66591],[-79.36502,43.66622],[-79.36509,43.66628],[-79.36528,43.66624],[-79.36542,43.66656],[-79.36515,43.66662],[-79.36541,43.66727],[-79.36543,43.66732],[-79.36571,43.66726],[-79.36583,43.66754],[-79.36547,43.66762],[-79.36559,43.66791],[-79.36602,43.66782],[-79.36603,43.66786],[-79.36561,43.66795]],[[-79.36626,43.66629],[-79.36619,43.6663],[-79.36595,43.66571],[-79.36624,43.66565],[-79.36648,43.66624],[-79.36633,43.66627],[-79.36624,43.66606],[-79.36617,43.66608],[-79.36626,43.66629]],[[-79.36653,43.66595],[-79.36639,43.66561],[-79.36653,43.66558],[-79.36658,43.6657],[-79.36673,43.66572],[-79.36691,43.66568],[-79.36708,43.6661],[-79.36663,43.6662],[-79.36653,43.66595]],[[-79.36723,43.66647],[-79.36685,43.66656],[-79.36677,43.66636],[-79.36715,43.66628],[-79.36723,43.66647]]]},"properties":{"name":"Cabbagetown (Metcalfe)","lp":[-79.36674,43.66745],"since":2002}},
{"type":"Feature","geometry":{"type":"Polygon","coordinates":[[[-79.36158,43.67004],[-79.36339,43.67066],[-79.36342,43.67072],[-79.36578,43.67151],[-79.36587,43.67154],[-79.36617,43.6716],[-79.36638,43.67161],[-79.36771,43.67159],[-79.36781,43.67159],[-79.36811,43.67162],[-79.3683,43.67167],[-79.36847,43.67174],[-79.36873,43.67191],[-79.36881,43.6719],[-79.36891,43.67197],[-79.36897,43.67187],[-79.36968,43.67172],[-79.37075,43.6715],[-79.36954,43.66849],[-79.36922,43.66856],[-79.36909,43.66823],[-79.36907,43.66824],[-79.36896,43.66797],[-79.36872,43.66803],[-79.36865,43.66785],[-79.36829,43.66793],[-79.36694,43.66823],[-79.3669,43.66824],[-79.36635,43.66836],[-79.36629,43.66823],[-79.36612,43.66826],[-79.36599,43.66796],[-79.36564,43.66803],[-79.36561,43.66795],[-79.36559,43.66791],[-79.36547,43.66762],[-79.36583,43.66754],[-79.36571,43.66726],[-79.36543,43.66732],[-79.36541,43.66727],[-79.36515,43.66662],[-79.36542,43.66656],[-79.36528,43.66624],[-79.36509,43.66628],[-79.36502,43.66622],[-79.36489,43.66591],[-79.36488,43.66588],[-79.36476,43.66591],[-79.36457,43.66545],[-79.36468,43.66542],[-79.36484,43.66538],[-79.36479,43.66525],[-79.36486,43.66524],[-79.36479,43.66507],[-79.36467,43.66479],[-79.36437,43.66486],[-79.36447,43.66514],[-79.36234,43.66561],[-79.36224,43.66537],[-79.36079,43.66569],[-79.36071,43.66571],[-79.36085,43.66605],[-79.36089,43.66615],[-79.36078,43.66617],[-79.36071,43.66616],[-79.36056,43.66619],[-79.35962,43.66624],[-79.35958,43.66631],[-79.3595,43.66694],[-79.35952,43.66718],[-79.35956,43.66731],[-79.35899,43.66741],[-79.35896,43.66733],[-79.35801,43.66738],[-79.35816,43.66787],[-79.3586,43.66865],[-79.35874,43.66875],[-79.35873,43.66892],[-79.35874,43.66898],[-79.35891,43.66914],[-79.35995,43.66971],[-79.36037,43.66987],[-79.36049,43.66989],[-79.36057,43.66984],[-79.36116,43.66993],[-79.36133,43.66996],[-79.36158,43.67004]]]},"properties":{"name":"Cabbagetown North","lp":[-79.36309,43.66788],"since":2004}},
{"type":"Feature","geometry":{"type":"Polygon","coordinates":[[[-79.36844,43.66364],[-79.36822,43.66368],[-79.36826,43.6638],[-79.36824,43.66382],[-79.36793,43.66388],[-79.36822,43.66461],[-79.36857,43.66454],[-79.36859,43.66455],[-79.36875,43.66495],[-79.36854,43.66499],[-79.36862,43.66517],[-79.36903,43.66508],[-79.36909,43.66525],[-79.36916,43.6653],[-79.3689,43.66535],[-79.36897,43.66552],[-79.36879,43.66556],[-79.36889,43.6658],[-79.36903,43.66577],[-79.36916,43.66607],[-79.3692,43.66606],[-79.36931,43.6663],[-79.36939,43.66654],[-79.36932,43.66655],[-79.36951,43.667],[-79.36962,43.66698],[-79.37002,43.66798],[-79.3722,43.6675],[-79.37201,43.66706],[-79.37229,43.667],[-79.37207,43.66647],[-79.37203,43.66643],[-79.37183,43.66596],[-79.37229,43.66586],[-79.37192,43.66497],[-79.37156,43.66505],[-79.37135,43.66455],[-79.37138,43.66452],[-79.37175,43.66444],[-79.37162,43.66413],[-79.37245,43.66395],[-79.37252,43.6641],[-79.37378,43.66715],[-79.3745,43.66699],[-79.37288,43.66312],[-79.37272,43.66274],[-79.37207,43.66287],[-79.37205,43.66289],[-79.37131,43.66305],[-79.3713,43.66301],[-79.37084,43.66311],[-79.37019,43.66326],[-79.36844,43.66364]]]},"properties":{"name":"Cabbagetown Northwest","lp":[-79.3705,43.66587],"since":2007}},
{"type":"Feature","geometry":{"type":"Polygon","coordinates":[[[-79.35801,43.66738],[-79.35896,43.66733],[-79.35899,43.66741],[-79.35956,43.66731],[-79.35952,43.66718],[-79.3595,43.66694],[-79.35958,43.66631],[-79.35962,43.66624],[-79.36056,43.66619],[-79.36071,43.66616],[-79.36078,43.66617],[-79.36089,43.66615],[-79.36085,43.66605],[-79.36086,43.66605],[-79.36072,43.66571],[-79.36071,43.66571],[-79.36079,43.66569],[-79.36224,43.66537],[-79.36234,43.66561],[-79.36447,43.66514],[-79.36437,43.66486],[-79.36467,43.66479],[-79.36541,43.66462],[-79.36554,43.66458],[-79.36544,43.66433],[-79.36608,43.66419],[-79.36617,43.66443],[-79.3664,43.66438],[-79.36642,43.66444],[-79.36733,43.66424],[-79.3673,43.66423],[-79.3671,43.66374],[-79.36705,43.66372],[-79.36682,43.66377],[-79.36665,43.66339],[-79.36704,43.6633],[-79.36689,43.66294],[-79.36675,43.66297],[-79.36667,43.66277],[-79.36674,43.66275],[-79.36652,43.66223],[-79.36678,43.66218],[-79.36671,43.66201],[-79.36612,43.66214],[-79.36402,43.66257],[-79.36317,43.66278],[-79.36232,43.66296],[-79.36148,43.66314],[-79.35962,43.66357],[-79.35923,43.66369],[-79.35888,43.66379],[-79.35696,43.66433],[-79.35698,43.66441],[-79.3571,43.66481],[-79.35733,43.6651],[-79.35771,43.66639],[-79.35801,43.66738]]]},"properties":{"name":"Cabbagetown South","lp":[-79.35874,43.66519],"since":2005}},
{"type":"Feature","geometry":{"type":"Polygon","coordinates":[[[-79.36844,43.66364],[-79.36846,43.66367],[-79.36913,43.66353],[-79.36974,43.6634],[-79.37082,43.66315],[-79.37131,43.66305],[-79.37132,43.66308],[-79.37206,43.66292],[-79.37205,43.66289],[-79.37157,43.66173],[-79.37174,43.66169],[-79.3716,43.66137],[-79.37163,43.66135],[-79.37159,43.66125],[-79.37149,43.66097],[-79.37127,43.66101],[-79.37039,43.65891],[-79.37041,43.6589],[-79.37019,43.65838],[-79.36995,43.65843],[-79.36984,43.65816],[-79.37,43.65812],[-79.36949,43.65686],[-79.36881,43.657],[-79.36855,43.65634],[-79.36801,43.65634],[-79.36833,43.65713],[-79.36791,43.65722],[-79.36795,43.65732],[-79.36733,43.65746],[-79.36743,43.6577],[-79.36769,43.65764],[-79.36775,43.65778],[-79.3678,43.65784],[-79.36797,43.65824],[-79.36798,43.65831],[-79.3677,43.65837],[-79.36779,43.65859],[-79.3675,43.65865],[-79.36733,43.65822],[-79.36762,43.65816],[-79.36751,43.6579],[-79.36689,43.65803],[-79.36697,43.65823],[-79.36661,43.65831],[-79.36664,43.65837],[-79.36634,43.65844],[-79.36652,43.65886],[-79.36668,43.65928],[-79.36658,43.6593],[-79.36677,43.65975],[-79.36754,43.65958],[-79.36813,43.66104],[-79.36745,43.66118],[-79.36767,43.66171],[-79.36698,43.66187],[-79.36712,43.66218],[-79.36736,43.66278],[-79.36803,43.66262],[-79.36844,43.66364]]]},"properties":{"name":"Cabbagetown Southwest","lp":[-79.36977,43.66172]}},
{"type":"Feature","geometry":{"type":"Polygon","coordinates":[[[-79.39817,43.64224],[-79.39792,43.64175],[-79.3972,43.64194],[-79.3975,43.64254],[-79.39759,43.64275],[-79.39803,43.64267],[-79.39833,43.6426],[-79.39819,43.64228],[-79.39817,43.64224]]]},"properties":{"name":"Draper Street","lp":[-79.39777,43.64225],"since":1999}},
{"type":"Feature","geometry":{"type":"Polygon","coordinates":[[[-79.40024,43.67407],[-79.40016,43.67385],[-79.40009,43.67379],[-79.3999,43.67334],[-79.39987,43.67324],[-79.39976,43.67297],[-79.39991,43.67294],[-79.39966,43.6723],[-79.39956,43.6721],[-79.39905,43.67084],[-79.39878,43.67089],[-79.39853,43.67027],[-79.39841,43.67021],[-79.39833,43.67002],[-79.39741,43.67021],[-79.39736,43.6701],[-79.39731,43.67006],[-79.39712,43.67009],[-79.3961,43.67031],[-79.39587,43.66976],[-79.39708,43.66951],[-79.3972,43.66981],[-79.39756,43.66973],[-79.39774,43.66968],[-79.39773,43.66966],[-79.39803,43.6696],[-79.39775,43.66892],[-79.3969,43.66909],[-79.39688,43.66906],[-79.39653,43.66915],[-79.39652,43.66913],[-79.39613,43.66922],[-79.39527,43.66936],[-79.3954,43.66967],[-79.39527,43.6697],[-79.39546,43.67016],[-79.39562,43.67013],[-79.39573,43.67039],[-79.39565,43.67041],[-79.3957,43.67053],[-79.39548,43.67057],[-79.39558,43.67082],[-79.39571,43.67079],[-79.39611,43.67176],[-79.3956,43.67187],[-79.3959,43.67269],[-79.39666,43.67455],[-79.39712,43.67446],[-79.39718,43.67448],[-79.39708,43.67425],[-79.39732,43.6742],[-79.39795,43.67406],[-79.39796,43.67407],[-79.39887,43.67388],[-79.39899,43.67417],[-79.39955,43.67405],[-79.40016,43.67406],[-79.40024,43.67407]]]},"properties":{"name":"East Annex","lp":[-79.39784,43.67235],"since":1994}},
{"type":"Feature","geometry":{"type":"Polygon","coordinates":[[[-79.40029,43.63954],[-79.40086,43.63991],[-79.40131,43.64006],[-79.40274,43.63988],[-79.40334,43.6398],[-79.4039,43.63972],[-79.40437,43.63962],[-79.40464,43.63956],[-79.40518,43.63943],[-79.40583,43.63925],[-79.40626,43.63915],[-79.40703,43.63899],[-79.40766,43.63883],[-79.40799,43.63874],[-79.40833,43.63866],[-79.40893,43.63853],[-79.40896,43.63852],[-79.41018,43.63819],[-79.41049,43.6381],[-79.41183,43.63777],[-79.41195,43.63774],[-79.41082,43.63761],[-79.40995,43.63748],[-79.40956,43.63645],[-79.40947,43.63637],[-79.40935,43.63635],[-79.40802,43.63646],[-79.40753,43.63648],[-79.40703,43.63648],[-79.407,43.63669],[-79.40695,43.63684],[-79.40687,43.63698],[-79.4067,43.63717],[-79.40648,43.63733],[-79.40629,43.63742],[-79.40609,43.63749],[-79.40579,43.63754],[-79.4048,43.63764],[-79.40441,43.63767],[-79.40381,43.63768],[-79.40347,43.63773],[-79.40325,43.6378],[-79.40304,43.63789],[-79.40161,43.63859],[-79.40116,43.63879],[-79.40084,43.6389],[-79.40048,43.639],[-79.40006,43.63908],[-79.40019,43.6393],[-79.40017,43.6393],[-79.40029,43.63954]]]},"properties":{"name":"Fort York","lp":[-79.40814,43.63756],"since":1985}},
{"type":"Feature","geometry":{"type":"Polygon","coordinates":[[[-79.37159,43.66125],[-79.37206,43.66115],[-79.37272,43.66274],[-79.37288,43.66312],[-79.37601,43.66245],[-79.37591,43.66221],[-79.37593,43.66217],[-79.37639,43.66207],[-79.37593,43.66098],[-79.37498,43.66119],[-79.3748,43.66074],[-79.37491,43.66053],[-79.37357,43.65727],[-79.37289,43.65565],[-79.37258,43.65553],[-79.37195,43.65406],[-79.36955,43.65458],[-79.37016,43.65604],[-79.37002,43.65627],[-79.3707,43.6579],[-79.36999,43.65805],[-79.37002,43.65812],[-79.36984,43.65816],[-79.36995,43.65843],[-79.37019,43.65838],[-79.37041,43.6589],[-79.37042,43.65889],[-79.37109,43.6605],[-79.37109,43.66052],[-79.37128,43.661],[-79.37149,43.66097],[-79.37152,43.66108],[-79.37159,43.66125]]]},"properties":{"name":"Garden District","lp":[-79.37226,43.65873],"since":2021}},
{"type":"Feature","geometry":{"type":"MultiPolygon","coordinates":[[[[-79.40306,43.66044],[-79.40187,43.66069],[-79.40197,43.66094],[-79.40194,43.66095],[-79.40154,43.66103],[-79.40185,43.66181],[-79.40254,43.66167],[-79.40248,43.66153],[-79.40318,43.66138],[-79.40306,43.66109],[-79.40364,43.66097],[-79.40343,43.66044],[-79.40332,43.66046],[-79.40309,43.66051],[-79.40306,43.66044]]],[[[-79.40408,43.65923],[-79.40462,43.66058],[-79.40512,43.66049],[-79.40591,43.66033],[-79.40478,43.6575],[-79.40428,43.6576],[-79.4043,43.65757],[-79.40414,43.65718],[-79.40395,43.65721],[-79.40411,43.65762],[-79.40399,43.65766],[-79.40401,43.65772],[-79.403,43.65793],[-79.40301,43.65795],[-79.40342,43.65788],[-79.40369,43.65854],[-79.40328,43.65863],[-79.40351,43.6592],[-79.404,43.6591],[-79.40408,43.65923]]]]},"properties":{"name":"Harbord Village (Phase I)","lp":[-79.40435,43.65835],"since":2005}},
{"type":"Feature","geometry":{"type":"MultiPolygon","coordinates":[[[[-79.40332,43.66046],[-79.40329,43.6604],[-79.40345,43.66036],[-79.40337,43.66025],[-79.40331,43.66009],[-79.40334,43.66008],[-79.40327,43.6599],[-79.40322,43.65986],[-79.40303,43.65939],[-79.40302,43.65939],[-79.40275,43.65869],[-79.40272,43.6587],[-79.40265,43.65853],[-79.40267,43.65852],[-79.4026,43.65835],[-79.4024,43.65786],[-79.40238,43.65785],[-79.40205,43.65792],[-79.40212,43.65809],[-79.40188,43.65814],[-79.40238,43.6594],[-79.40171,43.65954],[-79.40173,43.65964],[-79.40171,43.6598],[-79.40164,43.65997],[-79.40156,43.66007],[-79.4014,43.66021],[-79.40124,43.66029],[-79.40154,43.66103],[-79.40194,43.66095],[-79.40182,43.66067],[-79.40305,43.66041],[-79.40306,43.66044],[-79.40309,43.66051],[-79.40332,43.66046]]],[[[-79.40318,43.66138],[-79.40319,43.66141],[-79.40256,43.66154],[-79.40292,43.66244],[-79.40355,43.66231],[-79.40388,43.66315],[-79.40325,43.66328],[-79.40367,43.66433],[-79.40455,43.66415],[-79.40461,43.66432],[-79.40525,43.66591],[-79.40561,43.66583],[-79.40555,43.66578],[-79.40552,43.66568],[-79.40512,43.6647],[-79.40509,43.6646],[-79.40495,43.66425],[-79.40487,43.66408],[-79.40473,43.66373],[-79.40475,43.66373],[-79.40448,43.66304],[-79.40442,43.66286],[-79.40406,43.66294],[-79.40378,43.66224],[-79.4041,43.66217],[-79.40412,43.66215],[-79.40364,43.66097],[-79.40306,43.66109],[-79.40318,43.66138]]]]},"properties":{"name":"Harbord Village (Phase II)","lp":[-79.40401,43.66367],"since":2011}},
{"type":"Feature","geometry":{"type":"Polygon","coordinates":[[[-79.38566,43.66893],[-79.38623,43.66882],[-79.38619,43.66873],[-79.38708,43.66855],[-79.38626,43.66647],[-79.3871,43.66656],[-79.38681,43.66582],[-79.38594,43.66584],[-79.38551,43.66473],[-79.38524,43.66479],[-79.38449,43.66288],[-79.38376,43.66304],[-79.38406,43.66385],[-79.3835,43.66396],[-79.38371,43.66451],[-79.38374,43.6645],[-79.38395,43.66504],[-79.38397,43.66504],[-79.38432,43.66595],[-79.38423,43.66596],[-79.38438,43.66634],[-79.38434,43.66635],[-79.38446,43.66668],[-79.38451,43.66667],[-79.38489,43.66767],[-79.38481,43.66769],[-79.38502,43.66823],[-79.38529,43.66817],[-79.38549,43.6687],[-79.38556,43.66869],[-79.38566,43.66893]]]},"properties":{"name":"Historic Yonge Street","lp":[-79.38549,43.66685],"since":2016}},
{"type":"Feature","geometry":{"type":"Polygon","coordinates":[[[-79.40299,43.65724],[-79.40323,43.6572],[-79.40313,43.65694],[-79.40359,43.65685],[-79.40369,43.65711],[-79.40643,43.65658],[-79.40612,43.65579],[-79.4067,43.65567],[-79.40665,43.65561],[-79.40664,43.65552],[-79.40648,43.65514],[-79.40618,43.65441],[-79.40561,43.65453],[-79.40515,43.65465],[-79.4041,43.65486],[-79.40395,43.65452],[-79.40416,43.65448],[-79.40399,43.65404],[-79.40466,43.6539],[-79.40421,43.65281],[-79.4048,43.65267],[-79.40484,43.65262],[-79.40461,43.65204],[-79.40441,43.65195],[-79.40396,43.65205],[-79.40393,43.65204],[-79.40304,43.65223],[-79.40297,43.65204],[-79.40218,43.6522],[-79.40223,43.65232],[-79.40196,43.65238],[-79.40199,43.65245],[-79.40181,43.65249],[-79.40179,43.65244],[-79.40135,43.65253],[-79.40126,43.65233],[-79.40079,43.65243],[-79.4009,43.65271],[-79.40056,43.6528],[-79.40045,43.65278],[-79.40009,43.65286],[-79.39998,43.6526],[-79.39947,43.65271],[-79.39956,43.65293],[-79.39947,43.65295],[-79.39952,43.65305],[-79.39947,43.65306],[-79.39954,43.65322],[-79.39922,43.65329],[-79.39929,43.65345],[-79.39893,43.65353],[-79.39913,43.65403],[-79.39931,43.654],[-79.3994,43.65422],[-79.3992,43.65427],[-79.39932,43.65461],[-79.39947,43.65458],[-79.39956,43.65482],[-79.39941,43.65485],[-79.39947,43.65502],[-79.39953,43.65501],[-79.39963,43.65529],[-79.39967,43.65528],[-79.39975,43.65549],[-79.39972,43.65553],[-79.3998,43.65573],[-79.39987,43.65572],[-79.4002,43.65659],[-79.40023,43.65659],[-79.40039,43.65699],[-79.40068,43.65693],[-79.40069,43.65697],[-79.40095,43.65691],[-79.40102,43.65709],[-79.40203,43.65687],[-79.40195,43.65667],[-79.4023,43.65659],[-79.4025,43.65708],[-79.40289,43.65701],[-79.40299,43.65724]]]},"properties":{"name":"Kensington Market","lp":[-79.40173,43.65459]}},
{"type":"Feature","geometry":{"type":"Polygon","coordinates":[[[-79.3975,43.64254],[-79.39737,43.64257],[-79.39762,43.64316],[-79.39533,43.64363],[-79.39513,43.64313],[-79.39486,43.64318],[-79.39493,43.64337],[-79.39398,43.64357],[-79.39383,43.64322],[-79.39333,43.64333],[-79.39318,43.64343],[-79.39302,43.64358],[-79.39307,43.64372],[-79.39274,43.64379],[-79.39305,43.64452],[-79.3933,43.64513],[-79.39332,43.64525],[-79.39273,43.64538],[-79.39273,43.64543],[-79.39212,43.64556],[-79.39216,43.64564],[-79.39128,43.64583],[-79.3896,43.64619],[-79.38976,43.64659],[-79.38812,43.64695],[-79.38609,43.64738],[-79.38712,43.64989],[-79.38727,43.65024],[-79.3893,43.6498],[-79.38992,43.64968],[-79.38994,43.64968],[-79.38993,43.64964],[-79.38982,43.64939],[-79.3898,43.64931],[-79.39078,43.64912],[-79.39092,43.64944],[-79.39348,43.6489],[-79.39344,43.64882],[-79.39442,43.64861],[-79.3945,43.64863],[-79.39474,43.64859],[-79.39473,43.64857],[-79.39491,43.64853],[-79.39498,43.64847],[-79.39524,43.64841],[-79.39527,43.64843],[-79.39552,43.64838],[-79.39556,43.64845],[-79.39618,43.64832],[-79.3962,43.64835],[-79.39714,43.64816],[-79.39716,43.64818],[-79.39759,43.64809],[-79.39784,43.64804],[-79.39802,43.64801],[-79.39891,43.64782],[-79.39938,43.64773],[-79.39963,43.64768],[-79.3998,43.64765],[-79.40078,43.64744],[-79.40079,43.64745],[-79.40113,43.64738],[-79.40128,43.64735],[-79.40133,43.64734],[-79.40137,43.64733],[-79.40199,43.64721],[-79.40212,43.64716],[-79.40232,43.64714],[-79.40281,43.64704],[-79.40312,43.64698],[-79.4032,43.64696],[-79.40368,43.64687],[-79.40388,43.64683],[-79.40374,43.64646],[-79.40335,43.6455],[-79.40294,43.64453],[-79.40269,43.64391],[-79.40238,43.64318],[-79.40218,43.64264],[-79.40188,43.6419],[-79.39922,43.64244],[-79.39899,43.64184],[-79.39886,43.64186],[-79.39857,43.64194],[-79.39855,43.6419],[-79.39839,43.64194],[-79.39824,43.64157],[-79.39789,43.64167],[-79.39817,43.64224],[-79.39819,43.64228],[-79.39833,43.6426],[-79.39803,43.64267],[-79.39759,43.64275],[-79.3975,43.64254]]]},"properties":{"name":"King-Spadina","lp":[-79.40013,43.64493],"since":2017}},
{"type":"Feature","geometry":{"type":"Polygon","coordinates":[[[-79.28437,43.678],[-79.28447,43.67825],[-79.28507,43.67812],[-79.28501,43.67796],[-79.28541,43.67787],[-79.28535,43.67773],[-79.28374,43.6738],[-79.28334,43.67388],[-79.28292,43.67398],[-79.28263,43.67404],[-79.28294,43.67479],[-79.28297,43.67487],[-79.28325,43.67554],[-79.28397,43.67733],[-79.28399,43.67732],[-79.28424,43.67792],[-79.28433,43.6779],[-79.28437,43.678]]]},"properties":{"name":"Kingswood Road South","lp":[-79.28405,43.67602],"since":2010}},
{"type":"Feature","geometry":{"type":"Polygon","coordinates":[[[-79.29373,43.68191],[-79.29421,43.6818],[-79.29416,43.68167],[-79.29468,43.68156],[-79.29474,43.68169],[-79.29568,43.68149],[-79.29563,43.68137],[-79.29607,43.68127],[-79.29603,43.68119],[-79.2962,43.68115],[-79.29624,43.68126],[-79.29632,43.68135],[-79.29732,43.68113],[-79.29729,43.68106],[-79.29789,43.68093],[-79.29793,43.68104],[-79.29815,43.68099],[-79.29813,43.68093],[-79.29826,43.6809],[-79.29827,43.68081],[-79.29858,43.68075],[-79.29834,43.68055],[-79.29809,43.68042],[-79.29805,43.68032],[-79.29766,43.68041],[-79.29756,43.68017],[-79.29708,43.68027],[-79.29712,43.68038],[-79.29691,43.68042],[-79.29692,43.68045],[-79.2965,43.68055],[-79.29645,43.68041],[-79.29608,43.68049],[-79.29596,43.68019],[-79.29548,43.68029],[-79.29557,43.68055],[-79.29508,43.68063],[-79.29518,43.68087],[-79.29457,43.68101],[-79.29463,43.68116],[-79.29445,43.6812],[-79.29424,43.6807],[-79.29388,43.68078],[-79.29392,43.68089],[-79.29342,43.681],[-79.29347,43.68113],[-79.29317,43.68119],[-79.29344,43.68186],[-79.29365,43.68182],[-79.29373,43.68191]]]},"properties":{"name":"Lyall Avenue","lp":[-79.29562,43.68096],"since":2006}},
{"type":"Feature","geometry":{"type":"Polygon","coordinates":[[[-79.42878,43.64234],[-79.42985,43.64285],[-79.42992,43.64283],[-79.42973,43.64235],[-79.42999,43.6423],[-79.43015,43.64228],[-79.43022,43.64246],[-79.43072,43.64236],[-79.43082,43.64261],[-79.43118,43.64254],[-79.43108,43.64229],[-79.43133,43.64223],[-79.43128,43.64212],[-79.43237,43.6419],[-79.43236,43.64189],[-79.43273,43.64181],[-79.43272,43.64178],[-79.43295,43.64173],[-79.433,43.64181],[-79.43314,43.64178],[-79.43321,43.64172],[-79.43401,43.64155],[-79.43592,43.64115],[-79.4369,43.64095],[-79.43697,43.64112],[-79.43744,43.64102],[-79.43738,43.64086],[-79.43819,43.64069],[-79.43844,43.64065],[-79.43832,43.64033],[-79.43737,43.64052],[-79.43724,43.64014],[-79.43678,43.64023],[-79.43675,43.64016],[-79.4361,43.6403],[-79.43609,43.64027],[-79.43566,43.64036],[-79.43562,43.64025],[-79.43502,43.64038],[-79.43505,43.64046],[-79.43421,43.64064],[-79.43415,43.64048],[-79.43356,43.64061],[-79.43322,43.63972],[-79.43304,43.63976],[-79.43299,43.63956],[-79.43294,43.63951],[-79.43272,43.63955],[-79.43253,43.63961],[-79.43257,43.63972],[-79.43234,43.63977],[-79.43263,43.64054],[-79.432,43.64066],[-79.43215,43.64105],[-79.43205,43.64108],[-79.43187,43.6411],[-79.43004,43.64147],[-79.43004,43.64148],[-79.42903,43.64169],[-79.42902,43.64168],[-79.42855,43.64177],[-79.42818,43.64164],[-79.42772,43.64173],[-79.42748,43.64161],[-79.42745,43.64166],[-79.4281,43.64195],[-79.42842,43.64211],[-79.42843,43.64214],[-79.42875,43.64226],[-79.42878,43.64234]]]},"properties":{"name":"Parkdale Main Street","lp":[-79.43303,43.64109]}},
{"type":"Feature","geometry":{"type":"Polygon","coordinates":[[[-79.38993,43.64964],[-79.38995,43.6497],[-79.38916,43.64988],[-79.38715,43.65031],[-79.38702,43.65],[-79.38663,43.65008],[-79.38709,43.65117],[-79.38755,43.65107],[-79.38752,43.651],[-79.38862,43.65076],[-79.38928,43.65062],[-79.3893,43.65067],[-79.39031,43.65045],[-79.39137,43.65022],[-79.39136,43.65027],[-79.39141,43.65039],[-79.39181,43.6503],[-79.39184,43.65037],[-79.39226,43.65029],[-79.39214,43.65],[-79.39236,43.64996],[-79.39238,43.65],[-79.39278,43.64992],[-79.39281,43.64998],[-79.39376,43.64978],[-79.39382,43.64994],[-79.39636,43.64942],[-79.39623,43.6491],[-79.39687,43.64896],[-79.39761,43.64881],[-79.39765,43.6489],[-79.39794,43.64884],[-79.39799,43.64875],[-79.39842,43.64866],[-79.39893,43.64856],[-79.39893,43.64858],[-79.39968,43.64843],[-79.40059,43.64824],[-79.40083,43.6482],[-79.4013,43.64811],[-79.40149,43.64818],[-79.40185,43.64811],[-79.4018,43.64797],[-79.4022,43.64788],[-79.40223,43.64795],[-79.40269,43.64786],[-79.4027,43.64788],[-79.40329,43.6478],[-79.40351,43.64776],[-79.40369,43.64775],[-79.40363,43.64761],[-79.4038,43.64758],[-79.40377,43.6475],[-79.40393,43.64747],[-79.40368,43.64687],[-79.4032,43.64696],[-79.40312,43.64698],[-79.40281,43.64704],[-79.40232,43.64714],[-79.40212,43.64716],[-79.40199,43.64721],[-79.40137,43.64733],[-79.40133,43.64734],[-79.40128,43.64735],[-79.40113,43.64738],[-79.40079,43.64745],[-79.3998,43.64765],[-79.39963,43.64768],[-79.39938,43.64773],[-79.39891,43.64782],[-79.39802,43.64801],[-79.39784,43.64804],[-79.39759,43.64809],[-79.39716,43.64818],[-79.39644,43.64833],[-79.39594,43.64839],[-79.39546,43.64849],[-79.39543,43.6484],[-79.39525,43.64844],[-79.39524,43.64841],[-79.39498,43.64847],[-79.39491,43.64853],[-79.39473,43.64857],[-79.39474,43.64859],[-79.39475,43.6486],[-79.39448,43.64866],[-79.39433,43.64865],[-79.39356,43.64881],[-79.3936,43.64889],[-79.39297,43.64902],[-79.39297,43.64904],[-79.39259,43.64911],[-79.39142,43.64935],[-79.39147,43.64949],[-79.39128,43.64951],[-79.39083,43.64961],[-79.39067,43.64921],[-79.38982,43.64939],[-79.38993,43.64964]]]},"properties":{"name":"Queen Street West","lp":[-79.39528,43.64902],"since":2007}},
{"type":"Feature","geometry":{"type":"Polygon","coordinates":[[[-79.34384,43.66689],[-79.34425,43.6668],[-79.3442,43.66664],[-79.34503,43.66646],[-79.34507,43.66656],[-79.34542,43.66648],[-79.34545,43.66654],[-79.34752,43.66609],[-79.34766,43.66608],[-79.34747,43.66566],[-79.34807,43.66553],[-79.34792,43.66517],[-79.34757,43.66525],[-79.34753,43.66515],[-79.34711,43.66525],[-79.34706,43.66514],[-79.34701,43.66515],[-79.34647,43.66384],[-79.34633,43.66387],[-79.34625,43.66368],[-79.34603,43.66373],[-79.34615,43.66403],[-79.34507,43.66427],[-79.34496,43.664],[-79.34474,43.66444],[-79.34503,43.66516],[-79.345,43.66518],[-79.3452,43.66567],[-79.34503,43.6657],[-79.34522,43.66616],[-79.34482,43.66625],[-79.34363,43.66652],[-79.34356,43.66653],[-79.34352,43.66643],[-79.34337,43.66665],[-79.3434,43.66671],[-79.34332,43.66672],[-79.34337,43.66685],[-79.34354,43.66681],[-79.34357,43.66687],[-79.3437,43.66688],[-79.34383,43.66685],[-79.34384,43.66689]]]},"properties":{"name":"Riverdale","lp":[-79.34607,43.66536],"since":2008}},
{"type":"Feature","geometry":{"type":"Polygon","coordinates":[[[-79.37043,43.67872],[-79.37014,43.67893],[-79.36896,43.67918],[-79.36901,43.67993],[-79.3685,43.68091],[-79.36773,43.68168],[-79.36647,43.68404],[-79.36669,43.68455],[-79.36657,43.68458],[-79.36753,43.68682],[-79.36743,43.68711],[-79.36727,43.68777],[-79.36723,43.68807],[-79.36724,43.68825],[-79.36728,43.68848],[-79.36736,43.68873],[-79.36798,43.6886],[-79.36851,43.68851],[-79.36888,43.68843],[-79.36877,43.68817],[-79.36929,43.68806],[-79.36928,43.68802],[-79.36978,43.68792],[-79.36979,43.68795],[-79.37048,43.6878],[-79.37044,43.68769],[-79.37071,43.68763],[-79.37228,43.68728],[-79.37225,43.6872],[-79.37344,43.68695],[-79.37346,43.68701],[-79.37394,43.6869],[-79.37405,43.68687],[-79.37391,43.68646],[-79.37422,43.68639],[-79.37647,43.68592],[-79.37808,43.68558],[-79.37815,43.68567],[-79.37822,43.68566],[-79.38272,43.68471],[-79.38312,43.68456],[-79.38353,43.68443],[-79.38374,43.68425],[-79.38356,43.68379],[-79.38348,43.68345],[-79.38342,43.6828],[-79.38337,43.68251],[-79.38319,43.68201],[-79.38269,43.68099],[-79.38249,43.68066],[-79.38245,43.68053],[-79.38238,43.68041],[-79.38228,43.68033],[-79.38189,43.68031],[-79.38105,43.67995],[-79.38022,43.67979],[-79.37933,43.67965],[-79.37674,43.67979],[-79.37632,43.67987],[-79.37609,43.67988],[-79.37595,43.67985],[-79.37582,43.6798],[-79.37466,43.67922],[-79.37437,43.67917],[-79.37356,43.67913],[-79.37131,43.67894],[-79.37114,43.67892],[-79.37111,43.67892],[-79.37098,43.67889],[-79.37093,43.67887],[-79.37088,43.67886],[-79.3706,43.67877],[-79.37043,43.67872]]]},"properties":{"name":"Rosedale North","lp":[-79.372,43.68305],"since":2004}},
{"type":"Feature","geometry":{"type":"Polygon","coordinates":[[[-79.37131,43.67894],[-79.37356,43.67913],[-79.37437,43.67917],[-79.37466,43.67922],[-79.37582,43.6798],[-79.37595,43.67985],[-79.37609,43.67988],[-79.37632,43.67987],[-79.37674,43.67979],[-79.37933,43.67965],[-79.38022,43.67979],[-79.38105,43.67995],[-79.38189,43.68031],[-79.38228,43.68033],[-79.38238,43.68041],[-79.38245,43.68053],[-79.38249,43.68066],[-79.38269,43.68099],[-79.38319,43.68201],[-79.38337,43.68251],[-79.38342,43.6828],[-79.38348,43.68345],[-79.38356,43.68379],[-79.38374,43.68425],[-79.38381,43.68419],[-79.38399,43.68413],[-79.38398,43.68409],[-79.38452,43.68386],[-79.38523,43.68353],[-79.38527,43.68357],[-79.38769,43.68247],[-79.38829,43.68221],[-79.38965,43.68163],[-79.3902,43.68139],[-79.39098,43.68103],[-79.39082,43.68064],[-79.39039,43.68073],[-79.39024,43.68035],[-79.39038,43.68034],[-79.39074,43.68027],[-79.39061,43.67993],[-79.39012,43.68003],[-79.38994,43.67959],[-79.38999,43.67958],[-79.38983,43.67919],[-79.38975,43.6792],[-79.38963,43.67891],[-79.38967,43.67888],[-79.39014,43.67878],[-79.39005,43.67857],[-79.38958,43.67868],[-79.38932,43.67804],[-79.38929,43.67796],[-79.38915,43.67761],[-79.38912,43.67751],[-79.38917,43.6775],[-79.38895,43.67697],[-79.38936,43.67688],[-79.38902,43.67607],[-79.38899,43.67609],[-79.38854,43.67618],[-79.38834,43.67623],[-79.3879,43.67512],[-79.38757,43.67449],[-79.38677,43.67356],[-79.38673,43.67354],[-79.38659,43.67332],[-79.38653,43.67326],[-79.38633,43.6729],[-79.38607,43.67293],[-79.38516,43.67296],[-79.38515,43.67311],[-79.38499,43.67314],[-79.38457,43.67295],[-79.38444,43.6729],[-79.38451,43.67282],[-79.38355,43.67302],[-79.38346,43.67278],[-79.38297,43.67288],[-79.38299,43.67294],[-79.38265,43.67303],[-79.38243,43.67301],[-79.38223,43.67294],[-79.38195,43.67287],[-79.38182,43.67276],[-79.38171,43.67269],[-79.38151,43.67261],[-79.38142,43.6726],[-79.38087,43.67268],[-79.3809,43.67276],[-79.38045,43.67287],[-79.38034,43.67287],[-79.3802,43.67279],[-79.38005,43.67265],[-79.37967,43.67224],[-79.37915,43.6724],[-79.37895,43.67251],[-79.37876,43.67259],[-79.37835,43.67274],[-79.37771,43.67272],[-79.37716,43.67279],[-79.37673,43.67251],[-79.37655,43.67255],[-79.37628,43.67257],[-79.376,43.67257],[-79.37573,43.67255],[-79.37165,43.67201],[-79.37133,43.67199],[-79.37121,43.67201],[-79.37097,43.67206],[-79.37075,43.6715],[-79.36968,43.67172],[-79.36897,43.67187],[-79.36891,43.67197],[-79.36881,43.6719],[-79.36873,43.67191],[-79.36847,43.67174],[-79.3683,43.67167],[-79.36811,43.67162],[-79.36781,43.67159],[-79.36771,43.67159],[-79.36638,43.67161],[-79.36617,43.6716],[-79.36587,43.67154],[-79.36578,43.67151],[-79.36342,43.67072],[-79.36339,43.67066],[-79.36158,43.67004],[-79.36141,43.67031],[-79.36133,43.67032],[-79.36119,43.67059],[-79.36164,43.6709],[-79.36186,43.67099],[-79.36236,43.67113],[-79.36276,43.67132],[-79.363,43.67132],[-79.36321,43.67152],[-79.36336,43.67228],[-79.36391,43.67287],[-79.36495,43.67487],[-79.36505,43.67509],[-79.36625,43.67486],[-79.36643,43.6753],[-79.36721,43.67513],[-79.36717,43.67521],[-79.3672,43.67535],[-79.36725,43.67549],[-79.36726,43.67569],[-79.36782,43.67607],[-79.36896,43.67686],[-79.36954,43.67778],[-79.37032,43.6781],[-79.37049,43.67867],[-79.37043,43.67872],[-79.3706,43.67877],[-79.37088,43.67886],[-79.37093,43.67887],[-79.37098,43.67889],[-79.37111,43.67892],[-79.37114,43.67892],[-79.37131,43.67894]]]},"properties":{"name":"Rosedale South","lp":[-79.38434,43.67703],"since":2003}},
{"type":"Feature","geometry":{"type":"Polygon","coordinates":[[[-79.36439,43.65206],[-79.36477,43.65297],[-79.36619,43.65266],[-79.36963,43.65193],[-79.37171,43.65145],[-79.37301,43.65156],[-79.37307,43.65156],[-79.37491,43.65115],[-79.37723,43.65065],[-79.37641,43.64873],[-79.37628,43.64876],[-79.37602,43.64812],[-79.37582,43.64758],[-79.37541,43.64666],[-79.37527,43.64636],[-79.37168,43.64805],[-79.37092,43.64822],[-79.371,43.64843],[-79.3712,43.64887],[-79.37147,43.64944],[-79.37079,43.64967],[-79.37042,43.64978],[-79.37003,43.64988],[-79.36707,43.65058],[-79.36589,43.65084],[-79.36402,43.65125],[-79.36439,43.65206]]]},"properties":{"name":"St. Lawrence Neighbourhood","lp":[-79.37424,43.64915],"since":2015}},
{"type":"Feature","geometry":{"type":"Polygon","coordinates":[[[-79.49375,43.65895],[-79.49421,43.65886],[-79.49951,43.65776],[-79.4996,43.65774],[-79.49972,43.65752],[-79.50001,43.65715],[-79.50039,43.65686],[-79.5008,43.65661],[-79.50122,43.65634],[-79.5016,43.65607],[-79.50193,43.65577],[-79.50224,43.65546],[-79.5025,43.65512],[-79.50268,43.65478],[-79.50278,43.65443],[-79.50284,43.65404],[-79.50286,43.65362],[-79.50277,43.6532],[-79.50247,43.65286],[-79.50205,43.65257],[-79.50151,43.65239],[-79.50093,43.65226],[-79.50033,43.65216],[-79.4997,43.65212],[-79.49906,43.65211],[-79.49846,43.65205],[-79.49786,43.65197],[-79.49724,43.65195],[-79.49663,43.65196],[-79.49601,43.65204],[-79.49543,43.65208],[-79.49482,43.65219],[-79.49425,43.65227],[-79.49364,43.65229],[-79.49304,43.65225],[-79.49247,43.65211],[-79.49195,43.6519],[-79.49148,43.65161],[-79.4914,43.65149],[-79.49092,43.65164],[-79.48991,43.6517],[-79.49002,43.65218],[-79.4901,43.65244],[-79.49021,43.65269],[-79.49036,43.65294],[-79.49044,43.65304],[-79.49055,43.65314],[-79.49068,43.65322],[-79.49081,43.65328],[-79.49098,43.65332],[-79.49115,43.65334],[-79.49448,43.65356],[-79.49468,43.65346],[-79.49501,43.65341],[-79.49506,43.65317],[-79.49649,43.65322],[-79.49687,43.65322],[-79.4968,43.65346],[-79.4967,43.65363],[-79.4967,43.6537],[-79.49675,43.65376],[-79.49683,43.65379],[-79.49673,43.65396],[-79.49644,43.65436],[-79.4965,43.65439],[-79.49638,43.65455],[-79.49623,43.65469],[-79.49606,43.65489],[-79.49561,43.65529],[-79.49537,43.65545],[-79.49511,43.65558],[-79.49452,43.65569],[-79.49378,43.65586],[-79.49365,43.656],[-79.49352,43.6561],[-79.49349,43.65618],[-79.49303,43.65601],[-79.49278,43.65571],[-79.49207,43.65581],[-79.49208,43.65638],[-79.49206,43.65665],[-79.49198,43.65711],[-79.49189,43.65711],[-79.48854,43.65784],[-79.48858,43.65793],[-79.48858,43.65803],[-79.48847,43.65808],[-79.48823,43.65814],[-79.4885,43.65878],[-79.48887,43.6587],[-79.48892,43.65882],[-79.49034,43.65851],[-79.49031,43.65843],[-79.49063,43.65836],[-79.49067,43.65843],[-79.49154,43.65824],[-79.49154,43.65833],[-79.49166,43.65831],[-79.49165,43.65822],[-79.49235,43.65807],[-79.4925,43.65803],[-79.49244,43.65836],[-79.49245,43.65888],[-79.49266,43.65883],[-79.49271,43.65878],[-79.49304,43.65869],[-79.49332,43.65865],[-79.49375,43.65895]]]},"properties":{"name":"Teiaiagon-Baby Point","lp":[-79.49931,43.65465]}},
{"type":"Feature","geometry":{"type":"Polygon","coordinates":[[[-79.37574,43.644],[-79.37615,43.64498],[-79.37696,43.64687],[-79.37732,43.64774],[-79.37953,43.64726],[-79.38318,43.64646],[-79.38535,43.64599],[-79.38489,43.64487],[-79.38426,43.64334],[-79.38547,43.64324],[-79.38599,43.64317],[-79.38658,43.64309],[-79.38715,43.64298],[-79.38758,43.64293],[-79.38824,43.64279],[-79.38782,43.64176],[-79.38778,43.64173],[-79.38758,43.64123],[-79.38763,43.6411],[-79.38736,43.64091],[-79.38709,43.64043],[-79.38696,43.64011],[-79.38691,43.64005],[-79.38675,43.64004],[-79.3853,43.64028],[-79.38082,43.64103],[-79.37544,43.64292],[-79.37532,43.64295],[-79.37539,43.64311],[-79.37552,43.64346],[-79.37574,43.644]]]},"properties":{"name":"Union Station","lp":[-79.38077,43.64409],"since":2006}},
{"type":"Feature","geometry":{"type":"Polygon","coordinates":[[[-79.40366,43.67102],[-79.40427,43.67255],[-79.4043,43.67261],[-79.40474,43.67373],[-79.40474,43.67375],[-79.40532,43.67522],[-79.40638,43.67501],[-79.40624,43.67466],[-79.40636,43.67464],[-79.40536,43.67211],[-79.40428,43.66938],[-79.40417,43.6694],[-79.40414,43.66933],[-79.40397,43.66937],[-79.40389,43.66916],[-79.40417,43.6691],[-79.40357,43.66756],[-79.40416,43.66743],[-79.40403,43.66713],[-79.40342,43.66726],[-79.40345,43.66731],[-79.40277,43.66745],[-79.40287,43.6677],[-79.40241,43.6678],[-79.40257,43.66819],[-79.40237,43.66823],[-79.40242,43.66837],[-79.4025,43.66849],[-79.40266,43.66846],[-79.403,43.66934],[-79.40329,43.66929],[-79.40342,43.66963],[-79.40315,43.66969],[-79.40325,43.66996],[-79.40366,43.67102]]]},"properties":{"name":"West Annex (Phase I, Madison Avenue)","lp":[-79.40436,43.67118],"since":2019}},
{"type":"Feature","geometry":{"type":"MultiPolygon","coordinates":[[[[-79.52059,43.70122],[-79.52099,43.70133],[-79.52111,43.70108],[-79.52137,43.70115],[-79.52167,43.70073],[-79.52135,43.70057],[-79.52108,43.70037],[-79.52088,43.70014],[-79.52074,43.69994],[-79.52131,43.69979],[-79.52117,43.6997],[-79.52103,43.69952],[-79.52093,43.69927],[-79.52068,43.69874],[-79.52042,43.69839],[-79.51963,43.69917],[-79.5196,43.69921],[-79.51981,43.69938],[-79.52001,43.69956],[-79.51974,43.69972],[-79.51994,43.69987],[-79.51986,43.69994],[-79.51968,43.69984],[-79.51952,43.70003],[-79.5197,43.70008],[-79.5189,43.7008],[-79.51983,43.70105],[-79.51986,43.70103],[-79.52059,43.70122]]],[[[-79.52525,43.70506],[-79.52532,43.70523],[-79.52619,43.70503],[-79.52602,43.70466],[-79.5262,43.70462],[-79.52584,43.70442],[-79.52484,43.70386],[-79.52538,43.7036],[-79.52518,43.70349],[-79.52546,43.70335],[-79.52525,43.70313],[-79.52478,43.70335],[-79.52436,43.70317],[-79.52377,43.70345],[-79.52333,43.70329],[-79.52382,43.70305],[-79.52339,43.7027],[-79.52308,43.70246],[-79.52254,43.70271],[-79.52224,43.7026],[-79.52191,43.70274],[-79.52202,43.70278],[-79.52186,43.703],[-79.52158,43.70289],[-79.52163,43.70282],[-79.52127,43.70268],[-79.52121,43.70277],[-79.52097,43.70268],[-79.52079,43.70296],[-79.52071,43.70305],[-79.52176,43.70346],[-79.52158,43.70371],[-79.52183,43.70382],[-79.52206,43.7038],[-79.52232,43.70396],[-79.52248,43.70412],[-79.52287,43.70389],[-79.52289,43.70392],[-79.52323,43.70422],[-79.52357,43.70405],[-79.52407,43.70433],[-79.52365,43.70452],[-79.52392,43.70467],[-79.524,43.70459],[-79.52436,43.70479],[-79.52467,43.70497],[-79.52498,43.7049],[-79.52502,43.70499],[-79.5252,43.70495],[-79.52525,43.70506]]]]},"properties":{"name":"Weston (Phase I)","lp":[-79.5226,43.70333],"since":2006}},
{"type":"Feature","geometry":{"type":"Polygon","coordinates":[[[-79.41903,43.67958],[-79.42133,43.6791],[-79.42118,43.67871],[-79.42172,43.67859],[-79.42184,43.67872],[-79.42199,43.67877],[-79.42192,43.67861],[-79.42211,43.67857],[-79.42196,43.67819],[-79.42232,43.67812],[-79.42212,43.67763],[-79.42202,43.67737],[-79.42182,43.67687],[-79.42158,43.67629],[-79.42105,43.67644],[-79.42106,43.67647],[-79.42054,43.67661],[-79.42055,43.67663],[-79.4203,43.6767],[-79.42034,43.67682],[-79.42016,43.67684],[-79.42012,43.67675],[-79.41964,43.67678],[-79.41963,43.67659],[-79.41926,43.67668],[-79.41849,43.67676],[-79.41855,43.67705],[-79.41761,43.6771],[-79.4177,43.67757],[-79.41809,43.67753],[-79.41818,43.67773],[-79.41869,43.67902],[-79.41849,43.67906],[-79.41856,43.67925],[-79.41887,43.67919],[-79.41903,43.67958]]]},"properties":{"name":"Wychwood Park","lp":[-79.41982,43.67808],"since":1985}},
{"type":"Feature","geometry":{"type":"Polygon","coordinates":[[[-79.39428,43.67487],[-79.39513,43.6747],[-79.39506,43.67454],[-79.39523,43.6745],[-79.39511,43.67418],[-79.39573,43.67405],[-79.39563,43.67378],[-79.39579,43.67375],[-79.39563,43.67335],[-79.39485,43.67352],[-79.39456,43.67283],[-79.39447,43.67256],[-79.39452,43.67255],[-79.39411,43.67157],[-79.39387,43.67162],[-79.39378,43.67134],[-79.39367,43.67107],[-79.39329,43.67115],[-79.39325,43.67106],[-79.39268,43.67118],[-79.39272,43.67129],[-79.39258,43.67132],[-79.39274,43.67172],[-79.39079,43.67212],[-79.39087,43.67231],[-79.39074,43.67234],[-79.39099,43.67293],[-79.39123,43.67337],[-79.39167,43.67328],[-79.39184,43.6737],[-79.39243,43.67358],[-79.3925,43.67379],[-79.39258,43.67401],[-79.39236,43.67405],[-79.39245,43.67427],[-79.39291,43.67452],[-79.39311,43.67461],[-79.39378,43.67428],[-79.39401,43.67481],[-79.39424,43.67476],[-79.39428,43.67487]]]},"properties":{"name":"Yorkville-Hazelton","lp":[-79.39334,43.67288],"since":2002}}
]}