{"type":"FeatureCollection","features":[{"type":"Feature","properties":{"name":"University of Toronto","cat":"university","sub":"St. George campus"},"geometry":{"type":"Point","coordinates":[-79.39568,43.66191]}},{"type":"Feature","properties":{"name":"University of Toronto Scarborough","cat":"university","sub":"U of T"},"geometry":{"type":"Point","coordinates":[-79.18654,43.7852]}},{"type":"Feature","properties":{"name":"York University","cat":"university","sub":"Keele campus"},"geometry":{"type":"Point","coordinates":[-79.50489,43.77423]}},{"type":"Feature","properties":{"name":"Glendon College","cat":"university","sub":"York University"},"geometry":{"type":"Point","coordinates":[-79.37765,43.72835]}},{"type":"Feature","properties":{"name":"Toronto Metropolitan University","cat":"university"},"geometry":{"type":"Point","coordinates":[-79.37942,43.65767]}},{"type":"Feature","properties":{"name":"OCAD University","cat":"university"},"geometry":{"type":"Point","coordinates":[-79.3903,43.65175]}},{"type":"Feature","properties":{"name":"Université de l'Ontario français","cat":"university","sub":"French-language public university"},"geometry":{"type":"Point","coordinates":[-79.36897,43.64508]}},{"type":"Feature","properties":{"name":"Tyndale University","cat":"university","sub":"Private nonprofit"},"geometry":{"type":"Point","coordinates":[-79.39078,43.79794]}},{"type":"Feature","properties":{"name":"Centennial College","cat":"college","sub":"Progress campus"},"geometry":{"type":"Point","coordinates":[-79.22783,43.78572]}},{"type":"Feature","properties":{"name":"Centennial College","cat":"college","sub":"Morningside campus"},"geometry":{"type":"Point","coordinates":[-79.19266,43.78624]}},{"type":"Feature","properties":{"name":"Centennial College","cat":"college","sub":"Ashtonbee campus"},"geometry":{"type":"Point","coordinates":[-79.29134,43.73152]}},{"type":"Feature","properties":{"name":"Centennial College","cat":"college","sub":"Downsview Park campus"},"geometry":{"type":"Point","coordinates":[-79.47532,43.74746]}},{"type":"Feature","properties":{"name":"Centennial College","cat":"college","sub":"Story Arts Centre"},"geometry":{"type":"Point","coordinates":[-79.34893,43.68474]}},{"type":"Feature","properties":{"name":"George Brown College","cat":"college","sub":"St. James campus"},"geometry":{"type":"Point","coordinates":[-79.37025,43.65131]}},{"type":"Feature","properties":{"name":"George Brown College","cat":"college","sub":"Casa Loma campus"},"geometry":{"type":"Point","coordinates":[-79.41097,43.6759]}},{"type":"Feature","properties":{"name":"George Brown College","cat":"college","sub":"Waterfront campus"},"geometry":{"type":"Point","coordinates":[-79.36579,43.64415]}},{"type":"Feature","properties":{"name":"Humber Polytechnic","cat":"college","sub":"North campus"},"geometry":{"type":"Point","coordinates":[-79.6061,43.72862]}},{"type":"Feature","properties":{"name":"Humber Polytechnic","cat":"college","sub":"Lakeshore campus"},"geometry":{"type":"Point","coordinates":[-79.51453,43.59598]}},{"type":"Feature","properties":{"name":"Seneca Polytechnic","cat":"college","sub":"Newnham campus"},"geometry":{"type":"Point","coordinates":[-79.34984,43.79669]}},{"type":"Feature","properties":{"name":"Seneca Polytechnic","cat":"college","sub":"Seneca @ York"},"geometry":{"type":"Point","coordinates":[-79.49949,43.77152]}},{"type":"Feature","properties":{"name":"Collège Boréal","cat":"college","sub":"Toronto campus · French-language"},"geometry":{"type":"Point","coordinates":[-79.37466,43.6424]}},{"type":"Feature","properties":{"name":"Toronto General Hospital","cat":"hospital","sub":"University Health Network","ed":true},"geometry":{"type":"Point","coordinates":[-79.38816,43.65866]}},{"type":"Feature","properties":{"name":"Toronto Western Hospital","cat":"hospital","sub":"University Health Network","ed":true},"geometry":{"type":"Point","coordinates":[-79.40549,43.65347]}},{"type":"Feature","properties":{"name":"Princess Margaret Cancer Centre","cat":"hospital","sub":"University Health Network","ed":false},"geometry":{"type":"Point","coordinates":[-79.39064,43.65817]}},{"type":"Feature","properties":{"name":"Toronto Rehab","cat":"hospital","sub":"University Health Network","ed":false},"geometry":{"type":"Point","coordinates":[-79.38999,43.65669]}},{"type":"Feature","properties":{"name":"Toronto Rehab, Lyndhurst Centre","cat":"hospital","sub":"University Health Network","ed":false},"geometry":{"type":"Point","coordinates":[-79.36974,43.71912]}},{"type":"Feature","properties":{"name":"Toronto Rehab, Rumsey Centre","cat":"hospital","sub":"University Health Network","ed":false},"geometry":{"type":"Point","coordinates":[-79.37174,43.7188]}},{"type":"Feature","properties":{"name":"E.W. Bickle Centre","cat":"hospital","sub":"University Health Network · complex care","ed":false},"geometry":{"type":"Point","coordinates":[-79.43315,43.63534]}},{"type":"Feature","properties":{"name":"Mount Sinai Hospital","cat":"hospital","sub":"Sinai Health","ed":true},"geometry":{"type":"Point","coordinates":[-79.39033,43.65745]}},{"type":"Feature","properties":{"name":"Hennick Bridgepoint Hospital","cat":"hospital","sub":"Sinai Health · rehab and complex care","ed":false},"geometry":{"type":"Point","coordinates":[-79.35457,43.66637]}},{"type":"Feature","properties":{"name":"St. Michael's Hospital","cat":"hospital","sub":"Unity Health Toronto","ed":true},"geometry":{"type":"Point","coordinates":[-79.3778,43.65363]}},{"type":"Feature","properties":{"name":"St. Joseph's Health Centre","cat":"hospital","sub":"Unity Health Toronto","ed":true},"geometry":{"type":"Point","coordinates":[-79.44987,43.64036]}},{"type":"Feature","properties":{"name":"Providence Healthcare","cat":"hospital","sub":"Unity Health Toronto · rehab and complex care","ed":false},"geometry":{"type":"Point","coordinates":[-79.28526,43.71265]}},{"type":"Feature","properties":{"name":"The Hospital for Sick Children","cat":"hospital","sub":"SickKids","ed":true},"geometry":{"type":"Point","coordinates":[-79.38757,43.65726]}},{"type":"Feature","properties":{"name":"Sunnybrook Health Sciences Centre","cat":"hospital","sub":"Bayview campus","ed":true},"geometry":{"type":"Point","coordinates":[-79.37382,43.72279]}},{"type":"Feature","properties":{"name":"Sunnybrook Holland Centre","cat":"hospital","sub":"Sunnybrook","ed":false},"geometry":{"type":"Point","coordinates":[-79.3823,43.66509]}},{"type":"Feature","properties":{"name":"St. John's Rehab","cat":"hospital","sub":"Sunnybrook","ed":false},"geometry":{"type":"Point","coordinates":[-79.40421,43.78733]}},{"type":"Feature","properties":{"name":"Women's College Hospital","cat":"hospital","sub":"Urgent care, no emergency department","ed":false},"geometry":{"type":"Point","coordinates":[-79.38754,43.66173]}},{"type":"Feature","properties":{"name":"North York General Hospital","cat":"hospital","ed":true},"geometry":{"type":"Point","coordinates":[-79.36258,43.76923]}},{"type":"Feature","properties":{"name":"North York General, Branson site","cat":"hospital","sub":"North York General","ed":false},"geometry":{"type":"Point","coordinates":[-79.44724,43.77161]}},{"type":"Feature","properties":{"name":"Hennick Humber Hospital","cat":"hospital","sub":"Humber River Health","ed":true},"geometry":{"type":"Point","coordinates":[-79.48825,43.72329]}},{"type":"Feature","properties":{"name":"Etobicoke General Hospital","cat":"hospital","sub":"William Osler Health System","ed":true},"geometry":{"type":"Point","coordinates":[-79.59833,43.72904]}},{"type":"Feature","properties":{"name":"Queensway Health Centre","cat":"hospital","sub":"Trillium Health Partners","ed":false},"geometry":{"type":"Point","coordinates":[-79.56217,43.61]}},{"type":"Feature","properties":{"name":"Michael Garron Hospital","cat":"hospital","ed":true},"geometry":{"type":"Point","coordinates":[-79.32493,43.68994]}},{"type":"Feature","properties":{"name":"Scarborough General Hospital","cat":"hospital","sub":"Scarborough Health Network","ed":true},"geometry":{"type":"Point","coordinates":[-79.24828,43.75648]}},{"type":"Feature","properties":{"name":"Centenary Hospital","cat":"hospital","sub":"Scarborough Health Network","ed":true},"geometry":{"type":"Point","coordinates":[-79.20445,43.78047]}},{"type":"Feature","properties":{"name":"Birchmount Hospital","cat":"hospital","sub":"Scarborough Health Network","ed":true},"geometry":{"type":"Point","coordinates":[-79.30925,43.80167]}},{"type":"Feature","properties":{"name":"CAMH, Queen Street","cat":"hospital","sub":"Centre for Addiction and Mental Health","ed":true},"geometry":{"type":"Point","coordinates":[-79.41863,43.64301]}},{"type":"Feature","properties":{"name":"CAMH, College Street","cat":"hospital","sub":"Centre for Addiction and Mental Health","ed":true},"geometry":{"type":"Point","coordinates":[-79.39927,43.65906]}},{"type":"Feature","properties":{"name":"Baycrest Hospital","cat":"hospital","sub":"Baycrest","ed":false},"geometry":{"type":"Point","coordinates":[-79.43542,43.72988]}},{"type":"Feature","properties":{"name":"Holland Bloorview Kids Rehabilitation Hospital","cat":"hospital","ed":false},"geometry":{"type":"Point","coordinates":[-79.37352,43.71858]}},{"type":"Feature","properties":{"name":"West Park Healthcare Centre","cat":"hospital","sub":"Rehab and complex care","ed":false},"geometry":{"type":"Point","coordinates":[-79.50781,43.68896]}},{"type":"Feature","properties":{"name":"Runnymede Healthcare Centre","cat":"hospital","sub":"Rehab and complex care","ed":false},"geometry":{"type":"Point","coordinates":[-79.48097,43.66451]}},{"type":"Feature","properties":{"name":"Toronto Grace Health Centre","cat":"hospital","sub":"Salvation Army · complex care","ed":false},"geometry":{"type":"Point","coordinates":[-79.38334,43.67048]}},{"type":"Feature","properties":{"name":"Casey House","cat":"hospital","sub":"HIV/AIDS care","ed":false},"geometry":{"type":"Point","coordinates":[-79.37865,43.66882]}},{"type":"Feature","properties":{"name":"Shouldice Hospital","cat":"hospital","sub":"Private, OHIP-funded · in Markham","ed":false},"geometry":{"type":"Point","coordinates":[-79.40414,43.82091]}}]}