{"type":"FeatureCollection","features":[{"type":"Feature","properties":{"name":"Scotiabank Arena","cat":"sports","catLabel":"Sports venue","tier":2,"aliases":["Air Canada Centre","ACC","Leafs","Raptors"]},"geometry":{"type":"Point","coordinates":[-79.3791,43.6435]}},{"type":"Feature","properties":{"name":"Rogers Centre","cat":"sports","catLabel":"Sports venue","tier":2,"aliases":["SkyDome","Blue Jays"]},"geometry":{"type":"Point","coordinates":[-79.3894,43.6414]}},{"type":"Feature","properties":{"name":"BMO Field","cat":"sports","catLabel":"Sports venue","tier":2,"aliases":["TFC","Argos","Toronto FC"]},"geometry":{"type":"Point","coordinates":[-79.4186,43.6332]}},{"type":"Feature","properties":{"name":"Coca-Cola Coliseum","cat":"sports","catLabel":"Sports venue","tier":2,"aliases":["Ricoh Coliseum","Marlies"]},"geometry":{"type":"Point","coordinates":[-79.4148,43.6356]}},{"type":"Feature","properties":{"name":"High Park","cat":"park","catLabel":"Park","tier":1,"aliases":[]},"geometry":{"type":"Point","coordinates":[-79.4637,43.6465]}},{"type":"Feature","properties":{"name":"Trinity Bellwoods Park","cat":"park","catLabel":"Park","tier":2,"aliases":["Trinity Bellwoods"]},"geometry":{"type":"Point","coordinates":[-79.4135,43.647]}},{"type":"Feature","properties":{"name":"Christie Pits","cat":"park","catLabel":"Park","tier":2,"aliases":["Christie Pits Park"]},"geometry":{"type":"Point","coordinates":[-79.4235,43.6672]}},{"type":"Feature","properties":{"name":"Riverdale Park East","cat":"park","catLabel":"Park","tier":2,"aliases":["Riverdale Park"]},"geometry":{"type":"Point","coordinates":[-79.355,43.6702]}},{"type":"Feature","properties":{"name":"Toronto Island Park","cat":"park","catLabel":"Park","tier":1,"aliases":["Centre Island","Toronto Islands","Island"]},"geometry":{"type":"Point","coordinates":[-79.3678,43.6202]}},{"type":"Feature","properties":{"name":"Evergreen Brick Works","cat":"park","catLabel":"Park","tier":2,"aliases":["Brick Works"]},"geometry":{"type":"Point","coordinates":[-79.365,43.6845]}},{"type":"Feature","properties":{"name":"Tommy Thompson Park","cat":"park","catLabel":"Park","tier":2,"aliases":["Leslie Street Spit","Leslie Spit"]},"geometry":{"type":"Point","coordinates":[-79.335,43.629]}},{"type":"Feature","properties":{"name":"Woodbine Beach","cat":"park","catLabel":"Park","tier":2,"aliases":["Ashbridges Bay"]},"geometry":{"type":"Point","coordinates":[-79.308,43.6627]}},{"type":"Feature","properties":{"name":"Bluffer's Park","cat":"park","catLabel":"Park","tier":1,"aliases":["Scarborough Bluffs","Bluffers Park"]},"geometry":{"type":"Point","coordinates":[-79.2394,43.7081]}},{"type":"Feature","properties":{"name":"Rouge National Urban Park","cat":"park","catLabel":"Park","tier":1,"aliases":["Rouge Park","Rouge"]},"geometry":{"type":"Point","coordinates":[-79.165,43.81]}},{"type":"Feature","properties":{"name":"Massey Hall","cat":"music","catLabel":"Live music","tier":2,"aliases":[]},"geometry":{"type":"Point","coordinates":[-79.379,43.6542]}},{"type":"Feature","properties":{"name":"Roy Thomson Hall","cat":"music","catLabel":"Live music","tier":2,"aliases":["RTH"]},"geometry":{"type":"Point","coordinates":[-79.3863,43.6467]}},{"type":"Feature","properties":{"name":"Meridian Hall","cat":"music","catLabel":"Live music","tier":2,"aliases":["Sony Centre","Hummingbird Centre","O'Keefe Centre"]},"geometry":{"type":"Point","coordinates":[-79.376,43.6467]}},{"type":"Feature","properties":{"name":"Budweiser Stage","cat":"music","catLabel":"Live music","tier":2,"aliases":["Molson Amphitheatre","Molson Canadian Amphitheatre"]},"geometry":{"type":"Point","coordinates":[-79.4155,43.6293]}},{"type":"Feature","properties":{"name":"Danforth Music Hall","cat":"music","catLabel":"Live music","tier":2,"aliases":["The Danforth Music Hall"]},"geometry":{"type":"Point","coordinates":[-79.3571,43.6763]}},{"type":"Feature","properties":{"name":"Horseshoe Tavern","cat":"music","catLabel":"Live music","tier":2,"aliases":["The Horseshoe","Horseshoe"]},"geometry":{"type":"Point","coordinates":[-79.3955,43.6491]}},{"type":"Feature","properties":{"name":"Lee's Palace","cat":"music","catLabel":"Live music","tier":2,"aliases":["Lees Palace"]},"geometry":{"type":"Point","coordinates":[-79.4093,43.6646]}},{"type":"Feature","properties":{"name":"History","cat":"music","catLabel":"Live music","tier":2,"aliases":["History Toronto","History venue"]},"geometry":{"type":"Point","coordinates":[-79.3133,43.6667]}},{"type":"Feature","properties":{"name":"City Hall & Nathan Phillips Square","cat":"civic","catLabel":"Civic","tier":2,"aliases":["Toronto City Hall","City Hall","Nathan Phillips Square","NPS","Toronto sign"]},"geometry":{"type":"Point","coordinates":[-79.3838,43.653]}},{"type":"Feature","properties":{"name":"Queen's Park","cat":"civic","catLabel":"Civic","tier":2,"aliases":["Ontario Legislature","Legislative Building","Queens Park"]},"geometry":{"type":"Point","coordinates":[-79.3916,43.6625]}},{"type":"Feature","properties":{"name":"Union Station","cat":"civic","catLabel":"Civic","tier":2,"aliases":["Union"]},"geometry":{"type":"Point","coordinates":[-79.3806,43.6453]}},{"type":"Feature","properties":{"name":"University of Toronto","cat":"campus","catLabel":"Campus","tier":1,"aliases":["U of T","UofT","UT St. George","St. George campus"]},"geometry":{"type":"Point","coordinates":[-79.3957,43.6629]}},{"type":"Feature","properties":{"name":"Toronto Metropolitan University","cat":"campus","catLabel":"Campus","tier":2,"aliases":["TMU","Ryerson","Ryerson University","TMet"]},"geometry":{"type":"Point","coordinates":[-79.3788,43.6577]}},{"type":"Feature","properties":{"name":"York University","cat":"campus","catLabel":"Campus","tier":1,"aliases":["York U","YorkU"]},"geometry":{"type":"Point","coordinates":[-79.5047,43.7742]}},{"type":"Feature","properties":{"name":"U of T Scarborough","cat":"campus","catLabel":"Campus","tier":2,"aliases":["UTSC"]},"geometry":{"type":"Point","coordinates":[-79.1895,43.7853]}},{"type":"Feature","properties":{"name":"CN Tower","cat":"culture","catLabel":"Culture","tier":1,"aliases":[]},"geometry":{"type":"Point","coordinates":[-79.3871,43.6426]}},{"type":"Feature","properties":{"name":"Exhibition Place","cat":"culture","catLabel":"Culture","tier":1,"aliases":["CNE","The Ex","Canadian National Exhibition","Enercare Centre"]},"geometry":{"type":"Point","coordinates":[-79.412,43.6334]}},{"type":"Feature","properties":{"name":"Royal Ontario Museum","cat":"culture","catLabel":"Culture","tier":2,"aliases":["ROM"]},"geometry":{"type":"Point","coordinates":[-79.3948,43.6677]}},{"type":"Feature","properties":{"name":"Art Gallery of Ontario","cat":"culture","catLabel":"Culture","tier":2,"aliases":["AGO"]},"geometry":{"type":"Point","coordinates":[-79.3925,43.6536]}},{"type":"Feature","properties":{"name":"St. Lawrence Market","cat":"culture","catLabel":"Culture","tier":2,"aliases":["St Lawrence Market"]},"geometry":{"type":"Point","coordinates":[-79.3716,43.6487]}},{"type":"Feature","properties":{"name":"CF Toronto Eaton Centre","cat":"culture","catLabel":"Culture","tier":2,"aliases":["Eaton Centre","Eaton Center","Eatons"]},"geometry":{"type":"Point","coordinates":[-79.3807,43.6544]}},{"type":"Feature","properties":{"name":"Toronto Zoo","cat":"culture","catLabel":"Culture","tier":1,"aliases":["Zoo"]},"geometry":{"type":"Point","coordinates":[-79.1845,43.8196]}},{"type":"Feature","properties":{"name":"Billy Bishop Airport","cat":"airport","catLabel":"Airport","tier":1,"aliases":["Island Airport","Toronto City Airport","YTZ"]},"geometry":{"type":"Point","coordinates":[-79.398,43.6281]}},{"type":"Feature","properties":{"name":"Pearson Airport","cat":"airport","catLabel":"Airport","tier":1,"aliases":["Toronto Pearson","YYZ","Pearson International"]},"geometry":{"type":"Point","coordinates":[-79.6288,43.6782]}}]}