{"type":"FeatureCollection","features":[{"type":"Feature","properties":{"name":"Halton Region"},"geometry":{"type":"Point","coordinates":[-79.96079,43.57221]}},{"type":"Feature","properties":{"name":"Peel Region"},"geometry":{"type":"Point","coordinates":[-79.8491,43.82563]}},{"type":"Feature","properties":{"name":"York Region"},"geometry":{"type":"Point","coordinates":[-79.41264,43.97842]}},{"type":"Feature","properties":{"name":"Durham Region"},"geometry":{"type":"Point","coordinates":[-79.0482,43.98167]}}]}