{"type":"FeatureCollection","features":[{"type":"Feature","properties":{"region":"Halton","lp":[-79.96042,43.57208]},"geometry":{"type":"Polygon","coordinates":[[[-80.16233,43.56158],[-80.15069,43.57175],[-80.14518,43.56776],[-80.14448,43.56783],[-80.12953,43.58134],[-80.12969,43.58207],[-80.13487,43.5855],[-80.08472,43.6294],[-79.96904,43.73443],[-79.78793,43.60034],[-79.79292,43.59965],[-79.79944,43.59722],[-79.81004,43.58849],[-79.80994,43.58698],[-79.80669,43.58351],[-79.77005,43.55674],[-79.7626,43.55211],[-79.7557,43.54615],[-79.74529,43.53865],[-79.73538,43.53319],[-79.72755,43.53039],[-79.6977,43.5085],[-79.69699,43.50858],[-79.68166,43.52276],[-79.62669,43.48256],[-79.68304,43.41529],[-79.74868,43.36231],[-79.77466,43.32941],[-79.77395,43.31593],[-79.79171,43.30145],[-79.80153,43.29691],[-79.80357,43.29966],[-79.80358,43.30084],[-79.80109,43.30192],[-79.80098,43.3034],[-79.80408,43.30822],[-79.80474,43.31071],[-79.80663,43.31219],[-79.81222,43.31333],[-79.82012,43.31111],[-79.82681,43.30805],[-79.82819,43.30811],[-79.8289,43.307],[-79.83166,43.30723],[-79.83851,43.30484],[-79.83908,43.30373],[-79.84368,43.30232],[-79.84528,43.30092],[-79.85423,43.29686],[-79.86462,43.28984],[-79.86839,43.28629],[-79.87189,43.28741],[-79.87392,43.28685],[-79.87618,43.28824],[-79.88597,43.28787],[-79.88617,43.28901],[-79.89104,43.29313],[-79.91249,43.30842],[-79.88348,43.32982],[-79.88017,43.32812],[-79.87767,43.3286],[-79.8736,43.33062],[-79.86976,43.33439],[-79.86603,43.3367],[-79.86546,43.33798],[-79.86129,43.3414],[-79.85962,43.34528],[-79.86063,43.34745],[-80.16233,43.56158]]]}},{"type":"Feature","properties":{"region":"Peel","lp":[-79.84945,43.82622]},"geometry":{"type":"Polygon","coordinates":[[[-80.14403,43.86459],[-80.09721,43.9078],[-80.0934,43.90523],[-80.08852,43.90959],[-80.08333,43.91473],[-80.08348,43.91543],[-80.08654,43.91766],[-80.08224,43.92182],[-80.07706,43.91987],[-80.07104,43.91584],[-80.06618,43.92021],[-80.07124,43.92442],[-80.06901,43.92546],[-79.9588,43.95007],[-79.7755,43.98976],[-79.70461,43.86368],[-79.69764,43.85188],[-79.69482,43.84964],[-79.69556,43.84833],[-79.64446,43.76032],[-79.64106,43.75208],[-79.63784,43.7481],[-79.58916,43.66469],[-79.60864,43.64693],[-79.60813,43.64503],[-79.6071,43.64442],[-79.6033,43.64441],[-79.59822,43.64279],[-79.59537,43.64301],[-79.5919,43.64431],[-79.58877,43.64251],[-79.58562,43.63682],[-79.58627,43.63539],[-79.58543,43.63132],[-79.58617,43.62946],[-79.58538,43.62851],[-79.57511,43.62518],[-79.57016,43.62666],[-79.56865,43.62651],[-79.56718,43.62782],[-79.56423,43.62771],[-79.56388,43.62502],[-79.5659,43.62403],[-79.56596,43.62162],[-79.56706,43.62075],[-79.56682,43.61793],[-79.56814,43.61672],[-79.5686,43.61452],[-79.5679,43.61358],[-79.56452,43.61297],[-79.5644,43.61249],[-79.56727,43.61087],[-79.56743,43.60921],[-79.56672,43.60843],[-79.56496,43.60812],[-79.5648,43.60687],[-79.56265,43.60639],[-79.55656,43.60239],[-79.55606,43.59986],[-79.55379,43.5979],[-79.5542,43.59645],[-79.55379,43.59552],[-79.54946,43.59491],[-79.54905,43.59373],[-79.54974,43.59237],[-79.54969,43.59014],[-79.57089,43.5822],[-79.58922,43.57105],[-79.60116,43.55869],[-79.60915,43.53657],[-79.6118,43.5151],[-79.61696,43.49418],[-79.62669,43.48256],[-79.68142,43.52255],[-79.69735,43.50824],[-79.7275,43.53035],[-79.73536,43.53319],[-79.74528,43.53865],[-79.75571,43.54616],[-79.7626,43.55211],[-79.77004,43.55674],[-79.80849,43.58494],[-79.81032,43.58824],[-79.80274,43.59495],[-79.79627,43.59869],[-79.78923,43.60019],[-79.78912,43.60122],[-80.14403,43.86459]]]}},{"type":"Feature","properties":{"region":"York","lp":[-79.41199,43.97822]},"geometry":{"type":"Polygon","coordinates":[[[-79.7755,43.98976],[-79.65752,44.01575],[-79.65707,44.01644],[-79.65824,44.02023],[-79.656,44.01896],[-79.65378,44.01952],[-79.64796,44.01914],[-79.64743,44.01986],[-79.64828,44.02144],[-79.64452,44.02248],[-79.64079,44.021],[-79.6374,44.02105],[-79.63311,44.02305],[-79.63282,44.02453],[-79.63007,44.02372],[-79.63009,44.02582],[-79.62906,44.02631],[-79.6242,44.02535],[-79.62322,44.02602],[-79.62322,44.02804],[-79.62245,44.02872],[-79.62073,44.02769],[-79.61956,44.02801],[-79.61987,44.03032],[-79.61739,44.03248],[-79.61551,44.03132],[-79.61265,44.03234],[-79.61108,44.03523],[-79.61175,44.0366],[-79.6149,44.03705],[-79.61387,44.03915],[-79.6126,44.03995],[-79.61481,44.04106],[-79.6149,44.04273],[-79.61322,44.04467],[-79.61439,44.04643],[-79.60442,44.04914],[-79.59789,44.04831],[-79.59756,44.04926],[-79.59503,44.05094],[-79.59533,44.05235],[-79.5927,44.05198],[-79.59207,44.05359],[-79.58877,44.05419],[-79.58778,44.05543],[-79.58558,44.0555],[-79.58486,44.05827],[-79.57867,44.06061],[-79.5715,44.06518],[-79.57112,44.06715],[-79.56835,44.06804],[-79.56718,44.07159],[-79.55996,44.0729],[-79.55945,44.07517],[-79.55697,44.07578],[-79.55653,44.07887],[-79.55535,44.08015],[-79.55636,44.08183],[-79.55344,44.08483],[-79.55688,44.08762],[-79.55636,44.0912],[-79.55431,44.09342],[-79.55012,44.09561],[-79.55035,44.09823],[-79.54808,44.1004],[-79.54547,44.11386],[-79.54546,44.11684],[-79.54306,44.12017],[-79.54339,44.12361],[-79.54607,44.12579],[-79.54623,44.12689],[-79.54412,44.12729],[-79.54372,44.1279],[-79.54614,44.13224],[-79.54564,44.13674],[-79.54355,44.13968],[-79.541,44.14604],[-79.53998,44.14714],[-79.52603,44.15256],[-79.52572,44.1559],[-79.52348,44.15762],[-79.52323,44.16002],[-79.51793,44.16377],[-79.5165,44.16551],[-79.51721,44.1682],[-79.51638,44.17063],[-79.51764,44.1727],[-79.51408,44.17589],[-79.51459,44.17673],[-79.51713,44.17756],[-79.51828,44.18485],[-79.51502,44.19121],[-79.51939,44.19507],[-79.51966,44.19748],[-79.51876,44.2003],[-79.51183,44.20516],[-79.51059,44.20872],[-79.50912,44.22019],[-79.5036,44.21802],[-79.4878,44.21718],[-79.47406,44.22363],[-79.46526,44.23769],[-79.46638,44.25159],[-79.4814,44.25806],[-79.49126,44.26424],[-79.49641,44.27837],[-79.49803,44.29251],[-79.49818,44.29927],[-79.47007,44.32635],[-79.42209,44.33724],[-79.32689,44.34018],[-79.27564,44.34636],[-79.26595,44.34973],[-79.26284,44.36403],[-79.25165,44.36726],[-79.2437,44.36432],[-79.23517,44.35843],[-79.22444,44.35345],[-79.21017,44.35372],[-79.19926,44.35773],[-79.19669,44.35416],[-79.15615,44.2632],[-79.32735,44.22354],[-79.32781,44.22295],[-79.27617,44.10126],[-79.25298,44.04842],[-79.25027,44.04553],[-79.24822,44.03713],[-79.23782,44.01345],[-79.23787,44.01216],[-79.2363,44.01125],[-79.22193,43.9769],[-79.21421,43.95286],[-79.1835,43.88594],[-79.17037,43.85575],[-79.37183,43.80894],[-79.47017,43.78757],[-79.51706,43.77665],[-79.56484,43.76684],[-79.63175,43.75181],[-79.6353,43.75152],[-79.63949,43.75006],[-79.64108,43.7521],[-79.64446,43.76033],[-79.69579,43.84869],[-79.69506,43.85],[-79.6976,43.85181],[-79.70461,43.86368],[-79.7755,43.98976]]]}},{"type":"Feature","properties":{"region":"Durham","lp":[-79.0569,44.00452]},"geometry":{"type":"Polygon","coordinates":[[[-79.32804,44.22338],[-79.15651,44.26325],[-79.19451,44.34989],[-79.19926,44.35773],[-79.19731,44.35849],[-79.19413,44.36312],[-79.19366,44.36991],[-79.18955,44.38108],[-79.16763,44.42139],[-79.15939,44.44374],[-79.15614,44.46667],[-79.15888,44.47476],[-79.15563,44.47715],[-79.15951,44.47933],[-79.15667,44.48132],[-79.15933,44.48546],[-79.15489,44.49061],[-79.15401,44.49586],[-79.15145,44.4994],[-79.14842,44.50046],[-79.14476,44.5082],[-79.14423,44.51166],[-79.13994,44.51374],[-79.12553,44.50654],[-79.10747,44.50928],[-79.09619,44.51373],[-79.09299,44.51643],[-79.08206,44.51629],[-79.02772,44.39321],[-78.98948,44.30945],[-78.97373,44.27317],[-78.95389,44.22428],[-78.94248,44.19843],[-78.93902,44.19234],[-78.9283,44.16856],[-78.92908,44.15188],[-78.93656,44.11872],[-78.93224,44.1125],[-78.93148,44.11245],[-78.92308,44.11855],[-78.91624,44.12626],[-78.9112,44.13741],[-78.90567,44.16069],[-78.89557,44.18317],[-78.88534,44.19628],[-78.86941,44.20573],[-78.85717,44.1969],[-78.85415,44.18371],[-78.85472,44.16026],[-78.8564,44.1488],[-78.84915,44.14408],[-78.83827,44.14805],[-78.81294,44.16339],[-78.80147,44.17208],[-78.77334,44.2013],[-78.76425,44.21447],[-78.70744,44.08934],[-78.70764,44.0878],[-78.70637,44.08708],[-78.69902,44.07172],[-78.69964,44.07019],[-78.6984,44.06908],[-78.69804,44.06629],[-78.69581,44.0651],[-78.69183,44.05693],[-78.68846,44.05938],[-78.61413,44.07632],[-78.6096,44.07747],[-78.60634,44.07917],[-78.59954,44.07966],[-78.5163,44.09877],[-78.49066,44.0389],[-78.48283,44.01597],[-78.44099,43.92129],[-78.48012,43.90452],[-78.5013,43.90129],[-78.58208,43.91452],[-78.6074,43.91542],[-78.67015,43.89716],[-78.81064,43.87686],[-78.85486,43.86331],[-78.87841,43.86037],[-78.9528,43.86565],[-78.9773,43.86037],[-79.04103,43.82976],[-79.06267,43.82563],[-79.08836,43.82652],[-79.09655,43.82503],[-79.10771,43.81916],[-79.11661,43.81127],[-79.12403,43.79927],[-79.12549,43.80048],[-79.12759,43.80058],[-79.13091,43.80205],[-79.13435,43.80116],[-79.13347,43.8033],[-79.13409,43.80449],[-79.13365,43.80613],[-79.13408,43.80722],[-79.13617,43.80828],[-79.1403,43.80865],[-79.1427,43.81056],[-79.14594,43.81036],[-79.14633,43.81144],[-79.14935,43.81276],[-79.15189,43.81482],[-79.1835,43.88594],[-79.21422,43.95287],[-79.22193,43.97692],[-79.23625,44.01109],[-79.23798,44.01207],[-79.23788,44.01359],[-79.24823,44.03715],[-79.25025,44.04543],[-79.25296,44.04837],[-79.27617,44.10127],[-79.32804,44.22338]]]}}]}