{"type":"FeatureCollection","source":"Wikipedia, \"List of tallest buildings in Toronto\" (revision 1378696540, fetched 2026-10-10), CC BY-SA 4.0","features":[{"type":"Feature","properties":{"name":"SkyTower at Pinnacle One Yonge","h":351.8,"ft":1154,"floors":106,"year":2026,"use":"mix","purpose":"Mixed-use","uc":true,"super":true,"rank":1,"facts":["Tallest building in Canada, and the first in the country with more than 100 floors","Tallest building in Toronto since 2026","Tallest mixed-use tower in Toronto"],"wiki":"Pinnacle One Yonge"},"geometry":{"type":"Point","coordinates":[-79.375,43.64333]}},{"type":"Feature","properties":{"name":"One Bloor West","h":308.9,"ft":1013,"floors":85,"year":2028,"use":"mix","purpose":"Mixed-use","uc":true,"super":true,"rank":2,"facts":["Briefly Canada's tallest building, 2025–2026, until SkyTower overtook it","Tallest building in Toronto from 2025 to 2026","2nd-tallest building in Toronto"],"wiki":"One Bloor West"},"geometry":{"type":"Point","coordinates":[-79.387028,43.669917]}},{"type":"Feature","properties":{"name":"Concord Sky","h":300.2,"ft":985,"floors":85,"year":2027,"use":"res","purpose":"Residential","uc":true,"super":true,"rank":3,"facts":["Will be the 3rd-tallest building in Toronto when finished"],"address":"385 Yonge Street","wiki":"Concord Sky"},"geometry":{"type":"Point","coordinates":[-79.381794,43.658832]}},{"type":"Feature","properties":{"name":"First Canadian Place","h":298.3,"ft":979,"floors":72,"year":1975,"use":"com","purpose":"Office","uc":false,"super":false,"rank":3,"facts":["Tallest building in Canada for half a century, 1975–2025","When it opened, the tallest building in the world outside New York and Chicago","Tallest building in Toronto from 1975 to 2025"],"wiki":"First Canadian Place"},"geometry":{"type":"Point","coordinates":[-79.381744,43.648838]}},{"type":"Feature","properties":{"name":"The St. Regis Toronto","h":276.9,"ft":908,"floors":63,"year":2012,"use":"mix","purpose":"Mixed-use","uc":false,"super":false,"rank":4,"facts":["4th-tallest building in Toronto","Tallest building completed in Toronto in the 2010s","3rd-tallest mixed-use tower in Toronto"],"wiki":"The St. Regis Toronto"},"geometry":{"type":"Point","coordinates":[-79.380341,43.649818]}},{"type":"Feature","properties":{"name":"Scotia Plaza","h":275.0,"ft":902,"floors":68,"year":1988,"use":"com","purpose":"Office","uc":false,"super":false,"rank":5,"facts":["5th-tallest building in Toronto","Tallest building completed in Toronto in the 1980s","2nd-tallest office tower in Toronto"],"wiki":"Scotia Plaza"},"geometry":{"type":"Point","coordinates":[-79.379578,43.649422]}},{"type":"Feature","properties":{"name":"Aura","h":271.9,"ft":892,"floors":78,"year":2014,"use":"res","purpose":"Residential","uc":false,"super":false,"rank":6,"facts":["Tallest residential building in Canada","6th-tallest building in Toronto","Tallest residential tower in Toronto"],"wiki":"Aura (Toronto)"},"geometry":{"type":"Point","coordinates":[-79.382812,43.659431]}},{"type":"Feature","properties":{"name":"Forma East Tower","h":266.5,"ft":874,"floors":74,"year":2028,"use":"res","purpose":"Residential","uc":true,"super":false,"rank":7,"facts":["Will be the 7th-tallest building in Toronto when finished"],"address":"266 King Street West","wiki":"Forma (Toronto)"},"geometry":{"type":"Point","coordinates":[-79.38787,43.64719]}},{"type":"Feature","properties":{"name":"TD Canada Trust Tower","h":260.9,"ft":856,"floors":53,"year":1990,"use":"com","purpose":"Office","uc":false,"super":false,"rank":7,"facts":["7th-tallest building in Toronto","Tallest building completed in Toronto in the 1990s","3rd-tallest office tower in Toronto"],"wiki":"Brookfield Place (Toronto)"},"geometry":{"type":"Point","coordinates":[-79.378784,43.646465]}},{"type":"Feature","properties":{"name":"One Bloor","h":257.3,"ft":844,"floors":78,"year":2017,"use":"res","purpose":"Residential","uc":false,"super":false,"rank":8,"facts":["8th-tallest building in Toronto","2nd-tallest residential tower in Toronto"],"wiki":"One Bloor"},"geometry":{"type":"Point","coordinates":[-79.386147,43.669983]}},{"type":"Feature","properties":{"name":"CIBC Square II","h":243.1,"ft":798,"floors":53,"year":2026,"use":"com","purpose":"Office","uc":false,"super":false,"rank":9,"facts":["9th-tallest building in Toronto","Tallest building completed in Toronto in the 2020s so far"],"wiki":"CIBC Square"},"geometry":{"type":"Point","coordinates":[-79.3788,43.64527]}},{"type":"Feature","properties":{"name":"CIBC Square I","h":241.3,"ft":792,"floors":49,"year":2021,"use":"com","purpose":"Office","uc":false,"super":false,"rank":10,"facts":["10th-tallest building in Toronto"],"wiki":"CIBC Square"},"geometry":{"type":"Point","coordinates":[-79.377762,43.644161]}},{"type":"Feature","properties":{"name":"Commerce Court West","h":239.0,"ft":784,"floors":57,"year":1973,"use":"com","purpose":"Office","uc":false,"super":false,"rank":11,"facts":["Tallest building in Toronto from 1973 to 1975","11th-tallest of the 117 skyscrapers in Toronto"],"wiki":"Commerce Court"},"geometry":{"type":"Point","coordinates":[-79.379509,43.648209]}},{"type":"Feature","properties":{"name":"TD Terrace","h":236.5,"ft":776,"floors":48,"year":2024,"use":"com","purpose":"Office","uc":false,"super":false,"rank":12,"facts":["12th-tallest of the 117 skyscrapers in Toronto"],"wiki":"TD Terrace"},"geometry":{"type":"Point","coordinates":[-79.384583,43.645195]}},{"type":"Feature","properties":{"name":"ICE Condominiums II","h":234.2,"ft":768,"floors":68,"year":2015,"use":"res","purpose":"Residential","uc":false,"super":false,"rank":13,"facts":["3rd-tallest residential tower in Toronto","13th-tallest of the 117 skyscrapers in Toronto"],"wiki":"ICE Condominiums"},"geometry":{"type":"Point","coordinates":[-79.381676,43.642048]}},{"type":"Feature","properties":{"name":"Harbour Plaza East","h":233.0,"ft":764,"floors":71,"year":2017,"use":"res","purpose":"Residential","uc":false,"super":false,"rank":14,"facts":["14th-tallest of the 117 skyscrapers in Toronto"],"wiki":"Harbour Plaza"},"geometry":{"type":"Point","coordinates":[-79.379013,43.642113]}},{"type":"Feature","properties":{"name":"Concord Canada House 1","h":231.3,"ft":759,"floors":69,"year":2025,"use":"res","purpose":"Residential","uc":false,"super":false,"rank":15,"facts":["15th-tallest of the 117 skyscrapers in Toronto"]},"geometry":{"type":"Point","coordinates":[-79.392265,43.641399]}},{"type":"Feature","properties":{"name":"Sugar Wharf Tower G","h":230.2,"ft":755,"floors":74,"year":2023,"use":"res","purpose":"Residential","uc":false,"super":false,"rank":16,"facts":["16th-tallest of the 117 skyscrapers in Toronto"],"wiki":"Sugar Wharf"},"geometry":{"type":"Point","coordinates":[-79.371704,43.64476]}},{"type":"Feature","properties":{"name":"Eau du Soleil Sky Tower","h":228.2,"ft":749,"floors":66,"year":2019,"use":"res","purpose":"Residential","uc":false,"super":false,"rank":17,"facts":["17th-tallest of the 117 skyscrapers in Toronto"]},"geometry":{"type":"Point","coordinates":[-79.480064,43.623436]}},{"type":"Feature","properties":{"name":"Harbour Plaza West","h":224.0,"ft":735,"floors":67,"year":2017,"use":"res","purpose":"Residential","uc":false,"super":false,"rank":18,"facts":["18th-tallest of the 117 skyscrapers in Toronto"],"wiki":"Harbour Plaza"},"geometry":{"type":"Point","coordinates":[-79.379616,43.642109]}},{"type":"Feature","properties":{"name":"Ten York","h":224.0,"ft":735,"floors":65,"year":2018,"use":"res","purpose":"Residential","uc":false,"super":false,"rank":18,"facts":["18th-tallest of the 117 skyscrapers in Toronto"],"wiki":"Ten York"},"geometry":{"type":"Point","coordinates":[-79.381248,43.641106]}},{"type":"Feature","properties":{"name":"TD Bank Tower","h":222.8,"ft":731,"floors":56,"year":1967,"use":"com","purpose":"Office","uc":false,"super":false,"rank":20,"facts":["Tallest building in Toronto from 1967 to 1973","Tallest building completed in Toronto in the 1960s","20th-tallest of the 117 skyscrapers in Toronto"],"wiki":"Toronto-Dominion Centre"},"geometry":{"type":"Point","coordinates":[-79.381012,43.647568]}},{"type":"Feature","properties":{"name":"11 YV","h":221.9,"ft":728,"floors":66,"year":2025,"use":"res","purpose":"Residential","uc":false,"super":false,"rank":21,"facts":["21st-tallest of the 117 skyscrapers in Toronto"]},"geometry":{"type":"Point","coordinates":[-79.388222,43.671486]}},{"type":"Feature","properties":{"name":"8 Elm Street","h":220.3,"ft":723,"floors":69,"year":2027,"use":"res","purpose":"Residential","uc":true,"super":false,"rank":22,"facts":["Will be the 22nd-tallest building in Toronto when finished"],"address":"8 Elm Street"},"geometry":{"type":"Point","coordinates":[-79.38222,43.6579]}},{"type":"Feature","properties":{"name":"Sugar Wharf Tower F","h":218.4,"ft":717,"floors":66,"year":2023,"use":"res","purpose":"Residential","uc":false,"super":false,"rank":22,"facts":["22nd-tallest of the 117 skyscrapers in Toronto"],"wiki":"Sugar Wharf"},"geometry":{"type":"Point","coordinates":[-79.371086,43.644562]}},{"type":"Feature","properties":{"name":"Prestige at Pinnacle One Yonge","h":216.2,"ft":709,"floors":65,"year":2022,"use":"res","purpose":"Residential","uc":false,"super":false,"rank":23,"facts":["23rd-tallest of the 117 skyscrapers in Toronto"],"wiki":"Pinnacle One Yonge"},"geometry":{"type":"Point","coordinates":[-79.374184,43.643608]}},{"type":"Feature","properties":{"name":"The Pemberton","h":215.8,"ft":708,"floors":68,"year":2026,"use":"res","purpose":"Residential","uc":true,"super":false,"rank":24,"facts":["Will be the 24th-tallest building in Toronto when finished"],"address":"33 Yorkville Avenue"},"geometry":{"type":"Point","coordinates":[-79.38916,43.67143]}},{"type":"Feature","properties":{"name":"Bay Adelaide Centre West","h":214.7,"ft":704,"floors":52,"year":2009,"use":"com","purpose":"Office","uc":false,"super":false,"rank":24,"facts":["Tallest building completed in Toronto in the 2000s","24th-tallest of the 117 skyscrapers in Toronto"],"wiki":"Bay Adelaide Centre"},"geometry":{"type":"Point","coordinates":[-79.380508,43.650269]}},{"type":"Feature","properties":{"name":"Shangri-La Toronto","h":214.0,"ft":702,"floors":65,"year":2012,"use":"mix","purpose":"Mixed-use","uc":false,"super":false,"rank":25,"facts":["25th-tallest of the 117 skyscrapers in Toronto"],"wiki":"Shangri-La Toronto"},"geometry":{"type":"Point","coordinates":[-79.386177,43.649086]}},{"type":"Feature","properties":{"name":"Ritz-Carlton Toronto","h":209.5,"ft":687,"floors":54,"year":2011,"use":"mix","purpose":"Mixed-use","uc":false,"super":false,"rank":26,"facts":["26th-tallest of the 117 skyscrapers in Toronto"],"wiki":"Ritz-Carlton Toronto"},"geometry":{"type":"Point","coordinates":[-79.387009,43.645226]}},{"type":"Feature","properties":{"name":"488 University Avenue","h":207.6,"ft":681,"floors":57,"year":2019,"use":"mix","purpose":"Mixed-use","uc":false,"super":false,"rank":27,"facts":["27th-tallest of the 117 skyscrapers in Toronto"]},"geometry":{"type":"Point","coordinates":[-79.389008,43.655064]}},{"type":"Feature","properties":{"name":"Bay-Wellington Tower","h":207.0,"ft":679,"floors":49,"year":1991,"use":"com","purpose":"Office","uc":false,"super":false,"rank":28,"facts":["28th-tallest of the 117 skyscrapers in Toronto"],"wiki":"Brookfield Place (Toronto)"},"geometry":{"type":"Point","coordinates":[-79.378334,43.647369]}},{"type":"Feature","properties":{"name":"L Tower","h":205.0,"ft":673,"floors":59,"year":2015,"use":"res","purpose":"Residential","uc":false,"super":false,"rank":29,"facts":["29th-tallest of the 117 skyscrapers in Toronto"],"wiki":"L Tower"},"geometry":{"type":"Point","coordinates":[-79.376312,43.646172]}},{"type":"Feature","properties":{"name":"Massey Tower","h":204.2,"ft":670,"floors":62,"year":2019,"use":"res","purpose":"Residential","uc":false,"super":false,"rank":30,"facts":["30th-tallest of the 117 skyscrapers in Toronto"],"wiki":"Massey Tower"},"geometry":{"type":"Point","coordinates":[-79.37915,43.653683]}},{"type":"Feature","properties":{"name":"Four Seasons Hotel and Residences West","h":204.0,"ft":669,"floors":55,"year":2012,"use":"mix","purpose":"Mixed-use","uc":false,"super":false,"rank":31,"facts":["31st-tallest of the 117 skyscrapers in Toronto"],"wiki":"Four Seasons Hotel and Residences Toronto"},"geometry":{"type":"Point","coordinates":[-79.38987,43.671764]}},{"type":"Feature","properties":{"name":"ICE Condominiums I","h":202.3,"ft":664,"floors":57,"year":2014,"use":"res","purpose":"Residential","uc":false,"super":false,"rank":32,"facts":["32nd-tallest of the 117 skyscrapers in Toronto"],"wiki":"ICE Condominiums"},"geometry":{"type":"Point","coordinates":[-79.382034,43.641655]}},{"type":"Feature","properties":{"name":"Concord Canada House 2","h":202.2,"ft":663,"floors":59,"year":2025,"use":"res","purpose":"Residential","uc":false,"super":false,"rank":33,"facts":["33rd-tallest of the 117 skyscrapers in Toronto"]},"geometry":{"type":"Point","coordinates":[-79.392715,43.64101]}},{"type":"Feature","properties":{"name":"YC Condominiums","h":202.2,"ft":663,"floors":60,"year":2018,"use":"res","purpose":"Residential","uc":false,"super":false,"rank":33,"facts":["33rd-tallest of the 117 skyscrapers in Toronto"]},"geometry":{"type":"Point","coordinates":[-79.383675,43.661823]}},{"type":"Feature","properties":{"name":"88 Scott","h":198.2,"ft":650,"floors":58,"year":2017,"use":"res","purpose":"Residential","uc":false,"super":false,"rank":35,"facts":["35th-tallest of the 117 skyscrapers in Toronto"]},"geometry":{"type":"Point","coordinates":[-79.376495,43.648434]}},{"type":"Feature","properties":{"name":"Q Tower","h":197.4,"ft":648,"floors":59,"year":2029,"use":"res","purpose":"Residential","uc":true,"super":false,"rank":36,"facts":["Will be the 36th-tallest building in Toronto when finished"],"address":"200 Queens Quay West"},"geometry":{"type":"Point","coordinates":[-79.38174,43.64048]}},{"type":"Feature","properties":{"name":"Bay Adelaide Centre East","h":196.0,"ft":643,"floors":44,"year":2016,"use":"com","purpose":"Office","uc":false,"super":false,"rank":36,"facts":["36th-tallest of the 117 skyscrapers in Toronto"],"wiki":"Bay Adelaide Centre"},"geometry":{"type":"Point","coordinates":[-79.379471,43.650723]}},{"type":"Feature","properties":{"name":"E Condos South","h":195.7,"ft":642,"floors":58,"year":2019,"use":"res","purpose":"Residential","uc":false,"super":false,"rank":37,"facts":["37th-tallest of the 117 skyscrapers in Toronto"]},"geometry":{"type":"Point","coordinates":[-79.398018,43.707436]}},{"type":"Feature","properties":{"name":"Wellesley on the Park","h":194.2,"ft":637,"floors":60,"year":2021,"use":"res","purpose":"Residential","uc":false,"super":false,"rank":38,"facts":["38th-tallest of the 117 skyscrapers in Toronto"]},"geometry":{"type":"Point","coordinates":[-79.385292,43.664406]}},{"type":"Feature","properties":{"name":"2221 Yonge","h":192.5,"ft":632,"floors":58,"year":2021,"use":"res","purpose":"Residential","uc":false,"super":false,"rank":39,"facts":["39th-tallest of the 117 skyscrapers in Toronto"]},"geometry":{"type":"Point","coordinates":[-79.397629,43.706104]}},{"type":"Feature","properties":{"name":"EY Tower","h":188.2,"ft":617,"floors":40,"year":2017,"use":"com","purpose":"Office","uc":false,"super":false,"rank":40,"facts":["40th-tallest of the 117 skyscrapers in Toronto"],"wiki":"EY Tower"},"geometry":{"type":"Point","coordinates":[-79.382515,43.650162]}},{"type":"Feature","properties":{"name":"Toronto House","h":186.5,"ft":612,"floors":58,"year":2024,"use":"mix","purpose":"Mixed-use","uc":false,"super":false,"rank":41,"facts":["41st-tallest of the 117 skyscrapers in Toronto"]},"geometry":{"type":"Point","coordinates":[-79.388229,43.648094]}},{"type":"Feature","properties":{"name":"Queen Church","h":186.2,"ft":611,"floors":57,"year":2028,"use":"res","purpose":"Residential","uc":true,"super":false,"rank":42,"facts":["Will be the 42nd-tallest building in Toronto when finished"],"address":"60 Queen Street East"},"geometry":{"type":"Point","coordinates":[-79.375677,43.653275]}},{"type":"Feature","properties":{"name":"RBC Centre","h":184.9,"ft":607,"floors":42,"year":2009,"use":"com","purpose":"Office","uc":false,"super":false,"rank":42,"facts":["42nd-tallest of the 117 skyscrapers in Toronto"],"wiki":"RBC Centre"},"geometry":{"type":"Point","coordinates":[-79.385735,43.645622]}},{"type":"Feature","properties":{"name":"Casa II","h":184.5,"ft":605,"floors":57,"year":2016,"use":"res","purpose":"Residential","uc":false,"super":false,"rank":43,"facts":["43rd-tallest of the 117 skyscrapers in Toronto"],"wiki":"Casa Condominio Residenza"},"geometry":{"type":"Point","coordinates":[-79.384201,43.669441]}},{"type":"Feature","properties":{"name":"U Condominiums East Tower","h":184.0,"ft":604,"floors":55,"year":2016,"use":"res","purpose":"Residential","uc":false,"super":false,"rank":44,"facts":["44th-tallest of the 117 skyscrapers in Toronto"]},"geometry":{"type":"Point","coordinates":[-79.388718,43.666916]}},{"type":"Feature","properties":{"name":"1 Yorkville","h":183.2,"ft":601,"floors":58,"year":2020,"use":"res","purpose":"Residential","uc":false,"super":false,"rank":45,"facts":["45th-tallest of the 117 skyscrapers in Toronto"]},"geometry":{"type":"Point","coordinates":[-79.387764,43.671604]}},{"type":"Feature","properties":{"name":"TD North Tower","h":182.9,"ft":600,"floors":46,"year":1969,"use":"com","purpose":"Office","uc":false,"super":false,"rank":46,"facts":["46th-tallest of the 117 skyscrapers in Toronto"],"wiki":"Toronto-Dominion Centre"},"geometry":{"type":"Point","coordinates":[-79.381996,43.647926]}},{"type":"Feature","properties":{"name":"Water's Edge at the Cove","h":182.3,"ft":598,"floors":56,"year":2025,"use":"res","purpose":"Residential","uc":false,"super":false,"rank":47,"facts":["47th-tallest of the 117 skyscrapers in Toronto"]},"geometry":{"type":"Point","coordinates":[-79.478714,43.625999]}},{"type":"Feature","properties":{"name":"Maple Leaf Square North Tower","h":181.3,"ft":595,"floors":54,"year":2010,"use":"res","purpose":"Residential","uc":false,"super":false,"rank":48,"facts":["48th-tallest of the 117 skyscrapers in Toronto"],"wiki":"Maple Leaf Square"},"geometry":{"type":"Point","coordinates":[-79.380585,43.642849]}},{"type":"Feature","properties":{"name":"8 Wellesley","h":181.2,"ft":594,"floors":55,"year":2025,"use":"res","purpose":"Residential","uc":false,"super":false,"rank":49,"facts":["49th-tallest of the 117 skyscrapers in Toronto"]},"geometry":{"type":"Point","coordinates":[-79.385155,43.665043]}},{"type":"Feature","properties":{"name":"Eau Du Soleil Water Tower","h":180.8,"ft":593,"floors":49,"year":2019,"use":"res","purpose":"Residential","uc":false,"super":false,"rank":50,"facts":["50th-tallest of the 117 skyscrapers in Toronto"]},"geometry":{"type":"Point","coordinates":[-79.478889,43.623417]}},{"type":"Feature","properties":{"name":"Casa III","h":179.6,"ft":589,"floors":55,"year":2018,"use":"res","purpose":"Residential","uc":false,"super":false,"rank":51,"facts":["51st-tallest of the 117 skyscrapers in Toronto"],"wiki":"Casa Condominio Residenza"},"geometry":{"type":"Point","coordinates":[-79.383698,43.669529]}},{"type":"Feature","properties":{"name":"The United BLDG","h":179.5,"ft":589,"floors":54,"year":2027,"use":"mix","purpose":"Mixed-use","uc":true,"super":false,"rank":52,"facts":["Will be the 52nd-tallest building in Toronto when finished"],"address":"481 University Avenue"},"geometry":{"type":"Point","coordinates":[-79.388258,43.655415]}},{"type":"Feature","properties":{"name":"Rosedale on Bloor","h":179.0,"ft":587,"floors":52,"year":2022,"use":"res","purpose":"Residential","uc":false,"super":false,"rank":52,"facts":["52nd-tallest of the 117 skyscrapers in Toronto"]},"geometry":{"type":"Point","coordinates":[-79.377403,43.671947]}},{"type":"Feature","properties":{"name":"INDX Tower","h":178.2,"ft":585,"floors":54,"year":2016,"use":"res","purpose":"Residential","uc":false,"super":false,"rank":53,"facts":["53rd-tallest of the 117 skyscrapers in Toronto"],"wiki":"Sapphire Tower"},"geometry":{"type":"Point","coordinates":[-79.382118,43.650749]}},{"type":"Feature","properties":{"name":"Vita on the Lake","h":177.1,"ft":581,"floors":53,"year":2021,"use":"res","purpose":"Residential","uc":false,"super":false,"rank":54,"facts":["54th-tallest of the 117 skyscrapers in Toronto"]},"geometry":{"type":"Point","coordinates":[-79.479187,43.624702]}},{"type":"Feature","properties":{"name":"88 Queen Street East","h":177.0,"ft":581,"floors":57,"year":2025,"use":"res","purpose":"Residential","uc":false,"super":false,"rank":55,"facts":["55th-tallest of the 117 skyscrapers in Toronto"]},"geometry":{"type":"Point","coordinates":[-79.374878,43.653687]}},{"type":"Feature","properties":{"name":"One King West Hotel & Residence","h":176.2,"ft":578,"floors":51,"year":2005,"use":"mix","purpose":"Mixed-use","uc":false,"super":false,"rank":56,"facts":["56th-tallest of the 117 skyscrapers in Toronto"],"wiki":"One King West Hotel & Residence"},"geometry":{"type":"Point","coordinates":[-79.378204,43.648808]}},{"type":"Feature","properties":{"name":"8 Spadina at The Well","h":174.1,"ft":571,"floors":38,"year":2022,"use":"com","purpose":"Office","uc":false,"super":false,"rank":57,"facts":["57th-tallest of the 117 skyscrapers in Toronto"]},"geometry":{"type":"Point","coordinates":[-79.394661,43.643082]}},{"type":"Feature","properties":{"name":"Success Tower 2","h":173.3,"ft":569,"floors":55,"year":2010,"use":"res","purpose":"Residential","uc":false,"super":false,"rank":58,"facts":["58th-tallest of the 117 skyscrapers in Toronto"],"wiki":"Pinnacle Centre"},"geometry":{"type":"Point","coordinates":[-79.376892,43.643204]}},{"type":"Feature","properties":{"name":"Royal Bank Plaza South","h":173.0,"ft":568,"floors":41,"year":1979,"use":"com","purpose":"Office","uc":false,"super":false,"rank":59,"facts":["59th-tallest of the 117 skyscrapers in Toronto"],"wiki":"Royal Bank Plaza"},"geometry":{"type":"Point","coordinates":[-79.379761,43.646198]}},{"type":"Feature","properties":{"name":"Maple Leaf Square South Tower","h":171.3,"ft":562,"floors":50,"year":2010,"use":"mix","purpose":"Mixed-use","uc":false,"super":false,"rank":60,"facts":["60th-tallest of the 117 skyscrapers in Toronto"],"wiki":"Maple Leaf Square"},"geometry":{"type":"Point","coordinates":[-79.380814,43.642296]}},{"type":"Feature","properties":{"name":"The Selby","h":170.6,"ft":560,"floors":51,"year":2019,"use":"res","purpose":"Residential","uc":false,"super":false,"rank":61,"facts":["61st-tallest of the 117 skyscrapers in Toronto"]},"geometry":{"type":"Point","coordinates":[-79.377098,43.671158]}},{"type":"Feature","properties":{"name":"241 Church Street","h":170.1,"ft":558,"floors":53,"year":2027,"use":"res","purpose":"Residential","uc":true,"super":false,"rank":62,"facts":["Will be the 62nd-tallest building in Toronto when finished"],"address":"241 Church Street"},"geometry":{"type":"Point","coordinates":[-79.37705,43.65689]}},{"type":"Feature","properties":{"name":"Teahouse Condominiums South","h":170.0,"ft":558,"floors":52,"year":2022,"use":"res","purpose":"Residential","uc":false,"super":false,"rank":62,"facts":["62nd-tallest of the 117 skyscrapers in Toronto"]},"geometry":{"type":"Point","coordinates":[-79.383537,43.663258]}},{"type":"Feature","properties":{"name":"Eight Cumberland","h":169.8,"ft":557,"floors":51,"year":2023,"use":"res","purpose":"Residential","uc":false,"super":false,"rank":63,"facts":["63rd-tallest of the 117 skyscrapers in Toronto"]},"geometry":{"type":"Point","coordinates":[-79.387718,43.671314]}},{"type":"Feature","properties":{"name":"The Bourne","h":169.8,"ft":557,"floors":57,"year":2027,"use":"res","purpose":"Residential","uc":true,"super":false,"rank":63,"facts":["Will be the 63rd-tallest building in Toronto when finished"],"address":"591 Sherbourne Street"},"geometry":{"type":"Point","coordinates":[-79.37601,43.67089]}},{"type":"Feature","properties":{"name":"Hullmark Centre I","h":169.6,"ft":556,"floors":45,"year":2015,"use":"mix","purpose":"Mixed-use","uc":false,"super":false,"rank":64,"facts":["64th-tallest of the 117 skyscrapers in Toronto"]},"geometry":{"type":"Point","coordinates":[-79.409859,43.761433]}},{"type":"Feature","properties":{"name":"Lago","h":167.5,"ft":550,"floors":49,"year":2016,"use":"res","purpose":"Residential","uc":false,"super":false,"rank":65,"facts":["65th-tallest of the 117 skyscrapers in Toronto"]},"geometry":{"type":"Point","coordinates":[-79.478897,43.625473]}},{"type":"Feature","properties":{"name":"4800 Yonge","h":167.1,"ft":548,"floors":49,"year":2027,"use":"mix","purpose":"Mixed-use","uc":true,"super":false,"rank":66,"facts":["Will be the 66th-tallest building in Toronto when finished"]},"geometry":{"type":"Point","coordinates":[-79.4117,43.7607]}},{"type":"Feature","properties":{"name":"55C","h":167.0,"ft":548,"floors":48,"year":2024,"use":"res","purpose":"Residential","uc":false,"super":false,"rank":66,"facts":["66th-tallest of the 117 skyscrapers in Toronto"]},"geometry":{"type":"Point","coordinates":[-79.383537,43.668858]}},{"type":"Feature","properties":{"name":"252 Church","h":166.1,"ft":545,"floors":52,"year":2025,"use":"res","purpose":"Residential","uc":false,"super":false,"rank":67,"facts":["67th-tallest of the 117 skyscrapers in Toronto"]},"geometry":{"type":"Point","coordinates":[-79.377342,43.656181]}},{"type":"Feature","properties":{"name":"44 Charles Street West","h":166.0,"ft":545,"floors":51,"year":1974,"use":"res","purpose":"Residential","uc":false,"super":false,"rank":68,"facts":["68th-tallest of the 117 skyscrapers in Toronto"],"wiki":"Manulife Centre"},"geometry":{"type":"Point","coordinates":[-79.388229,43.668678]}},{"type":"Feature","properties":{"name":"Karma","h":165.9,"ft":544,"floors":50,"year":2016,"use":"res","purpose":"Residential","uc":false,"super":false,"rank":69,"facts":["69th-tallest of the 117 skyscrapers in Toronto"]},"geometry":{"type":"Point","coordinates":[-79.384209,43.661747]}},{"type":"Feature","properties":{"name":"Quantum 2","h":165.0,"ft":541,"floors":51,"year":2008,"use":"res","purpose":"Residential","uc":false,"super":false,"rank":70,"facts":["70th-tallest of the 117 skyscrapers in Toronto"],"wiki":"Minto Midtown"},"geometry":{"type":"Point","coordinates":[-79.397453,43.705669]}},{"type":"Feature","properties":{"name":"Theatre Park","h":164.8,"ft":541,"floors":47,"year":2015,"use":"res","purpose":"Residential","uc":false,"super":false,"rank":71,"facts":["71st-tallest of the 117 skyscrapers in Toronto"]},"geometry":{"type":"Point","coordinates":[-79.387352,43.64761]}},{"type":"Feature","properties":{"name":"Social","h":164.8,"ft":541,"floors":52,"year":2023,"use":"res","purpose":"Residential","uc":false,"super":false,"rank":71,"facts":["71st-tallest of the 117 skyscrapers in Toronto"]},"geometry":{"type":"Point","coordinates":[-79.376701,43.656265]}},{"type":"Feature","properties":{"name":"400 King West","h":164.6,"ft":540,"floors":49,"year":2026,"use":"res","purpose":"Residential","uc":false,"super":false,"rank":73,"facts":["73rd-tallest of the 117 skyscrapers in Toronto"]},"geometry":{"type":"Point","coordinates":[-79.392924,43.646045]}},{"type":"Feature","properties":{"name":"Burke Condominiums","h":163.3,"ft":536,"floors":53,"year":2026,"use":"res","purpose":"Residential","uc":false,"super":false,"rank":74,"facts":["74th-tallest of the 117 skyscrapers in Toronto"]},"geometry":{"type":"Point","coordinates":[-79.376309,43.671421]}},{"type":"Feature","properties":{"name":"Residences of College Park I","h":163.0,"ft":535,"floors":51,"year":2006,"use":"res","purpose":"Residential","uc":false,"super":false,"rank":75,"facts":["75th-tallest of the 117 skyscrapers in Toronto"],"wiki":"Residences of College Park"},"geometry":{"type":"Point","coordinates":[-79.385063,43.660305]}},{"type":"Feature","properties":{"name":"Burano","h":163.0,"ft":535,"floors":50,"year":2012,"use":"res","purpose":"Residential","uc":false,"super":false,"rank":75,"facts":["75th-tallest of the 117 skyscrapers in Toronto"],"wiki":"Burano (building)"},"geometry":{"type":"Point","coordinates":[-79.386497,43.662212]}},{"type":"Feature","properties":{"name":"170 Roehampton","h":162.5,"ft":533,"floors":49,"year":2027,"use":"res","purpose":"Residential","uc":true,"super":false,"rank":77,"facts":["Will be the 77th-tallest building in Toronto when finished"],"address":"170 Roehampton Avenue"},"geometry":{"type":"Point","coordinates":[-79.393788,43.709255]}},{"type":"Feature","properties":{"name":"Success Tower 1","h":161.9,"ft":531,"floors":52,"year":2011,"use":"res","purpose":"Residential","uc":false,"super":false,"rank":77,"facts":["77th-tallest of the 117 skyscrapers in Toronto"],"wiki":"Pinnacle Centre"},"geometry":{"type":"Point","coordinates":[-79.377144,43.642719]}},{"type":"Feature","properties":{"name":"Pinnacle Etobicoke 2A","h":161.9,"ft":531,"floors":48,"year":2025,"use":"res","purpose":"Residential","uc":false,"super":false,"rank":77,"facts":["77th-tallest of the 117 skyscrapers in Toronto"]},"geometry":{"type":"Point","coordinates":[-79.54246,43.63191]}},{"type":"Feature","properties":{"name":"E2 at E Place","h":161.8,"ft":531,"floors":48,"year":2022,"use":"res","purpose":"Residential","uc":false,"super":false,"rank":79,"facts":["79th-tallest of the 117 skyscrapers in Toronto"]},"geometry":{"type":"Point","coordinates":[-79.396996,43.707916]}},{"type":"Feature","properties":{"name":"X2","h":161.1,"ft":529,"floors":44,"year":2015,"use":"res","purpose":"Residential","uc":false,"super":false,"rank":80,"facts":["80th-tallest of the 117 skyscrapers in Toronto"]},"geometry":{"type":"Point","coordinates":[-79.380569,43.669582]}},{"type":"Feature","properties":{"name":"FIVE","h":161.0,"ft":528,"floors":48,"year":2016,"use":"res","purpose":"Residential","uc":false,"super":false,"rank":81,"facts":["81st-tallest of the 117 skyscrapers in Toronto"]},"geometry":{"type":"Point","coordinates":[-79.385597,43.665569]}},{"type":"Feature","properties":{"name":"Kipling Station Condos","h":160.8,"ft":528,"floors":50,"year":2026,"use":"res","purpose":"Residential","uc":true,"super":false,"rank":82,"facts":["82nd-tallest of the 117 skyscrapers in Toronto"]},"geometry":{"type":"Point","coordinates":[-79.53779,43.63814]}},{"type":"Feature","properties":{"name":"Alias","h":158.7,"ft":521,"floors":48,"year":2026,"use":"res","purpose":"Residential","uc":false,"super":false,"rank":83,"facts":["83rd-tallest of the 117 skyscrapers in Toronto"]},"geometry":{"type":"Point","coordinates":[-79.375542,43.652061]}},{"type":"Feature","properties":{"name":"The Uptown Residences","h":158.0,"ft":518,"floors":48,"year":2011,"use":"res","purpose":"Residential","uc":false,"super":false,"rank":84,"facts":["84th-tallest of the 117 skyscrapers in Toronto"]},"geometry":{"type":"Point","coordinates":[-79.387459,43.669468]}},{"type":"Feature","properties":{"name":"One Delisle","h":158.0,"ft":518,"floors":48,"year":2027,"use":"res","purpose":"Residential","uc":true,"super":false,"rank":84,"facts":["84th-tallest of the 117 skyscrapers in Toronto"]},"geometry":{"type":"Point","coordinates":[-79.394897,43.688918]}},{"type":"Feature","properties":{"name":"Three Hundred","h":157.9,"ft":518,"floors":52,"year":2014,"use":"res","purpose":"Residential","uc":false,"super":false,"rank":86,"facts":["86th-tallest of the 117 skyscrapers in Toronto"]},"geometry":{"type":"Point","coordinates":[-79.389481,43.644222]}},{"type":"Feature","properties":{"name":"Lighthouse Tower Condominium","h":157.9,"ft":518,"floors":45,"year":2020,"use":"res","purpose":"Residential","uc":false,"super":false,"rank":86,"facts":["86th-tallest of the 117 skyscrapers in Toronto"]},"geometry":{"type":"Point","coordinates":[-79.369301,43.645248]}},{"type":"Feature","properties":{"name":"The Well Residential One","h":157.3,"ft":516,"floors":46,"year":2023,"use":"res","purpose":"Residential","uc":false,"super":false,"rank":88,"facts":["88th-tallest of the 117 skyscrapers in Toronto"]},"geometry":{"type":"Point","coordinates":[-79.395424,43.642761]}},{"type":"Feature","properties":{"name":"Grid Condos","h":157.0,"ft":515,"floors":50,"year":2019,"use":"res","purpose":"Residential","uc":false,"super":false,"rank":89,"facts":["89th-tallest of the 117 skyscrapers in Toronto"]},"geometry":{"type":"Point","coordinates":[-79.374092,43.656948]}},{"type":"Feature","properties":{"name":"16 York","h":157.0,"ft":515,"floors":32,"year":2020,"use":"com","purpose":"Office","uc":false,"super":false,"rank":89,"facts":["89th-tallest of the 117 skyscrapers in Toronto"]},"geometry":{"type":"Point","coordinates":[-79.382019,43.642635]}},{"type":"Feature","properties":{"name":"Pinnacle Lakeside Tower 1","h":157.0,"ft":515,"floors":49,"year":2027,"use":"res","purpose":"Residential","uc":true,"super":false,"rank":89,"facts":["Will be the 89th-tallest building in Toronto when finished"],"address":"215 Lake Shore Boulevard East"},"geometry":{"type":"Point","coordinates":[-79.36699,43.64566]}},{"type":"Feature","properties":{"name":"Delta Toronto Hotel","h":156.8,"ft":514,"floors":47,"year":2014,"use":"com","purpose":"Hotel","uc":false,"super":false,"rank":91,"facts":["91st-tallest of the 117 skyscrapers in Toronto"],"wiki":"Delta Toronto Hotel"},"geometry":{"type":"Point","coordinates":[-79.383827,43.643208]}},{"type":"Feature","properties":{"name":"One York Street","h":156.8,"ft":514,"floors":35,"year":2016,"use":"com","purpose":"Office","uc":false,"super":false,"rank":91,"facts":["91st-tallest of the 117 skyscrapers in Toronto"]},"geometry":{"type":"Point","coordinates":[-79.380264,43.641617]}},{"type":"Feature","properties":{"name":"Festival Tower","h":156.7,"ft":514,"floors":42,"year":2011,"use":"mix","purpose":"Mixed-use","uc":false,"super":false,"rank":93,"facts":["93rd-tallest of the 117 skyscrapers in Toronto"],"wiki":"TIFF Lightbox"},"geometry":{"type":"Point","coordinates":[-79.390182,43.64698]}},{"type":"Feature","properties":{"name":"Hotel Riu Plaza Toronto","h":156.1,"ft":512,"floors":48,"year":2021,"use":"mix","purpose":"Mixed-use","uc":false,"super":false,"rank":94,"facts":["94th-tallest of the 117 skyscrapers in Toronto"],"wiki":"Hotel Riu Plaza Toronto"},"geometry":{"type":"Point","coordinates":[-79.39183,43.64732]}},{"type":"Feature","properties":{"name":"Theatre District Residences","h":156.1,"ft":512,"floors":49,"year":2021,"use":"res","purpose":"Residential","uc":false,"super":false,"rank":94,"facts":["94th-tallest of the 117 skyscrapers in Toronto"]},"geometry":{"type":"Point","coordinates":[-79.39167,43.64694]}},{"type":"Feature","properties":{"name":"Dundas Square Gardens","h":156.0,"ft":512,"floors":48,"year":2020,"use":"res","purpose":"Residential","uc":false,"super":false,"rank":96,"facts":["96th-tallest of the 117 skyscrapers in Toronto"]},"geometry":{"type":"Point","coordinates":[-79.374268,43.657566]}},{"type":"Feature","properties":{"name":"No. 55 Mercer","h":156.0,"ft":512,"floors":47,"year":2024,"use":"res","purpose":"Residential","uc":false,"super":false,"rank":96,"facts":["96th-tallest of the 117 skyscrapers in Toronto"]},"geometry":{"type":"Point","coordinates":[-79.391518,43.64529]}},{"type":"Feature","properties":{"name":"Nobu Residences East Tower","h":156.0,"ft":512,"floors":49,"year":2024,"use":"res","purpose":"Residential","uc":false,"super":false,"rank":96,"facts":["96th-tallest of the 117 skyscrapers in Toronto"]},"geometry":{"type":"Point","coordinates":[-79.390396,43.645611]}},{"type":"Feature","properties":{"name":"Nobu Residences West Tower","h":156.0,"ft":512,"floors":49,"year":2024,"use":"res","purpose":"Residential","uc":false,"super":false,"rank":96,"facts":["96th-tallest of the 117 skyscrapers in Toronto"]},"geometry":{"type":"Point","coordinates":[-79.390976,43.645451]}},{"type":"Feature","properties":{"name":"King Blue North Tower","h":155.8,"ft":511,"floors":48,"year":2020,"use":"mix","purpose":"Mixed-use","uc":false,"super":false,"rank":100,"facts":["100th-tallest of the 117 skyscrapers in Toronto"]},"geometry":{"type":"Point","coordinates":[-79.39151,43.646004]}},{"type":"Feature","properties":{"name":"PJ Condos","h":155.8,"ft":511,"floors":49,"year":2020,"use":"res","purpose":"Residential","uc":false,"super":false,"rank":100,"facts":["100th-tallest of the 117 skyscrapers in Toronto"]},"geometry":{"type":"Point","coordinates":[-79.389877,43.647514]}},{"type":"Feature","properties":{"name":"Maverick","h":154.5,"ft":507,"floors":49,"year":2025,"use":"res","purpose":"Residential","uc":false,"super":false,"rank":102,"facts":["102nd-tallest of the 117 skyscrapers in Toronto"]},"geometry":{"type":"Point","coordinates":[-79.39109,43.64613]}},{"type":"Feature","properties":{"name":"U Condominiums West Tower","h":154.0,"ft":505,"floors":45,"year":2015,"use":"res","purpose":"Residential","uc":false,"super":false,"rank":103,"facts":["103rd-tallest of the 117 skyscrapers in Toronto"]},"geometry":{"type":"Point","coordinates":[-79.389389,43.666927]}},{"type":"Feature","properties":{"name":"87 Peter","h":154.0,"ft":505,"floors":49,"year":2018,"use":"res","purpose":"Residential","uc":false,"super":false,"rank":103,"facts":["103rd-tallest of the 117 skyscrapers in Toronto"]},"geometry":{"type":"Point","coordinates":[-79.392242,43.647053]}},{"type":"Feature","properties":{"name":"Yonge + Rich","h":154.0,"ft":505,"floors":45,"year":2021,"use":"res","purpose":"Residential","uc":false,"super":false,"rank":103,"facts":["103rd-tallest of the 117 skyscrapers in Toronto"]},"geometry":{"type":"Point","coordinates":[-79.376968,43.651878]}},{"type":"Feature","properties":{"name":"TD South Tower","h":153.6,"ft":504,"floors":39,"year":1985,"use":"com","purpose":"Office","uc":false,"super":false,"rank":106,"facts":["106th-tallest of the 117 skyscrapers in Toronto"],"wiki":"Toronto-Dominion Centre"},"geometry":{"type":"Point","coordinates":[-79.381233,43.646774]}},{"type":"Feature","properties":{"name":"Westlake Village 1","h":153.3,"ft":503,"floors":48,"year":2015,"use":"res","purpose":"Residential","uc":false,"super":false,"rank":107,"facts":["107th-tallest of the 117 skyscrapers in Toronto"]},"geometry":{"type":"Point","coordinates":[-79.483253,43.622723]}},{"type":"Feature","properties":{"name":"35 Mariner","h":153.2,"ft":503,"floors":49,"year":2005,"use":"res","purpose":"Residential","uc":false,"super":false,"rank":108,"facts":["108th-tallest of the 117 skyscrapers in Toronto"]},"geometry":{"type":"Point","coordinates":[-79.392036,43.639828]}},{"type":"Feature","properties":{"name":"Montage","h":153.0,"ft":502,"floors":48,"year":2009,"use":"res","purpose":"Residential","uc":false,"super":false,"rank":109,"facts":["109th-tallest of the 117 skyscrapers in Toronto"],"wiki":"CityPlace, Toronto"},"geometry":{"type":"Point","coordinates":[-79.394371,43.641155]}},{"type":"Feature","properties":{"name":"IMMIX","h":153.0,"ft":502,"floors":45,"year":2023,"use":"res","purpose":"Residential","uc":false,"super":false,"rank":109,"facts":["109th-tallest of the 117 skyscrapers in Toronto"]},"geometry":{"type":"Point","coordinates":[-79.384033,43.662724]}},{"type":"Feature","properties":{"name":"Peter & Adelaide","h":153.0,"ft":502,"floors":47,"year":2024,"use":"res","purpose":"Residential","uc":false,"super":false,"rank":109,"facts":["109th-tallest of the 117 skyscrapers in Toronto"]},"geometry":{"type":"Point","coordinates":[-79.393432,43.647713]}},{"type":"Feature","properties":{"name":"The Charles at Church","h":152.7,"ft":501,"floors":47,"year":2026,"use":"res","purpose":"Residential","uc":false,"super":false,"rank":112,"facts":["112th-tallest of the 117 skyscrapers in Toronto"]},"geometry":{"type":"Point","coordinates":[-79.383041,43.669559]}},{"type":"Feature","properties":{"name":"49 Ontario Street West Tower","h":152.4,"ft":500,"floors":44,"year":null,"use":"mix","purpose":"Mixed-use","uc":true,"super":false,"rank":113,"facts":["Will be the 113th-tallest building in Toronto when finished"],"address":"49 Ontario Street"},"geometry":{"type":"Point","coordinates":[-79.366133,43.652846]}},{"type":"Feature","properties":{"name":"Beyond the Sea Star Tower","h":151.5,"ft":497,"floors":44,"year":2012,"use":"res","purpose":"Residential","uc":false,"super":false,"rank":113,"facts":["113th-tallest of the 117 skyscrapers in Toronto"]},"geometry":{"type":"Point","coordinates":[-79.482834,43.621723]}},{"type":"Feature","properties":{"name":"Chaz Yorkville Condos","h":151.4,"ft":497,"floors":47,"year":2015,"use":"res","purpose":"Residential","uc":false,"super":false,"rank":114,"facts":["114th-tallest of the 117 skyscrapers in Toronto"]},"geometry":{"type":"Point","coordinates":[-79.383865,43.668934]}},{"type":"Feature","properties":{"name":"The 250","h":150.6,"ft":494,"floors":35,"year":1992,"use":"res","purpose":"Residential","uc":false,"super":false,"rank":115,"facts":["115th-tallest of the 117 skyscrapers in Toronto"]},"geometry":{"type":"Point","coordinates":[-79.380524,43.654598]}},{"type":"Feature","properties":{"name":"Monde","h":150.0,"ft":492,"floors":44,"year":2018,"use":"res","purpose":"Residential","uc":false,"super":false,"rank":116,"facts":["116th-tallest of the 117 skyscrapers in Toronto"]},"geometry":{"type":"Point","coordinates":[-79.36512,43.646305]}},{"type":"Feature","properties":{"name":"The Saint","h":150.0,"ft":492,"floors":45,"year":2025,"use":"res","purpose":"Residential","uc":false,"super":false,"rank":116,"facts":["116th-tallest of the 117 skyscrapers in Toronto"]},"geometry":{"type":"Point","coordinates":[-79.374992,43.652061]}}]}