{"type":"FeatureCollection","features":[{"type":"Feature","properties":{"name":"Pickering—Brooklin"},"geometry":{"type":"MultiPolygon","coordinates":[[[[-79.2148,43.9545],[-79.22004,43.97093],[-79.09867,43.99898],[-79.0793,44.00317],[-79.04802,44.01077],[-79.04731,44.00924],[-78.95939,44.02869],[-78.95147,44.0116],[-78.94717,44.00001],[-78.92841,43.95837],[-78.93808,43.95251],[-78.94177,43.95087],[-78.94649,43.94957],[-78.95663,43.94803],[-78.96165,43.94784],[-78.96704,43.94816],[-78.97184,43.94896],[-78.98148,43.95117],[-78.98647,43.95168],[-79.01291,43.95097],[-79.02116,43.94984],[-79.01506,43.936],[-79.00854,43.9225],[-79.08851,43.90418],[-79.088,43.90338],[-79.08696,43.90362],[-79.08262,43.89271],[-79.07739,43.89467],[-79.07521,43.88971],[-79.07468,43.8876],[-79.06969,43.87614],[-79.07873,43.87084],[-79.07267,43.85912],[-79.07051,43.85419],[-79.06993,43.85542],[-79.06788,43.85458],[-79.06656,43.85509],[-79.06505,43.85125],[-79.0611,43.84312],[-79.06078,43.84183],[-79.05487,43.84445],[-79.05157,43.84546],[-79.04808,43.83738],[-79.04776,43.83744],[-79.04743,43.83699],[-79.04438,43.83038],[-79.04082,43.81982],[-79.04023,43.81976],[-79.03838,43.81524],[-79.04508,43.81388],[-79.06041,43.80572],[-79.07284,43.80591],[-79.07704,43.80775],[-79.08378,43.80971],[-79.09196,43.80948],[-79.10208,43.80329],[-79.11347,43.79378],[-79.11558,43.79495],[-79.11739,43.79439],[-79.11907,43.79476],[-79.121,43.79473],[-79.12128,43.79511],[-79.12008,43.7958],[-79.12021,43.79616],[-79.12161,43.79741],[-79.12347,43.79718],[-79.12416,43.79741],[-79.12438,43.79768],[-79.12418,43.7991],[-79.12525,43.80024],[-79.12708,43.80012],[-79.13122,43.80189],[-79.13531,43.80074],[-79.13548,43.80103],[-79.13357,43.80312],[-79.13433,43.80442],[-79.13423,43.80541],[-79.13376,43.80625],[-79.13402,43.80691],[-79.13605,43.80817],[-79.13695,43.80771],[-79.13752,43.80792],[-79.13804,43.80744],[-79.13829,43.80805],[-79.13885,43.80798],[-79.13941,43.80846],[-79.14053,43.8084],[-79.14152,43.80942],[-79.14304,43.80956],[-79.14326,43.81001],[-79.14587,43.81002],[-79.14622,43.8112],[-79.14808,43.81234],[-79.14959,43.81257],[-79.15134,43.81404],[-79.15191,43.81404],[-79.18183,43.88214],[-79.19942,43.91994],[-79.2148,43.9545]]]]}},{"type":"Feature","properties":{"name":"Mississauga—Malton"},"geometry":{"type":"MultiPolygon","coordinates":[[[[-79.74587,43.62872],[-79.7397,43.63861],[-79.73541,43.64194],[-79.73087,43.6446],[-79.72837,43.64512],[-79.72627,43.64467],[-79.714,43.65172],[-79.7085,43.65424],[-79.69521,43.66542],[-79.69082,43.6687],[-79.68676,43.67821],[-79.67913,43.69292],[-79.6734,43.70113],[-79.67388,43.70627],[-79.63936,43.73733],[-79.63451,43.73374],[-79.63282,43.73496],[-79.63031,43.73544],[-79.63047,43.7364],[-79.62582,43.72905],[-79.61378,43.70787],[-79.60471,43.69342],[-79.60187,43.68795],[-79.6006,43.68612],[-79.59997,43.68379],[-79.58876,43.66461],[-79.63615,43.62174],[-79.63383,43.61978],[-79.6324,43.61786],[-79.63164,43.61565],[-79.63208,43.61286],[-79.63281,43.61161],[-79.63448,43.60989],[-79.64432,43.60066],[-79.66343,43.61455],[-79.66915,43.60941],[-79.6695,43.60861],[-79.66981,43.60469],[-79.67302,43.60154],[-79.67562,43.60027],[-79.67956,43.59957],[-79.68089,43.59895],[-79.6906,43.59054],[-79.69376,43.58929],[-79.69724,43.58675],[-79.71803,43.60202],[-79.71815,43.60352],[-79.71532,43.60457],[-79.71467,43.60586],[-79.71245,43.60729],[-79.71256,43.60791],[-79.71421,43.60929],[-79.71564,43.60983],[-79.71794,43.6095],[-79.72052,43.60733],[-79.72141,43.60714],[-79.72416,43.60895],[-79.72781,43.61078],[-79.72882,43.6117],[-79.72923,43.61259],[-79.7301,43.61303],[-79.73063,43.6146],[-79.72927,43.61494],[-79.72919,43.61563],[-79.73105,43.61642],[-79.73285,43.61664],[-79.73339,43.61755],[-79.73318,43.61851],[-79.73113,43.62021],[-79.73145,43.62084],[-79.73272,43.62128],[-79.73337,43.62257],[-79.73205,43.62485],[-79.73257,43.62528],[-79.73382,43.62474],[-79.73462,43.62504],[-79.73487,43.6271],[-79.73729,43.62844],[-79.73725,43.62902],[-79.73616,43.62963],[-79.7359,43.63029],[-79.73608,43.63165],[-79.73724,43.63234],[-79.73738,43.633],[-79.73884,43.63314],[-79.74016,43.63246],[-79.74277,43.63011],[-79.74327,43.62901],[-79.74468,43.62858],[-79.74587,43.62872]]]]}},{"type":"Feature","properties":{"name":"Mississauga—Lakeshore"},"geometry":{"type":"MultiPolygon","coordinates":[[[[-79.6817,43.52288],[-79.66073,43.54165],[-79.65406,43.54523],[-79.65142,43.54718],[-79.65048,43.54829],[-79.64802,43.5529],[-79.62642,43.57164],[-79.61748,43.56518],[-79.59545,43.58457],[-79.59344,43.58735],[-79.57899,43.59983],[-79.57598,43.60182],[-79.57008,43.60689],[-79.56857,43.60876],[-79.56736,43.6095],[-79.56631,43.60841],[-79.56545,43.60867],[-79.56487,43.60845],[-79.56472,43.60713],[-79.56269,43.60682],[-79.55904,43.60457],[-79.5583,43.60366],[-79.55637,43.60263],[-79.55583,43.59972],[-79.5542,43.59914],[-79.55363,43.59845],[-79.55394,43.5961],[-79.55344,43.59557],[-79.54888,43.59513],[-79.54858,43.59442],[-79.54877,43.59334],[-79.54962,43.59213],[-79.54938,43.59062],[-79.54643,43.58888],[-79.54785,43.58731],[-79.54446,43.58545],[-79.54387,43.58139],[-79.52296,43.56034],[-79.54001,43.54506],[-79.54119,43.54365],[-79.61616,43.47491],[-79.62508,43.48112],[-79.62765,43.48335],[-79.6817,43.52288]]]]}},{"type":"Feature","properties":{"name":"Mississauga East—Cooksville"},"geometry":{"type":"MultiPolygon","coordinates":[[[[-79.643,43.5997],[-79.64432,43.60066],[-79.6333,43.61107],[-79.63222,43.61256],[-79.63179,43.61374],[-79.63164,43.61565],[-79.6324,43.61786],[-79.63383,43.61978],[-79.63615,43.62174],[-79.60885,43.64643],[-79.60771,43.64484],[-79.60704,43.64449],[-79.60577,43.64479],[-79.60508,43.64436],[-79.60291,43.64466],[-79.60197,43.64404],[-79.59958,43.64373],[-79.59847,43.64305],[-79.59709,43.64296],[-79.5954,43.6432],[-79.59306,43.64459],[-79.59239,43.64467],[-79.59069,43.64404],[-79.58836,43.64244],[-79.58806,43.64192],[-79.58825,43.64113],[-79.58743,43.64064],[-79.58704,43.63976],[-79.58739,43.63946],[-79.58707,43.63952],[-79.58536,43.63727],[-79.58614,43.63541],[-79.58565,43.63424],[-79.58597,43.63367],[-79.5853,43.63276],[-79.58519,43.63153],[-79.58613,43.62965],[-79.58525,43.62873],[-79.58312,43.62798],[-79.58162,43.62801],[-79.57994,43.62695],[-79.57686,43.62623],[-79.57503,43.62539],[-79.57011,43.62695],[-79.56848,43.62669],[-79.56712,43.62814],[-79.56469,43.62812],[-79.56387,43.62776],[-79.56355,43.62623],[-79.56371,43.62494],[-79.56419,43.62443],[-79.56505,43.62467],[-79.5656,43.62437],[-79.56602,43.62278],[-79.5656,43.6216],[-79.56703,43.62078],[-79.56661,43.6178],[-79.56795,43.61679],[-79.5685,43.61439],[-79.56691,43.61344],[-79.56422,43.61309],[-79.564,43.61245],[-79.56597,43.61166],[-79.56724,43.61077],[-79.56736,43.6095],[-79.56882,43.60852],[-79.57008,43.60689],[-79.57648,43.6014],[-79.57899,43.59983],[-79.59344,43.58735],[-79.59545,43.58457],[-79.61748,43.56518],[-79.62642,43.57164],[-79.61944,43.57763],[-79.62073,43.57819],[-79.62336,43.5786],[-79.62694,43.58067],[-79.62226,43.58459],[-79.63125,43.59081],[-79.643,43.5997]]]]}},{"type":"Feature","properties":{"name":"Mississauga Centre"},"geometry":{"type":"MultiPolygon","coordinates":[[[[-79.69724,43.58675],[-79.69376,43.58929],[-79.6906,43.59054],[-79.68089,43.59895],[-79.67956,43.59957],[-79.67562,43.60027],[-79.67302,43.60154],[-79.66981,43.60469],[-79.6695,43.60861],[-79.66915,43.60941],[-79.66343,43.61455],[-79.64165,43.59875],[-79.63125,43.59081],[-79.62226,43.58459],[-79.62694,43.58067],[-79.62336,43.5786],[-79.62073,43.57819],[-79.61944,43.57763],[-79.64802,43.5529],[-79.65048,43.54829],[-79.65142,43.54718],[-79.65406,43.54523],[-79.65804,43.54323],[-79.65844,43.54399],[-79.65814,43.54489],[-79.65556,43.54754],[-79.655,43.54871],[-79.65529,43.54953],[-79.65719,43.55105],[-79.65785,43.55197],[-79.6613,43.5532],[-79.6622,43.55386],[-79.6639,43.55596],[-79.66759,43.55572],[-79.66874,43.55741],[-79.67026,43.55892],[-79.6712,43.5594],[-79.67183,43.56035],[-79.67308,43.56097],[-79.67386,43.56187],[-79.67736,43.56169],[-79.67969,43.56281],[-79.68071,43.56266],[-79.68189,43.56187],[-79.68341,43.56148],[-79.6841,43.56192],[-79.67991,43.5652],[-79.6743,43.57148],[-79.67532,43.57213],[-79.67728,43.57423],[-79.68271,43.57602],[-79.69724,43.58675]]]]}},{"type":"Feature","properties":{"name":"Markham—Unionville"},"geometry":{"type":"MultiPolygon","coordinates":[[[[-79.38846,43.91941],[-79.38952,43.92379],[-79.35321,43.93169],[-79.35334,43.93225],[-79.34049,43.93527],[-79.32912,43.93841],[-79.31099,43.94187],[-79.30292,43.94401],[-79.30316,43.94495],[-79.27822,43.95075],[-79.27784,43.94414],[-79.2741,43.9348],[-79.26599,43.90027],[-79.27549,43.89863],[-79.28577,43.89639],[-79.29116,43.89477],[-79.28275,43.86007],[-79.28128,43.8565],[-79.33062,43.8453],[-79.3412,43.84329],[-79.36812,43.83922],[-79.37154,43.85038],[-79.38846,43.91941]]]]}},{"type":"Feature","properties":{"name":"Markham—Thornhill"},"geometry":{"type":"MultiPolygon","coordinates":[[[[-79.40593,43.83799],[-79.40603,43.83834],[-79.39118,43.8369],[-79.38322,43.83708],[-79.37732,43.83776],[-79.3412,43.84329],[-79.33062,43.8453],[-79.28251,43.85626],[-79.27169,43.85831],[-79.26624,43.85992],[-79.25284,43.86532],[-79.24379,43.86816],[-79.20445,43.87686],[-79.20075,43.87809],[-79.19677,43.88004],[-79.19317,43.88275],[-79.18601,43.8912],[-79.17025,43.85547],[-79.20448,43.84725],[-79.22973,43.84165],[-79.34219,43.81541],[-79.39622,43.80326],[-79.39746,43.80453],[-79.39794,43.80554],[-79.40593,43.83799]]]]}},{"type":"Feature","properties":{"name":"Markham—Stouffville"},"geometry":{"type":"MultiPolygon","coordinates":[[[[-79.28255,43.97385],[-79.28372,43.97885],[-79.25905,43.98424],[-79.25988,43.98775],[-79.23488,43.99323],[-79.23385,43.99373],[-79.22971,43.9947],[-79.22206,43.97717],[-79.21429,43.95295],[-79.19942,43.91994],[-79.18601,43.8912],[-79.19317,43.88275],[-79.19788,43.87941],[-79.20366,43.87709],[-79.24379,43.86816],[-79.25284,43.86532],[-79.26903,43.859],[-79.28128,43.8565],[-79.28275,43.86007],[-79.29116,43.89477],[-79.28577,43.89639],[-79.27549,43.89863],[-79.26599,43.90027],[-79.2741,43.9348],[-79.27784,43.94414],[-79.27846,43.95238],[-79.27932,43.95671],[-79.28082,43.96128],[-79.28089,43.96658],[-79.28255,43.97385]]]]}},{"type":"Feature","properties":{"name":"King—Vaughan"},"geometry":{"type":"MultiPolygon","coordinates":[[[[-79.76558,43.97283],[-79.76611,43.97328],[-79.7755,43.98976],[-79.65683,44.01592],[-79.65827,44.02036],[-79.65564,44.01901],[-79.65409,44.01945],[-79.6524,44.01936],[-79.64946,44.01773],[-79.64612,44.01868],[-79.64592,44.01933],[-79.64659,44.01952],[-79.64768,44.02141],[-79.64655,44.02219],[-79.64443,44.0229],[-79.64154,44.02127],[-79.63891,44.02128],[-79.63848,44.02111],[-79.63837,44.02047],[-79.6369,44.02059],[-79.63681,44.02195],[-79.63647,44.02255],[-79.63555,44.02311],[-79.63416,44.02276],[-79.63346,44.02297],[-79.63304,44.02349],[-79.63315,44.02451],[-79.6328,44.02475],[-79.63203,44.02462],[-79.63104,44.02383],[-79.63012,44.02391],[-79.62978,44.02472],[-79.63015,44.02568],[-79.62965,44.0263],[-79.6284,44.0264],[-79.62448,44.02548],[-79.62373,44.02572],[-79.62327,44.02633],[-79.62364,44.02754],[-79.6234,44.02851],[-79.62231,44.0285],[-79.62087,44.02771],[-79.6199,44.02788],[-79.61948,44.02846],[-79.61999,44.03024],[-79.61794,44.03277],[-79.61727,44.03273],[-79.61674,44.0319],[-79.61604,44.03157],[-79.61308,44.03277],[-79.61229,44.03484],[-79.6126,44.03621],[-79.61292,44.03667],[-79.61436,44.03701],[-79.61478,44.03748],[-79.61412,44.03927],[-79.61264,44.03973],[-79.6123,44.04019],[-79.61272,44.04056],[-79.61474,44.04097],[-79.61514,44.04135],[-79.61502,44.0427],[-79.61412,44.04408],[-79.61263,44.04407],[-79.61224,44.04457],[-79.6156,44.04675],[-79.6117,44.04782],[-79.60763,44.04807],[-79.6056,44.04922],[-79.6045,44.04925],[-79.60118,44.04828],[-79.59874,44.04805],[-79.59779,44.0496],[-79.5951,44.05088],[-79.59573,44.05218],[-79.59555,44.0525],[-79.59286,44.05186],[-79.5922,44.05379],[-79.58958,44.05423],[-79.58858,44.05539],[-79.58778,44.05577],[-79.58583,44.0556],[-79.5854,44.05602],[-79.58552,44.05675],[-79.58514,44.05805],[-79.584,44.05907],[-79.58167,44.06016],[-79.57849,44.06078],[-79.57529,44.06342],[-79.57246,44.0649],[-79.57186,44.06715],[-79.56864,44.06791],[-79.56759,44.07183],[-79.56482,44.07242],[-79.5634,44.07316],[-79.56074,44.07309],[-79.56024,44.07378],[-79.56051,44.07454],[-79.56025,44.07508],[-79.55688,44.07575],[-79.55665,44.0773],[-79.55695,44.07931],[-79.55603,44.08012],[-79.55683,44.08126],[-79.55674,44.08201],[-79.55455,44.08444],[-79.55326,44.08657],[-79.55364,44.08711],[-79.55751,44.08757],[-79.55741,44.0901],[-79.55638,44.09214],[-79.5562,44.09372],[-79.55282,44.09402],[-79.55036,44.09535],[-79.55007,44.09625],[-79.55065,44.09805],[-79.54898,44.09902],[-79.54836,44.09972],[-79.54686,44.10513],[-79.54564,44.11448],[-79.54569,44.11731],[-79.54383,44.11942],[-79.54304,44.12211],[-79.54315,44.12355],[-79.54608,44.1257],[-79.54648,44.1266],[-79.54603,44.12724],[-79.54414,44.12768],[-79.54387,44.12843],[-79.54567,44.13136],[-79.54611,44.13319],[-79.54547,44.137],[-79.54286,44.14129],[-79.54124,44.14629],[-79.53864,44.14806],[-79.53552,44.14875],[-79.53184,44.15083],[-79.51669,44.0908],[-79.51659,44.08936],[-79.51604,44.08832],[-79.51595,44.08731],[-79.51624,44.08698],[-79.51544,44.08618],[-79.51031,44.06548],[-79.50872,44.06183],[-79.50826,44.05736],[-79.50217,44.03165],[-79.50118,44.02294],[-79.5008,44.0216],[-79.50017,44.02128],[-79.5004,44.01948],[-79.49827,44.012],[-79.48909,43.97103],[-79.48539,43.9569],[-79.4812,43.93793],[-79.47751,43.92335],[-79.47532,43.917],[-79.46276,43.86591],[-79.48752,43.86124],[-79.48307,43.84264],[-79.49953,43.83928],[-79.50645,43.83679],[-79.50799,43.83653],[-79.50718,43.83254],[-79.50763,43.83268],[-79.50807,43.83338],[-79.51062,43.8333],[-79.51059,43.83364],[-79.51182,43.8342],[-79.51149,43.83472],[-79.51192,43.83501],[-79.51281,43.83469],[-79.51292,43.83434],[-79.51342,43.83473],[-79.51454,43.8344],[-79.51503,43.83498],[-79.529,43.83191],[-79.53659,43.82984],[-79.54618,43.82826],[-79.54773,43.84344],[-79.55274,43.86511],[-79.57148,43.86192],[-79.59056,43.8581],[-79.59045,43.8576],[-79.59864,43.85573],[-79.59958,43.85483],[-79.60105,43.85415],[-79.6021,43.85299],[-79.60184,43.85274],[-79.60104,43.85296],[-79.60116,43.85246],[-79.60052,43.85268],[-79.60028,43.85246],[-79.60149,43.85178],[-79.60123,43.85146],[-79.60182,43.85121],[-79.60164,43.85093],[-79.60211,43.85094],[-79.60041,43.85012],[-79.59996,43.84904],[-79.6006,43.84898],[-79.60047,43.84844],[-79.59937,43.84826],[-79.59972,43.84792],[-79.59943,43.84779],[-79.59902,43.848],[-79.59872,43.84731],[-79.59887,43.84645],[-79.59757,43.84637],[-79.59745,43.84526],[-79.59807,43.84516],[-79.59792,43.84458],[-79.59739,43.84427],[-79.59899,43.84388],[-79.59931,43.84337],[-79.59869,43.84254],[-79.5986,43.84158],[-79.59667,43.83973],[-79.59709,43.83883],[-79.59812,43.83797],[-79.59879,43.83655],[-79.61803,43.8323],[-79.62029,43.8311],[-79.62473,43.82629],[-79.62686,43.82509],[-79.62865,43.82471],[-79.63355,43.82447],[-79.64582,43.82552],[-79.65145,43.8245],[-79.65839,43.82493],[-79.66008,43.82468],[-79.66324,43.82296],[-79.6654,43.8222],[-79.67867,43.8193],[-79.69579,43.84869],[-79.69491,43.84929],[-79.69495,43.85004],[-79.69763,43.8519],[-79.71312,43.87866],[-79.7145,43.88037],[-79.71736,43.8856],[-79.71711,43.88607],[-79.74547,43.93689],[-79.74626,43.93768],[-79.75596,43.95593],[-79.76287,43.96715],[-79.76558,43.97283]]]]}},{"type":"Feature","properties":{"name":"Humber River—Black Creek"},"geometry":{"type":"MultiPolygon","coordinates":[[[[-79.5797,43.76247],[-79.58061,43.763],[-79.56407,43.76675],[-79.52299,43.77508],[-79.49443,43.78165],[-79.49415,43.78015],[-79.49449,43.77774],[-79.48816,43.75202],[-79.48946,43.75182],[-79.49088,43.75285],[-79.49206,43.75297],[-79.49458,43.75233],[-79.49753,43.75053],[-79.50478,43.74914],[-79.50351,43.7482],[-79.50226,43.74777],[-79.50175,43.74708],[-79.49796,43.74601],[-79.49767,43.74382],[-79.49799,43.74362],[-79.49738,43.74357],[-79.49739,43.74285],[-79.49703,43.7425],[-79.51037,43.73952],[-79.51321,43.73938],[-79.50782,43.71775],[-79.52527,43.71582],[-79.53783,43.71299],[-79.53818,43.71468],[-79.54072,43.7153],[-79.54052,43.71664],[-79.54268,43.71673],[-79.5438,43.71723],[-79.54416,43.71796],[-79.54264,43.72062],[-79.54129,43.72158],[-79.5407,43.72251],[-79.54134,43.72578],[-79.54081,43.72615],[-79.53854,43.72657],[-79.53822,43.72694],[-79.53883,43.72906],[-79.53849,43.73176],[-79.53937,43.73207],[-79.53932,43.73089],[-79.54008,43.72979],[-79.54147,43.72959],[-79.54366,43.72999],[-79.54474,43.73067],[-79.54493,43.73087],[-79.5439,43.73183],[-79.54428,43.73236],[-79.54494,43.73232],[-79.54552,43.73142],[-79.5468,43.73151],[-79.54912,43.7331],[-79.55044,43.73351],[-79.55052,43.73468],[-79.54902,43.73585],[-79.55038,43.73606],[-79.55053,43.73658],[-79.55008,43.7371],[-79.55008,43.73775],[-79.54848,43.7383],[-79.54826,43.73901],[-79.54642,43.7398],[-79.54612,43.7402],[-79.54626,43.74082],[-79.5475,43.74171],[-79.54902,43.74169],[-79.54936,43.74192],[-79.54925,43.74244],[-79.55036,43.74238],[-79.54984,43.74304],[-79.5501,43.74391],[-79.55146,43.74419],[-79.55424,43.74318],[-79.55635,43.74317],[-79.55698,43.74246],[-79.5568,43.7416],[-79.55731,43.74096],[-79.55784,43.74093],[-79.55849,43.74149],[-79.55779,43.74208],[-79.55842,43.74281],[-79.55974,43.74248],[-79.56212,43.7427],[-79.56248,43.74305],[-79.56223,43.74422],[-79.56376,43.74519],[-79.5732,43.74717],[-79.57338,43.74777],[-79.57263,43.74978],[-79.57318,43.75037],[-79.57523,43.75004],[-79.57757,43.75027],[-79.5791,43.75085],[-79.57996,43.75156],[-79.58286,43.75253],[-79.58316,43.75276],[-79.58315,43.75385],[-79.58416,43.75423],[-79.58418,43.75541],[-79.58512,43.75617],[-79.5852,43.75684],[-79.58381,43.75741],[-79.58406,43.75834],[-79.5838,43.75874],[-79.58251,43.75852],[-79.58106,43.7588],[-79.58066,43.75921],[-79.58087,43.75975],[-79.58058,43.76037],[-79.57933,43.76082],[-79.57755,43.76206],[-79.57762,43.76243],[-79.5787,43.76207],[-79.5797,43.76247]]]]}},{"type":"Feature","properties":{"name":"Etobicoke North"},"geometry":{"type":"MultiPolygon","coordinates":[[[[-79.6393,43.74985],[-79.63645,43.75105],[-79.63111,43.75163],[-79.58061,43.763],[-79.57887,43.7621],[-79.57762,43.76243],[-79.57755,43.76206],[-79.57933,43.76082],[-79.58058,43.76037],[-79.58087,43.75975],[-79.58066,43.75921],[-79.58106,43.7588],[-79.58251,43.75852],[-79.5838,43.75874],[-79.58406,43.75834],[-79.58381,43.75741],[-79.58515,43.75694],[-79.58512,43.75617],[-79.58418,43.75541],[-79.58416,43.75423],[-79.58307,43.75369],[-79.58316,43.75276],[-79.57996,43.75156],[-79.5791,43.75085],[-79.57757,43.75027],[-79.57523,43.75004],[-79.57318,43.75037],[-79.57263,43.74978],[-79.57338,43.74777],[-79.5732,43.74717],[-79.56376,43.74519],[-79.56223,43.74422],[-79.56248,43.74305],[-79.56212,43.7427],[-79.55974,43.74248],[-79.55842,43.74281],[-79.55779,43.74208],[-79.55849,43.74149],[-79.55784,43.74093],[-79.55731,43.74096],[-79.5568,43.7416],[-79.55698,43.74246],[-79.55635,43.74317],[-79.55424,43.74318],[-79.55146,43.74419],[-79.5501,43.74391],[-79.54984,43.74304],[-79.55036,43.74238],[-79.54925,43.74244],[-79.54936,43.74192],[-79.54902,43.74169],[-79.5475,43.74171],[-79.54626,43.74082],[-79.54612,43.7402],[-79.54642,43.7398],[-79.54826,43.73901],[-79.54848,43.7383],[-79.55008,43.73775],[-79.55008,43.7371],[-79.55053,43.73658],[-79.55038,43.73606],[-79.54902,43.73585],[-79.55052,43.73468],[-79.55044,43.73351],[-79.54912,43.7331],[-79.5468,43.73151],[-79.54552,43.73142],[-79.54494,43.73232],[-79.54428,43.73236],[-79.5439,43.73183],[-79.54493,43.73087],[-79.54474,43.73067],[-79.54366,43.72999],[-79.54147,43.72959],[-79.54008,43.72979],[-79.53932,43.73089],[-79.53937,43.73207],[-79.53849,43.73176],[-79.53883,43.72906],[-79.53822,43.72694],[-79.53854,43.72657],[-79.54081,43.72615],[-79.54134,43.72578],[-79.5407,43.72251],[-79.54129,43.72158],[-79.54289,43.72029],[-79.54413,43.71765],[-79.54268,43.71673],[-79.54059,43.7167],[-79.5404,43.71612],[-79.54072,43.7153],[-79.53818,43.71468],[-79.53794,43.71435],[-79.53791,43.71243],[-79.53958,43.71097],[-79.5396,43.71016],[-79.53884,43.70904],[-79.53805,43.70856],[-79.5359,43.70825],[-79.53546,43.70699],[-79.53594,43.7047],[-79.53498,43.70455],[-79.53333,43.70498],[-79.53194,43.70496],[-79.53164,43.70391],[-79.53186,43.7032],[-79.53438,43.70033],[-79.53273,43.69616],[-79.53462,43.69527],[-79.53499,43.69331],[-79.53609,43.69124],[-79.53676,43.69078],[-79.54155,43.68892],[-79.54915,43.68755],[-79.55469,43.68562],[-79.55864,43.69424],[-79.56953,43.69175],[-79.57441,43.6835],[-79.57822,43.67616],[-79.57965,43.67433],[-79.58124,43.67297],[-79.58352,43.67162],[-79.59119,43.66875],[-79.59997,43.68379],[-79.6006,43.68612],[-79.60187,43.68795],[-79.60471,43.69342],[-79.61378,43.70787],[-79.62582,43.72905],[-79.63669,43.74615],[-79.63759,43.74829],[-79.6393,43.74985]]]]}},{"type":"Feature","properties":{"name":"Etobicoke—Lakeshore"},"geometry":{"type":"MultiPolygon","coordinates":[[[[-79.56804,43.61395],[-79.54408,43.63009],[-79.52241,43.64825],[-79.52619,43.6509],[-79.52639,43.65136],[-79.52208,43.65611],[-79.50824,43.66148],[-79.50556,43.66278],[-79.49952,43.659],[-79.49938,43.6584],[-79.49973,43.65737],[-79.50168,43.65604],[-79.50275,43.65477],[-79.50294,43.65356],[-79.50252,43.65289],[-79.50148,43.6524],[-79.49745,43.652],[-79.4923,43.65219],[-79.49156,43.65168],[-79.49088,43.65097],[-79.49066,43.65023],[-79.49276,43.64734],[-79.49262,43.64577],[-79.49058,43.64334],[-79.48988,43.6415],[-79.48894,43.64126],[-79.48684,43.64197],[-79.48531,43.64208],[-79.48502,43.64177],[-79.48509,43.6394],[-79.4847,43.6384],[-79.48227,43.63799],[-79.47839,43.63831],[-79.47734,43.6379],[-79.47572,43.63467],[-79.47509,43.63401],[-79.47253,43.63254],[-79.46968,43.63153],[-79.46376,43.62367],[-79.47692,43.6084],[-79.49348,43.59279],[-79.50809,43.57526],[-79.51929,43.56331],[-79.52296,43.56034],[-79.54387,43.58139],[-79.54446,43.58545],[-79.54785,43.58731],[-79.54643,43.58888],[-79.54938,43.59062],[-79.54962,43.59213],[-79.54877,43.59334],[-79.54858,43.59442],[-79.54888,43.59513],[-79.55284,43.59543],[-79.55379,43.59586],[-79.55363,43.59845],[-79.5542,43.59914],[-79.55583,43.59972],[-79.55637,43.60263],[-79.5583,43.60366],[-79.55904,43.60457],[-79.56269,43.60682],[-79.56472,43.60713],[-79.56487,43.60845],[-79.56545,43.60867],[-79.56631,43.60841],[-79.56736,43.6095],[-79.5673,43.61071],[-79.56597,43.61166],[-79.56401,43.61244],[-79.56418,43.61306],[-79.56669,43.61338],[-79.56804,43.61395]]]]}},{"type":"Feature","properties":{"name":"Etobicoke Centre"},"geometry":{"type":"MultiPolygon","coordinates":[[[[-79.60311,43.65159],[-79.58876,43.66461],[-79.59119,43.66875],[-79.583,43.67188],[-79.58069,43.67338],[-79.57898,43.67506],[-79.56953,43.69175],[-79.55864,43.69424],[-79.55469,43.68562],[-79.54915,43.68755],[-79.54155,43.68892],[-79.53676,43.69078],[-79.53609,43.69124],[-79.53499,43.69331],[-79.53462,43.69527],[-79.53273,43.69616],[-79.5266,43.68233],[-79.5212,43.68333],[-79.5147,43.68347],[-79.51019,43.68409],[-79.5095,43.68284],[-79.50897,43.68246],[-79.50608,43.68233],[-79.50559,43.68176],[-79.50545,43.68065],[-79.50716,43.67939],[-79.50865,43.67655],[-79.51218,43.67419],[-79.5125,43.67265],[-79.51128,43.66837],[-79.51138,43.66794],[-79.51305,43.66663],[-79.5131,43.66577],[-79.51222,43.66262],[-79.51082,43.66192],[-79.5097,43.66199],[-79.50688,43.66302],[-79.50556,43.66278],[-79.50824,43.66148],[-79.52208,43.65611],[-79.52639,43.65136],[-79.52619,43.6509],[-79.52241,43.64825],[-79.54408,43.63009],[-79.56804,43.61395],[-79.5685,43.61439],[-79.56797,43.61675],[-79.56661,43.6178],[-79.56701,43.62084],[-79.5656,43.6216],[-79.56602,43.62278],[-79.56557,43.62442],[-79.56505,43.62467],[-79.56419,43.62443],[-79.5637,43.62497],[-79.56355,43.62623],[-79.56395,43.62786],[-79.56507,43.62816],[-79.56712,43.62814],[-79.56848,43.62669],[-79.57011,43.62695],[-79.57503,43.62539],[-79.57686,43.62623],[-79.57994,43.62695],[-79.58162,43.62801],[-79.58313,43.62798],[-79.58549,43.62885],[-79.58613,43.62966],[-79.58517,43.63189],[-79.5853,43.63277],[-79.58596,43.63361],[-79.58565,43.63424],[-79.58614,43.63541],[-79.58536,43.63727],[-79.58707,43.63952],[-79.58739,43.63946],[-79.58704,43.63976],[-79.58743,43.64064],[-79.58825,43.64113],[-79.58806,43.64192],[-79.58836,43.64244],[-79.59056,43.64397],[-79.59215,43.64464],[-79.59306,43.64459],[-79.5954,43.6432],[-79.59717,43.64296],[-79.59847,43.64305],[-79.5996,43.64373],[-79.60198,43.64404],[-79.6029,43.64466],[-79.60508,43.64436],[-79.60577,43.64479],[-79.60698,43.64448],[-79.60792,43.64508],[-79.60885,43.64643],[-79.60311,43.65159]]]]}},{"type":"Feature","properties":{"name":"Eglinton—Lawrence"},"geometry":{"type":"MultiPolygon","coordinates":[[[[-79.4725,43.72469],[-79.47047,43.72536],[-79.44353,43.73115],[-79.44065,43.73215],[-79.42666,43.7403],[-79.41881,43.74532],[-79.41474,43.74946],[-79.40838,43.7536],[-79.4081,43.74979],[-79.40218,43.7251],[-79.39836,43.70673],[-79.44733,43.69636],[-79.4628,43.69289],[-79.4646,43.69215],[-79.46541,43.69379],[-79.46848,43.70469],[-79.4725,43.72469]]]]}},{"type":"Feature","properties":{"name":"Brampton East"},"geometry":{"type":"MultiPolygon","coordinates":[[[[-79.76665,43.77853],[-79.77188,43.78239],[-79.7602,43.79123],[-79.75809,43.79244],[-79.69824,43.84558],[-79.69723,43.84736],[-79.69522,43.84772],[-79.64427,43.75997],[-79.64323,43.75803],[-79.64073,43.75144],[-79.63759,43.74829],[-79.63669,43.74615],[-79.63047,43.7364],[-79.63027,43.73553],[-79.63282,43.73496],[-79.63451,43.73374],[-79.63936,43.73733],[-79.67158,43.7083],[-79.67976,43.71445],[-79.68526,43.7181],[-79.76665,43.77853]]]]}},{"type":"Feature","properties":{"name":"Beaches—East York"},"geometry":{"type":"MultiPolygon","coordinates":[[[[-79.33248,43.70326],[-79.33304,43.70342],[-79.33285,43.70524],[-79.33163,43.70619],[-79.3302,43.70628],[-79.32821,43.70797],[-79.32552,43.70851],[-79.32481,43.70959],[-79.32404,43.7099],[-79.32293,43.71026],[-79.32064,43.71038],[-79.31876,43.71102],[-79.31857,43.71156],[-79.31945,43.71258],[-79.32164,43.7123],[-79.32102,43.71325],[-79.32019,43.71376],[-79.32102,43.7144],[-79.32002,43.71481],[-79.32007,43.71553],[-79.30058,43.71978],[-79.29047,43.69655],[-79.28315,43.67863],[-79.28189,43.67833],[-79.28019,43.67427],[-79.28119,43.67385],[-79.27938,43.66963],[-79.28449,43.66922],[-79.29225,43.66671],[-79.29754,43.66385],[-79.30083,43.65738],[-79.31348,43.64856],[-79.31421,43.64831],[-79.31316,43.65726],[-79.31239,43.65823],[-79.31538,43.66085],[-79.31528,43.66188],[-79.31482,43.66224],[-79.32954,43.69794],[-79.32958,43.69826],[-79.32674,43.70162],[-79.32735,43.7014],[-79.33156,43.70166],[-79.33208,43.70306],[-79.33248,43.70326]]]]}},{"type":"Feature","properties":{"name":"York South—Weston—Etobicoke"},"geometry":{"type":"MultiPolygon","coordinates":[[[[-79.53958,43.71097],[-79.53814,43.71206],[-79.53783,43.71299],[-79.52669,43.71556],[-79.49977,43.71879],[-79.49025,43.72052],[-79.47253,43.72487],[-79.46848,43.70469],[-79.46541,43.69379],[-79.4646,43.69215],[-79.47039,43.69122],[-79.48672,43.68743],[-79.47495,43.68139],[-79.4719,43.67924],[-79.46889,43.67621],[-79.47043,43.67649],[-79.49397,43.67078],[-79.50444,43.66726],[-79.51176,43.66231],[-79.51222,43.66262],[-79.5131,43.66577],[-79.51305,43.66663],[-79.51138,43.66794],[-79.51128,43.66837],[-79.5125,43.67265],[-79.51215,43.6734],[-79.51235,43.67384],[-79.51146,43.67477],[-79.50865,43.67655],[-79.50716,43.67939],[-79.50545,43.68065],[-79.50574,43.68209],[-79.50718,43.68247],[-79.50897,43.68246],[-79.5095,43.68284],[-79.51019,43.68409],[-79.5147,43.68347],[-79.5212,43.68333],[-79.5266,43.68233],[-79.53426,43.69982],[-79.53424,43.70053],[-79.53186,43.7032],[-79.53164,43.70391],[-79.53194,43.70496],[-79.53333,43.70498],[-79.53498,43.70455],[-79.53594,43.7047],[-79.53546,43.70699],[-79.53568,43.70788],[-79.5359,43.70825],[-79.53741,43.70831],[-79.53884,43.70904],[-79.53953,43.7099],[-79.53958,43.71097]]]]}},{"type":"Feature","properties":{"name":"York Centre"},"geometry":{"type":"MultiPolygon","coordinates":[[[[-79.51321,43.73938],[-79.51037,43.73952],[-79.49703,43.7425],[-79.49739,43.74285],[-79.49738,43.74357],[-79.49799,43.74362],[-79.49767,43.74382],[-79.49796,43.74601],[-79.50175,43.74708],[-79.50226,43.74777],[-79.50351,43.7482],[-79.50478,43.74914],[-79.49753,43.75053],[-79.49458,43.75233],[-79.49206,43.75297],[-79.49088,43.75285],[-79.48946,43.75182],[-79.48816,43.75202],[-79.49449,43.77774],[-79.49415,43.78015],[-79.49443,43.78165],[-79.47008,43.78728],[-79.44574,43.7924],[-79.44537,43.79082],[-79.44659,43.78895],[-79.44662,43.78811],[-79.43998,43.76156],[-79.43891,43.76146],[-79.43834,43.76074],[-79.43775,43.76062],[-79.43765,43.76009],[-79.43817,43.75969],[-79.43811,43.75932],[-79.43742,43.759],[-79.43531,43.75895],[-79.43462,43.75826],[-79.43376,43.75805],[-79.43377,43.75756],[-79.43319,43.75722],[-79.43019,43.75747],[-79.42855,43.75545],[-79.42822,43.75428],[-79.42384,43.75167],[-79.42243,43.74967],[-79.42046,43.74932],[-79.41765,43.7498],[-79.41615,43.75065],[-79.41589,43.75149],[-79.41533,43.75199],[-79.41407,43.75154],[-79.41157,43.75157],[-79.41474,43.74946],[-79.41765,43.74623],[-79.41985,43.74464],[-79.43091,43.73777],[-79.4418,43.73169],[-79.47091,43.72526],[-79.49039,43.72049],[-79.50273,43.71832],[-79.50782,43.71775],[-79.51321,43.73938]]]]}},{"type":"Feature","properties":{"name":"Willowdale"},"geometry":{"type":"MultiPolygon","coordinates":[[[[-79.44652,43.78907],[-79.44542,43.79056],[-79.44574,43.7924],[-79.39622,43.80326],[-79.38804,43.76658],[-79.38705,43.76332],[-79.39284,43.76206],[-79.39738,43.76038],[-79.41157,43.75157],[-79.41407,43.75154],[-79.41533,43.75199],[-79.41589,43.75149],[-79.41615,43.75065],[-79.41765,43.7498],[-79.42046,43.74932],[-79.4226,43.74975],[-79.42288,43.75059],[-79.42384,43.75167],[-79.42822,43.75428],[-79.42855,43.75545],[-79.43019,43.75747],[-79.43319,43.75722],[-79.43377,43.75756],[-79.43376,43.75805],[-79.43462,43.75826],[-79.43549,43.75903],[-79.4379,43.75913],[-79.43821,43.75957],[-79.43765,43.76009],[-79.43775,43.76062],[-79.43834,43.76074],[-79.43891,43.76146],[-79.43998,43.76156],[-79.44662,43.78811],[-79.44652,43.78907]]]]}},{"type":"Feature","properties":{"name":"Vaughan—Woodbridge"},"geometry":{"type":"MultiPolygon","coordinates":[[[[-79.6654,43.8222],[-79.66324,43.82296],[-79.66008,43.82468],[-79.65839,43.82493],[-79.65145,43.8245],[-79.64582,43.82552],[-79.63355,43.82447],[-79.62865,43.82471],[-79.62617,43.82535],[-79.62473,43.82629],[-79.62029,43.8311],[-79.61803,43.8323],[-79.59879,43.83655],[-79.59812,43.83797],[-79.59709,43.83883],[-79.59667,43.83973],[-79.5986,43.84158],[-79.59869,43.84254],[-79.59931,43.84337],[-79.59899,43.84388],[-79.59739,43.84427],[-79.59792,43.84458],[-79.59807,43.84516],[-79.59745,43.84526],[-79.59757,43.84637],[-79.59887,43.84645],[-79.59872,43.84731],[-79.59902,43.848],[-79.59943,43.84779],[-79.59972,43.84792],[-79.59937,43.84826],[-79.60047,43.84844],[-79.6006,43.84898],[-79.59996,43.84904],[-79.60041,43.85012],[-79.60211,43.85094],[-79.60164,43.85093],[-79.60182,43.85121],[-79.60123,43.85146],[-79.60149,43.85178],[-79.60028,43.85246],[-79.60052,43.85268],[-79.60116,43.85246],[-79.60104,43.85296],[-79.60184,43.85274],[-79.6021,43.85299],[-79.60105,43.85415],[-79.59958,43.85483],[-79.59864,43.85573],[-79.59045,43.8576],[-79.59056,43.8581],[-79.57148,43.86192],[-79.55274,43.86511],[-79.54763,43.84288],[-79.54466,43.81445],[-79.53482,43.77269],[-79.5749,43.7644],[-79.63171,43.7515],[-79.63645,43.75105],[-79.6393,43.74985],[-79.64102,43.752],[-79.64323,43.75803],[-79.64427,43.75997],[-79.67867,43.8193],[-79.6654,43.8222]]]]}},{"type":"Feature","properties":{"name":"University—Rosedale"},"geometry":{"type":"MultiPolygon","coordinates":[[[[-79.42937,43.67092],[-79.40312,43.67631],[-79.39946,43.67739],[-79.38341,43.68464],[-79.37762,43.68598],[-79.37545,43.68683],[-79.37309,43.68842],[-79.36683,43.69445],[-79.36322,43.69338],[-79.36204,43.69223],[-79.36205,43.69108],[-79.36359,43.68934],[-79.36377,43.68852],[-79.36357,43.68791],[-79.36288,43.68881],[-79.3622,43.68853],[-79.36259,43.68771],[-79.36161,43.68565],[-79.36166,43.68511],[-79.36322,43.68328],[-79.36486,43.68265],[-79.36642,43.68131],[-79.36582,43.68047],[-79.36367,43.6788],[-79.36362,43.67784],[-79.36495,43.6768],[-79.36344,43.6753],[-79.36698,43.67457],[-79.37093,43.67193],[-79.37631,43.67246],[-79.38677,43.67022],[-79.37925,43.65244],[-79.41888,43.64419],[-79.42937,43.67092]]]]}},{"type":"Feature","properties":{"name":"Toronto—St. Paul's"},"geometry":{"type":"MultiPolygon","coordinates":[[[[-79.45003,43.6956],[-79.45027,43.69569],[-79.39836,43.70673],[-79.39899,43.70958],[-79.39121,43.71112],[-79.39018,43.7084],[-79.37715,43.71103],[-79.37173,43.69674],[-79.38071,43.69475],[-79.37649,43.69309],[-79.37506,43.69282],[-79.37089,43.69065],[-79.37345,43.68811],[-79.37545,43.68683],[-79.37762,43.68598],[-79.38341,43.68464],[-79.40028,43.6771],[-79.4294,43.67098],[-79.43098,43.67471],[-79.43022,43.67473],[-79.4338,43.68302],[-79.43325,43.68329],[-79.43576,43.6899],[-79.44157,43.69298],[-79.45003,43.6956]]]]}},{"type":"Feature","properties":{"name":"Toronto—Danforth"},"geometry":{"type":"MultiPolygon","coordinates":[[[[-79.36558,43.68032],[-79.36627,43.68093],[-79.36634,43.68161],[-79.36486,43.68265],[-79.36322,43.68328],[-79.36193,43.68458],[-79.36161,43.68565],[-79.3626,43.68812],[-79.36128,43.68928],[-79.3599,43.6915],[-79.36018,43.69221],[-79.36132,43.69288],[-79.36183,43.69409],[-79.35984,43.69539],[-79.3589,43.69559],[-79.35772,43.69525],[-79.35672,43.69554],[-79.35593,43.69727],[-79.35496,43.69814],[-79.35122,43.69875],[-79.35041,43.69974],[-79.34976,43.69996],[-79.34826,43.69992],[-79.34745,43.6992],[-79.34592,43.69853],[-79.34421,43.69831],[-79.34307,43.69902],[-79.34148,43.69943],[-79.33925,43.70122],[-79.33566,43.70315],[-79.33389,43.703],[-79.33304,43.70342],[-79.33218,43.70316],[-79.33156,43.70166],[-79.32735,43.7014],[-79.32674,43.70162],[-79.32958,43.69826],[-79.32954,43.69794],[-79.31482,43.66224],[-79.31528,43.66188],[-79.31538,43.66085],[-79.31239,43.65823],[-79.31316,43.65726],[-79.31421,43.64831],[-79.31849,43.64684],[-79.31658,43.62609],[-79.32648,43.62624],[-79.33033,43.6218],[-79.33929,43.61291],[-79.34374,43.61081],[-79.34915,43.63162],[-79.35957,43.64539],[-79.36108,43.64785],[-79.3569,43.64906],[-79.35174,43.64903],[-79.3487,43.65055],[-79.34815,43.65187],[-79.34958,43.65365],[-79.35428,43.65789],[-79.35749,43.66867],[-79.35949,43.67022],[-79.36055,43.67205],[-79.36292,43.67325],[-79.363,43.67492],[-79.36495,43.6768],[-79.36362,43.67784],[-79.3636,43.6786],[-79.36492,43.68002],[-79.36558,43.68032]]]]}},{"type":"Feature","properties":{"name":"Toronto Centre"},"geometry":{"type":"MultiPolygon","coordinates":[[[[-79.38677,43.67022],[-79.37631,43.67246],[-79.37093,43.67193],[-79.36698,43.67457],[-79.36344,43.6753],[-79.36287,43.67464],[-79.36292,43.67325],[-79.36055,43.67205],[-79.35949,43.67022],[-79.35749,43.66867],[-79.35428,43.65789],[-79.34958,43.65365],[-79.34815,43.65187],[-79.34823,43.65129],[-79.34955,43.64993],[-79.35174,43.64903],[-79.35754,43.64895],[-79.36303,43.64723],[-79.37403,43.64482],[-79.3758,43.64417],[-79.38677,43.67022]]]]}},{"type":"Feature","properties":{"name":"Thornhill"},"geometry":{"type":"MultiPolygon","coordinates":[[[[-79.54618,43.82826],[-79.53659,43.82984],[-79.529,43.83191],[-79.51503,43.83498],[-79.51454,43.8344],[-79.51342,43.83473],[-79.51292,43.83434],[-79.51281,43.83469],[-79.51192,43.83501],[-79.51149,43.83472],[-79.51182,43.8342],[-79.51059,43.83364],[-79.51062,43.8333],[-79.50807,43.83338],[-79.50763,43.83268],[-79.50718,43.83254],[-79.50799,43.83653],[-79.50645,43.83679],[-79.49953,43.83928],[-79.48307,43.84264],[-79.48752,43.86124],[-79.46276,43.86591],[-79.45663,43.83857],[-79.45414,43.82937],[-79.43274,43.83378],[-79.42862,43.83474],[-79.42871,43.83515],[-79.41834,43.83755],[-79.41189,43.83843],[-79.40635,43.83957],[-79.39794,43.80554],[-79.39746,43.80453],[-79.39622,43.80326],[-79.47008,43.78728],[-79.51702,43.77642],[-79.53482,43.77269],[-79.54453,43.81378],[-79.54618,43.82826]]]]}},{"type":"Feature","properties":{"name":"Taiaiako'n—Parkdale—High Park"},"geometry":{"type":"MultiPolygon","coordinates":[[[[-79.51173,43.6623],[-79.50444,43.66726],[-79.49397,43.67078],[-79.47043,43.67649],[-79.46889,43.67621],[-79.44316,43.65017],[-79.43886,43.64732],[-79.42721,43.64191],[-79.42432,43.64101],[-79.42141,43.64067],[-79.41939,43.63549],[-79.42866,43.63292],[-79.42519,43.62556],[-79.42567,43.62548],[-79.44676,43.63425],[-79.45515,43.63545],[-79.45806,43.63535],[-79.46734,43.63316],[-79.46968,43.63153],[-79.47253,43.63254],[-79.47509,43.63401],[-79.47572,43.63467],[-79.47734,43.6379],[-79.47839,43.63831],[-79.48227,43.63799],[-79.4847,43.6384],[-79.48509,43.6394],[-79.48502,43.64177],[-79.48531,43.64208],[-79.48684,43.64197],[-79.48894,43.64126],[-79.48988,43.6415],[-79.49058,43.64334],[-79.49262,43.64577],[-79.49276,43.64734],[-79.49066,43.65023],[-79.49088,43.65097],[-79.4923,43.65219],[-79.49745,43.652],[-79.50148,43.6524],[-79.50252,43.65289],[-79.50294,43.65356],[-79.50256,43.65514],[-79.49948,43.65782],[-79.49952,43.659],[-79.50011,43.65943],[-79.50187,43.66026],[-79.50593,43.66302],[-79.50688,43.66302],[-79.51005,43.66192],[-79.51173,43.6623]]]]}},{"type":"Feature","properties":{"name":"Spadina—Harbourfront"},"geometry":{"type":"MultiPolygon","coordinates":[[[[-79.4286,43.63279],[-79.41939,43.63549],[-79.42239,43.64349],[-79.37925,43.65244],[-79.3758,43.64417],[-79.36108,43.64785],[-79.35957,43.64539],[-79.34915,43.63162],[-79.34416,43.61243],[-79.35598,43.62537],[-79.36798,43.61697],[-79.37091,43.61441],[-79.37615,43.61331],[-79.38367,43.61038],[-79.38963,43.61037],[-79.39313,43.61225],[-79.39461,43.61927],[-79.401,43.62597],[-79.40528,43.62528],[-79.40611,43.62764],[-79.42487,43.62478],[-79.4286,43.63279]]]]}},{"type":"Feature","properties":{"name":"Scarborough—Woburn"},"geometry":{"type":"MultiPolygon","coordinates":[[[[-79.27477,43.77729],[-79.24045,43.78419],[-79.23067,43.78703],[-79.22555,43.78922],[-79.22452,43.78842],[-79.22353,43.78848],[-79.22206,43.78798],[-79.22201,43.78762],[-79.22296,43.78697],[-79.22301,43.78562],[-79.22144,43.78577],[-79.22047,43.78524],[-79.22014,43.78451],[-79.2204,43.78402],[-79.21955,43.78347],[-79.21937,43.78268],[-79.21791,43.78327],[-79.21759,43.78425],[-79.2161,43.78385],[-79.21522,43.78309],[-79.21484,43.7831],[-79.21457,43.78367],[-79.21391,43.78375],[-79.21323,43.78258],[-79.21252,43.78242],[-79.21121,43.78132],[-79.21078,43.77962],[-79.20982,43.78004],[-79.20814,43.77961],[-79.20853,43.77829],[-79.20661,43.7772],[-79.20753,43.77686],[-79.20736,43.7766],[-79.20418,43.77712],[-79.20283,43.77704],[-79.20204,43.77447],[-79.20026,43.77414],[-79.19892,43.77429],[-79.19975,43.77309],[-79.19875,43.77161],[-79.20054,43.76898],[-79.20097,43.76771],[-79.20348,43.76669],[-79.20133,43.76389],[-79.20154,43.76306],[-79.20279,43.76258],[-79.20168,43.76109],[-79.20243,43.7606],[-79.20268,43.7586],[-79.20362,43.75751],[-79.20477,43.75733],[-79.20475,43.75362],[-79.21245,43.75071],[-79.21994,43.74841],[-79.22203,43.74701],[-79.22647,43.74317],[-79.23008,43.74075],[-79.26296,43.73346],[-79.26828,43.74591],[-79.26398,43.74857],[-79.27084,43.76666],[-79.27164,43.76965],[-79.27477,43.77729]]]]}},{"type":"Feature","properties":{"name":"Scarborough Southwest"},"geometry":{"type":"MultiPolygon","coordinates":[[[[-79.3025,43.72463],[-79.23008,43.74075],[-79.22647,43.74317],[-79.22203,43.74701],[-79.21994,43.74841],[-79.21245,43.75071],[-79.20645,43.75315],[-79.20193,43.75422],[-79.20601,43.74968],[-79.20472,43.74893],[-79.2044,43.74686],[-79.20749,43.7399],[-79.21758,43.72787],[-79.21439,43.72739],[-79.21372,43.72601],[-79.21852,43.72101],[-79.22158,43.7102],[-79.23261,43.69984],[-79.25133,43.69224],[-79.26101,43.68797],[-79.27917,43.66965],[-79.27938,43.66963],[-79.28119,43.67385],[-79.28019,43.67427],[-79.28189,43.67833],[-79.28315,43.67863],[-79.29022,43.69597],[-79.29597,43.70877],[-79.3025,43.72463]]]]}},{"type":"Feature","properties":{"name":"Scarborough North"},"geometry":{"type":"MultiPolygon","coordinates":[[[[-79.29657,43.82612],[-79.22781,43.84208],[-79.22666,43.84109],[-79.22599,43.8396],[-79.22384,43.83924],[-79.22265,43.83859],[-79.22287,43.83756],[-79.22182,43.83651],[-79.22402,43.83531],[-79.22382,43.83395],[-79.22154,43.83234],[-79.21908,43.8324],[-79.21822,43.83091],[-79.21743,43.83037],[-79.23223,43.82559],[-79.23151,43.82413],[-79.22678,43.82107],[-79.22378,43.81982],[-79.22206,43.81959],[-79.21801,43.81996],[-79.21559,43.81904],[-79.20434,43.81219],[-79.20369,43.81134],[-79.20033,43.80402],[-79.1992,43.80062],[-79.19689,43.79653],[-79.21562,43.7937],[-79.22054,43.79201],[-79.22815,43.78798],[-79.23461,43.78577],[-79.24643,43.78284],[-79.27477,43.77729],[-79.27692,43.7828],[-79.2787,43.7857],[-79.2866,43.80446],[-79.28878,43.80704],[-79.29732,43.82594],[-79.29657,43.82612]]]]}},{"type":"Feature","properties":{"name":"Scarborough—Guildwood—Rouge Park"},"geometry":{"type":"MultiPolygon","coordinates":[[[[-79.22781,43.84208],[-79.20448,43.84725],[-79.17025,43.85547],[-79.15191,43.81404],[-79.15134,43.81404],[-79.14959,43.81257],[-79.14808,43.81234],[-79.14622,43.8112],[-79.14587,43.81002],[-79.14326,43.81001],[-79.14304,43.80956],[-79.14152,43.80942],[-79.14053,43.8084],[-79.13941,43.80846],[-79.13885,43.80798],[-79.13829,43.80805],[-79.13804,43.80744],[-79.13752,43.80792],[-79.13695,43.80771],[-79.13605,43.80817],[-79.13402,43.80691],[-79.13376,43.80625],[-79.13423,43.80541],[-79.13433,43.80442],[-79.13357,43.80312],[-79.13548,43.80103],[-79.13531,43.80074],[-79.13122,43.80189],[-79.12708,43.80012],[-79.12525,43.80024],[-79.12418,43.7991],[-79.12438,43.79768],[-79.12416,43.79741],[-79.12347,43.79718],[-79.12161,43.79741],[-79.12021,43.79616],[-79.12008,43.7958],[-79.12128,43.79511],[-79.121,43.79473],[-79.11907,43.79476],[-79.11739,43.79439],[-79.11558,43.79495],[-79.11347,43.79378],[-79.1341,43.77452],[-79.14415,43.76623],[-79.14559,43.7656],[-79.15033,43.76004],[-79.15237,43.75862],[-79.15643,43.75846],[-79.17039,43.75459],[-79.17287,43.75357],[-79.1894,43.74463],[-79.21372,43.72601],[-79.21439,43.72739],[-79.21758,43.72787],[-79.20749,43.7399],[-79.2044,43.74686],[-79.20472,43.74893],[-79.20601,43.74968],[-79.20193,43.75422],[-79.20475,43.75362],[-79.20477,43.75733],[-79.20362,43.75751],[-79.20268,43.7586],[-79.20243,43.7606],[-79.20168,43.76109],[-79.20279,43.76258],[-79.20154,43.76306],[-79.20133,43.76389],[-79.20348,43.76669],[-79.20111,43.76759],[-79.20062,43.76818],[-79.20054,43.76898],[-79.19876,43.77145],[-79.19975,43.77309],[-79.19892,43.77429],[-79.20026,43.77414],[-79.20204,43.77447],[-79.20259,43.77678],[-79.20295,43.77709],[-79.20736,43.7766],[-79.20753,43.77686],[-79.20661,43.7772],[-79.20853,43.77829],[-79.20814,43.77961],[-79.20982,43.78004],[-79.21078,43.77962],[-79.21121,43.78132],[-79.21252,43.78242],[-79.21341,43.78273],[-79.21377,43.78369],[-79.21442,43.78373],[-79.21484,43.7831],[-79.21522,43.78309],[-79.2161,43.78385],[-79.21759,43.78425],[-79.21791,43.78327],[-79.21937,43.78268],[-79.21955,43.78347],[-79.2204,43.78402],[-79.22014,43.78451],[-79.22047,43.78524],[-79.22144,43.78577],[-79.22301,43.78562],[-79.22296,43.78697],[-79.22201,43.78762],[-79.22206,43.78798],[-79.22353,43.78848],[-79.22452,43.78842],[-79.22555,43.78922],[-79.22054,43.79201],[-79.21596,43.79361],[-79.19689,43.79653],[-79.1992,43.80062],[-79.20033,43.80402],[-79.20369,43.81134],[-79.20434,43.81219],[-79.21559,43.81904],[-79.21801,43.81996],[-79.22206,43.81959],[-79.22378,43.81982],[-79.22678,43.82107],[-79.23151,43.82413],[-79.23223,43.82559],[-79.21743,43.83037],[-79.21822,43.83091],[-79.21908,43.8324],[-79.22154,43.83234],[-79.22382,43.83395],[-79.22402,43.83531],[-79.22182,43.83651],[-79.22287,43.83756],[-79.22265,43.83859],[-79.22384,43.83924],[-79.22599,43.8396],[-79.22666,43.84109],[-79.22781,43.84208]]]]}},{"type":"Feature","properties":{"name":"Scarborough Centre—Don Valley East"},"geometry":{"type":"MultiPolygon","coordinates":[[[[-79.35964,43.76633],[-79.32887,43.76822],[-79.31237,43.76866],[-79.27477,43.77729],[-79.27164,43.76965],[-79.27084,43.76666],[-79.26398,43.74857],[-79.26828,43.74591],[-79.26296,43.73346],[-79.27677,43.73019],[-79.30257,43.72479],[-79.30058,43.71978],[-79.32007,43.71553],[-79.32034,43.71597],[-79.32292,43.71644],[-79.32353,43.71673],[-79.32394,43.71828],[-79.32347,43.71895],[-79.32251,43.71933],[-79.32262,43.71986],[-79.32415,43.72067],[-79.32572,43.72035],[-79.32652,43.72049],[-79.32684,43.72119],[-79.32339,43.72217],[-79.3233,43.7233],[-79.32229,43.72538],[-79.32318,43.7263],[-79.32314,43.72718],[-79.32048,43.728],[-79.31863,43.72909],[-79.32038,43.72969],[-79.32011,43.73057],[-79.3196,43.73092],[-79.31964,43.73146],[-79.3201,43.73161],[-79.32285,43.72952],[-79.32518,43.7295],[-79.32459,43.73107],[-79.32487,43.73178],[-79.32605,43.73216],[-79.3269,43.7329],[-79.3274,43.7329],[-79.32813,43.73421],[-79.32944,43.73394],[-79.33119,43.73503],[-79.3307,43.73636],[-79.33155,43.73714],[-79.33036,43.73817],[-79.33009,43.73878],[-79.33081,43.74018],[-79.33063,43.74124],[-79.3316,43.74159],[-79.33275,43.74139],[-79.33372,43.74078],[-79.33576,43.7409],[-79.33666,43.74219],[-79.33623,43.74288],[-79.33641,43.74343],[-79.33748,43.74383],[-79.33818,43.74345],[-79.33907,43.74351],[-79.34015,43.74447],[-79.33972,43.74594],[-79.33918,43.74659],[-79.34222,43.74756],[-79.34242,43.74824],[-79.34219,43.74907],[-79.3426,43.74976],[-79.34259,43.75081],[-79.34537,43.75103],[-79.34635,43.75148],[-79.34531,43.75278],[-79.34555,43.75438],[-79.34369,43.75513],[-79.34401,43.75692],[-79.34467,43.75773],[-79.34591,43.75842],[-79.3465,43.75955],[-79.34831,43.75991],[-79.34876,43.76057],[-79.34974,43.76078],[-79.34947,43.76345],[-79.35098,43.76416],[-79.35118,43.76367],[-79.35162,43.7635],[-79.35294,43.76384],[-79.35423,43.76368],[-79.35495,43.76463],[-79.35792,43.76487],[-79.35958,43.76585],[-79.35964,43.76633]]]]}},{"type":"Feature","properties":{"name":"Scarborough—Agincourt"},"geometry":{"type":"MultiPolygon","coordinates":[[[[-79.35196,43.8132],[-79.29732,43.82594],[-79.28878,43.80704],[-79.2866,43.80446],[-79.2787,43.7857],[-79.27692,43.7828],[-79.27477,43.77729],[-79.31196,43.76872],[-79.33725,43.76771],[-79.33866,43.77202],[-79.34006,43.77965],[-79.34645,43.80886],[-79.34714,43.81022],[-79.34823,43.81135],[-79.35196,43.8132]]]]}},{"type":"Feature","properties":{"name":"Richmond Hill South"},"geometry":{"type":"MultiPolygon","coordinates":[[[[-79.38705,43.83688],[-79.39438,43.83705],[-79.40603,43.83834],[-79.40635,43.83957],[-79.41189,43.83843],[-79.41834,43.83755],[-79.42871,43.83515],[-79.42862,43.83474],[-79.43274,43.83378],[-79.45414,43.82937],[-79.45663,43.83857],[-79.46326,43.86815],[-79.46735,43.88411],[-79.42249,43.89372],[-79.41843,43.89348],[-79.41692,43.89375],[-79.39932,43.8976],[-79.38406,43.90146],[-79.37154,43.85038],[-79.36812,43.83922],[-79.3787,43.83755],[-79.38705,43.83688]]]]}},{"type":"Feature","properties":{"name":"Don Valley West"},"geometry":{"type":"MultiPolygon","coordinates":[[[[-79.40648,43.7433],[-79.40441,43.74374],[-79.40406,43.74421],[-79.40237,43.74416],[-79.38414,43.74805],[-79.38235,43.74896],[-79.38065,43.74935],[-79.36414,43.75278],[-79.35996,43.75295],[-79.34391,43.75649],[-79.34369,43.75513],[-79.34555,43.75438],[-79.34531,43.75278],[-79.34635,43.75148],[-79.34537,43.75103],[-79.34259,43.75081],[-79.3426,43.74976],[-79.34219,43.74907],[-79.34242,43.74824],[-79.34222,43.74756],[-79.33918,43.74659],[-79.33972,43.74594],[-79.34015,43.74447],[-79.33907,43.74351],[-79.33818,43.74345],[-79.33748,43.74383],[-79.33641,43.74343],[-79.33623,43.74288],[-79.33666,43.74219],[-79.33576,43.7409],[-79.33372,43.74078],[-79.33275,43.74139],[-79.3316,43.74159],[-79.33063,43.74124],[-79.33081,43.74018],[-79.33009,43.73878],[-79.33036,43.73817],[-79.33155,43.73714],[-79.3307,43.73636],[-79.33121,43.7353],[-79.33107,43.73484],[-79.32944,43.73394],[-79.32813,43.73421],[-79.3274,43.7329],[-79.3269,43.7329],[-79.32605,43.73216],[-79.32487,43.73178],[-79.32459,43.73107],[-79.32518,43.7295],[-79.32285,43.72952],[-79.3201,43.73161],[-79.31964,43.73146],[-79.3196,43.73092],[-79.32011,43.73057],[-79.32038,43.72969],[-79.31863,43.72909],[-79.32048,43.728],[-79.32314,43.72718],[-79.32318,43.7263],[-79.32229,43.72538],[-79.3233,43.7233],[-79.32339,43.72217],[-79.32685,43.72112],[-79.32652,43.72049],[-79.32572,43.72035],[-79.32415,43.72067],[-79.32262,43.71986],[-79.32251,43.71933],[-79.3239,43.71844],[-79.32353,43.71673],[-79.32114,43.71593],[-79.3202,43.71592],[-79.31993,43.71516],[-79.32021,43.7146],[-79.32102,43.7144],[-79.32019,43.71376],[-79.32102,43.71325],[-79.32164,43.7123],[-79.31945,43.71258],[-79.31854,43.71136],[-79.31903,43.71084],[-79.32064,43.71038],[-79.32317,43.71021],[-79.32481,43.70959],[-79.3253,43.7087],[-79.3261,43.70823],[-79.32821,43.70797],[-79.3302,43.70628],[-79.33129,43.70634],[-79.33275,43.70542],[-79.33297,43.70364],[-79.33331,43.70316],[-79.33637,43.70292],[-79.33925,43.70122],[-79.34148,43.69943],[-79.34307,43.69902],[-79.34421,43.69831],[-79.34592,43.69853],[-79.34745,43.6992],[-79.34826,43.69992],[-79.34976,43.69996],[-79.35041,43.69974],[-79.35122,43.69875],[-79.35496,43.69814],[-79.35593,43.69727],[-79.35672,43.69554],[-79.35772,43.69525],[-79.3589,43.69559],[-79.35984,43.69539],[-79.36183,43.69409],[-79.36132,43.69288],[-79.36018,43.69221],[-79.3599,43.6915],[-79.36182,43.68863],[-79.36288,43.68881],[-79.36357,43.68791],[-79.36366,43.6892],[-79.3623,43.69068],[-79.36193,43.69174],[-79.36242,43.69284],[-79.36346,43.69348],[-79.36627,43.69408],[-79.36683,43.69445],[-79.37089,43.69065],[-79.37506,43.69282],[-79.37649,43.69309],[-79.38071,43.69475],[-79.37173,43.69674],[-79.37715,43.71103],[-79.39018,43.7084],[-79.39121,43.71112],[-79.39899,43.70958],[-79.40218,43.7251],[-79.40648,43.7433]]]]}},{"type":"Feature","properties":{"name":"Don Valley North"},"geometry":{"type":"MultiPolygon","coordinates":[[[[-79.3959,43.80224],[-79.39622,43.80326],[-79.35207,43.81324],[-79.34805,43.8112],[-79.34705,43.81008],[-79.34639,43.80865],[-79.34006,43.77965],[-79.33866,43.77202],[-79.33725,43.76771],[-79.35964,43.76648],[-79.35964,43.76605],[-79.35754,43.76472],[-79.35495,43.76463],[-79.35423,43.76368],[-79.35294,43.76384],[-79.35162,43.7635],[-79.35118,43.76367],[-79.35098,43.76416],[-79.34979,43.76366],[-79.34938,43.76332],[-79.34984,43.76157],[-79.34974,43.76078],[-79.34876,43.76057],[-79.34831,43.75991],[-79.3465,43.75955],[-79.34591,43.75842],[-79.34451,43.75758],[-79.34391,43.75649],[-79.35996,43.75295],[-79.36414,43.75278],[-79.38065,43.74935],[-79.38235,43.74896],[-79.38414,43.74805],[-79.40237,43.74416],[-79.40406,43.74421],[-79.40441,43.74374],[-79.40648,43.7433],[-79.4081,43.74979],[-79.40838,43.7536],[-79.39683,43.76064],[-79.39284,43.76206],[-79.38705,43.76332],[-79.38804,43.76658],[-79.3959,43.80224]]]]}},{"type":"Feature","properties":{"name":"Davenport"},"geometry":{"type":"MultiPolygon","coordinates":[[[[-79.48672,43.68743],[-79.46943,43.69142],[-79.46537,43.69194],[-79.4628,43.69289],[-79.45027,43.69569],[-79.44157,43.69298],[-79.43576,43.6899],[-79.43325,43.68329],[-79.4338,43.68302],[-79.43022,43.67473],[-79.43098,43.67471],[-79.42548,43.66155],[-79.41888,43.64419],[-79.42239,43.64349],[-79.42141,43.64067],[-79.42365,43.64088],[-79.42758,43.64207],[-79.44124,43.64869],[-79.44429,43.6512],[-79.4719,43.67924],[-79.4766,43.68237],[-79.48672,43.68743]]]]}}]}