{"type":"FeatureCollection","features":[{"type":"Feature","geometry":{"type":"Point","coordinates":[-79.381921,43.644334]},"properties":{"name":"Union Station","lines":"Barrie, Kitchener, Lakeshore East, Lakeshore West, Milton, Richmond Hill, Stouffville, UP","arr":["Barrie","Kitchener","Lakeshore East","Lakeshore West","Milton","Richmond Hill","Stouffville","UP"],"terminus":1,"mode":"tram","color":"#7d2b8b","colorDark":"#45164e","angle":0,"metro":1,"snapDist":44,"label":1}},{"type":"Feature","geometry":{"type":"Point","coordinates":[-79.47836,43.753632]},"properties":{"name":"Downsview Park","lines":"Barrie","arr":["Barrie"],"terminus":0,"mode":"tram","color":"#003767","colorDark":"#001e39","angle":0,"metro":1,"snapDist":1,"label":1}},{"type":"Feature","geometry":{"type":"Point","coordinates":[-79.498307,43.838534]},"properties":{"name":"Rutherford","lines":"Barrie","arr":["Barrie"],"terminus":0,"mode":"tram","color":"#003767","colorDark":"#001e39","angle":0,"metro":1,"snapDist":41,"label":1}},{"type":"Feature","geometry":{"type":"Point","coordinates":[-79.507134,43.85946]},"properties":{"name":"Maple","lines":"Barrie","arr":["Barrie"],"terminus":0,"mode":"tram","color":"#003767","colorDark":"#001e39","angle":0,"metro":1,"snapDist":12,"label":1}},{"type":"Feature","geometry":{"type":"Point","coordinates":[-79.527011,43.920021]},"properties":{"name":"King City","lines":"Barrie","arr":["Barrie"],"terminus":0,"mode":"tram","color":"#003767","colorDark":"#001e39","angle":0,"metro":1,"snapDist":10,"label":1}},{"type":"Feature","geometry":{"type":"Point","coordinates":[-79.459856,44.000735]},"properties":{"name":"Aurora","lines":"Barrie","arr":["Barrie"],"terminus":0,"mode":"tram","color":"#003767","colorDark":"#001e39","angle":0,"metro":1,"snapDist":11,"label":1}},{"type":"Feature","geometry":{"type":"Point","coordinates":[-79.459971,44.060118]},"properties":{"name":"Newmarket","lines":"Barrie","arr":["Barrie"],"terminus":0,"mode":"tram","color":"#003767","colorDark":"#001e39","angle":0,"metro":1,"snapDist":65,"label":1}},{"type":"Feature","geometry":{"type":"Point","coordinates":[-79.4553,44.078052]},"properties":{"name":"East Gwillimbury","lines":"Barrie","arr":["Barrie"],"terminus":0,"mode":"tram","color":"#003767","colorDark":"#001e39","angle":0,"metro":1,"snapDist":39,"label":1}},{"type":"Feature","geometry":{"type":"Point","coordinates":[-79.555282,44.116604]},"properties":{"name":"Bradford","lines":"Barrie","arr":["Barrie"],"terminus":0,"mode":"tram","color":"#003767","colorDark":"#001e39","angle":0,"metro":1,"snapDist":14,"label":1}},{"type":"Feature","geometry":{"type":"Point","coordinates":[-79.627273,44.351247]},"properties":{"name":"Barrie South","lines":"Barrie","arr":["Barrie"],"terminus":0,"mode":"tram","color":"#003767","colorDark":"#001e39","angle":0,"metro":1,"snapDist":20,"label":1}},{"type":"Feature","geometry":{"type":"Point","coordinates":[-79.687445,44.373466]},"properties":{"name":"Allandale Waterfront","lines":"Barrie","arr":["Barrie"],"terminus":1,"mode":"tram","color":"#003767","colorDark":"#001e39","angle":0,"metro":1,"snapDist":82,"label":1}},{"type":"Feature","geometry":{"type":"Point","coordinates":[-79.450026,43.657012]},"properties":{"name":"Bloor","lines":"Kitchener, UP","arr":["Kitchener","UP"],"terminus":0,"mode":"tram","color":"#7d2b8b","colorDark":"#45164e","angle":0,"metro":1,"snapDist":16,"label":1}},{"type":"Feature","geometry":{"type":"Point","coordinates":[-79.487165,43.687348]},"properties":{"name":"Mount Dennis","lines":"Kitchener, UP","arr":["Kitchener","UP"],"terminus":0,"mode":"tram","color":"#7d2b8b","colorDark":"#45164e","angle":0,"metro":1,"snapDist":19,"label":1}},{"type":"Feature","geometry":{"type":"Point","coordinates":[-79.513566,43.70041]},"properties":{"name":"Weston","lines":"Kitchener, UP","arr":["Kitchener","UP"],"terminus":0,"mode":"tram","color":"#7d2b8b","colorDark":"#45164e","angle":0,"metro":1,"snapDist":16,"label":1}},{"type":"Feature","geometry":{"type":"Point","coordinates":[-79.563512,43.706322]},"properties":{"name":"Etobicoke North","lines":"Kitchener","arr":["Kitchener"],"terminus":0,"mode":"tram","color":"#00853E","colorDark":"#004922","angle":0,"metro":1,"snapDist":17,"label":1}},{"type":"Feature","geometry":{"type":"Point","coordinates":[-79.638218,43.704829]},"properties":{"name":"Malton","lines":"Kitchener","arr":["Kitchener"],"terminus":0,"mode":"tram","color":"#00853E","colorDark":"#004922","angle":0,"metro":1,"snapDist":36,"label":1}},{"type":"Feature","geometry":{"type":"Point","coordinates":[-79.688656,43.702026]},"properties":{"name":"Bramalea","lines":"Kitchener","arr":["Kitchener"],"terminus":0,"mode":"tram","color":"#00853E","colorDark":"#004922","angle":0,"metro":1,"snapDist":27,"label":1}},{"type":"Feature","geometry":{"type":"Point","coordinates":[-79.762957,43.687141]},"properties":{"name":"Brampton Innovation District","lines":"Kitchener","arr":["Kitchener"],"terminus":0,"mode":"tram","color":"#00853E","colorDark":"#004922","angle":0,"metro":1,"snapDist":27,"label":1}},{"type":"Feature","geometry":{"type":"Point","coordinates":[-79.822247,43.675145]},"properties":{"name":"Mount Pleasant","lines":"Kitchener","arr":["Kitchener"],"terminus":0,"mode":"tram","color":"#00853E","colorDark":"#004922","angle":0,"metro":1,"snapDist":20,"label":1}},{"type":"Feature","geometry":{"type":"Point","coordinates":[-79.919105,43.655502]},"properties":{"name":"Georgetown","lines":"Kitchener","arr":["Kitchener"],"terminus":0,"mode":"tram","color":"#00853E","colorDark":"#004922","angle":0,"metro":1,"snapDist":15,"label":1}},{"type":"Feature","geometry":{"type":"Point","coordinates":[-80.034094,43.633841]},"properties":{"name":"Acton","lines":"Kitchener","arr":["Kitchener"],"terminus":0,"mode":"tram","color":"#00853E","colorDark":"#004922","angle":0,"metro":1,"snapDist":4,"label":1}},{"type":"Feature","geometry":{"type":"Point","coordinates":[-80.246676,43.544217]},"properties":{"name":"Guelph Central","lines":"Kitchener","arr":["Kitchener"],"terminus":0,"mode":"tram","color":"#00853E","colorDark":"#004922","angle":0,"metro":1,"snapDist":25,"label":1}},{"type":"Feature","geometry":{"type":"Point","coordinates":[-80.493168,43.455746]},"properties":{"name":"Kitchener","lines":"Kitchener","arr":["Kitchener"],"terminus":1,"mode":"tram","color":"#00853E","colorDark":"#004922","angle":0,"metro":1,"snapDist":7,"label":1}},{"type":"Feature","geometry":{"type":"Point","coordinates":[-79.300237,43.686235]},"properties":{"name":"Danforth","lines":"Lakeshore East","arr":["Lakeshore East"],"terminus":0,"mode":"tram","color":"#FF0D00","colorDark":"#8c0700","angle":0,"metro":1,"snapDist":27,"label":1}},{"type":"Feature","geometry":{"type":"Point","coordinates":[-79.254977,43.717033]},"properties":{"name":"Scarborough","lines":"Lakeshore East","arr":["Lakeshore East"],"terminus":0,"mode":"tram","color":"#FF0D00","colorDark":"#8c0700","angle":0,"metro":1,"snapDist":23,"label":1}},{"type":"Feature","geometry":{"type":"Point","coordinates":[-79.232118,43.739461]},"properties":{"name":"Eglinton","lines":"Lakeshore East","arr":["Lakeshore East"],"terminus":0,"mode":"tram","color":"#FF0D00","colorDark":"#8c0700","angle":0,"metro":1,"snapDist":24,"label":1}},{"type":"Feature","geometry":{"type":"Point","coordinates":[-79.198134,43.754954]},"properties":{"name":"Guildwood","lines":"Lakeshore East","arr":["Lakeshore East"],"terminus":0,"mode":"tram","color":"#FF0D00","colorDark":"#8c0700","angle":0,"metro":1,"snapDist":37,"label":1}},{"type":"Feature","geometry":{"type":"Point","coordinates":[-79.130245,43.780179]},"properties":{"name":"Rouge Hill","lines":"Lakeshore East","arr":["Lakeshore East"],"terminus":0,"mode":"tram","color":"#FF0D00","colorDark":"#8c0700","angle":0,"metro":1,"snapDist":39,"label":1}},{"type":"Feature","geometry":{"type":"Point","coordinates":[-79.084621,43.831607]},"properties":{"name":"Pickering","lines":"Lakeshore East","arr":["Lakeshore East"],"terminus":0,"mode":"tram","color":"#FF0D00","colorDark":"#8c0700","angle":0,"metro":1,"snapDist":4,"label":1}},{"type":"Feature","geometry":{"type":"Point","coordinates":[-79.041571,43.848232]},"properties":{"name":"Ajax","lines":"Lakeshore East","arr":["Lakeshore East"],"terminus":0,"mode":"tram","color":"#FF0D00","colorDark":"#8c0700","angle":0,"metro":1,"snapDist":54,"label":1}},{"type":"Feature","geometry":{"type":"Point","coordinates":[-78.938194,43.864798]},"properties":{"name":"Whitby","lines":"Lakeshore East","arr":["Lakeshore East"],"terminus":0,"mode":"tram","color":"#FF0D00","colorDark":"#8c0700","angle":0,"metro":1,"snapDist":5,"label":1}},{"type":"Feature","geometry":{"type":"Point","coordinates":[-78.885112,43.870842]},"properties":{"name":"Durham College Oshawa","lines":"Lakeshore East","arr":["Lakeshore East"],"terminus":1,"mode":"tram","color":"#FF0D00","colorDark":"#8c0700","angle":0,"metro":1,"snapDist":30,"label":1}},{"type":"Feature","geometry":{"type":"Point","coordinates":[-79.633551,43.513325]},"properties":{"name":"Clarkson","lines":"Lakeshore West","arr":["Lakeshore West"],"terminus":0,"mode":"tram","color":"#98002E","colorDark":"#540019","angle":0,"metro":1,"snapDist":35,"label":1}},{"type":"Feature","geometry":{"type":"Point","coordinates":[-79.681929,43.455423]},"properties":{"name":"Oakville","lines":"Lakeshore West","arr":["Lakeshore West"],"terminus":0,"mode":"tram","color":"#98002E","colorDark":"#540019","angle":0,"metro":1,"snapDist":32,"label":1}},{"type":"Feature","geometry":{"type":"Point","coordinates":[-79.722245,43.416747]},"properties":{"name":"Bronte","lines":"Lakeshore West","arr":["Lakeshore West"],"terminus":0,"mode":"tram","color":"#98002E","colorDark":"#540019","angle":0,"metro":1,"snapDist":5,"label":1}},{"type":"Feature","geometry":{"type":"Point","coordinates":[-79.761164,43.379523]},"properties":{"name":"Appleby","lines":"Lakeshore West","arr":["Lakeshore West"],"terminus":0,"mode":"tram","color":"#98002E","colorDark":"#540019","angle":0,"metro":1,"snapDist":17,"label":1}},{"type":"Feature","geometry":{"type":"Point","coordinates":[-79.809103,43.341233]},"properties":{"name":"Burlington","lines":"Lakeshore West","arr":["Lakeshore West"],"terminus":0,"mode":"tram","color":"#98002E","colorDark":"#540019","angle":0,"metro":1,"snapDist":5,"label":1}},{"type":"Feature","geometry":{"type":"Point","coordinates":[-79.855109,43.312919]},"properties":{"name":"Aldershot","lines":"Lakeshore West","arr":["Lakeshore West"],"terminus":0,"mode":"tram","color":"#98002E","colorDark":"#540019","angle":0,"metro":1,"snapDist":68,"label":1}},{"type":"Feature","geometry":{"type":"Point","coordinates":[-79.869286,43.25308]},"properties":{"name":"Hamilton GO Centre","lines":"Lakeshore West","arr":["Lakeshore West"],"terminus":1,"mode":"tram","color":"#98002E","colorDark":"#540019","angle":0,"metro":1,"snapDist":24,"label":1}},{"type":"Feature","geometry":{"type":"Point","coordinates":[-79.41912,43.635916]},"properties":{"name":"Exhibition","lines":"Lakeshore West","arr":["Lakeshore West"],"terminus":0,"mode":"tram","color":"#98002E","colorDark":"#540019","angle":0,"metro":1,"snapDist":44,"label":1}},{"type":"Feature","geometry":{"type":"Point","coordinates":[-79.497535,43.616226]},"properties":{"name":"Mimico","lines":"Lakeshore West","arr":["Lakeshore West"],"terminus":0,"mode":"tram","color":"#98002E","colorDark":"#540019","angle":0,"metro":1,"snapDist":28,"label":1}},{"type":"Feature","geometry":{"type":"Point","coordinates":[-79.546348,43.591514]},"properties":{"name":"Long Branch","lines":"Lakeshore West","arr":["Lakeshore West"],"terminus":0,"mode":"tram","color":"#98002E","colorDark":"#540019","angle":0,"metro":1,"snapDist":27,"label":1}},{"type":"Feature","geometry":{"type":"Point","coordinates":[-79.587054,43.556097]},"properties":{"name":"Port Credit","lines":"Lakeshore West","arr":["Lakeshore West"],"terminus":0,"mode":"tram","color":"#98002E","colorDark":"#540019","angle":0,"metro":1,"snapDist":18,"label":1}},{"type":"Feature","geometry":{"type":"Point","coordinates":[-79.866245,43.266713]},"properties":{"name":"West Harbour","lines":"Lakeshore West","arr":["Lakeshore West"],"terminus":0,"mode":"tram","color":"#98002E","colorDark":"#540019","angle":0,"metro":1,"snapDist":7,"label":1}},{"type":"Feature","geometry":{"type":"Point","coordinates":[-79.760324,43.241889]},"properties":{"name":"Confederation","lines":"Lakeshore West","arr":["Lakeshore West"],"terminus":1,"mode":"tram","color":"#98002E","colorDark":"#540019","angle":0,"metro":1,"snapDist":2,"label":1}},{"type":"Feature","geometry":{"type":"Point","coordinates":[-79.254969,43.1474]},"properties":{"name":"St. Catharines","lines":"Lakeshore West","arr":["Lakeshore West"],"terminus":0,"mode":"tram","color":"#98002E","colorDark":"#540019","angle":0,"metro":1,"snapDist":24,"label":1}},{"type":"Feature","geometry":{"type":"Point","coordinates":[-79.064235,43.108943]},"properties":{"name":"Niagara Falls","lines":"Lakeshore West","arr":["Lakeshore West"],"terminus":1,"mode":"tram","color":"#98002E","colorDark":"#540019","angle":0,"metro":1,"snapDist":74,"label":1}},{"type":"Feature","geometry":{"type":"Point","coordinates":[-79.536019,43.636789]},"properties":{"name":"Kipling","lines":"Milton","arr":["Milton"],"terminus":0,"mode":"tram","color":"#F57F25","colorDark":"#874614","angle":0,"metro":1,"snapDist":28,"label":1}},{"type":"Feature","geometry":{"type":"Point","coordinates":[-79.577441,43.607765]},"properties":{"name":"Dixie","lines":"Milton","arr":["Milton"],"terminus":0,"mode":"tram","color":"#F57F25","colorDark":"#874614","angle":0,"metro":1,"snapDist":38,"label":1}},{"type":"Feature","geometry":{"type":"Point","coordinates":[-79.62394,43.583126]},"properties":{"name":"Cooksville","lines":"Milton","arr":["Milton"],"terminus":0,"mode":"tram","color":"#F57F25","colorDark":"#874614","angle":0,"metro":1,"snapDist":26,"label":1}},{"type":"Feature","geometry":{"type":"Point","coordinates":[-79.668609,43.566969]},"properties":{"name":"Erindale","lines":"Milton","arr":["Milton"],"terminus":0,"mode":"tram","color":"#F57F25","colorDark":"#874614","angle":0,"metro":1,"snapDist":31,"label":1}},{"type":"Feature","geometry":{"type":"Point","coordinates":[-79.708516,43.575913]},"properties":{"name":"Streetsville","lines":"Milton","arr":["Milton"],"terminus":0,"mode":"tram","color":"#F57F25","colorDark":"#874614","angle":0,"metro":1,"snapDist":44,"label":1}},{"type":"Feature","geometry":{"type":"Point","coordinates":[-79.754191,43.597819]},"properties":{"name":"Meadowvale","lines":"Milton","arr":["Milton"],"terminus":0,"mode":"tram","color":"#F57F25","colorDark":"#874614","angle":0,"metro":1,"snapDist":30,"label":1}},{"type":"Feature","geometry":{"type":"Point","coordinates":[-79.788272,43.590637]},"properties":{"name":"Lisgar","lines":"Milton","arr":["Milton"],"terminus":0,"mode":"tram","color":"#F57F25","colorDark":"#874614","angle":0,"metro":1,"snapDist":27,"label":1}},{"type":"Feature","geometry":{"type":"Point","coordinates":[-79.866205,43.523703]},"properties":{"name":"Milton","lines":"Milton","arr":["Milton"],"terminus":1,"mode":"tram","color":"#F57F25","colorDark":"#874614","angle":0,"metro":1,"snapDist":78,"label":1}},{"type":"Feature","geometry":{"type":"Point","coordinates":[-79.364572,43.765396]},"properties":{"name":"Oriole","lines":"Richmond Hill","arr":["Richmond Hill"],"terminus":0,"mode":"tram","color":"#0099C7","colorDark":"#00546d","angle":0,"metro":1,"snapDist":27,"label":1}},{"type":"Feature","geometry":{"type":"Point","coordinates":[-79.371679,43.793652]},"properties":{"name":"Old Cummer","lines":"Richmond Hill","arr":["Richmond Hill"],"terminus":0,"mode":"tram","color":"#0099C7","colorDark":"#00546d","angle":0,"metro":1,"snapDist":23,"label":1}},{"type":"Feature","geometry":{"type":"Point","coordinates":[-79.423431,43.838417]},"properties":{"name":"Langstaff","lines":"Richmond Hill","arr":["Richmond Hill"],"terminus":0,"mode":"tram","color":"#0099C7","colorDark":"#00546d","angle":0,"metro":1,"snapDist":27,"label":1}},{"type":"Feature","geometry":{"type":"Point","coordinates":[-79.426419,43.87427]},"properties":{"name":"Richmond Hill","lines":"Richmond Hill","arr":["Richmond Hill"],"terminus":0,"mode":"tram","color":"#0099C7","colorDark":"#00546d","angle":0,"metro":1,"snapDist":21,"label":1}},{"type":"Feature","geometry":{"type":"Point","coordinates":[-79.399066,43.94161]},"properties":{"name":"Gormley","lines":"Richmond Hill","arr":["Richmond Hill"],"terminus":0,"mode":"tram","color":"#0099C7","colorDark":"#00546d","angle":0,"metro":1,"snapDist":3,"label":1}},{"type":"Feature","geometry":{"type":"Point","coordinates":[-79.397278,43.975949]},"properties":{"name":"Bloomington","lines":"Richmond Hill","arr":["Richmond Hill"],"terminus":1,"mode":"tram","color":"#0099C7","colorDark":"#00546d","angle":0,"metro":1,"snapDist":2,"label":1}},{"type":"Feature","geometry":{"type":"Point","coordinates":[-79.262833,43.733015]},"properties":{"name":"Kennedy","lines":"Stouffville","arr":["Stouffville"],"terminus":0,"mode":"tram","color":"#794500","colorDark":"#432600","angle":0,"metro":1,"snapDist":11,"label":1}},{"type":"Feature","geometry":{"type":"Point","coordinates":[-79.284327,43.786123]},"properties":{"name":"Agincourt","lines":"Stouffville","arr":["Stouffville"],"terminus":0,"mode":"tram","color":"#794500","colorDark":"#432600","angle":0,"metro":1,"snapDist":5,"label":1}},{"type":"Feature","geometry":{"type":"Point","coordinates":[-79.301541,43.823285]},"properties":{"name":"Milliken","lines":"Stouffville","arr":["Stouffville"],"terminus":0,"mode":"tram","color":"#794500","colorDark":"#432600","angle":0,"metro":1,"snapDist":21,"label":1}},{"type":"Feature","geometry":{"type":"Point","coordinates":[-79.314717,43.851716]},"properties":{"name":"Unionville","lines":"Stouffville","arr":["Stouffville"],"terminus":0,"mode":"tram","color":"#794500","colorDark":"#432600","angle":0,"metro":1,"snapDist":31,"label":1}},{"type":"Feature","geometry":{"type":"Point","coordinates":[-79.289274,43.873721]},"properties":{"name":"Centennial","lines":"Stouffville","arr":["Stouffville"],"terminus":0,"mode":"tram","color":"#794500","colorDark":"#432600","angle":0,"metro":1,"snapDist":14,"label":1}},{"type":"Feature","geometry":{"type":"Point","coordinates":[-79.262595,43.882718]},"properties":{"name":"Markham","lines":"Stouffville","arr":["Stouffville"],"terminus":0,"mode":"tram","color":"#794500","colorDark":"#432600","angle":0,"metro":1,"snapDist":11,"label":1}},{"type":"Feature","geometry":{"type":"Point","coordinates":[-79.262943,43.900509]},"properties":{"name":"Mount Joy","lines":"Stouffville","arr":["Stouffville"],"terminus":0,"mode":"tram","color":"#794500","colorDark":"#432600","angle":0,"metro":1,"snapDist":15,"label":1}},{"type":"Feature","geometry":{"type":"Point","coordinates":[-79.250152,43.970929]},"properties":{"name":"Stouffville","lines":"Stouffville","arr":["Stouffville"],"terminus":0,"mode":"tram","color":"#794500","colorDark":"#432600","angle":0,"metro":1,"snapDist":13,"label":1}},{"type":"Feature","geometry":{"type":"Point","coordinates":[-79.237318,43.990461]},"properties":{"name":"Old Elm","lines":"Stouffville","arr":["Stouffville"],"terminus":1,"mode":"tram","color":"#794500","colorDark":"#432600","angle":0,"metro":1,"snapDist":19,"label":1}},{"type":"Feature","geometry":{"type":"Point","coordinates":[-79.613403,43.682903]},"properties":{"name":"Pearson Airport","lines":"UP","arr":["UP"],"terminus":1,"mode":"tram","color":"#0075D2","colorDark":"#004074","angle":0,"metro":1,"snapDist":43,"label":1}}]}