{"type":"FeatureCollection","features":[{"type":"Feature","properties":{"name":"Lake Erie"},"geometry":{"type":"Polygon","coordinates":[[[-83.076765,42.30436],[-83.078825,42.303477],[-83.090011,42.285226],[-83.098253,42.262855],[-83.102374,42.243427],[-83.112971,42.138044],[-83.12401,42.090063],[-83.123568,42.072107],[-83.10679,42.055622],[-83.051449,42.045025],[-83.02319,42.030307],[-83.010827,42.027069],[-82.989486,42.023537],[-82.983746,42.020593],[-82.959019,42.003225],[-82.918838,41.988802],[-82.874242,41.984386],[-82.829352,41.989685],[-82.712489,42.035311],[-82.667598,42.044142],[-82.622708,42.03796],[-82.582233,42.016766],[-82.548675,41.98733],[-82.523066,41.952006],[-82.506581,41.913739],[-82.499075,41.913739],[-82.502166,41.922864],[-82.506581,41.928163],[-82.499075,41.955244],[-82.486712,42.035017],[-82.468755,42.051501],[-82.457717,42.065631],[-82.386922,42.125975],[-82.369996,42.136572],[-82.123025,42.235773],[-82.08461,42.254907],[-82.061208,42.261383],[-81.92374,42.263738],[-81.925948,42.268153],[-81.929186,42.279633],[-81.931247,42.284343],[-81.855595,42.32526],[-81.859127,42.301416],[-81.871932,42.287581],[-81.886945,42.275218],[-81.8971,42.256379],[-81.873993,42.250491],[-81.856625,42.259028],[-81.845734,42.277573],[-81.837492,42.322905],[-81.818799,42.359406],[-81.814531,42.377068],[-81.79319,42.404738],[-81.656899,42.482745],[-81.635263,42.502173],[-81.567413,42.550448],[-81.550487,42.565461],[-81.540184,42.571643],[-81.505302,42.582534],[-81.478956,42.60049],[-81.458056,42.609027],[-81.417287,42.620213],[-81.35915,42.649355],[-81.229041,42.669666],[-80.932469,42.666722],[-80.778958,42.636403],[-80.755556,42.634342],[-80.703601,42.611676],[-80.577466,42.590776],[-80.553622,42.58224],[-80.511234,42.572231],[-80.358312,42.579296],[-80.331378,42.576352],[-80.251605,42.558102],[-80.152551,42.551331],[-80.124881,42.544267],[-80.109721,42.542501],[-80.088233,42.553098],[-80.073662,42.556924],[-80.058355,42.558691],[-80.046139,42.558102],[-80.095592,42.571348],[-80.300028,42.582534],[-80.328581,42.58901],[-80.341092,42.60314],[-80.443383,42.599607],[-80.453833,42.618152],[-80.443972,42.637286],[-80.403938,42.671726],[-80.387012,42.67938],[-80.379212,42.684973],[-80.370381,42.688211],[-80.358018,42.671138],[-80.347862,42.6679],[-80.334763,42.679674],[-80.318426,42.720591],[-80.303413,42.729422],[-80.287959,42.735603],[-80.231735,42.777697],[-80.187728,42.792416],[-79.874819,42.832449],[-79.834638,42.832449],[-79.796076,42.845401],[-79.775029,42.848639],[-79.734849,42.863357],[-79.717334,42.867184],[-79.695698,42.862474],[-79.64286,42.845107],[-79.625051,42.849228],[-79.606212,42.858648],[-79.57913,42.861591],[-79.495531,42.85747],[-79.484492,42.859531],[-79.476103,42.864829],[-79.469038,42.871894],[-79.460354,42.878076],[-79.446961,42.880725],[-79.368512,42.873071],[-79.202933,42.880136],[-79.156129,42.873366],[-79.113004,42.853643],[-79.094901,42.850111],[-79.087248,42.863357],[-79.07665,42.870422],[-78.965381,42.88985],[-78.943451,42.898975],[-78.925789,42.911339],[-78.915339,42.931944],[-78.926966,42.945779],[-78.970532,42.961969],[-79.019838,42.98964],[-79.04221,43.009951],[-79.042504,43.027613],[-79.031907,43.055283],[-79.053543,43.073828],[-79.075473,43.08884],[-79.066201,43.106208],[-79.026167,43.086485],[-78.914897,43.076477],[-78.887963,43.051456],[-78.893114,43.029379],[-78.927997,43.002003],[-78.936386,42.979631],[-78.932118,42.9708],[-78.913426,42.957848],[-78.90901,42.952255],[-78.901651,42.908101],[-78.896205,42.897209],[-78.875011,42.867184],[-78.869418,42.854526],[-78.867505,42.845696],[-78.867505,42.822441],[-78.87089,42.798303],[-78.880604,42.780641],[-78.895911,42.767689],[-78.915928,42.757386],[-78.993934,42.731188],[-79.031318,42.714115],[-79.059283,42.688505],[-79.08033,42.65171],[-79.096373,42.634342],[-79.117714,42.626983],[-79.12213,42.622862],[-79.138761,42.59578],[-79.150683,42.581062],[-79.156129,42.576941],[-79.169228,42.571643],[-79.235166,42.556924],[-79.255918,42.535436],[-79.308315,42.509826],[-79.358063,42.494519],[-79.368365,42.489809],[-79.37543,42.483333],[-79.383967,42.473914],[-79.394122,42.465671],[-79.423853,42.454486],[-79.470804,42.407093],[-79.526733,42.383838],[-79.542776,42.370003],[-79.560144,42.358229],[-79.628436,42.338801],[-79.703499,42.294352],[-79.731463,42.284343],[-79.751775,42.27198],[-79.889095,42.229591],[-79.932956,42.205454],[-79.974167,42.195445],[-80.019204,42.167186],[-80.061887,42.155412],[-80.111046,42.131568],[-80.135478,42.125975],[-80.135478,42.133629],[-80.129297,42.138044],[-80.116639,42.151291],[-80.111635,42.15394],[-80.087203,42.154529],[-80.076753,42.158061],[-80.067333,42.167186],[-80.089557,42.174251],[-80.10825,42.166009],[-80.12444,42.153351],[-80.149608,42.141282],[-80.16256,42.118322],[-80.173157,42.113023],[-80.181988,42.110963],[-80.210688,42.092418],[-80.375827,42.023537],[-80.439262,42.013823],[-80.454275,42.007052],[-80.47017,41.997044],[-80.780577,41.919037],[-80.812369,41.90167],[-80.85093,41.897549],[-80.869328,41.893428],[-80.87757,41.888423],[-80.890081,41.876649],[-80.895968,41.872822],[-80.931733,41.867229],[-80.957196,41.85516],[-81.026224,41.845446],[-81.348406,41.729467],[-81.672206,41.522234],[-81.709002,41.513404],[-81.743001,41.497508],[-81.766697,41.495447],[-81.799077,41.508105],[-81.807761,41.509577],[-81.819094,41.505456],[-81.839111,41.492209],[-81.852063,41.489266],[-81.877525,41.490149],[-81.99792,41.511932],[-82.04075,41.511049],[-82.173214,41.48279],[-82.250926,41.450115],[-82.294345,41.44099],[-82.363079,41.438929],[-82.37971,41.431276],[-82.39384,41.420973],[-82.438436,41.39919],[-82.458158,41.393597],[-82.504815,41.395658],[-82.546468,41.411554],[-82.616379,41.454531],[-82.625799,41.458946],[-82.643608,41.465128],[-82.650673,41.46866],[-82.659945,41.477785],[-82.666863,41.486322],[-82.674074,41.492504],[-82.684672,41.495447],[-82.67172,41.473959],[-82.629773,41.445994],[-82.60902,41.427744],[-82.657149,41.454236],[-82.683936,41.464539],[-82.708957,41.46866],[-82.720878,41.467777],[-82.73648,41.463067],[-82.746194,41.46189],[-82.759587,41.462773],[-82.767388,41.465717],[-82.787699,41.476019],[-82.829057,41.470721],[-82.87851,41.446877],[-82.925609,41.432453],[-82.959019,41.454531],[-82.968439,41.447466],[-82.979477,41.443639],[-82.98875,41.445994],[-82.992576,41.458063],[-83.00229,41.460124],[-83.061458,41.46189],[-83.045268,41.468366],[-83.009061,41.469543],[-82.992576,41.476019],[-82.979183,41.46866],[-82.971971,41.472781],[-82.96682,41.481907],[-82.959019,41.489266],[-82.949894,41.492504],[-82.939738,41.49427],[-82.914423,41.495447],[-82.867472,41.50369],[-82.845394,41.504573],[-82.821845,41.495447],[-82.800062,41.508694],[-82.766358,41.51517],[-82.69836,41.51723],[-82.704688,41.533715],[-82.71087,41.543134],[-82.721026,41.548139],[-82.758999,41.551671],[-82.769448,41.550788],[-82.785638,41.543723],[-82.793439,41.548139],[-82.799768,41.554615],[-82.804478,41.558147],[-82.815811,41.574926],[-82.828174,41.586406],[-82.845836,41.591704],[-82.84407,41.586111],[-82.846425,41.573454],[-82.850987,41.559619],[-82.855991,41.550788],[-82.868944,41.541957],[-82.884545,41.536364],[-82.918102,41.530771],[-82.937825,41.53136],[-82.972707,41.541368],[-82.989486,41.543723],[-83.018922,41.553731],[-83.069994,41.601713],[-83.095604,41.619669],[-83.122244,41.619669],[-83.156096,41.626145],[-83.218501,41.646162],[-83.244847,41.660291],[-83.291503,41.697675],[-83.314758,41.708861],[-83.326091,41.70945],[-83.349493,41.703268],[-83.366272,41.701502],[-83.381726,41.702974],[-83.459144,41.721519],[-83.464589,41.729172],[-83.466208,41.746246],[-83.462382,41.759492],[-83.453109,41.76744],[-83.441776,41.769206],[-83.432062,41.763613],[-83.424556,41.763613],[-83.423967,41.790106],[-83.420729,41.810417],[-83.412634,41.82749],[-83.370834,41.877532],[-83.354056,41.889601],[-83.335805,41.887246],[-83.326385,41.914916],[-83.309607,41.935227],[-83.287088,41.94347],[-83.260153,41.934344],[-83.253972,41.946708],[-83.252794,41.95966],[-83.25721,41.972317],[-83.266924,41.98262],[-83.237046,41.985269],[-83.221297,41.994689],[-83.199367,42.03796],[-83.194363,42.030601],[-83.1898,42.025303],[-83.178173,42.016766],[-83.182147,42.023831],[-83.183472,42.029718],[-83.185091,42.044142],[-83.188034,42.050912],[-83.197307,42.061215],[-83.199367,42.065336],[-83.196865,42.079466],[-83.191125,42.088002],[-83.187887,42.095361],[-83.191861,42.105664],[-83.187445,42.11008],[-83.178173,42.125975],[-83.146087,42.232829],[-83.125482,42.268448],[-83.081622,42.30907],[-83.076765,42.30436]],[[-78.981718,42.979043],[-78.964351,42.976393],[-78.91269,43.037032],[-78.908569,43.049396],[-78.917399,43.058521],[-78.943304,43.065291],[-78.958905,43.070884],[-78.975536,43.069707],[-78.993051,43.066174],[-79.011449,43.065291],[-79.00983,43.050867],[-79.023076,43.017015],[-79.022046,43.010539],[-79.01189,43.004358],[-78.998055,42.991111],[-78.981718,42.979043]],[[-83.14491,42.107725],[-83.141819,42.137161],[-83.143438,42.194856],[-83.150944,42.188675],[-83.16684,42.132451],[-83.169784,42.102426],[-83.157715,42.092418],[-83.14491,42.107725]],[[-82.638309,41.747423],[-82.622708,41.749778],[-82.628742,41.759786],[-82.644344,41.824546],[-82.644344,41.838087],[-82.67746,41.808062],[-82.684377,41.795404],[-82.685849,41.744479],[-82.683494,41.733588],[-82.67481,41.729467],[-82.6623,41.732999],[-82.638309,41.747423]]]}},{"type":"Feature","properties":{"name":"Lake Ontario"},"geometry":{"type":"Polygon","coordinates":[[[-76.087236,43.970461],[-76.120057,43.96634],[-76.133451,43.956626],[-76.140515,43.941613],[-76.141693,43.92925],[-76.145814,43.916887],[-76.161268,43.901285],[-76.204834,43.874498],[-76.215873,43.860369],[-76.243249,43.874498],[-76.238244,43.880974],[-76.228972,43.901285],[-76.278425,43.883918],[-76.291671,43.874498],[-76.303152,43.858603],[-76.297264,43.851538],[-76.282399,43.846534],[-76.266798,43.835936],[-76.261058,43.831227],[-76.248253,43.823868],[-76.243249,43.819158],[-76.240158,43.811799],[-76.240011,43.804145],[-76.238686,43.796492],[-76.225292,43.777064],[-76.216461,43.749688],[-76.209691,43.737325],[-76.218964,43.717896],[-76.220435,43.69523],[-76.216609,43.671093],[-76.209691,43.648132],[-76.201154,43.661967],[-76.191735,43.671387],[-76.180843,43.674331],[-76.168186,43.668443],[-76.210427,43.623406],[-76.215431,43.601328],[-76.188055,43.58661],[-76.207336,43.573364],[-76.246339,43.538334],[-76.266798,43.53127],[-76.33406,43.520967],[-76.359964,43.524499],[-76.401469,43.536274],[-76.419278,43.533919],[-76.471234,43.495357],[-76.490367,43.484171],[-76.594867,43.447376],[-76.633134,43.427065],[-76.667869,43.401455],[-76.712759,43.338755],[-76.736897,43.351119],[-76.751027,43.353768],[-76.757208,43.342582],[-76.762507,43.338461],[-76.826973,43.316678],[-76.930147,43.300783],[-76.935299,43.297839],[-76.941333,43.289008],[-76.941775,43.281649],[-76.940597,43.275467],[-76.942216,43.270463],[-76.945896,43.264281],[-76.945601,43.261338],[-76.947073,43.259277],[-76.956346,43.256922],[-76.966501,43.256039],[-76.975774,43.2581],[-76.983722,43.263104],[-76.990492,43.270463],[-76.98799,43.27429],[-76.983133,43.284298],[-77.366689,43.297839],[-77.412463,43.290774],[-77.538009,43.256922],[-77.583194,43.257217],[-77.624699,43.271346],[-77.69623,43.319033],[-77.701087,43.320799],[-77.723606,43.325215],[-77.7239,43.335812],[-77.748774,43.344643],[-78.106573,43.394096],[-78.226968,43.379966],[-78.380185,43.396156],[-78.689414,43.361422],[-78.754175,43.338167],[-78.862059,43.324332],[-78.990696,43.286947],[-79.059283,43.278116],[-79.079005,43.271346],[-79.174379,43.259572],[-79.195574,43.249858],[-79.230603,43.228958],[-79.291242,43.210413],[-79.309492,43.198933],[-79.330392,43.190102],[-79.353206,43.193928],[-79.395005,43.209824],[-79.444458,43.213651],[-79.544984,43.20953],[-79.593701,43.216006],[-79.692313,43.241321],[-79.740442,43.261926],[-79.772527,43.291657],[-79.774735,43.329336],[-79.748684,43.362305],[-79.683041,43.41529],[-79.616956,43.49418],[-79.611804,43.51508],[-79.609155,43.536568],[-79.601207,43.558645],[-79.589286,43.571009],[-79.570888,43.582195],[-79.549694,43.590142],[-79.529088,43.59338],[-79.508188,43.600151],[-79.495089,43.615458],[-79.484639,43.633708],[-79.470804,43.648132],[-79.447255,43.651959],[-79.386174,43.6446],[-79.371456,43.6446],[-79.355119,43.659612],[-79.33834,43.670504],[-79.280203,43.699057],[-79.200872,43.754103],[-79.156129,43.772648],[-79.135082,43.784423],[-79.128459,43.792076],[-79.116684,43.81121],[-79.107706,43.819158],[-79.09652,43.825045],[-79.088425,43.826517],[-79.062668,43.825634],[-79.041032,43.829755],[-78.977303,43.860369],[-78.952723,43.865667],[-78.878396,43.860369],[-78.854847,43.863312],[-78.810692,43.876853],[-78.670134,43.897164],[-78.607434,43.915415],[-78.582119,43.914532],[-78.501316,43.901285],[-78.480122,43.904523],[-78.422426,43.92925],[-78.279512,43.958686],[-78.020766,43.97782],[-78.001633,43.982235],[-77.906553,43.985768],[-77.803231,44.019031],[-77.782184,44.021386],[-77.718307,44.008434],[-77.675183,44.004313],[-77.68475,44.01491],[-77.701528,44.020208],[-77.737147,44.025507],[-77.725961,44.03787],[-77.708888,44.044641],[-77.69049,44.043169],[-77.675183,44.031689],[-77.660759,44.037576],[-77.61631,44.045524],[-77.600709,44.045229],[-77.531828,44.017854],[-77.541836,44.010494],[-77.553316,44.005785],[-77.566121,44.003724],[-77.579515,44.004313],[-77.563766,43.991066],[-77.491794,43.95221],[-77.47737,43.948678],[-77.439103,43.949561],[-77.360066,43.968106],[-77.318414,43.972227],[-77.291626,43.956626],[-77.271904,43.965162],[-77.250563,43.970167],[-77.264251,43.947795],[-77.283973,43.94544],[-77.325773,43.962513],[-77.300457,43.923363],[-77.256156,43.921008],[-77.207144,43.938081],[-77.168141,43.956626],[-77.181534,43.935726],[-77.236286,43.88068],[-77.219949,43.876264],[-77.168141,43.874498],[-77.16711,43.871849],[-77.168141,43.867139],[-77.168288,43.862429],[-77.164903,43.860369],[-77.130609,43.860369],[-77.122809,43.861841],[-77.116333,43.865079],[-77.110298,43.870671],[-77.085424,43.887156],[-76.976362,43.915415],[-76.924849,43.937198],[-76.90807,43.942202],[-76.864946,43.942791],[-76.849786,43.946912],[-76.856556,43.959569],[-76.887317,43.965751],[-76.971064,43.951622],[-77.003591,43.962513],[-77.02979,43.94073],[-77.041564,43.938081],[-77.044508,43.956626],[-77.036413,43.97105],[-77.013011,43.988123],[-77.017279,43.997248],[-76.991375,44.012849],[-76.927351,44.032866],[-76.901152,44.052],[-76.898209,44.05877],[-76.895854,44.074077],[-76.890555,44.082319],[-76.884668,44.087323],[-76.871274,44.096154],[-76.852582,44.112344],[-76.850227,44.115877],[-76.876867,44.113522],[-76.890997,44.108223],[-76.920728,44.084674],[-77.009037,44.049645],[-77.028759,44.051705],[-77.062611,44.05877],[-77.081892,44.055827],[-77.12119,44.044641],[-77.133994,44.045229],[-77.108238,44.073194],[-77.091606,44.105574],[-77.066291,44.182403],[-77.082628,44.179754],[-77.141648,44.163858],[-77.171526,44.150906],[-77.185361,44.148257],[-77.247177,44.148257],[-77.262337,44.144724],[-77.287652,44.127063],[-77.298985,44.120881],[-77.298985,44.113522],[-77.290449,44.114111],[-77.264251,44.113522],[-77.264251,44.10734],[-77.306492,44.094683],[-77.327686,44.094977],[-77.340049,44.10734],[-77.33166,44.110578],[-77.326656,44.114699],[-77.318855,44.127063],[-77.324595,44.130301],[-77.327686,44.133833],[-77.330041,44.137365],[-77.333132,44.140898],[-77.325037,44.141781],[-77.305314,44.148257],[-77.305314,44.154438],[-77.389355,44.147962],[-77.40687,44.14914],[-77.415112,44.148257],[-77.42409,44.143547],[-77.443077,44.130006],[-77.452938,44.127063],[-77.490175,44.120881],[-77.552433,44.090267],[-77.586432,44.079376],[-77.583636,44.099392],[-77.572891,44.114405],[-77.555965,44.123825],[-77.508573,44.128829],[-77.376698,44.172395],[-77.345348,44.177693],[-77.336223,44.181226],[-77.327097,44.180931],[-77.315764,44.1721],[-77.306492,44.168274],[-77.293981,44.168862],[-77.271757,44.175633],[-77.263367,44.180637],[-77.255125,44.187702],[-77.246442,44.193883],[-77.236286,44.195355],[-77.224953,44.190351],[-77.204936,44.172689],[-77.192279,44.168568],[-77.17079,44.171806],[-77.038473,44.215077],[-77.014188,44.217138],[-76.99947,44.215077],[-77.002266,44.210073],[-77.020959,44.199182],[-77.034794,44.187113],[-77.039651,44.180637],[-77.044508,44.168568],[-77.049218,44.141486],[-77.039356,44.136188],[-77.021989,44.143547],[-76.921758,44.203009],[-76.914987,44.194178],[-76.90704,44.187702],[-76.897914,44.183581],[-76.887464,44.182403],[-76.896148,44.170334],[-76.906745,44.166802],[-76.931913,44.168568],[-76.946337,44.166507],[-76.974008,44.156793],[-76.986812,44.154438],[-77.003738,44.146491],[-77.072472,44.092916],[-77.063494,44.088795],[-77.053339,44.085852],[-77.042594,44.084969],[-77.031556,44.085557],[-77.034499,44.082025],[-77.036707,44.078787],[-77.039651,44.075549],[-77.044508,44.072605],[-77.044508,44.066424],[-76.973713,44.076726],[-76.962674,44.082319],[-76.953255,44.098509],[-76.931325,44.110578],[-76.887464,44.127063],[-76.836687,44.164152],[-76.794593,44.172689],[-76.73675,44.203009],[-76.695686,44.217138],[-76.659332,44.22332],[-76.65109,44.227146],[-76.637991,44.235977],[-76.63019,44.233622],[-76.624009,44.227146],[-76.616502,44.22332],[-76.544236,44.22538],[-76.523042,44.23009],[-76.503466,44.23951],[-76.486541,44.254228],[-76.477121,44.259232],[-76.468584,44.255111],[-76.460489,44.247752],[-76.452394,44.243925],[-76.441356,44.24628],[-76.407651,44.264236],[-76.332588,44.292201],[-76.322433,44.299266],[-76.315221,44.306036],[-76.307273,44.310746],[-76.260322,44.320165],[-76.235742,44.33194],[-76.168186,44.332529],[-76.151701,44.339299],[-76.108283,44.36226],[-76.089002,44.367264],[-76.009523,44.374623],[-75.973905,44.38522],[-75.941525,44.40141],[-75.844532,44.487659],[-75.811858,44.504437],[-75.791988,44.497078],[-75.779184,44.48236],[-75.772266,44.463815],[-75.770205,44.446153],[-75.780803,44.432318],[-75.845415,44.40141],[-75.84674,44.398172],[-75.847623,44.392579],[-75.849095,44.386103],[-75.852922,44.381099],[-75.856601,44.379333],[-75.908998,44.363731],[-75.914297,44.357255],[-75.923863,44.347836],[-76.053825,44.265708],[-76.183493,44.223025],[-76.357462,44.131478],[-76.366146,44.117349],[-76.3607,44.09586],[-76.347012,44.088795],[-76.32935,44.084969],[-76.311541,44.072605],[-76.306537,44.061125],[-76.309186,44.053472],[-76.313013,44.046996],[-76.311541,44.039048],[-76.304329,44.033455],[-76.295204,44.032572],[-76.28755,44.037282],[-76.284165,44.048762],[-76.274746,44.062008],[-76.209691,44.085557],[-76.201007,44.072017],[-76.161268,44.077315],[-76.146991,44.066424],[-76.154351,44.061419],[-76.157147,44.058181],[-76.161268,44.045229],[-76.153615,44.051117],[-76.145372,44.055532],[-76.136394,44.058181],[-76.126533,44.05877],[-76.132715,44.045818],[-76.144342,44.032572],[-76.158325,44.022269],[-76.18467,44.012555],[-76.201743,44.00078],[-76.212193,43.9893],[-76.206011,43.983707],[-76.143901,43.983707],[-76.125356,43.988123],[-76.097833,44.006962],[-76.08179,44.011083],[-76.065158,44.007845],[-76.057946,43.999603],[-76.060301,43.988417],[-76.071929,43.976348],[-76.087236,43.970461]],[[-76.05147,44.340182],[-76.05147,44.332529],[-76.038371,44.329291],[-76.037488,44.319871],[-76.038665,44.308391],[-76.030865,44.299266],[-76.02174,44.300737],[-75.993039,44.319577],[-75.975377,44.324875],[-75.9533,44.337239],[-75.933283,44.35284],[-75.918712,44.370796],[-75.916063,44.373445],[-75.914444,44.376389],[-75.914297,44.381099],[-75.927837,44.38051],[-75.93814,44.376095],[-75.955213,44.360493],[-75.960659,44.376095],[-75.973022,44.36903],[-75.99613,44.340182],[-76.003047,44.346364],[-76.000398,44.348424],[-75.999221,44.348424],[-75.99819,44.349602],[-75.99613,44.353723],[-76.007757,44.353723],[-76.017618,44.351368],[-76.025566,44.347247],[-76.030865,44.340182],[-76.03322,44.340771],[-76.037488,44.34136],[-76.043522,44.34136],[-76.05147,44.340182]],[[-76.158325,44.285136],[-76.160091,44.276011],[-76.15803,44.267769],[-76.150671,44.264236],[-76.126533,44.268652],[-76.08856,44.29014],[-76.065158,44.299266],[-76.065305,44.303387],[-76.066777,44.306625],[-76.071929,44.312806],[-76.078552,44.313395],[-76.086205,44.309863],[-76.095331,44.307508],[-76.106075,44.312806],[-76.117849,44.305447],[-76.143753,44.299266],[-76.154498,44.292201],[-76.158325,44.285136]],[[-76.640493,44.175633],[-76.636813,44.198887],[-76.660068,44.200654],[-76.716145,44.182403],[-76.794298,44.162681],[-76.815198,44.1512],[-76.814609,44.132361],[-76.778403,44.122942],[-76.736456,44.120881],[-76.719383,44.124119],[-76.703193,44.124708],[-76.658891,44.163269],[-76.640493,44.175633]],[[-76.313896,44.288963],[-76.353194,44.264236],[-76.275481,44.269535],[-76.238686,44.279838],[-76.205864,44.301915],[-76.195414,44.312806],[-76.241924,44.310746],[-76.279161,44.303681],[-76.313896,44.288963]],[[-76.416187,44.222731],[-76.435027,44.22332],[-76.406032,44.215372],[-76.252815,44.216255],[-76.222054,44.219787],[-76.195414,44.230679],[-76.181285,44.240982],[-76.190705,44.244514],[-76.225881,44.243925],[-76.244279,44.242748],[-76.271508,44.238038],[-76.359964,44.237155],[-76.379686,44.233622],[-76.416187,44.222731]],[[-76.408534,44.13501],[-76.359964,44.154438],[-76.379686,44.161798],[-76.365262,44.177988],[-76.356284,44.184758],[-76.353782,44.187407],[-76.350986,44.189173],[-76.346276,44.189173],[-76.367912,44.200948],[-76.401322,44.210956],[-76.435468,44.214194],[-76.459606,44.206247],[-76.499345,44.166507],[-76.502289,44.150023],[-76.469173,44.148257],[-76.473441,44.140603],[-76.47771,44.134716],[-76.483008,44.130006],[-76.489631,44.127063],[-76.489631,44.120881],[-76.480064,44.125296],[-76.471086,44.126768],[-76.456074,44.127063],[-76.448862,44.125591],[-76.441356,44.122058],[-76.433261,44.120292],[-76.42443,44.124119],[-76.408534,44.13501]],[[-76.215873,44.031689],[-76.212782,44.042874],[-76.223968,44.043758],[-76.241335,44.038165],[-76.256201,44.031689],[-76.274451,44.019325],[-76.280338,44.008728],[-76.277395,43.976348],[-76.24163,43.996954],[-76.228236,44.009317],[-76.215873,44.031689]]]}},{"type":"Feature","properties":{"name":"Lake Simcoe"},"geometry":{"type":"Polygon","coordinates":[[[-79.422087,44.337239],[-79.470068,44.326347],[-79.49818,44.299266],[-79.498033,44.292495],[-79.496414,44.278366],[-79.491262,44.264236],[-79.481401,44.258055],[-79.466241,44.251579],[-79.465211,44.237744],[-79.474042,44.223614],[-79.487877,44.217138],[-79.503626,44.218021],[-79.515547,44.222731],[-79.522906,44.233917],[-79.525409,44.254228],[-79.522465,44.403765],[-79.528205,44.411418],[-79.545867,44.415245],[-79.575156,44.409063],[-79.603415,44.395228],[-79.633882,44.386397],[-79.670089,44.39464],[-79.657284,44.407886],[-79.634912,44.410535],[-79.587519,44.409063],[-79.573243,44.413185],[-79.537919,44.427903],[-79.525409,44.435556],[-79.44593,44.514446],[-79.42297,44.525043],[-79.399715,44.543588],[-79.400893,44.553596],[-79.411195,44.564488],[-79.415611,44.586565],[-79.412078,44.595396],[-79.405014,44.601872],[-79.395741,44.605699],[-79.369543,44.610114],[-79.372486,44.616885],[-79.388971,44.627482],[-79.396477,44.633663],[-79.4031,44.635724],[-79.407663,44.639551],[-79.409282,44.651619],[-79.407516,44.659862],[-79.384261,44.703133],[-79.340401,44.751703],[-79.33731,44.747288],[-79.334366,44.74405],[-79.337751,44.740812],[-79.339076,44.737574],[-79.342756,44.716968],[-79.349084,44.709609],[-79.356296,44.704016],[-79.361006,44.696363],[-79.361301,44.687826],[-79.356149,44.672225],[-79.354089,44.662217],[-79.354825,44.619828],[-79.349968,44.603049],[-79.334366,44.593335],[-79.327154,44.597751],[-79.319942,44.600695],[-79.326271,44.59098],[-79.326271,44.584504],[-79.321561,44.579206],[-79.313172,44.573319],[-79.308168,44.57273],[-79.298159,44.578617],[-79.292567,44.579795],[-79.286826,44.576851],[-79.283736,44.572141],[-79.279762,44.567726],[-79.271814,44.56596],[-79.243261,44.565076],[-79.225452,44.559778],[-79.212205,44.547415],[-79.160986,44.480888],[-79.156129,44.466759],[-79.159367,44.443798],[-79.167609,44.421427],[-79.189539,44.381099],[-79.19366,44.369913],[-79.194102,44.363143],[-79.19734,44.358433],[-79.210145,44.353723],[-79.224421,44.353429],[-79.235166,44.358433],[-79.243702,44.36432],[-79.25165,44.367264],[-79.262836,44.364026],[-79.265927,44.349602],[-79.275641,44.346364],[-79.32686,44.340182],[-79.422087,44.337239]]]}},{"type":"Feature","properties":{"name":"Lake Huron"},"geometry":{"type":"Polygon","coordinates":[[[-79.671413,44.767893],[-79.662582,44.757885],[-79.739411,44.754647],[-79.765168,44.76701],[-79.776354,44.76495],[-79.792691,44.757885],[-79.798873,44.759945],[-79.799314,44.764655],[-79.798873,44.769365],[-79.802847,44.771426],[-79.873347,44.769365],[-79.881736,44.771426],[-79.881884,44.78114],[-79.876438,44.794975],[-79.874524,44.807632],[-79.885563,44.812931],[-79.926774,44.812931],[-79.941787,44.814697],[-79.942081,44.819113],[-79.935605,44.825589],[-79.930012,44.833537],[-79.925302,44.838541],[-79.918532,44.843251],[-79.915735,44.850315],[-79.923389,44.861501],[-79.934133,44.867388],[-79.947527,44.86886],[-79.985941,44.866505],[-80.005664,44.862384],[-80.015819,44.861501],[-80.028035,44.856791],[-80.035247,44.846489],[-80.040399,44.834714],[-80.046139,44.826766],[-80.061151,44.819113],[-80.06851,44.820585],[-80.075134,44.825294],[-80.087791,44.826766],[-80.099713,44.825294],[-80.10825,44.822351],[-80.113401,44.81558],[-80.115167,44.802334],[-80.113842,44.774664],[-80.107808,44.759945],[-80.093384,44.751998],[-80.067333,44.74405],[-80.048346,44.734925],[-80.008607,44.708432],[-79.994772,44.703133],[-79.99227,44.69283],[-80.005222,44.627482],[-80.005222,44.548886],[-80.013023,44.531225],[-80.031126,44.515035],[-80.067333,44.490897],[-80.108691,44.475295],[-80.150638,44.486776],[-80.195381,44.508559],[-80.245423,44.525043],[-80.32446,44.531519],[-80.365818,44.552419],[-80.425868,44.559189],[-80.450889,44.56596],[-80.495191,44.599223],[-80.512264,44.606876],[-80.535813,44.610409],[-80.557302,44.609525],[-80.577466,44.61188],[-80.598071,44.623949],[-80.616322,44.656035],[-80.623975,44.690476],[-80.639135,44.71844],[-80.680493,44.72992],[-80.763063,44.719323],[-80.826204,44.690476],[-80.937473,44.593335],[-80.942772,44.628659],[-80.88905,44.751703],[-80.89744,44.790854],[-80.934971,44.81087],[-80.985455,44.815286],[-81.032994,44.806161],[-81.078032,44.784083],[-81.119096,44.754647],[-81.127338,44.753469],[-81.131459,44.763478],[-81.131312,44.777607],[-81.126161,44.788793],[-81.117919,44.794975],[-81.051687,44.822351],[-81.036821,44.831476],[-81.006502,44.860912],[-81.000614,44.869155],[-80.998259,44.87828],[-81.00032,44.889466],[-81.00709,44.910954],[-81.005766,44.922434],[-80.987662,44.940096],[-80.961906,44.957169],[-80.953075,44.97071],[-80.985307,44.977481],[-81.007679,44.975126],[-81.03167,44.966295],[-81.044327,44.950988],[-81.032994,44.929205],[-81.050068,44.927439],[-81.070967,44.910366],[-81.087746,44.908599],[-81.08701,44.925084],[-81.105408,44.925378],[-81.149121,44.91537],[-81.149121,44.922434],[-81.126161,44.936858],[-81.112914,44.95246],[-81.116888,44.964823],[-81.200929,44.977481],[-81.204462,44.981307],[-81.191951,45.001618],[-81.190774,45.011038],[-81.210202,45.018103],[-81.235517,45.0078],[-81.257153,45.001913],[-81.266425,45.021635],[-81.262746,45.089045],[-81.266425,45.107884],[-81.280555,45.122602],[-81.301307,45.134082],[-81.319852,45.148801],[-81.327947,45.17235],[-81.319999,45.192366],[-81.286148,45.220037],[-81.279524,45.237404],[-81.30219,45.252417],[-81.607446,45.252122],[-81.629229,45.257715],[-81.628935,45.27155],[-81.64012,45.278615],[-81.649982,45.276849],[-81.670587,45.26478],[-81.692959,45.265074],[-81.698405,45.260365],[-81.691045,45.244469],[-81.714447,45.238876],[-81.71901,45.224452],[-81.710326,45.209734],[-81.694431,45.202964],[-81.669557,45.210911],[-81.656016,45.210911],[-81.649982,45.199725],[-81.644094,45.195604],[-81.613775,45.189717],[-81.601559,45.182358],[-81.595524,45.187362],[-81.574919,45.196487],[-81.577127,45.185007],[-81.58949,45.167345],[-81.595524,45.155571],[-81.572858,45.152627],[-81.545335,45.122308],[-81.523405,45.114654],[-81.521933,45.110239],[-81.506038,45.087278],[-81.497795,45.079919],[-81.491172,45.078153],[-81.487051,45.074915],[-81.485579,45.062552],[-81.481311,45.057842],[-81.462472,45.050483],[-81.458351,45.042535],[-81.456879,45.03547],[-81.433771,44.990138],[-81.427001,44.981896],[-81.424057,44.987489],[-81.421702,44.998969],[-81.416109,45.001913],[-81.409339,44.99838],[-81.403599,44.991021],[-81.392266,44.999558],[-81.380786,45.003973],[-81.370336,45.001913],[-81.362682,44.991021],[-81.366362,44.988372],[-81.371219,44.981896],[-81.375781,44.977481],[-81.369011,44.978069],[-81.355176,44.977186],[-81.348406,44.977481],[-81.357384,44.955109],[-81.36386,44.920374],[-81.361652,44.888877],[-81.344726,44.875042],[-81.330008,44.871215],[-81.3278,44.860912],[-81.328094,44.847666],[-81.321618,44.833537],[-81.311463,44.827355],[-81.288355,44.821173],[-81.279524,44.812931],[-81.286148,44.788793],[-81.277022,44.753469],[-81.274226,44.720501],[-81.299983,44.703133],[-81.279377,44.677524],[-81.270252,44.6631],[-81.266425,44.644849],[-81.270252,44.623949],[-81.280113,44.606582],[-81.379167,44.515035],[-81.389469,44.496784],[-81.399625,44.457045],[-81.409781,44.442327],[-81.430092,44.434379],[-81.47719,44.428197],[-81.495882,44.418483],[-81.539595,44.366086],[-81.554461,44.353723],[-81.564322,44.349896],[-81.572858,44.349013],[-81.580659,44.346658],[-81.588018,44.340182],[-81.594052,44.32723],[-81.593464,44.316927],[-81.589931,44.307213],[-81.588018,44.295733],[-81.591256,44.279838],[-81.615835,44.22332],[-81.660579,44.158265],[-81.722542,44.117054],[-81.738732,44.099981],[-81.742706,44.084085],[-81.729166,43.999603],[-81.711504,43.942202],[-81.710621,43.919536],[-81.71901,43.856542],[-81.722248,43.684339],[-81.699435,43.515374],[-81.701495,43.471514],[-81.711504,43.428242],[-81.730637,43.382321],[-81.752715,43.350236],[-81.781562,43.324626],[-81.880027,43.256628],[-81.907845,43.248386],[-81.950822,43.227486],[-81.974812,43.22572],[-81.985851,43.223365],[-82.005574,43.212473],[-82.095796,43.11916],[-82.115666,43.106208],[-82.152314,43.089429],[-82.377503,43.022314],[-82.417242,43.01731],[-82.424748,43.02408],[-82.431813,43.039387],[-82.458894,43.083247],[-82.468755,43.092373],[-82.475967,43.102087],[-82.526451,43.276645],[-82.547204,43.450908],[-82.579584,43.528326],[-82.636985,43.811799],[-82.67275,43.870083],[-82.677901,43.884212],[-82.681139,43.904818],[-82.689381,43.921302],[-82.742514,43.981352],[-82.7746,44.005785],[-82.81169,44.026096],[-82.923548,44.069956],[-82.948569,44.072605],[-82.968439,44.07025],[-83.018333,44.058181],[-83.033493,44.052],[-83.068964,44.022269],[-83.086479,44.014027],[-83.119889,44.011083],[-83.132399,44.007845],[-83.155654,43.993716],[-83.168312,43.990478],[-83.240284,43.989006],[-83.250145,43.986651],[-83.25824,43.982824],[-83.266924,43.976348],[-83.296802,43.945734],[-83.301659,43.93867],[-83.315935,43.93131],[-83.404833,43.921596],[-83.385994,43.916887],[-83.365536,43.916298],[-83.34758,43.913649],[-83.335805,43.901285],[-83.37054,43.873321],[-83.389232,43.854481],[-83.39718,43.835936],[-83.404245,43.813565],[-83.45252,43.7647],[-83.474156,43.721134],[-83.490346,43.703178],[-83.510216,43.706416],[-83.514631,43.714658],[-83.5189,43.725844],[-83.525964,43.73232],[-83.537886,43.726727],[-83.604559,43.65137],[-83.639736,43.6237],[-83.678886,43.608099],[-83.719361,43.613692],[-83.761014,43.633708],[-83.811939,43.6446],[-83.83225,43.656669],[-83.881703,43.670798],[-83.904369,43.681984],[-83.925416,43.701706],[-83.943373,43.727905],[-83.949554,43.756164],[-83.935425,43.781479],[-83.932334,43.791488],[-83.934983,43.824751],[-83.931745,43.839763],[-83.920854,43.850949],[-83.909815,43.85978],[-83.908196,43.868611],[-83.925416,43.88068],[-83.889651,43.958392],[-83.863306,43.989889],[-83.821947,44.004313],[-83.810026,44.00343],[-83.787948,43.998131],[-83.774702,43.997248],[-83.764988,44.000192],[-83.747915,44.009023],[-83.736729,44.011083],[-83.726721,44.009906],[-83.707145,44.005196],[-83.695812,44.004313],[-83.690072,44.009611],[-83.682713,44.03581],[-83.678445,44.045229],[-83.6599,44.053177],[-83.610447,44.054943],[-83.592491,44.062597],[-83.589841,44.0729],[-83.591607,44.085263],[-83.59043,44.095566],[-83.579097,44.099981],[-83.572474,44.104691],[-83.569677,44.116466],[-83.564084,44.186524],[-83.554076,44.230679],[-83.53244,44.266002],[-83.493584,44.285431],[-83.483576,44.286314],[-83.45252,44.285431],[-83.455906,44.279543],[-83.462676,44.264236],[-83.466208,44.258055],[-83.452373,44.267769],[-83.407041,44.310157],[-83.39718,44.322815],[-83.39144,44.326347],[-83.362739,44.326936],[-83.35332,44.329585],[-83.337718,44.345481],[-83.332861,44.354017],[-83.328446,44.367264],[-83.321381,44.407886],[-83.314758,44.623949],[-83.310343,44.645143],[-83.291356,44.68135],[-83.287382,44.703133],[-83.289884,44.724622],[-83.299598,44.765244],[-83.303572,44.812637],[-83.309018,44.832948],[-83.317554,44.850904],[-83.328446,44.867683],[-83.331242,44.87357],[-83.332861,44.883284],[-83.335805,44.887994],[-83.342428,44.892409],[-83.358913,44.898885],[-83.377163,44.913898],[-83.405275,44.927733],[-83.417785,44.936564],[-83.42853,44.945984],[-83.434564,44.953343],[-83.437508,44.963057],[-83.438244,44.980719],[-83.441482,44.987489],[-83.448694,44.991904],[-83.4562,44.995142],[-83.460027,44.998086],[-83.459291,45.007211],[-83.454139,45.011038],[-83.448546,45.013982],[-83.445603,45.021635],[-83.443542,45.046951],[-83.434564,45.065201],[-83.414842,45.076093],[-83.380254,45.079919],[-83.370982,45.075798],[-83.349051,45.054898],[-83.335805,45.046362],[-83.319615,45.041652],[-83.302836,45.039591],[-83.266924,45.039003],[-83.276343,45.05637],[-83.314022,45.070205],[-83.322117,45.09346],[-83.319026,45.09346],[-83.312109,45.093754],[-83.305044,45.096109],[-83.301659,45.101114],[-83.302542,45.107884],[-83.304897,45.112005],[-83.307399,45.114949],[-83.308429,45.117892],[-83.309754,45.127606],[-83.31726,45.15351],[-83.322117,45.161753],[-83.331978,45.165874],[-83.345666,45.168229],[-83.357882,45.171467],[-83.363181,45.178826],[-83.391145,45.210323],[-83.408955,45.237993],[-83.411457,45.247707],[-83.409543,45.259187],[-83.403803,45.266252],[-83.383639,45.279204],[-83.422495,45.311584],[-83.465325,45.33896],[-83.510216,45.358682],[-83.554959,45.367219],[-83.589547,45.365747],[-83.603382,45.367219],[-83.643563,45.379876],[-83.657987,45.381643],[-83.674618,45.386941],[-83.700228,45.413139],[-83.719361,45.422559],[-83.730694,45.424031],[-83.767196,45.422559],[-83.781031,45.42462],[-83.809143,45.434039],[-83.844025,45.441693],[-83.863158,45.454645],[-83.897599,45.484081],[-83.943078,45.501154],[-84.096148,45.504392],[-84.116017,45.511751],[-84.131324,45.526764],[-84.141185,45.545309],[-84.14457,45.562676],[-84.149869,45.578572],[-84.162674,45.594468],[-84.192405,45.621844],[-84.223902,45.642449],[-84.268792,45.660994],[-84.318245,45.673946],[-84.363725,45.676301],[-84.458363,45.670708],[-84.498985,45.681305],[-84.575961,45.730464],[-84.706364,45.77874],[-84.738744,45.799934],[-84.754934,45.804644],[-84.77451,45.799934],[-84.780839,45.862339],[-84.734476,45.857041],[-84.706364,45.874997],[-84.724026,45.882356],[-84.73168,45.90149],[-84.728442,45.922684],[-84.713135,45.936519],[-84.724173,45.943289],[-84.729914,45.952709],[-84.728736,45.964484],[-84.719316,45.978024],[-84.705923,45.985678],[-84.695326,45.986855],[-84.688408,45.990976],[-84.677664,46.043667],[-84.656617,46.056325],[-84.627769,46.052498],[-84.596419,46.038663],[-84.576403,46.047494],[-84.556386,46.041901],[-84.541079,46.027183],[-84.535044,46.008638],[-84.53372,45.995392],[-84.530335,45.990976],[-84.521357,45.991565],[-84.516647,45.993626],[-84.501634,46.003045],[-84.493981,46.0054],[-84.466163,45.984795],[-84.459834,46.006283],[-84.453358,46.013642],[-84.397429,46.008638],[-84.37285,45.995392],[-84.356218,45.991565],[-84.35563,45.99392],[-84.349448,45.99863],[-84.340764,46.00334],[-84.332669,46.0054],[-84.319864,46.00334],[-84.299259,45.99392],[-84.288515,45.991565],[-84.223018,45.993331],[-84.022262,45.964189],[-84.014314,45.960657],[-84.00357,45.958596],[-83.994445,45.962423],[-83.985025,45.967722],[-83.973251,45.970665],[-83.919382,45.976258],[-83.904369,45.970665],[-83.903045,45.981851],[-83.89966,45.991859],[-83.890681,46.011582],[-83.908049,46.015114],[-83.921148,46.023062],[-83.932775,46.032187],[-83.946022,46.038663],[-83.966333,46.042784],[-83.982523,46.044256],[-83.997536,46.048083],[-84.013578,46.059857],[-84.049491,46.093415],[-84.055231,46.101657],[-84.054495,46.116375],[-84.047283,46.127267],[-84.037275,46.136981],[-84.028002,46.149344],[-84.042132,46.149344],[-84.053465,46.152582],[-84.075689,46.162296],[-84.082312,46.162885],[-84.097031,46.161413],[-84.103654,46.162296],[-84.108069,46.166712],[-84.117342,46.18349],[-84.13574,46.187906],[-84.165617,46.191144],[-84.193288,46.189672],[-84.205357,46.179958],[-84.216542,46.174071],[-84.239503,46.190555],[-84.258342,46.212632],[-84.257606,46.223818],[-84.234646,46.229117],[-84.202707,46.250311],[-84.178717,46.251783],[-84.189314,46.270033],[-84.214776,46.296232],[-84.21978,46.316543],[-84.22449,46.355399],[-84.177539,46.351867],[-84.178717,46.34804],[-84.15502,46.345685],[-84.142951,46.342741],[-84.12264,46.331556],[-84.117489,46.338326],[-84.117195,46.347157],[-84.083343,46.344802],[-84.039041,46.330378],[-83.905547,46.333027],[-83.8845,46.34127],[-83.883028,46.33656],[-83.877141,46.327434],[-83.873314,46.308301],[-83.832544,46.299764],[-83.747326,46.293288],[-83.71318,46.279159],[-83.700669,46.277098],[-83.613979,46.286812],[-83.603382,46.286518],[-83.589105,46.279747],[-83.568794,46.257965],[-83.561141,46.251783],[-83.548189,46.2509],[-83.517869,46.258553],[-83.500355,46.259142],[-83.38776,46.23471],[-83.313875,46.227056],[-83.243963,46.208806],[-83.178467,46.201152],[-83.153005,46.195265],[-83.128867,46.194088],[-83.102374,46.204685],[-83.076176,46.191438],[-83.045709,46.182902],[-82.98301,46.17672],[-82.970646,46.178781],[-82.946214,46.187612],[-82.93179,46.190261],[-82.707632,46.200269],[-82.630067,46.223818],[-82.637573,46.210278],[-82.676282,46.191733],[-82.691,46.17672],[-82.668629,46.169361],[-82.536459,46.182607],[-82.474201,46.201741],[-82.44447,46.204685],[-82.44447,46.197031],[-82.450652,46.18614],[-82.434756,46.187612],[-82.400169,46.197031],[-82.337028,46.194382],[-82.320985,46.197031],[-82.317011,46.190555],[-82.314803,46.18349],[-82.35204,46.185257],[-82.363226,46.18349],[-82.376325,46.179369],[-82.378533,46.177309],[-82.354689,46.165829],[-82.320985,46.156115],[-82.309063,46.15582],[-82.299643,46.157881],[-82.291695,46.160824],[-82.283748,46.162296],[-82.259463,46.16053],[-82.232381,46.154937],[-82.206919,46.145517],[-82.187932,46.131977],[-82.177629,46.126384],[-82.155405,46.127856],[-82.135094,46.119319],[-82.124938,46.123734],[-82.116254,46.131388],[-82.109337,46.135803],[-82.087112,46.134037],[-82.013227,46.115198],[-81.71901,46.107839],[-81.71901,46.101657],[-81.766697,46.078402],[-81.781415,46.059269],[-81.774203,46.032776],[-81.761987,46.019235],[-81.756247,46.022768],[-81.751684,46.03572],[-81.739027,46.055148],[-81.740646,46.058974],[-81.744325,46.063684],[-81.746239,46.07016],[-81.741676,46.073398],[-81.711504,46.073693],[-81.68192,46.076931],[-81.66941,46.08164],[-81.664406,46.09106],[-81.66102,46.105778],[-81.651748,46.118436],[-81.638354,46.126384],[-81.622753,46.12815],[-81.595524,46.107839],[-81.576832,46.103129],[-81.557551,46.101657],[-81.545924,46.098125],[-81.551517,46.078697],[-81.540184,46.066922],[-81.581395,46.05191],[-81.665877,46.033659],[-81.705322,46.018352],[-81.608476,46.03778],[-81.506038,46.046317],[-81.538712,46.036014],[-81.61142,46.029832],[-81.642623,46.018352],[-81.625549,46.012759],[-81.606563,46.010993],[-81.56756,46.011582],[-81.586399,45.992742],[-81.677358,45.950648],[-81.642328,45.955653],[-81.540184,46.0054],[-81.50383,46.018352],[-81.489259,46.019824],[-81.495882,46.008638],[-81.508834,45.992742],[-81.506774,45.983912],[-81.49338,45.981851],[-81.47248,45.984795],[-81.461736,45.988621],[-81.453199,45.993037],[-81.44378,45.996569],[-81.430239,45.998041],[-81.417728,45.995686],[-81.395504,45.986855],[-81.261274,45.96625],[-81.227128,45.969488],[-81.195336,45.980085],[-81.163398,45.998041],[-81.180471,46.01217],[-81.20299,46.008638],[-81.22492,45.996569],[-81.239197,45.984795],[-81.245967,45.991565],[-81.2155,46.009521],[-81.179441,46.018058],[-81.156186,46.01011],[-81.163398,45.978024],[-81.17635,45.944761],[-81.161632,45.936519],[-81.060076,45.956241],[-81.020042,45.95683],[-80.953075,45.944172],[-80.930703,45.943878],[-80.923197,45.946233],[-80.903621,45.954769],[-80.903327,45.95683],[-80.893024,45.953886],[-80.877865,45.941229],[-80.869328,45.936519],[-80.851519,45.933281],[-80.834151,45.935636],[-80.81855,45.943289],[-80.806481,45.95683],[-80.80236,45.941523],[-80.801183,45.927688],[-80.797945,45.916797],[-80.787348,45.909732],[-80.787348,45.913264],[-80.782638,45.920035],[-80.775867,45.926805],[-80.769244,45.929749],[-80.758353,45.92916],[-80.752613,45.926805],[-80.74908,45.922684],[-80.745106,45.915913],[-80.739072,45.900901],[-80.733626,45.871759],[-80.724648,45.860867],[-80.705956,45.854686],[-80.687853,45.853803],[-80.679757,45.851742],[-80.691091,45.840851],[-80.695212,45.842322],[-80.704631,45.844383],[-80.714051,45.843794],[-80.718319,45.837318],[-80.716553,45.828782],[-80.711843,45.825249],[-80.705073,45.823483],[-80.697272,45.819656],[-80.687853,45.817596],[-80.679022,45.819656],[-80.672546,45.819068],[-80.668424,45.802289],[-80.664892,45.798756],[-80.660477,45.796402],[-80.656944,45.792575],[-80.650468,45.787276],[-80.641637,45.782861],[-80.636044,45.777268],[-80.639577,45.768437],[-80.644728,45.760784],[-80.6462,45.753424],[-80.645317,45.745477],[-80.642668,45.737234],[-80.63369,45.723399],[-80.619266,45.711919],[-80.602781,45.703088],[-80.587474,45.696907],[-80.602193,45.691608],[-80.608521,45.690725],[-80.608521,45.683071],[-80.598807,45.683071],[-80.590418,45.6816],[-80.574375,45.676301],[-80.579821,45.662172],[-80.573198,45.65128],[-80.559363,45.64451],[-80.52448,45.638917],[-80.517857,45.630086],[-80.519476,45.616545],[-80.525952,45.600649],[-80.512117,45.598],[-80.508732,45.589169],[-80.509173,45.579455],[-80.506083,45.573274],[-80.492836,45.572096],[-80.480767,45.576512],[-80.469287,45.582693],[-80.457807,45.587109],[-80.445591,45.587403],[-80.433669,45.58652],[-80.423661,45.587697],[-80.416743,45.593879],[-80.416302,45.60271],[-80.4216,45.611835],[-80.437201,45.628025],[-80.41689,45.627142],[-80.406293,45.617134],[-80.396285,45.587109],[-80.391428,45.578278],[-80.387601,45.573568],[-80.38451,45.568858],[-80.382597,45.559144],[-80.382155,45.54737],[-80.38348,45.540894],[-80.385835,45.535301],[-80.395107,45.497033],[-80.394813,45.481138],[-80.388779,45.463476],[-80.360961,45.435806],[-80.35478,45.422265],[-80.368909,45.409018],[-80.362875,45.39901],[-80.354927,45.390768],[-80.34536,45.384586],[-80.334174,45.381643],[-80.328581,45.395478],[-80.327992,45.409901],[-80.332261,45.423737],[-80.341092,45.4361],[-80.3302,45.436983],[-80.319603,45.435806],[-80.309447,45.433451],[-80.300028,45.429918],[-80.309742,45.415789],[-80.311214,45.404014],[-80.306798,45.37811],[-80.300175,45.366336],[-80.284721,45.363686],[-80.255284,45.367219],[-80.243657,45.364275],[-80.22938,45.35044],[-80.181988,45.341609],[-80.168447,45.341903],[-80.162854,45.350734],[-80.167564,45.358976],[-80.177719,45.363981],[-80.187286,45.369868],[-80.19023,45.381643],[-80.183754,45.3943],[-80.171391,45.401659],[-80.142396,45.409018],[-80.114284,45.411079],[-80.084553,45.405192],[-80.065125,45.390473],[-80.067333,45.367219],[-80.054381,45.361626],[-80.044814,45.351617],[-80.037897,45.339254],[-80.033187,45.326302],[-80.072631,45.278909],[-80.084406,45.27155],[-80.105895,45.265369],[-80.123704,45.25065],[-80.127825,45.23446],[-80.10825,45.223863],[-80.114431,45.213266],[-80.115167,45.203847],[-80.110604,45.195604],[-80.100743,45.189717],[-80.096622,45.198842],[-80.091176,45.203847],[-80.077488,45.213266],[-80.066303,45.217976],[-80.059532,45.2115],[-80.054087,45.201786],[-80.046727,45.196487],[-80.036719,45.196193],[-80.029654,45.195016],[-80.024209,45.192955],[-80.01891,45.189717],[-80.01788,45.186185],[-80.001837,45.164696],[-79.998452,45.161753],[-80.003897,45.137026],[-80.030685,45.127606],[-80.067039,45.128489],[-80.100743,45.134377],[-80.095592,45.124074],[-80.088086,45.11642],[-80.078519,45.110828],[-80.067333,45.107884],[-80.074839,45.106412],[-80.07793,45.10494],[-80.080874,45.101114],[-80.073662,45.096992],[-80.06071,45.084629],[-80.053645,45.079919],[-80.014053,45.070205],[-80.001837,45.062552],[-79.997716,45.05431],[-79.998305,45.045184],[-79.996391,45.035176],[-79.984764,45.024579],[-79.972695,45.021635],[-79.943406,45.019869],[-79.93325,45.014865],[-79.928393,44.997792],[-79.930306,44.978364],[-79.92751,44.960996],[-79.909112,44.949516],[-79.898515,44.951871],[-79.873053,44.963057],[-79.868048,44.960113],[-79.862897,44.953931],[-79.851122,44.948633],[-79.837582,44.944806],[-79.826985,44.943334],[-79.834932,44.925378],[-79.832136,44.91537],[-79.813444,44.90124],[-79.807409,44.898297],[-79.801375,44.898591],[-79.796076,44.897119],[-79.792986,44.887994],[-79.796371,44.883578],[-79.805054,44.879457],[-79.814769,44.876514],[-79.82095,44.875042],[-79.804907,44.868566],[-79.791072,44.865622],[-79.779886,44.860618],[-79.772527,44.847077],[-79.774735,44.835303],[-79.7818,44.827944],[-79.782536,44.821173],[-79.76561,44.812931],[-79.738675,44.81352],[-79.718364,44.828238],[-79.714979,44.848843],[-79.738381,44.867683],[-79.696434,44.884756],[-79.690547,44.887994],[-79.681863,44.877691],[-79.679655,44.86209],[-79.68201,44.846489],[-79.686867,44.836775],[-79.713507,44.816169],[-79.723957,44.802334],[-79.721014,44.788793],[-79.705854,44.779962],[-79.671413,44.767893]],[[-80.160058,44.844722],[-80.149166,44.861501],[-80.165798,44.871509],[-80.216134,44.865033],[-80.237917,44.875042],[-80.245423,44.854731],[-80.231147,44.832653],[-80.209364,44.809693],[-80.186698,44.793797],[-80.169772,44.79262],[-80.183018,44.807338],[-80.175512,44.825883],[-80.160058,44.844722]],[[-81.712681,45.299809],[-81.697816,45.32012],[-81.707677,45.318943],[-81.715183,45.320415],[-81.720923,45.323064],[-81.72578,45.326302],[-81.729313,45.32748],[-81.732698,45.328363],[-81.735789,45.329834],[-81.738732,45.333956],[-81.744767,45.326596],[-81.751096,45.32277],[-81.766697,45.32012],[-81.730932,45.300987],[-81.712681,45.299809]],[[-81.805995,45.458472],[-81.768022,45.463476],[-81.734611,45.487614],[-81.711504,45.525587],[-81.709149,45.529119],[-81.706794,45.531768],[-81.705322,45.534712],[-81.705322,45.539127],[-81.775234,45.529119],[-81.790246,45.52176],[-81.796428,45.516167],[-81.804964,45.510574],[-81.814678,45.506159],[-81.824392,45.504392],[-81.837344,45.482315],[-81.84176,45.477017],[-81.805995,45.458472]],[[-81.588754,45.786982],[-81.588018,45.799934],[-81.60568,45.805821],[-81.711504,45.799934],[-81.69605,45.818185],[-81.675886,45.837318],[-81.659843,45.85969],[-81.656899,45.888538],[-81.66573,45.905316],[-81.679712,45.908849],[-81.695167,45.902961],[-81.753598,45.848504],[-81.764784,45.828193],[-81.787155,45.797285],[-81.793484,45.77874],[-81.79216,45.758723],[-81.789216,45.744593],[-81.791865,45.739001],[-81.807761,45.744593],[-81.820418,45.759606],[-81.829985,45.768437],[-81.834401,45.768437],[-81.84647,45.791692],[-81.848677,45.803172],[-81.842496,45.819951],[-81.829838,45.840262],[-81.81983,45.86175],[-81.821302,45.881767],[-81.841171,45.893247],[-81.898278,45.896191],[-81.9102,45.906199],[-81.904901,45.925333],[-81.896217,45.939463],[-81.894598,45.953003],[-81.9102,45.970665],[-81.953618,45.988033],[-82.001305,45.984795],[-82.047962,45.967722],[-82.08829,45.943878],[-82.101095,45.932103],[-82.114341,45.915325],[-82.124938,45.896191],[-82.129206,45.878529],[-82.139804,45.855274],[-82.160703,45.844677],[-82.176305,45.84821],[-82.170859,45.868226],[-82.187196,45.88265],[-82.20736,45.905022],[-82.221342,45.929749],[-82.219282,45.950648],[-82.237238,45.945644],[-82.262406,45.934753],[-82.284631,45.930926],[-82.294345,45.94741],[-82.294345,45.974492],[-82.29773,45.987444],[-82.309652,45.990093],[-82.394576,45.972137],[-82.414151,45.970665],[-82.434904,45.965367],[-82.445942,45.952415],[-82.455509,45.936813],[-82.471846,45.923273],[-82.470669,45.937108],[-82.477439,45.94741],[-82.48995,45.952709],[-82.506581,45.950648],[-82.515707,45.944467],[-82.530425,45.924156],[-82.540728,45.915913],[-82.553974,45.912381],[-82.580761,45.908849],[-82.58915,45.902373],[-82.591947,45.888832],[-82.584146,45.881178],[-82.570164,45.877057],[-82.554415,45.874997],[-82.556329,45.870287],[-82.559567,45.859101],[-82.561922,45.854391],[-82.532044,45.860867],[-82.517767,45.858218],[-82.506581,45.847032],[-82.508347,45.827015],[-82.522918,45.805527],[-82.539697,45.791986],[-82.547645,45.796107],[-82.549706,45.807882],[-82.555004,45.818479],[-82.567956,45.83408],[-82.574874,45.839379],[-82.585765,45.846149],[-82.598129,45.852036],[-82.60902,45.854391],[-82.616379,45.849976],[-82.62624,45.840556],[-82.637132,45.83408],[-82.647435,45.837318],[-82.653175,45.847327],[-82.656118,45.857335],[-82.659945,45.864988],[-82.667893,45.868226],[-82.690264,45.863517],[-82.739865,45.845855],[-82.759882,45.847032],[-82.763561,45.852625],[-82.771803,45.87588],[-82.773422,45.8853],[-82.778721,45.891481],[-82.815075,45.89884],[-82.837594,45.915913],[-82.837152,45.93122],[-82.825672,45.948293],[-82.815075,45.970665],[-82.811101,45.984206],[-82.809776,45.992742],[-82.815516,45.996864],[-82.832148,45.998041],[-82.844511,45.994803],[-82.858788,45.981262],[-82.866589,45.978024],[-82.909713,45.975669],[-82.93444,45.971254],[-82.95166,45.964484],[-82.955928,45.957419],[-82.959019,45.947999],[-82.964465,45.939757],[-82.975798,45.936519],[-82.996109,45.937696],[-83.003909,45.940934],[-83.006853,45.94741],[-83.01274,45.955064],[-83.026576,45.961245],[-83.042766,45.964778],[-83.055276,45.964484],[-83.065284,45.959185],[-83.070289,45.95212],[-83.074557,45.944172],[-83.081916,45.936519],[-83.088981,45.93122],[-83.100461,45.925039],[-83.111352,45.925333],[-83.116062,45.940051],[-83.11827,45.953003],[-83.12401,45.958891],[-83.131958,45.962129],[-83.140347,45.967427],[-83.163896,45.975669],[-83.190095,45.96625],[-83.212761,45.947999],[-83.226007,45.929749],[-83.22483,45.886771],[-83.183913,45.874114],[-83.127984,45.873819],[-83.081916,45.868226],[-83.060869,45.857041],[-83.055129,45.85498],[-83.044385,45.854391],[-83.033346,45.852331],[-83.020247,45.842911],[-83.010533,45.840851],[-82.965789,45.839967],[-82.949011,45.832314],[-82.95166,45.813475],[-82.921635,45.81112],[-82.891757,45.803172],[-82.864528,45.800817],[-82.842451,45.813475],[-82.831854,45.804644],[-82.821257,45.802289],[-82.809335,45.801995],[-82.794617,45.799934],[-82.789465,45.798168],[-82.773864,45.789042],[-82.765622,45.787865],[-82.754436,45.797873],[-82.746194,45.799934],[-82.729415,45.789631],[-82.717935,45.785216],[-82.712636,45.789042],[-82.707779,45.796402],[-82.696446,45.797579],[-82.683788,45.794635],[-82.67481,45.789042],[-82.65553,45.77403],[-82.633452,45.766082],[-82.532191,45.750186],[-82.5082,45.741061],[-82.47111,45.712213],[-82.452565,45.705149],[-82.339088,45.694846],[-82.333495,45.689253],[-82.330404,45.681305],[-82.324664,45.672769],[-82.313626,45.667764],[-82.302587,45.671002],[-82.291401,45.676007],[-82.280068,45.676301],[-82.273003,45.670414],[-82.261082,45.650103],[-82.253281,45.642155],[-82.20839,45.628025],[-82.202209,45.624787],[-82.184105,45.611247],[-82.174244,45.608009],[-82.119492,45.608892],[-82.098593,45.601533],[-82.101978,45.580927],[-82.089909,45.581221],[-82.080048,45.577395],[-82.072836,45.569741],[-82.06842,45.559144],[-82.058706,45.564148],[-82.049139,45.566503],[-82.026768,45.566503],[-82.015876,45.568269],[-82.010431,45.572685],[-82.006604,45.579455],[-81.994093,45.594173],[-81.989825,45.600944],[-81.984379,45.605948],[-81.937428,45.61419],[-81.904607,45.637739],[-81.874876,45.665115],[-81.841613,45.687487],[-81.797164,45.696907],[-81.789657,45.699261],[-81.780385,45.703971],[-81.770082,45.706915],[-81.759927,45.703677],[-81.752715,45.694552],[-81.753009,45.685721],[-81.759338,45.67895],[-81.788627,45.670119],[-81.813059,45.64186],[-81.846911,45.631558],[-81.861629,45.621549],[-81.886209,45.597117],[-81.899602,45.587697],[-81.909022,45.587109],[-81.911377,45.594173],[-81.903282,45.608009],[-81.928744,45.602416],[-81.95612,45.591524],[-81.979375,45.576806],[-81.992622,45.559144],[-81.970397,45.557672],[-81.948025,45.565031],[-81.930658,45.568564],[-81.914321,45.539127],[-81.891802,45.528825],[-81.86472,45.524409],[-81.84176,45.525587],[-81.822037,45.532946],[-81.805112,45.545603],[-81.756541,45.600649],[-81.746239,45.608009],[-81.735494,45.610658],[-81.72372,45.610952],[-81.71798,45.613307],[-81.72578,45.621844],[-81.710473,45.646276],[-81.649982,45.703677],[-81.664406,45.709859],[-81.621723,45.740178],[-81.612597,45.744593],[-81.604797,45.751953],[-81.595671,45.768437],[-81.588754,45.786982]],[[-80.221285,45.310995],[-80.22732,45.296571],[-80.217459,45.27155],[-80.210247,45.261248],[-80.202005,45.252417],[-80.192143,45.246529],[-80.179927,45.244469],[-80.171243,45.248001],[-80.160941,45.265957],[-80.149166,45.27155],[-80.156084,45.25801],[-80.096769,45.290978],[-80.074103,45.299515],[-80.080874,45.30658],[-80.075575,45.310995],[-80.07219,45.315999],[-80.067333,45.326302],[-80.059827,45.333956],[-80.069541,45.33896],[-80.07425,45.340432],[-80.080874,45.340432],[-80.074103,45.347496],[-80.091176,45.347791],[-80.104864,45.342198],[-80.11605,45.333072],[-80.125617,45.323358],[-80.138422,45.318649],[-80.155201,45.321298],[-80.171685,45.32748],[-80.183312,45.333956],[-80.221285,45.310995]],[[-84.36711,45.774619],[-84.356218,45.78551],[-84.388598,45.792869],[-84.400962,45.800523],[-84.40523,45.813475],[-84.420095,45.826721],[-84.424805,45.821423],[-84.426424,45.808765],[-84.432017,45.799934],[-84.44232,45.800228],[-84.466016,45.810825],[-84.531954,45.8226],[-84.559182,45.823777],[-84.582731,45.813475],[-84.568896,45.801995],[-84.521357,45.771969],[-84.487799,45.744005],[-84.473522,45.737234],[-84.455713,45.733408],[-84.434666,45.73223],[-84.414208,45.733408],[-84.397871,45.737234],[-84.38536,45.746654],[-84.36711,45.774619]],[[-83.268248,45.939168],[-83.266924,45.960657],[-83.271928,45.968605],[-83.283261,45.968899],[-83.301659,45.964484],[-83.311226,45.969193],[-83.335805,45.991565],[-83.352731,46.001868],[-83.369804,46.00069],[-83.387907,45.995097],[-83.408219,45.991565],[-83.417197,45.988916],[-83.423526,45.982734],[-83.432062,45.970665],[-83.460027,45.950648],[-83.471507,45.939168],[-83.479896,45.927099],[-83.4849,45.912381],[-83.486667,45.89207],[-83.440157,45.891776],[-83.424556,45.888538],[-83.392176,45.869993],[-83.376133,45.863222],[-83.35332,45.860867],[-83.337571,45.864694],[-83.321676,45.873819],[-83.281348,45.908849],[-83.272811,45.922684],[-83.268248,45.939168]],[[-84.384183,45.958007],[-84.34253,45.95683],[-84.348712,45.96831],[-84.357837,45.975964],[-84.369612,45.979496],[-84.383594,45.978024],[-84.378001,45.991271],[-84.384183,45.997747],[-84.411412,46.0054],[-84.425394,45.995392],[-84.432017,45.991565],[-84.432017,45.984795],[-84.424069,45.983617],[-84.420095,45.982145],[-84.417004,45.980085],[-84.411412,45.978024],[-84.425099,45.970665],[-84.402286,45.962129],[-84.384183,45.958007]],[[-83.892889,46.104306],[-83.885677,46.14905],[-83.870223,46.162296],[-83.852267,46.156998],[-83.831956,46.144929],[-83.815177,46.142868],[-83.802078,46.185845],[-83.790303,46.205273],[-83.782355,46.22323],[-83.787654,46.238242],[-83.795455,46.240008],[-83.804138,46.237065],[-83.814147,46.235593],[-83.825627,46.241775],[-83.836518,46.255315],[-83.841081,46.262969],[-83.842994,46.26915],[-83.849765,46.271211],[-83.890681,46.272388],[-83.899954,46.276804],[-83.925416,46.29947],[-83.947199,46.301236],[-83.967363,46.307418],[-83.986203,46.310361],[-84.024176,46.295938],[-84.048019,46.300353],[-84.08246,46.313305],[-84.102035,46.317132],[-84.106303,46.313305],[-84.109835,46.29947],[-84.109247,46.2927],[-84.10645,46.283574],[-84.102918,46.275626],[-84.099827,46.272388],[-84.077603,46.224113],[-84.068772,46.210866],[-84.004012,46.159353],[-83.995917,46.14905],[-83.993267,46.13963],[-83.991648,46.130799],[-83.986938,46.12138],[-83.98061,46.115787],[-83.964861,46.106367],[-83.958974,46.101657],[-83.953087,46.090177],[-83.952056,46.081346],[-83.948524,46.075753],[-83.935425,46.073693],[-83.925711,46.076931],[-83.906724,46.091354],[-83.900984,46.094592],[-83.892889,46.104306]],[[-83.517133,45.940051],[-83.482251,45.994214],[-83.47916,46.0054],[-83.498588,46.017175],[-83.523757,46.020707],[-83.545539,46.029538],[-83.554959,46.056619],[-83.562024,46.076048],[-83.579539,46.090177],[-83.62384,46.107839],[-83.687423,46.110488],[-83.715388,46.106073],[-83.716271,46.09106],[-83.703907,46.084584],[-83.689336,46.082524],[-83.678739,46.076931],[-83.678445,46.059857],[-83.684627,46.050732],[-83.695371,46.045434],[-83.719361,46.038663],[-83.743499,46.029538],[-83.755421,46.0263],[-83.771022,46.025123],[-83.778087,46.021001],[-83.793541,46.002162],[-83.805021,45.998041],[-83.823566,46.006283],[-83.844613,46.021296],[-83.865808,46.0263],[-83.8845,46.0054],[-83.886855,45.990976],[-83.881556,45.983912],[-83.87405,45.981851],[-83.870223,45.981557],[-83.865808,45.993331],[-83.855946,45.990093],[-83.845497,45.980968],[-83.839462,45.974198],[-83.832692,45.968605],[-83.808259,45.95683],[-83.802372,45.945939],[-83.801931,45.943878],[-83.795455,45.944467],[-83.785005,45.949471],[-83.780884,45.950648],[-83.743647,45.950648],[-83.733785,45.947705],[-83.722452,45.941523],[-83.711266,45.937402],[-83.702436,45.940051],[-83.679622,45.955358],[-83.657692,45.955064],[-83.616334,45.936519],[-83.592638,45.930337],[-83.563201,45.927982],[-83.535384,45.930632],[-83.517133,45.940051]],[[-84.113515,46.248545],[-84.107922,46.270033],[-84.12161,46.297115],[-84.142363,46.321253],[-84.158258,46.333616],[-84.184457,46.333616],[-84.19211,46.325668],[-84.193141,46.311539],[-84.199175,46.293288],[-84.180336,46.274743],[-84.162674,46.251194],[-84.141921,46.237653],[-84.113515,46.248545]],[[-82.733389,45.934753],[-82.746194,45.936519],[-82.712047,45.911204],[-82.65759,45.902373],[-82.604752,45.914147],[-82.575462,45.950648],[-82.578259,45.967427],[-82.593124,45.971548],[-82.6127,45.972137],[-82.630067,45.978024],[-82.649348,45.972431],[-82.684672,45.96831],[-82.713225,45.958596],[-82.712636,45.936519],[-82.725735,45.929749],[-82.730151,45.933575],[-82.733389,45.934753]],[[-82.254606,46.039841],[-82.26638,46.032776],[-82.255636,46.021296],[-82.232381,46.008344],[-82.207507,45.99863],[-82.191317,45.998041],[-82.203092,46.015408],[-82.210451,46.052498],[-82.225464,46.059857],[-82.23871,46.056914],[-82.246805,46.048966],[-82.254606,46.039841]],[[-81.962008,46.046611],[-81.963479,46.032482],[-81.950527,46.018058],[-81.92742,46.011582],[-81.921091,46.009521],[-81.908875,46.000396],[-81.903282,45.998041],[-81.897542,45.99863],[-81.888711,46.004223],[-81.882824,46.0054],[-81.845587,46.007166],[-81.834401,46.0054],[-81.825275,45.99863],[-81.818799,45.990388],[-81.811735,45.985972],[-81.800843,45.991565],[-81.793926,46.001573],[-81.793043,46.011287],[-81.7979,46.019824],[-81.807761,46.025123],[-81.7979,46.041607],[-81.793484,46.046317],[-81.803345,46.058091],[-81.82086,46.063979],[-81.838522,46.063095],[-81.848677,46.053087],[-81.855595,46.053087],[-81.871932,46.061329],[-81.895187,46.060446],[-81.941108,46.053087],[-81.962008,46.046611]]]}},{"type":"Feature","properties":{"name":"Georgian Bay"},"geometry":{"type":"Polygon","coordinates":[[[-79.671413,44.767893],[-79.662582,44.757885],[-79.739411,44.754647],[-79.765168,44.76701],[-79.776354,44.76495],[-79.792691,44.757885],[-79.798873,44.759945],[-79.799314,44.764655],[-79.798873,44.769365],[-79.802847,44.771426],[-79.873347,44.769365],[-79.881736,44.771426],[-79.881884,44.78114],[-79.876438,44.794975],[-79.874524,44.807632],[-79.885563,44.812931],[-79.926774,44.812931],[-79.941787,44.814697],[-79.942081,44.819113],[-79.935605,44.825589],[-79.930012,44.833537],[-79.925302,44.838541],[-79.918532,44.843251],[-79.915735,44.850315],[-79.923389,44.861501],[-79.934133,44.867388],[-79.947527,44.86886],[-79.985941,44.866505],[-80.005664,44.862384],[-80.015819,44.861501],[-80.028035,44.856791],[-80.035247,44.846489],[-80.040399,44.834714],[-80.046139,44.826766],[-80.061151,44.819113],[-80.06851,44.820585],[-80.075134,44.825294],[-80.087791,44.826766],[-80.099713,44.825294],[-80.10825,44.822351],[-80.113401,44.81558],[-80.115167,44.802334],[-80.113842,44.774664],[-80.107808,44.759945],[-80.093384,44.751998],[-80.067333,44.74405],[-80.048346,44.734925],[-80.008607,44.708432],[-79.994772,44.703133],[-79.99227,44.69283],[-80.005222,44.627482],[-80.005222,44.548886],[-80.013023,44.531225],[-80.031126,44.515035],[-80.067333,44.490897],[-80.108691,44.475295],[-80.150638,44.486776],[-80.195381,44.508559],[-80.245423,44.525043],[-80.32446,44.531519],[-80.365818,44.552419],[-80.425868,44.559189],[-80.450889,44.56596],[-80.495191,44.599223],[-80.512264,44.606876],[-80.535813,44.610409],[-80.557302,44.609525],[-80.577466,44.61188],[-80.598071,44.623949],[-80.616322,44.656035],[-80.623975,44.690476],[-80.639135,44.71844],[-80.680493,44.72992],[-80.763063,44.719323],[-80.826204,44.690476],[-80.937473,44.593335],[-80.942772,44.628659],[-80.88905,44.751703],[-80.89744,44.790854],[-80.934971,44.81087],[-80.985455,44.815286],[-81.032994,44.806161],[-81.078032,44.784083],[-81.119096,44.754647],[-81.127338,44.753469],[-81.131459,44.763478],[-81.131312,44.777607],[-81.126161,44.788793],[-81.117919,44.794975],[-81.051687,44.822351],[-81.036821,44.831476],[-81.006502,44.860912],[-81.000614,44.869155],[-80.998259,44.87828],[-81.00032,44.889466],[-81.00709,44.910954],[-81.005766,44.922434],[-80.987662,44.940096],[-80.961906,44.957169],[-80.953075,44.97071],[-80.985307,44.977481],[-81.007679,44.975126],[-81.03167,44.966295],[-81.044327,44.950988],[-81.032994,44.929205],[-81.050068,44.927439],[-81.070967,44.910366],[-81.087746,44.908599],[-81.08701,44.925084],[-81.105408,44.925378],[-81.149121,44.91537],[-81.149121,44.922434],[-81.126161,44.936858],[-81.112914,44.95246],[-81.116888,44.964823],[-81.200929,44.977481],[-81.204462,44.981307],[-81.191951,45.001618],[-81.190774,45.011038],[-81.210202,45.018103],[-81.235517,45.0078],[-81.257153,45.001913],[-81.266425,45.021635],[-81.262746,45.089045],[-81.266425,45.107884],[-81.280555,45.122602],[-81.301307,45.134082],[-81.319852,45.148801],[-81.327947,45.17235],[-81.319999,45.192366],[-81.286148,45.220037],[-81.279524,45.237404],[-81.30219,45.252417],[-81.607446,45.252122],[-81.722395,45.611541],[-81.72578,45.621844],[-81.710473,45.646276],[-81.649982,45.703677],[-81.664406,45.709859],[-81.621723,45.740178],[-81.612597,45.744593],[-81.604797,45.751953],[-81.595671,45.768437],[-81.588754,45.786982],[-81.588018,45.799934],[-81.60568,45.805821],[-81.711504,45.799934],[-81.69605,45.818185],[-81.675886,45.837318],[-81.659843,45.85969],[-81.656899,45.888538],[-81.66573,45.905316],[-81.679712,45.908849],[-81.642328,45.955653],[-81.540184,46.0054],[-81.50383,46.018352],[-81.489259,46.019824],[-81.495882,46.008638],[-81.508834,45.992742],[-81.506774,45.983912],[-81.49338,45.981851],[-81.47248,45.984795],[-81.461736,45.988621],[-81.453199,45.993037],[-81.44378,45.996569],[-81.430239,45.998041],[-81.417728,45.995686],[-81.395504,45.986855],[-81.261274,45.96625],[-81.227128,45.969488],[-81.195336,45.980085],[-81.163398,45.998041],[-81.180471,46.01217],[-81.20299,46.008638],[-81.22492,45.996569],[-81.239197,45.984795],[-81.245967,45.991565],[-81.2155,46.009521],[-81.179441,46.018058],[-81.156186,46.01011],[-81.163398,45.978024],[-81.17635,45.944761],[-81.161632,45.936519],[-81.060076,45.956241],[-81.020042,45.95683],[-80.953075,45.944172],[-80.930703,45.943878],[-80.923197,45.946233],[-80.903621,45.954769],[-80.903327,45.95683],[-80.893024,45.953886],[-80.877865,45.941229],[-80.869328,45.936519],[-80.851519,45.933281],[-80.834151,45.935636],[-80.81855,45.943289],[-80.806481,45.95683],[-80.80236,45.941523],[-80.801183,45.927688],[-80.797945,45.916797],[-80.787348,45.909732],[-80.787348,45.913264],[-80.782638,45.920035],[-80.775867,45.926805],[-80.769244,45.929749],[-80.758353,45.92916],[-80.752613,45.926805],[-80.74908,45.922684],[-80.745106,45.915913],[-80.739072,45.900901],[-80.733626,45.871759],[-80.724648,45.860867],[-80.705956,45.854686],[-80.687853,45.853803],[-80.679757,45.851742],[-80.691091,45.840851],[-80.695212,45.842322],[-80.704631,45.844383],[-80.714051,45.843794],[-80.718319,45.837318],[-80.716553,45.828782],[-80.711843,45.825249],[-80.705073,45.823483],[-80.697272,45.819656],[-80.687853,45.817596],[-80.679022,45.819656],[-80.672546,45.819068],[-80.668424,45.802289],[-80.664892,45.798756],[-80.660477,45.796402],[-80.656944,45.792575],[-80.650468,45.787276],[-80.641637,45.782861],[-80.636044,45.777268],[-80.639577,45.768437],[-80.644728,45.760784],[-80.6462,45.753424],[-80.645317,45.745477],[-80.642668,45.737234],[-80.63369,45.723399],[-80.619266,45.711919],[-80.602781,45.703088],[-80.587474,45.696907],[-80.602193,45.691608],[-80.608521,45.690725],[-80.608521,45.683071],[-80.598807,45.683071],[-80.590418,45.6816],[-80.574375,45.676301],[-80.579821,45.662172],[-80.573198,45.65128],[-80.559363,45.64451],[-80.52448,45.638917],[-80.517857,45.630086],[-80.519476,45.616545],[-80.525952,45.600649],[-80.512117,45.598],[-80.508732,45.589169],[-80.509173,45.579455],[-80.506083,45.573274],[-80.492836,45.572096],[-80.480767,45.576512],[-80.469287,45.582693],[-80.457807,45.587109],[-80.445591,45.587403],[-80.433669,45.58652],[-80.423661,45.587697],[-80.416743,45.593879],[-80.416302,45.60271],[-80.4216,45.611835],[-80.437201,45.628025],[-80.41689,45.627142],[-80.406293,45.617134],[-80.396285,45.587109],[-80.391428,45.578278],[-80.387601,45.573568],[-80.38451,45.568858],[-80.382597,45.559144],[-80.382155,45.54737],[-80.38348,45.540894],[-80.385835,45.535301],[-80.395107,45.497033],[-80.394813,45.481138],[-80.388779,45.463476],[-80.360961,45.435806],[-80.35478,45.422265],[-80.368909,45.409018],[-80.362875,45.39901],[-80.354927,45.390768],[-80.34536,45.384586],[-80.334174,45.381643],[-80.328581,45.395478],[-80.327992,45.409901],[-80.332261,45.423737],[-80.341092,45.4361],[-80.3302,45.436983],[-80.319603,45.435806],[-80.309447,45.433451],[-80.300028,45.429918],[-80.309742,45.415789],[-80.311214,45.404014],[-80.306798,45.37811],[-80.300175,45.366336],[-80.284721,45.363686],[-80.255284,45.367219],[-80.243657,45.364275],[-80.22938,45.35044],[-80.181988,45.341609],[-80.168447,45.341903],[-80.162854,45.350734],[-80.167564,45.358976],[-80.177719,45.363981],[-80.187286,45.369868],[-80.19023,45.381643],[-80.183754,45.3943],[-80.171391,45.401659],[-80.142396,45.409018],[-80.114284,45.411079],[-80.084553,45.405192],[-80.065125,45.390473],[-80.067333,45.367219],[-80.054381,45.361626],[-80.044814,45.351617],[-80.037897,45.339254],[-80.033187,45.326302],[-80.072631,45.278909],[-80.084406,45.27155],[-80.105895,45.265369],[-80.123704,45.25065],[-80.127825,45.23446],[-80.10825,45.223863],[-80.114431,45.213266],[-80.115167,45.203847],[-80.110604,45.195604],[-80.100743,45.189717],[-80.096622,45.198842],[-80.091176,45.203847],[-80.077488,45.213266],[-80.066303,45.217976],[-80.059532,45.2115],[-80.054087,45.201786],[-80.046727,45.196487],[-80.036719,45.196193],[-80.029654,45.195016],[-80.024209,45.192955],[-80.01891,45.189717],[-80.01788,45.186185],[-80.001837,45.164696],[-79.998452,45.161753],[-80.003897,45.137026],[-80.030685,45.127606],[-80.067039,45.128489],[-80.100743,45.134377],[-80.095592,45.124074],[-80.088086,45.11642],[-80.078519,45.110828],[-80.067333,45.107884],[-80.074839,45.106412],[-80.07793,45.10494],[-80.080874,45.101114],[-80.073662,45.096992],[-80.06071,45.084629],[-80.053645,45.079919],[-80.014053,45.070205],[-80.001837,45.062552],[-79.997716,45.05431],[-79.998305,45.045184],[-79.996391,45.035176],[-79.984764,45.024579],[-79.972695,45.021635],[-79.943406,45.019869],[-79.93325,45.014865],[-79.928393,44.997792],[-79.930306,44.978364],[-79.92751,44.960996],[-79.909112,44.949516],[-79.898515,44.951871],[-79.873053,44.963057],[-79.868048,44.960113],[-79.862897,44.953931],[-79.851122,44.948633],[-79.837582,44.944806],[-79.826985,44.943334],[-79.834932,44.925378],[-79.832136,44.91537],[-79.813444,44.90124],[-79.807409,44.898297],[-79.801375,44.898591],[-79.796076,44.897119],[-79.792986,44.887994],[-79.796371,44.883578],[-79.805054,44.879457],[-79.814769,44.876514],[-79.82095,44.875042],[-79.804907,44.868566],[-79.791072,44.865622],[-79.779886,44.860618],[-79.772527,44.847077],[-79.774735,44.835303],[-79.7818,44.827944],[-79.782536,44.821173],[-79.76561,44.812931],[-79.738675,44.81352],[-79.718364,44.828238],[-79.714979,44.848843],[-79.738381,44.867683],[-79.696434,44.884756],[-79.690547,44.887994],[-79.681863,44.877691],[-79.679655,44.86209],[-79.68201,44.846489],[-79.686867,44.836775],[-79.713507,44.816169],[-79.723957,44.802334],[-79.721014,44.788793],[-79.705854,44.779962],[-79.671413,44.767893]],[[-80.216134,44.865033],[-80.237917,44.875042],[-80.245423,44.854731],[-80.231147,44.832653],[-80.209364,44.809693],[-80.186698,44.793797],[-80.169772,44.79262],[-80.183018,44.807338],[-80.175512,44.825883],[-80.160058,44.844722],[-80.149166,44.861501],[-80.165798,44.871509],[-80.216134,44.865033]],[[-80.183312,45.333956],[-80.221285,45.310995],[-80.22732,45.296571],[-80.217459,45.27155],[-80.210247,45.261248],[-80.202005,45.252417],[-80.192143,45.246529],[-80.179927,45.244469],[-80.171243,45.248001],[-80.160941,45.265957],[-80.149166,45.27155],[-80.156084,45.25801],[-80.096769,45.290978],[-80.074103,45.299515],[-80.080874,45.30658],[-80.075575,45.310995],[-80.07219,45.315999],[-80.067333,45.326302],[-80.059827,45.333956],[-80.069541,45.33896],[-80.07425,45.340432],[-80.080874,45.340432],[-80.074103,45.347496],[-80.091176,45.347791],[-80.104864,45.342198],[-80.11605,45.333072],[-80.125617,45.323358],[-80.138422,45.318649],[-80.155201,45.321298],[-80.171685,45.32748],[-80.183312,45.333956]]]}},{"type":"Feature","properties":{"name":"Lake Scugog"},"geometry":{"type":"Polygon","coordinates":[[[-78.836578,44.216353],[-78.826679,44.20919],[-78.813091,44.206546],[-78.795114,44.211437],[-78.780109,44.220131],[-78.768204,44.231603],[-78.7601,44.244594],[-78.752896,44.251114],[-78.752079,44.241349],[-78.754826,44.231691],[-78.763056,44.216199],[-78.773344,44.201296],[-78.801473,44.172084],[-78.812906,44.163414],[-78.838322,44.148016],[-78.849312,44.144009],[-78.856462,44.148593],[-78.854721,44.160236],[-78.85415,44.183722],[-78.857172,44.196895],[-78.869413,44.205733],[-78.88535,44.196269],[-78.895571,44.183171],[-78.905679,44.160678],[-78.9112,44.137406],[-78.916251,44.126234],[-78.923081,44.118545],[-78.931969,44.112097],[-78.936614,44.118566],[-78.929078,44.151879],[-78.927884,44.177512],[-78.925016,44.190849],[-78.919361,44.198841],[-78.909646,44.204428],[-78.898382,44.208465],[-78.875545,44.219945],[-78.8611,44.223795],[-78.847093,44.222917],[-78.836578,44.216353]]]}}]}