{"type":"FeatureCollection","features":[{"type":"Feature","id":150,"geometry":{"type":"Polygon","coordinates":[[[-87.9202,41.95326],[-87.92048,41.99389],[-88.03145,41.99253],[-88.14592,41.98822],[-88.26288,41.98638],[-88.26282,41.81352],[-88.26195,41.72465],[-88.15325,41.72602],[-88.03035,41.72889],[-88.02897,41.68524],[-87.98215,41.68608],[-87.97917,41.68733],[-87.97526,41.68653],[-87.97163,41.68725],[-87.96667,41.68674],[-87.95567,41.69302],[-87.94737,41.69541],[-87.94231,41.69892],[-87.94178,41.70303],[-87.93676,41.70531],[-87.93423,41.70846],[-87.93029,41.71006],[-87.92724,41.71263],[-87.92492,41.713],[-87.92153,41.71624],[-87.91426,41.7166],[-87.91763,41.80474],[-87.91976,41.83961],[-87.9194,41.85404],[-87.92042,41.86413],[-87.9202,41.95326]]]},"properties":{"MTFCC":"G4020","OID":"27590198969944","GEOID":"17043","STATE":"17","COUNTY":"043","COUNTYNS":"00422191","BASENAME":"DuPage","NAME":"DuPage County","LSADC":"06","FUNCSTAT":"A","COUNTYCC":"H1","AREALAND":849256518,"AREAWATER":21986094,"OBJECTID":150,"CENTLAT":"+41.8519002","CENTLON":"-088.0855774","INTPTLAT":"+41.8520577","INTPTLON":"-088.0860389"}},{"type":"Feature","id":524,"geometry":{"type":"Polygon","coordinates":[[[-87.52622,41.38529],[-87.5257,41.47028],[-87.7903,41.46985],[-87.79032,41.5384],[-87.79037,41.53965],[-87.79213,41.53831],[-87.79279,41.55854],[-87.90938,41.55682],[-87.91193,41.64393],[-88.02769,41.64151],[-88.03035,41.72889],[-88.15325,41.72602],[-88.26128,41.72466],[-88.25941,41.64407],[-88.24982,41.39683],[-88.24414,41.20157],[-88.01181,41.20551],[-88.01392,41.29245],[-87.80094,41.29564],[-87.52673,41.29805],[-87.52622,41.38529]]]},"properties":{"MTFCC":"G4020","OID":"27590164305374","GEOID":"17197","STATE":"17","COUNTY":"197","COUNTYNS":"01785190","BASENAME":"Will","NAME":"Will County","LSADC":"06","FUNCSTAT":"A","COUNTYCC":"H1","AREALAND":2164973874,"AREAWATER":34502511,"OBJECTID":524,"CENTLAT":"+41.4449816","CENTLON":"-087.9784603","INTPTLAT":"+41.4484742","INTPTLON":"-087.9784563"}},{"type":"Feature","id":530,"geometry":{"type":"Polygon","coordinates":[[[-87.65546,41.00824],[-87.52621,41.01034],[-87.52673,41.29805],[-87.80094,41.29564],[-88.01392,41.29245],[-88.01181,41.20551],[-88.24414,41.20157],[-88.24089,41.11438],[-88.2515,41.11422],[-88.2473,40.99456],[-88.22824,40.99564],[-88.13112,40.99787],[-87.9823,41.00054],[-87.88258,41.00365],[-87.77143,41.00539],[-87.65546,41.00824]]]},"properties":{"MTFCC":"G4020","OID":"27590405071282","GEOID":"17091","STATE":"17","COUNTY":"091","COUNTYNS":"00424247","BASENAME":"Kankakee","NAME":"Kankakee County","LSADC":"06","FUNCSTAT":"A","COUNTYCC":"H1","AREALAND":1752101428,"AREAWATER":12458893,"OBJECTID":530,"CENTLAT":"+41.1377950","CENTLON":"-087.8619442","INTPTLAT":"+41.1395105","INTPTLON":"-087.8611165"}},{"type":"Feature","id":906,"geometry":{"type":"Polygon","coordinates":[[[-86.64254,41.43264],[-86.52471,41.43289],[-86.52494,41.51968],[-86.50361,41.51953],[-86.50029,41.52101],[-86.50031,41.52822],[-86.49811,41.532],[-86.49816,41.56108],[-86.48643,41.57054],[-86.48626,41.5889],[-86.48757,41.64932],[-86.52668,41.65044],[-86.52422,41.75966],[-86.87503,41.76033],[-86.93333,41.76103],[-86.93227,41.61727],[-86.93075,41.54637],[-86.92987,41.53606],[-86.92935,41.48493],[-86.93078,41.33968],[-86.92956,41.24908],[-86.93008,41.2368],[-86.92043,41.24509],[-86.91532,41.24592],[-86.89724,41.25462],[-86.8772,41.26008],[-86.87329,41.26327],[-86.87015,41.26462],[-86.84863,41.26683],[-86.8439,41.26852],[-86.83908,41.27205],[-86.82811,41.27114],[-86.81408,41.2736],[-86.7834,41.28551],[-86.76153,41.30746],[-86.74867,41.31525],[-86.73989,41.32185],[-86.73739,41.32605],[-86.73721,41.33317],[-86.7351,41.33831],[-86.72471,41.35203],[-86.72378,41.36036],[-86.72083,41.36525],[-86.71345,41.37305],[-86.70772,41.38099],[-86.70572,41.39157],[-86.70037,41.40234],[-86.68109,41.41199],[-86.6708,41.41387],[-86.64254,41.43264]]]},"properties":{"MTFCC":"G4020","OID":"27590137319190","GEOID":"18091","STATE":"18","COUNTY":"091","COUNTYNS":"00450507","BASENAME":"LaPorte","NAME":"LaPorte County","LSADC":"06","FUNCSTAT":"A","COUNTYCC":"H1","AREALAND":1549559361,"AREAWATER":38775328,"OBJECTID":906,"CENTLAT":"+41.5488345","CENTLON":"-086.7424940","INTPTLAT":"+41.5490129","INTPTLON":"-086.7447386"}},{"type":"Feature","id":1074,"geometry":{"type":"Polygon","coordinates":[[[-87.525,41.64464],[-87.52366,41.75991],[-87.20777,41.76096],[-87.14843,42.00001],[-87.15001,42.00003],[-87.11116,42.14941],[-87.37505,42.15152],[-87.62506,42.15213],[-87.72176,42.15343],[-87.75888,42.15225],[-88.23845,42.15425],[-88.23819,42.06698],[-88.26364,42.06687],[-88.26288,41.98638],[-88.14592,41.98822],[-88.03145,41.99253],[-87.92048,41.99389],[-87.92042,41.86413],[-87.9194,41.85404],[-87.91976,41.83961],[-87.91763,41.80474],[-87.91426,41.7166],[-87.92153,41.71624],[-87.92492,41.713],[-87.92724,41.71263],[-87.93029,41.71006],[-87.93423,41.70846],[-87.93676,41.70531],[-87.94178,41.70303],[-87.94231,41.69892],[-87.94737,41.69541],[-87.95567,41.69302],[-87.96667,41.68674],[-87.97163,41.68725],[-87.97526,41.68653],[-87.97917,41.68733],[-87.98215,41.68608],[-88.02897,41.68524],[-88.02769,41.64151],[-87.91193,41.64393],[-87.90938,41.55682],[-87.79279,41.55854],[-87.79213,41.53831],[-87.79037,41.53965],[-87.79032,41.5384],[-87.7903,41.46985],[-87.5257,41.47028],[-87.525,41.64464]]]},"properties":{"MTFCC":"G4020","OID":"27590197905492","GEOID":"17031","STATE":"17","COUNTY":"031","COUNTYNS":"01784766","BASENAME":"Cook","NAME":"Cook County","LSADC":"06","FUNCSTAT":"A","COUNTYCC":"H1","AREALAND":2447357158,"AREAWATER":1786340631,"OBJECTID":1074,"CENTLAT":"+41.8952148","CENTLON":"-087.6461541","INTPTLAT":"+41.8947869","INTPTLON":"-087.6453877"}},{"type":"Feature","id":1234,"geometry":{"type":"Polygon","coordinates":[[[-87.5267,41.14922],[-87.52598,40.97427],[-87.52644,40.89415],[-87.52566,40.83613],[-87.52603,40.73688],[-87.2673,40.73658],[-87.26802,40.87678],[-87.26905,40.91152],[-87.27645,40.91148],[-87.27588,41.2186],[-87.28573,41.2152],[-87.32421,41.18641],[-87.33096,41.18314],[-87.34658,41.1823],[-87.36389,41.17677],[-87.38071,41.17265],[-87.39366,41.16283],[-87.41434,41.16223],[-87.44097,41.17292],[-87.44679,41.17435],[-87.45799,41.17059],[-87.48478,41.16989],[-87.52602,41.16632],[-87.52659,41.16609],[-87.5267,41.14922]]]},"properties":{"MTFCC":"G4020","OID":"27590347024411","GEOID":"18111","STATE":"18","COUNTY":"111","COUNTYNS":"00450376","BASENAME":"Newton","NAME":"Newton County","LSADC":"06","FUNCSTAT":"A","COUNTYCC":"H1","AREALAND":1040539818,"AREAWATER":4349506,"OBJECTID":1234,"CENTLAT":"+40.9556284","CENTLON":"-087.3975425","INTPTLAT":"+40.9623985","INTPTLON":"-087.4021716"}},{"type":"Feature","id":1269,"geometry":{"type":"Polygon","coordinates":[[[-87.09979,40.83761],[-86.98644,40.83792],[-86.98744,40.91218],[-86.93076,40.9124],[-86.92977,41.23423],[-86.93008,41.2368],[-86.93889,41.22962],[-86.95566,41.22491],[-86.96812,41.21966],[-86.97702,41.22155],[-86.98424,41.22785],[-87.01103,41.24091],[-87.05972,41.26952],[-87.12212,41.28636],[-87.13125,41.28626],[-87.19236,41.26529],[-87.22632,41.23551],[-87.27588,41.2186],[-87.27645,40.91148],[-87.26905,40.91152],[-87.26802,40.87678],[-87.2673,40.73658],[-87.09839,40.73654],[-87.09979,40.83761]]]},"properties":{"MTFCC":"G4020","OID":"27590329489844","GEOID":"18073","STATE":"18","COUNTY":"073","COUNTYNS":"00450494","BASENAME":"Jasper","NAME":"Jasper County","LSADC":"06","FUNCSTAT":"A","COUNTYCC":"H1","AREALAND":1449563742,"AREAWATER":4428656,"OBJECTID":1269,"CENTLAT":"+41.0227477","CENTLON":"-087.1161928","INTPTLAT":"+41.0176883","INTPTLON":"-087.1188137"}},{"type":"Feature","id":1483,"geometry":{"type":"Polygon","coordinates":[[[-88.37532,41.72261],[-88.26195,41.72465],[-88.26364,42.06687],[-88.23819,42.06698],[-88.23845,42.15425],[-88.24784,42.15363],[-88.58866,42.15359],[-88.58833,42.06646],[-88.60196,42.06647],[-88.60129,41.98147],[-88.60257,41.80685],[-88.60193,41.71956],[-88.37532,41.72261]]]},"properties":{"MTFCC":"G4020","OID":"27590596892405","GEOID":"17089","STATE":"17","COUNTY":"089","COUNTYNS":"00424246","BASENAME":"Kane","NAME":"Kane County","LSADC":"06","FUNCSTAT":"A","COUNTYCC":"H1","AREALAND":1345145619,"AREAWATER":12474471,"OBJECTID":1483,"CENTLAT":"+41.9386581","CENTLON":"-088.4286611","INTPTLAT":"+41.9395938","INTPTLON":"-088.4280395"}},{"type":"Feature","id":1581,"geometry":{"type":"Polygon","coordinates":[[[-87.89799,42.4939],[-88.08107,42.49563],[-88.19939,42.49513],[-88.19825,42.24156],[-88.19904,42.23604],[-88.19958,42.15426],[-87.75888,42.15225],[-87.72176,42.15343],[-87.62506,42.15213],[-87.37505,42.15152],[-87.11116,42.14941],[-87.06804,42.31435],[-87.01994,42.4935],[-87.37506,42.49382],[-87.75007,42.49269],[-87.79337,42.49172],[-87.80505,42.49261],[-87.89799,42.4939]]]},"properties":{"MTFCC":"G4020","OID":"27590272629436","GEOID":"17097","STATE":"17","COUNTY":"097","COUNTYNS":"01784796","BASENAME":"Lake","NAME":"Lake County","LSADC":"06","FUNCSTAT":"A","COUNTYCC":"H1","AREALAND":1149124640,"AREAWATER":2394834056,"OBJECTID":1581,"CENTLAT":"+42.3256447","CENTLON":"-087.6312172","INTPTLAT":"+42.1859677","INTPTLON":"-087.8059389"}},{"type":"Feature","id":1646,"geometry":{"type":"Polygon","coordinates":[[[-88.36529,41.46049],[-88.25223,41.46307],[-88.25939,41.64347],[-88.26128,41.72466],[-88.60362,41.71955],[-88.60224,41.63139],[-88.60021,41.57526],[-88.60063,41.5703],[-88.5993,41.55559],[-88.59596,41.45713],[-88.48168,41.4579],[-88.36529,41.46049]]]},"properties":{"MTFCC":"G4020","OID":"27590270532702","GEOID":"17093","STATE":"17","COUNTY":"093","COUNTYNS":"00424248","BASENAME":"Kendall","NAME":"Kendall County","LSADC":"06","FUNCSTAT":"A","COUNTYCC":"H1","AREALAND":829425941,"AREAWATER":5122497,"OBJECTID":1646,"CENTLAT":"+41.5905334","CENTLON":"-088.4287873","INTPTLAT":"+41.5881403","INTPTLON":"-088.4306257"}},{"type":"Feature","id":1828,"geometry":{"type":"Polygon","coordinates":[[[-88.70547,42.24077],[-88.70577,42.40075],[-88.70742,42.4936],[-88.76534,42.492],[-88.79493,42.49199],[-88.94039,42.49504],[-88.94022,42.32666],[-88.94099,42.23947],[-88.93973,42.15232],[-88.70558,42.15354],[-88.70547,42.24077]]]},"properties":{"MTFCC":"G4020","OID":"27590605942388","GEOID":"17007","STATE":"17","COUNTY":"007","COUNTYNS":"00424205","BASENAME":"Boone","NAME":"Boone County","LSADC":"06","FUNCSTAT":"A","COUNTYCC":"H1","AREALAND":727137140,"AREAWATER":3338125,"OBJECTID":1828,"CENTLAT":"+42.3229299","CENTLON":"-088.8233747","INTPTLAT":"+42.3193118","INTPTLON":"-088.8242130"}},{"type":"Feature","id":2186,"geometry":{"type":"Polygon","coordinates":[[[-87.33314,41.18286],[-87.33105,41.18311],[-87.32421,41.18641],[-87.28561,41.21526],[-87.22632,41.23551],[-87.21886,41.24203],[-87.21888,41.28197],[-87.22027,41.33333],[-87.21965,41.35337],[-87.21981,41.47628],[-87.22293,41.6326],[-87.221,41.76089],[-87.52366,41.75991],[-87.52481,41.68694],[-87.52667,41.32691],[-87.52659,41.16609],[-87.48478,41.16989],[-87.45799,41.17059],[-87.44679,41.17435],[-87.44097,41.17292],[-87.41442,41.16225],[-87.3938,41.16281],[-87.38071,41.17265],[-87.36389,41.17677],[-87.34658,41.1823],[-87.33314,41.18286]]]},"properties":{"MTFCC":"G4020","OID":"27590271925613","GEOID":"18089","STATE":"18","COUNTY":"089","COUNTYNS":"00450495","BASENAME":"Lake","NAME":"Lake County","LSADC":"06","FUNCSTAT":"A","COUNTYCC":"H1","AREALAND":1292104535,"AREAWATER":330842575,"OBJECTID":2186,"CENTLAT":"+41.4718260","CENTLON":"-087.3764175","INTPTLAT":"+41.4722470","INTPTLON":"-087.3743368"}},{"type":"Feature","id":2277,"geometry":{"type":"Polygon","coordinates":[[[-87.22252,41.65608],[-87.22293,41.6326],[-87.21981,41.47628],[-87.21965,41.35337],[-87.22027,41.33333],[-87.21888,41.28197],[-87.21886,41.24203],[-87.19236,41.26529],[-87.13165,41.28616],[-87.12212,41.28636],[-87.05972,41.26952],[-87.01103,41.24091],[-86.98424,41.22785],[-86.97702,41.22155],[-86.96812,41.21966],[-86.95566,41.22491],[-86.93733,41.23044],[-86.93008,41.2368],[-86.92956,41.24908],[-86.93078,41.33968],[-86.92935,41.48493],[-86.92987,41.53606],[-86.93075,41.54637],[-86.93227,41.61727],[-86.93333,41.76103],[-87.12504,41.76042],[-87.12504,41.76137],[-87.221,41.76089],[-87.22252,41.65608]]]},"properties":{"MTFCC":"G4020","OID":"27590137319191","GEOID":"18127","STATE":"18","COUNTY":"127","COUNTYNS":"00450382","BASENAME":"Porter","NAME":"Porter County","LSADC":"06","FUNCSTAT":"A","COUNTYCC":"H1","AREALAND":1082907699,"AREAWATER":268619698,"OBJECTID":2277,"CENTLAT":"+41.5085493","CENTLON":"-087.0733011","INTPTLAT":"+41.5095056","INTPTLON":"-087.0715064"}},{"type":"Feature","id":2374,"geometry":{"type":"Polygon","coordinates":[[[-86.93055,41.08785],[-86.93076,40.91242],[-86.69656,40.91223],[-86.46851,40.90989],[-86.46705,41.17144],[-86.6985,41.17217],[-86.78316,41.17133],[-86.93017,41.17232],[-86.93055,41.08785]]]},"properties":{"MTFCC":"G4020","OID":"27590137048028","GEOID":"18131","STATE":"18","COUNTY":"131","COUNTYNS":"00446852","BASENAME":"Pulaski","NAME":"Pulaski County","LSADC":"06","FUNCSTAT":"A","COUNTYCC":"H1","AREALAND":1123220642,"AREAWATER":2216958,"OBJECTID":2374,"CENTLAT":"+41.0418257","CENTLON":"-086.6987780","INTPTLAT":"+41.0452718","INTPTLON":"-086.6925383"}},{"type":"Feature","id":2399,"geometry":{"type":"Polygon","coordinates":[[[-88.29854,41.11318],[-88.24089,41.11438],[-88.25223,41.46307],[-88.48168,41.4579],[-88.59596,41.45713],[-88.5937,41.37304],[-88.58817,41.25784],[-88.58624,41.10828],[-88.48492,41.10865],[-88.29854,41.11318]]]},"properties":{"MTFCC":"G4020","OID":"27590226575376","GEOID":"17063","STATE":"17","COUNTY":"063","COUNTYNS":"00424233","BASENAME":"Grundy","NAME":"Grundy County","LSADC":"06","FUNCSTAT":"A","COUNTYCC":"H1","AREALAND":1082963669,"AREAWATER":32108584,"OBJECTID":2399,"CENTLAT":"+41.2849934","CENTLON":"-088.4184914","INTPTLAT":"+41.2924096","INTPTLON":"-088.4010545"}},{"type":"Feature","id":2435,"geometry":{"type":"Polygon","coordinates":[[[-86.58285,41.17196],[-86.46705,41.17144],[-86.4666,41.43297],[-86.64254,41.43264],[-86.6708,41.41387],[-86.68109,41.41199],[-86.70037,41.40234],[-86.70572,41.39157],[-86.70772,41.38099],[-86.71345,41.37305],[-86.72083,41.36525],[-86.72378,41.36036],[-86.72471,41.35203],[-86.7351,41.33831],[-86.73721,41.33317],[-86.73739,41.32605],[-86.73989,41.32185],[-86.74867,41.31525],[-86.76153,41.30746],[-86.7834,41.28551],[-86.81408,41.2736],[-86.82811,41.27114],[-86.83908,41.27205],[-86.8439,41.26852],[-86.84863,41.26683],[-86.87015,41.26462],[-86.87329,41.26327],[-86.8772,41.26008],[-86.89724,41.25462],[-86.91532,41.24592],[-86.92043,41.24509],[-86.93008,41.2368],[-86.9301,41.1723],[-86.78316,41.17133],[-86.75659,41.17208],[-86.58285,41.17196]]]},"properties":{"MTFCC":"G4020","OID":"27590273139008","GEOID":"18149","STATE":"18","COUNTY":"149","COUNTYNS":"00450389","BASENAME":"Starke","NAME":"Starke County","LSADC":"06","FUNCSTAT":"A","COUNTYCC":"H1","AREALAND":800679832,"AREAWATER":7929142,"OBJECTID":2435,"CENTLAT":"+41.2809081","CENTLON":"-086.6477527","INTPTLAT":"+41.2844785","INTPTLON":"-086.6446359"}},{"type":"Feature","id":2814,"geometry":{"type":"Polygon","coordinates":[[[-88.70126,41.10723],[-88.58624,41.10829],[-88.58714,41.21235],[-88.58857,41.27148],[-88.5937,41.37304],[-88.59636,41.47162],[-88.5993,41.55559],[-88.60063,41.5703],[-88.60021,41.57526],[-88.60224,41.63139],[-88.70279,41.63079],[-88.70616,41.63019],[-88.81846,41.63135],[-88.93921,41.6283],[-89.05201,41.6267],[-89.16715,41.62866],[-89.16643,41.48165],[-89.16322,41.28059],[-89.16224,41.10401],[-89.04739,41.10479],[-89.04706,40.98111],[-89.04772,40.92575],[-88.93139,40.92774],[-88.93088,41.1059],[-88.70126,41.10723]]]},"properties":{"MTFCC":"G4020","OID":"27590348668716","GEOID":"17099","STATE":"17","COUNTY":"099","COUNTYNS":"00422247","BASENAME":"LaSalle","NAME":"LaSalle County","LSADC":"06","FUNCSTAT":"A","COUNTYCC":"H1","AREALAND":2939940150,"AREAWATER":33828699,"OBJECTID":2814,"CENTLAT":"+41.3436806","CENTLON":"-088.8860012","INTPTLAT":"+41.3433407","INTPTLON":"-088.8859312"}},{"type":"Feature","id":3195,"geometry":{"type":"Polygon","coordinates":[[[-88.35442,42.154],[-88.24784,42.15363],[-88.23707,42.15429],[-88.19958,42.15426],[-88.19904,42.23604],[-88.19825,42.24156],[-88.19939,42.49513],[-88.42224,42.4945],[-88.629,42.49504],[-88.70742,42.4936],[-88.70575,42.39631],[-88.70558,42.15354],[-88.35442,42.154]]]},"properties":{"MTFCC":"G4020","OID":"275901206440574","GEOID":"17111","STATE":"17","COUNTY":"111","COUNTYNS":"01784815","BASENAME":"McHenry","NAME":"McHenry County","LSADC":"06","FUNCSTAT":"A","COUNTYCC":"H1","AREALAND":1562806162,"AREAWATER":19855933,"OBJECTID":3195,"CENTLAT":"+42.3242929","CENTLON":"-088.4524200","INTPTLAT":"+42.3242982","INTPTLON":"-088.4522450"}},{"type":"Feature","id":3202,"geometry":{"type":"Polygon","coordinates":[[[-88.65072,41.63099],[-88.60224,41.63139],[-88.60362,41.71955],[-88.60193,41.71956],[-88.60257,41.80685],[-88.60129,41.98147],[-88.60196,42.06647],[-88.58833,42.06646],[-88.58866,42.15359],[-88.79413,42.15351],[-88.93973,42.15232],[-88.93894,42.0651],[-88.94215,42.06505],[-88.94128,41.89175],[-88.94166,41.7175],[-88.94032,41.71677],[-88.93868,41.62832],[-88.81846,41.63135],[-88.70616,41.63019],[-88.70279,41.63079],[-88.65072,41.63099]]]},"properties":{"MTFCC":"G4020","OID":"27590177657988","GEOID":"17037","STATE":"17","COUNTY":"037","COUNTYNS":"00422190","BASENAME":"DeKalb","NAME":"DeKalb County","LSADC":"06","FUNCSTAT":"A","COUNTYCC":"H1","AREALAND":1635155510,"AREAWATER":8560426,"OBJECTID":3202,"CENTLAT":"+41.8932210","CENTLON":"-088.7703255","INTPTLAT":"+41.8946152","INTPTLON":"-088.7689250"}}]}