{"type":"FeatureCollection","features":[{"type":"Feature","id":178026,"geometry":{"type":"Polygon","coordinates":[[[-87.52432,41.71832],[-87.52423,41.71727],[-87.52417,41.70818],[-87.52112,41.7101],[-87.51483,41.70445],[-87.51687,41.70314],[-87.51685,41.7031],[-87.51625,41.70227],[-87.51533,41.70117],[-87.51286,41.69877],[-87.51182,41.69804],[-87.51032,41.69723],[-87.51095,41.69668],[-87.51077,41.69638],[-87.51074,41.69604],[-87.51063,41.69592],[-87.50989,41.69531],[-87.50812,41.69426],[-87.50763,41.69399],[-87.50671,41.69368],[-87.50572,41.69467],[-87.50545,41.6947],[-87.50401,41.69389],[-87.50396,41.69366],[-87.50467,41.69286],[-87.50395,41.69246],[-87.50465,41.69182],[-87.5042,41.69142],[-87.50337,41.69092],[-87.50257,41.69056],[-87.50137,41.6898],[-87.50036,41.68927],[-87.50003,41.68898],[-87.49213,41.68503],[-87.49112,41.68457],[-87.49062,41.68483],[-87.49009,41.68458],[-87.4902,41.68444],[-87.49005,41.68412],[-87.4893,41.68395],[-87.48898,41.68415],[-87.48617,41.68314],[-87.48594,41.68318],[-87.48561,41.68347],[-87.48535,41.68358],[-87.48474,41.6835],[-87.48471,41.68344],[-87.48477,41.68338],[-87.48505,41.68322],[-87.48501,41.68314],[-87.48491,41.68316],[-87.48486,41.68307],[-87.48443,41.68279],[-87.4841,41.6827],[-87.48544,41.68135],[-87.48543,41.6812],[-87.48239,41.67932],[-87.48068,41.67871],[-87.48024,41.6787],[-87.47905,41.67988],[-87.47862,41.67953],[-87.47743,41.67889],[-87.477,41.67852],[-87.47695,41.67825],[-87.47612,41.67777],[-87.47612,41.67734],[-87.4756,41.67697],[-87.47586,41.67631],[-87.47629,41.67554],[-87.47449,41.67443],[-87.47423,41.67435],[-87.47155,41.6737],[-87.46836,41.67315],[-87.46773,41.67312],[-87.46299,41.67821],[-87.46223,41.67857],[-87.4614,41.67876],[-87.44927,41.68442],[-87.437,41.6874],[-87.42751,41.68964],[-87.42488,41.69007],[-87.42454,41.68973],[-87.42433,41.68964],[-87.42169,41.6893],[-87.41993,41.68869],[-87.4189,41.68859],[-87.4182,41.68839],[-87.41768,41.68842],[-87.41735,41.6883],[-87.41694,41.68831],[-87.41651,41.68819],[-87.41582,41.68818],[-87.41561,41.68804],[-87.41559,41.68784],[-87.41543,41.68759],[-87.4137,41.68656],[-87.41301,41.68602],[-87.41132,41.68413],[-87.41087,41.68399],[-87.41071,41.68373],[-87.40962,41.68304],[-87.40889,41.68229],[-87.40699,41.68084],[-87.40684,41.68065],[-87.40684,41.68048],[-87.40745,41.67985],[-87.41051,41.67675],[-87.41114,41.67624],[-87.41236,41.67496],[-87.41301,41.67401],[-87.41314,41.67335],[-87.41312,41.67316],[-87.41301,41.67303],[-87.41231,41.67263],[-87.41208,41.6724],[-87.41196,41.67211],[-87.41146,41.67202],[-87.4112,41.67172],[-87.41031,41.67136],[-87.40971,41.6709],[-87.40852,41.67033],[-87.40873,41.67015],[-87.40907,41.67029],[-87.40961,41.67022],[-87.40979,41.66996],[-87.41019,41.66959],[-87.41014,41.66938],[-87.40982,41.66916],[-87.42061,41.65941],[-87.43215,41.65629],[-87.43505,41.65839],[-87.43524,41.65824],[-87.43569,41.65857],[-87.43635,41.65806],[-87.43504,41.65712],[-87.43488,41.65693],[-87.43432,41.65658],[-87.43378,41.65602],[-87.43352,41.65609],[-87.43335,41.65597],[-87.43703,41.65498],[-87.43698,41.65487],[-87.43709,41.65485],[-87.43697,41.65459],[-87.43701,41.65448],[-87.43867,41.65401],[-87.43882,41.65373],[-87.43871,41.65348],[-87.43795,41.65294],[-87.43755,41.65285],[-87.43723,41.65291],[-87.437,41.65305],[-87.43692,41.65315],[-87.43691,41.65331],[-87.43674,41.65342],[-87.43672,41.65352],[-87.43644,41.65374],[-87.43636,41.65387],[-87.43584,41.65379],[-87.43529,41.65356],[-87.43513,41.65325],[-87.43498,41.65329],[-87.43446,41.65208],[-87.43469,41.65202],[-87.43441,41.65135],[-87.43335,41.65158],[-87.43327,41.65139],[-87.43335,41.65133],[-87.43339,41.65106],[-87.43334,41.65057],[-87.4329,41.64952],[-87.43266,41.64916],[-87.43133,41.64774],[-87.42933,41.64599],[-87.42767,41.64474],[-87.42687,41.64432],[-87.4262,41.64381],[-87.42397,41.64249],[-87.42179,41.64138],[-87.42123,41.641],[-87.41985,41.6412],[-87.41897,41.64203],[-87.41685,41.6409],[-87.41137,41.64369],[-87.41032,41.64254],[-87.41018,41.64249],[-87.40889,41.64264],[-87.40804,41.64245],[-87.40614,41.64148],[-87.40597,41.64167],[-87.40103,41.639],[-87.37187,41.63064],[-87.35623,41.62737],[-87.35217,41.62687],[-87.3421,41.62595],[-87.33458,41.62547],[-87.32516,41.62457],[-87.32544,41.60929],[-87.3242,41.60885],[-87.32275,41.60929],[-87.3227,41.6103],[-87.3228,41.61039],[-87.3226,41.61057],[-87.32271,41.61066],[-87.32278,41.61065],[-87.32383,41.61148],[-87.32405,41.61136],[-87.32455,41.6118],[-87.32423,41.62454],[-87.32378,41.62448],[-87.32378,41.62444],[-87.32328,41.62442],[-87.32298,41.62424],[-87.32279,41.6242],[-87.31888,41.6239],[-87.31866,41.62372],[-87.31865,41.62361],[-87.31904,41.62256],[-87.31917,41.62133],[-87.31883,41.62115],[-87.31803,41.62091],[-87.31683,41.62074],[-87.31634,41.62078],[-87.3161,41.62094],[-87.31579,41.62184],[-87.3156,41.62195],[-87.31541,41.62197],[-87.31524,41.62191],[-87.31509,41.62175],[-87.31509,41.62133],[-87.31503,41.62116],[-87.31414,41.62084],[-87.31377,41.62077],[-87.31317,41.62079],[-87.31246,41.62055],[-87.31192,41.62058],[-87.31125,41.6205],[-87.31103,41.62057],[-87.31099,41.6207],[-87.31113,41.62097],[-87.31148,41.62137],[-87.3115,41.62148],[-87.31147,41.62162],[-87.31134,41.62177],[-87.31107,41.6219],[-87.31025,41.622],[-87.30931,41.62193],[-87.30644,41.62225],[-87.30625,41.62239],[-87.30622,41.62286],[-87.30611,41.62291],[-87.30597,41.62279],[-87.30538,41.62141],[-87.30515,41.62045],[-87.30452,41.61953],[-87.30266,41.61923],[-87.29954,41.61925],[-87.29902,41.61909],[-87.29891,41.61914],[-87.29885,41.61938],[-87.29873,41.61945],[-87.29725,41.61938],[-87.29724,41.61948],[-87.29733,41.61955],[-87.29842,41.61965],[-87.29861,41.6198],[-87.29864,41.61991],[-87.29857,41.62005],[-87.29842,41.62011],[-87.29715,41.62],[-87.2971,41.62011],[-87.29715,41.62022],[-87.29847,41.62032],[-87.29869,41.62041],[-87.29884,41.6206],[-87.2988,41.62071],[-87.29869,41.62077],[-87.29701,41.62058],[-87.29709,41.62078],[-87.29839,41.62088],[-87.29851,41.62104],[-87.2985,41.62126],[-87.29833,41.62137],[-87.29746,41.62117],[-87.29738,41.62121],[-87.29745,41.62133],[-87.29831,41.62152],[-87.2984,41.62162],[-87.29794,41.62227],[-87.29778,41.62306],[-87.29766,41.6232],[-87.29751,41.62331],[-87.29741,41.62329],[-87.29731,41.62308],[-87.29714,41.62306],[-87.297,41.62317],[-87.29691,41.62346],[-87.29676,41.62352],[-87.29658,41.62337],[-87.29652,41.62309],[-87.2964,41.62303],[-87.29632,41.62309],[-87.29624,41.62352],[-87.29602,41.62369],[-87.29588,41.62365],[-87.29569,41.6234],[-87.29561,41.62344],[-87.29557,41.62368],[-87.29549,41.62372],[-87.29523,41.62336],[-87.29514,41.6234],[-87.29508,41.62373],[-87.29479,41.6238],[-87.29446,41.62373],[-87.29419,41.62339],[-87.29395,41.62362],[-87.29372,41.6237],[-87.2932,41.62365],[-87.29307,41.62358],[-87.29301,41.62344],[-87.29267,41.62351],[-87.29247,41.62336],[-87.29219,41.62354],[-87.29192,41.62334],[-87.29163,41.62332],[-87.29157,41.62318],[-87.2914,41.62306],[-87.29139,41.62274],[-87.29132,41.62265],[-87.29099,41.62312],[-87.29085,41.62312],[-87.2908,41.62298],[-87.29063,41.62284],[-87.2905,41.62225],[-87.29053,41.62199],[-87.29118,41.62088],[-87.29138,41.62074],[-87.29206,41.62078],[-87.2922,41.62071],[-87.2921,41.62063],[-87.29144,41.62061],[-87.29141,41.62056],[-87.29152,41.62028],[-87.29294,41.62008],[-87.2928,41.61992],[-87.29167,41.62005],[-87.29161,41.62002],[-87.29163,41.61977],[-87.29285,41.61955],[-87.29291,41.61939],[-87.29282,41.61931],[-87.29167,41.6195],[-87.29118,41.6194],[-87.291,41.61962],[-87.29054,41.61991],[-87.28963,41.62016],[-87.28938,41.62094],[-87.28955,41.62134],[-87.28936,41.62158],[-87.28928,41.6218],[-87.28936,41.62221],[-87.28906,41.62263],[-87.28885,41.62248],[-87.28883,41.62237],[-87.28877,41.62171],[-87.28881,41.62073],[-87.28756,41.62045],[-87.28635,41.62033],[-87.2853,41.62039],[-87.28284,41.62031],[-87.282,41.62036],[-87.28163,41.62031],[-87.28038,41.62034],[-87.27927,41.62028],[-87.2766,41.62031],[-87.27517,41.62024],[-87.27254,41.62021],[-87.27215,41.62028],[-87.27162,41.62017],[-87.27073,41.62032],[-87.26894,41.62026],[-87.26791,41.62043],[-87.26687,41.62051],[-87.2659,41.62047],[-87.26269,41.62065],[-87.2618,41.62064],[-87.26148,41.62071],[-87.25987,41.62073],[-87.25956,41.62085],[-87.25895,41.62085],[-87.25842,41.62096],[-87.25757,41.62095],[-87.25736,41.62088],[-87.25716,41.62098],[-87.25683,41.62102],[-87.25585,41.62105],[-87.25564,41.62111],[-87.25507,41.62109],[-87.25455,41.6212],[-87.25352,41.62127],[-87.25316,41.62121],[-87.25119,41.62147],[-87.25055,41.62146],[-87.25022,41.62154],[-87.25006,41.62152],[-87.24886,41.62166],[-87.24757,41.62172],[-87.24524,41.62204],[-87.24393,41.62206],[-87.24322,41.62225],[-87.24258,41.62219],[-87.24203,41.62229],[-87.24091,41.62233],[-87.24026,41.62245],[-87.23924,41.62247],[-87.2386,41.62263],[-87.23704,41.62274],[-87.236,41.62293],[-87.23399,41.62307],[-87.23223,41.62327],[-87.23014,41.62363],[-87.22881,41.62371],[-87.22732,41.62401],[-87.22581,41.62407],[-87.22479,41.62424],[-87.22409,41.62424],[-87.22337,41.62441],[-87.22265,41.62411],[-87.22293,41.6326],[-87.22089,41.75004],[-87.221,41.76089],[-87.25004,41.76062],[-87.37504,41.76025],[-87.50004,41.76042],[-87.50004,41.76014],[-87.52366,41.75991],[-87.52416,41.72185],[-87.5242,41.71951],[-87.52432,41.71832]]]},"properties":{"NAME":"Lk Michigan","MTFCC":"H2030","AREAWATER":315324202,"OBJECTID":178026}},{"type":"Feature","id":364112,"geometry":{"type":"Polygon","coordinates":[[[-86.93336,41.75224],[-86.93311,41.73038],[-86.93273,41.71017],[-86.92292,41.71357],[-86.92251,41.71374],[-86.92202,41.71409],[-86.92184,41.71447],[-86.92186,41.71481],[-86.91708,41.71628],[-86.91644,41.71662],[-86.91621,41.71685],[-86.91584,41.71747],[-86.91334,41.72256],[-86.91214,41.72316],[-86.91175,41.7231],[-86.91241,41.72238],[-86.91302,41.72243],[-86.91304,41.72234],[-86.91245,41.72229],[-86.912,41.72184],[-86.91202,41.72175],[-86.91151,41.72115],[-86.91142,41.72117],[-86.91193,41.72176],[-86.9119,41.72188],[-86.91236,41.72229],[-86.9117,41.72295],[-86.91162,41.72311],[-86.91166,41.72318],[-86.91191,41.72324],[-86.90992,41.72418],[-86.9076,41.72158],[-86.90632,41.72127],[-86.9054,41.72161],[-86.90446,41.72259],[-86.9044,41.72272],[-86.90467,41.72302],[-86.90558,41.72236],[-86.90634,41.72245],[-86.90739,41.72319],[-86.90772,41.72391],[-86.90743,41.72398],[-86.9075,41.72412],[-86.90777,41.72407],[-86.90783,41.72423],[-86.9075,41.72431],[-86.90697,41.7242],[-86.90654,41.72438],[-86.90661,41.72463],[-86.90604,41.72458],[-86.90588,41.72464],[-86.90528,41.72524],[-86.90511,41.72564],[-86.90511,41.72609],[-86.90554,41.72724],[-86.90577,41.72752],[-86.90618,41.72759],[-86.90706,41.7274],[-86.90893,41.72683],[-86.90902,41.72683],[-86.90907,41.72696],[-86.90473,41.72806],[-86.90445,41.72824],[-86.90121,41.72913],[-86.89975,41.72943],[-86.8979,41.73003],[-86.89485,41.73071],[-86.89074,41.73212],[-86.88961,41.73235],[-86.88766,41.73301],[-86.88624,41.73361],[-86.88589,41.73382],[-86.88419,41.73435],[-86.8823,41.73515],[-86.87944,41.73613],[-86.8776,41.73688],[-86.87526,41.73796],[-86.87374,41.73841],[-86.872,41.73924],[-86.87145,41.73958],[-86.86955,41.74024],[-86.86878,41.74061],[-86.86763,41.74103],[-86.86649,41.7416],[-86.86495,41.74214],[-86.86449,41.7424],[-86.86208,41.74349],[-86.85869,41.74484],[-86.85451,41.74678],[-86.85244,41.74759],[-86.84843,41.74956],[-86.84764,41.75004],[-86.84543,41.75088],[-86.84153,41.75275],[-86.83684,41.75471],[-86.83319,41.75659],[-86.83233,41.75688],[-86.82872,41.75861],[-86.82496,41.7603],[-86.82557,41.76035],[-86.83647,41.76038],[-86.84171,41.76027],[-86.87503,41.76033],[-86.93333,41.76103],[-86.93336,41.75224]]]},"properties":{"NAME":"Lk Michigan","MTFCC":"H2030","AREAWATER":24442115,"OBJECTID":364112}},{"type":"Feature","id":897845,"geometry":{"type":"Polygon","coordinates":[[[-87.05872,42.7652],[-87.05635,42.75002],[-87.0439,42.66373],[-87.0384,42.62502],[-87.0213,42.50002],[-87.02043,42.50003],[-87.01986,42.49376],[-87.04005,42.41699],[-86.99985,42.41602],[-86.87504,42.41661],[-86.87477,42.41541],[-86.7498,42.41685],[-86.62483,42.41775],[-86.37489,42.41892],[-86.37502,42.41994],[-86.28933,42.41947],[-86.27389,42.41928],[-86.27355,42.41994],[-86.27334,42.42057],[-86.27183,42.42342],[-86.27124,42.42504],[-86.2705,42.42631],[-86.26954,42.42766],[-86.2673,42.43229],[-86.26635,42.43398],[-86.26556,42.43507],[-86.26461,42.43752],[-86.26436,42.43845],[-86.26354,42.43997],[-86.26227,42.44176],[-86.26167,42.44357],[-86.26125,42.44455],[-86.26124,42.44508],[-86.26022,42.44722],[-86.25994,42.44792],[-86.25969,42.44885],[-86.25924,42.44946],[-86.25802,42.45271],[-86.25736,42.45468],[-86.2566,42.45759],[-86.2553,42.46156],[-86.25459,42.46443],[-86.25405,42.46617],[-86.25298,42.4689],[-86.25252,42.47085],[-86.25195,42.47234],[-86.25172,42.47364],[-86.25108,42.47527],[-86.24999,42.47932],[-86.25032,42.48033],[-86.24975,42.48037],[-86.24926,42.48245],[-86.24868,42.48452],[-86.24859,42.48507],[-86.24819,42.4864],[-86.24798,42.48731],[-86.24772,42.48898],[-86.24736,42.4899],[-86.24708,42.49097],[-86.24685,42.49318],[-86.24692,42.49493],[-86.24683,42.49623],[-86.24673,42.49707],[-86.2464,42.49818],[-86.24646,42.49944],[-86.24627,42.50014],[-86.24613,42.50117],[-86.2455,42.5033],[-86.24561,42.50497],[-86.24545,42.50545],[-86.24539,42.50652],[-86.24516,42.50725],[-86.24503,42.50795],[-86.24477,42.50886],[-86.24484,42.50951],[-86.24455,42.51179],[-86.24487,42.51397],[-86.24432,42.51583],[-86.2444,42.51677],[-86.24464,42.51771],[-86.24391,42.51958],[-86.24366,42.52069],[-86.24279,42.52363],[-86.24258,42.52473],[-86.24214,42.52812],[-86.24181,42.52985],[-86.24116,42.53431],[-86.24107,42.53673],[-86.24046,42.53896],[-86.2404,42.54018],[-86.23991,42.54239],[-86.2397,42.54364],[-86.23913,42.5457],[-86.2388,42.54751],[-86.23809,42.54961],[-86.23775,42.55099],[-86.23737,42.55345],[-86.23702,42.55671],[-86.23624,42.5596],[-86.23586,42.56164],[-86.2354,42.56362],[-86.23524,42.56512],[-86.23447,42.56706],[-86.23451,42.568],[-86.2344,42.56847],[-86.23382,42.56918],[-86.23349,42.56977],[-86.23288,42.57176],[-86.23238,42.57298],[-86.22917,42.57955],[-86.22722,42.58628],[-86.22611,42.59094],[-86.22601,42.59352],[-86.22567,42.59657],[-86.22579,42.60008],[-86.22612,42.60345],[-86.22682,42.60645],[-86.22718,42.60859],[-86.22726,42.61066],[-86.22779,42.61276],[-86.22769,42.61366],[-86.22799,42.61498],[-86.22821,42.61806],[-86.22822,42.61962],[-86.22803,42.62169],[-86.22803,42.62311],[-86.22814,42.62343],[-86.22809,42.62427],[-86.22842,42.62501],[-86.22834,42.62529],[-86.22832,42.62586],[-86.22855,42.62734],[-86.22857,42.62855],[-86.22873,42.62999],[-86.22913,42.6315],[-86.22921,42.63425],[-86.22912,42.63508],[-86.22913,42.6358],[-86.22889,42.63675],[-86.22869,42.63863],[-86.2283,42.63974],[-86.22831,42.6402],[-86.22781,42.64199],[-86.22708,42.64351],[-86.22666,42.64461],[-86.22597,42.64591],[-86.22571,42.64693],[-86.22499,42.64799],[-86.22431,42.64937],[-86.22334,42.65106],[-86.22246,42.65222],[-86.22161,42.65369],[-86.22003,42.65581],[-86.21949,42.65692],[-86.21788,42.65944],[-86.21686,42.66214],[-86.2164,42.66294],[-86.21611,42.66376],[-86.21578,42.6651],[-86.21579,42.66538],[-86.21456,42.66927],[-86.21384,42.67129],[-86.21373,42.67208],[-86.21358,42.67244],[-86.21371,42.67328],[-86.21372,42.67376],[-86.21362,42.67424],[-86.21363,42.67463],[-86.21352,42.67547],[-86.21374,42.67635],[-86.21363,42.67753],[-86.21328,42.67822],[-86.21238,42.67946],[-86.21133,42.68168],[-86.21093,42.68323],[-86.2104,42.68432],[-86.2102,42.68493],[-86.21024,42.68548],[-86.20993,42.68613],[-86.20953,42.68736],[-86.20945,42.68785],[-86.20948,42.68911],[-86.20897,42.6905],[-86.20851,42.69216],[-86.2081,42.69529],[-86.20809,42.69604],[-86.20791,42.69665],[-86.20798,42.69738],[-86.2079,42.69834],[-86.20716,42.70155],[-86.20718,42.70289],[-86.20709,42.70405],[-86.20716,42.70486],[-86.20712,42.70589],[-86.20669,42.7084],[-86.2066,42.70954],[-86.2068,42.71149],[-86.20678,42.71191],[-86.20662,42.71284],[-86.20671,42.71487],[-86.2068,42.71538],[-86.20679,42.71608],[-86.20669,42.71675],[-86.20672,42.71777],[-86.2066,42.7186],[-86.20667,42.72103],[-86.2066,42.72177],[-86.20671,42.72272],[-86.20669,42.72505],[-86.20708,42.72773],[-86.20719,42.73081],[-86.20715,42.73135],[-86.20722,42.73231],[-86.2072,42.73348],[-86.20712,42.73459],[-86.20705,42.73871],[-86.20726,42.73902],[-86.20739,42.74132],[-86.20718,42.74265],[-86.20708,42.74715],[-86.20723,42.74758],[-86.20748,42.74791],[-86.20749,42.74844],[-86.20769,42.74912],[-86.20765,42.74946],[-86.20772,42.74974],[-86.20794,42.75001],[-86.20795,42.75041],[-86.20827,42.7513],[-86.20839,42.75181],[-86.20812,42.75324],[-86.20846,42.75511],[-86.20809,42.75671],[-86.20812,42.75724],[-86.20802,42.75913],[-86.20807,42.76159],[-86.20799,42.76209],[-86.20802,42.76246],[-86.20812,42.76287],[-86.20825,42.76313],[-86.20828,42.76429],[-86.20865,42.76511],[-86.20883,42.76536],[-86.20895,42.76574],[-86.20892,42.76612],[-86.20922,42.76754],[-86.25004,42.76727],[-86.37504,42.7671],[-86.50005,42.76723],[-86.62505,42.76664],[-86.75005,42.76665],[-86.87505,42.76693],[-87.00006,42.76653],[-87.05872,42.7652]]]},"properties":{"NAME":"Lk Michigan","MTFCC":"H2030","AREAWATER":2566129110,"OBJECTID":897845}},{"type":"Feature","id":963902,"geometry":{"type":"Polygon","coordinates":[[[-87.83593,42.30932],[-87.83554,42.30909],[-87.83516,42.30903],[-87.83478,42.30872],[-87.83314,42.30829],[-87.83317,42.30793],[-87.832,42.30771],[-87.83205,42.30766],[-87.83201,42.30757],[-87.83229,42.30732],[-87.83237,42.30733],[-87.83251,42.30721],[-87.8327,42.3066],[-87.83318,42.30608],[-87.83279,42.3053],[-87.83237,42.30492],[-87.83334,42.30483],[-87.83355,42.30457],[-87.83389,42.30367],[-87.83419,42.30309],[-87.83437,42.30241],[-87.83437,42.30216],[-87.83429,42.30206],[-87.83425,42.30179],[-87.83441,42.30124],[-87.83443,42.30095],[-87.83415,42.29951],[-87.83367,42.29832],[-87.83343,42.29804],[-87.83332,42.29716],[-87.8331,42.29656],[-87.83298,42.296],[-87.83298,42.29568],[-87.83315,42.29541],[-87.83303,42.29513],[-87.83378,42.29473],[-87.83383,42.29386],[-87.83339,42.29235],[-87.83269,42.29108],[-87.83248,42.29046],[-87.83249,42.29017],[-87.83265,42.2899],[-87.83253,42.28901],[-87.83261,42.28873],[-87.83257,42.28845],[-87.83239,42.28787],[-87.83237,42.28758],[-87.83207,42.28691],[-87.83211,42.28657],[-87.83198,42.28628],[-87.83176,42.28523],[-87.83164,42.28508],[-87.83168,42.28506],[-87.83163,42.28493],[-87.83151,42.28478],[-87.83143,42.2848],[-87.83136,42.28474],[-87.8316,42.28473],[-87.83162,42.28462],[-87.83147,42.28443],[-87.83132,42.28452],[-87.83134,42.28442],[-87.8315,42.28436],[-87.83135,42.28405],[-87.83137,42.28395],[-87.83118,42.2837],[-87.83114,42.28345],[-87.831,42.28327],[-87.83107,42.28324],[-87.8309,42.28275],[-87.83063,42.28226],[-87.83051,42.28182],[-87.82999,42.28091],[-87.82981,42.28027],[-87.82969,42.28014],[-87.82972,42.28004],[-87.82957,42.27962],[-87.82934,42.27942],[-87.82928,42.27942],[-87.82923,42.27952],[-87.82913,42.2795],[-87.82906,42.27916],[-87.82913,42.27912],[-87.82923,42.27921],[-87.82935,42.27906],[-87.82867,42.27749],[-87.82847,42.27735],[-87.82853,42.27729],[-87.82853,42.27704],[-87.82862,42.27706],[-87.82867,42.27721],[-87.82878,42.27719],[-87.82896,42.27707],[-87.82905,42.27688],[-87.82904,42.27667],[-87.82885,42.27631],[-87.82869,42.2762],[-87.82855,42.2763],[-87.82844,42.27612],[-87.82888,42.27609],[-87.82899,42.276],[-87.82902,42.27525],[-87.82869,42.27515],[-87.82862,42.27527],[-87.82852,42.27525],[-87.82861,42.27503],[-87.82876,42.27489],[-87.82888,42.27484],[-87.829,42.27491],[-87.82902,42.27396],[-87.829,42.27368],[-87.82862,42.27304],[-87.82854,42.27275],[-87.82855,42.27247],[-87.82839,42.27219],[-87.8286,42.2718],[-87.82831,42.27119],[-87.82851,42.27089],[-87.82846,42.27022],[-87.82822,42.26942],[-87.8283,42.2694],[-87.82795,42.26875],[-87.82803,42.26866],[-87.82802,42.26855],[-87.82785,42.26818],[-87.82715,42.26735],[-87.82702,42.26726],[-87.82676,42.26728],[-87.82648,42.2667],[-87.82636,42.26634],[-87.82652,42.2663],[-87.82662,42.26636],[-87.82681,42.26619],[-87.82676,42.2661],[-87.82697,42.26587],[-87.82682,42.26556],[-87.82688,42.26554],[-87.82672,42.2653],[-87.82647,42.2652],[-87.8264,42.26489],[-87.82616,42.26489],[-87.82608,42.26483],[-87.82607,42.26475],[-87.82628,42.26476],[-87.82626,42.26459],[-87.82613,42.26451],[-87.82601,42.26462],[-87.82595,42.26459],[-87.82597,42.26442],[-87.82621,42.26428],[-87.82594,42.26372],[-87.82587,42.26338],[-87.82565,42.26305],[-87.82567,42.26296],[-87.8249,42.26158],[-87.82448,42.2606],[-87.82395,42.25994],[-87.82302,42.25852],[-87.82218,42.25762],[-87.82145,42.25636],[-87.82124,42.25615],[-87.82066,42.25579],[-87.82074,42.25571],[-87.82092,42.2558],[-87.82097,42.25573],[-87.82096,42.25556],[-87.82079,42.25533],[-87.82053,42.25519],[-87.82021,42.25515],[-87.82009,42.25518],[-87.82023,42.25538],[-87.8201,42.25539],[-87.81963,42.25489],[-87.81962,42.25483],[-87.81972,42.25482],[-87.81996,42.25502],[-87.8201,42.25468],[-87.8201,42.25452],[-87.81999,42.25433],[-87.81977,42.25415],[-87.81944,42.25407],[-87.81925,42.25408],[-87.81933,42.25433],[-87.81919,42.25428],[-87.81891,42.25373],[-87.81904,42.25371],[-87.81922,42.25397],[-87.81922,42.2539],[-87.81943,42.25365],[-87.81945,42.25332],[-87.81909,42.25291],[-87.81888,42.25288],[-87.81883,42.25304],[-87.81872,42.25303],[-87.81865,42.25257],[-87.81869,42.25249],[-87.81876,42.2525],[-87.81883,42.25268],[-87.81903,42.25257],[-87.81914,42.25239],[-87.81913,42.25212],[-87.8188,42.25172],[-87.81859,42.25168],[-87.81854,42.25172],[-87.81857,42.2518],[-87.81848,42.25185],[-87.8184,42.25182],[-87.81767,42.25073],[-87.81765,42.25054],[-87.81784,42.25053],[-87.81799,42.25091],[-87.81827,42.25112],[-87.81884,42.25095],[-87.81864,42.25058],[-87.81851,42.25062],[-87.81744,42.24872],[-87.81743,42.24845],[-87.81761,42.24827],[-87.81781,42.24819],[-87.8177,42.2478],[-87.81776,42.24778],[-87.81756,42.24729],[-87.81751,42.24701],[-87.81735,42.24672],[-87.81734,42.24658],[-87.81714,42.24623],[-87.8169,42.24616],[-87.81678,42.2459],[-87.81683,42.24583],[-87.81698,42.24582],[-87.81698,42.24566],[-87.81685,42.24553],[-87.81666,42.24557],[-87.81657,42.24541],[-87.81658,42.24517],[-87.81669,42.24524],[-87.8168,42.24522],[-87.8169,42.24503],[-87.81681,42.24488],[-87.81667,42.24482],[-87.81655,42.24481],[-87.81658,42.24493],[-87.81646,42.24494],[-87.81641,42.24472],[-87.81672,42.24461],[-87.8167,42.24445],[-87.81648,42.24418],[-87.81651,42.24401],[-87.81641,42.24393],[-87.81632,42.24398],[-87.81624,42.24383],[-87.81627,42.24375],[-87.81638,42.24385],[-87.8165,42.24379],[-87.81639,42.24361],[-87.81643,42.24344],[-87.81619,42.24345],[-87.81622,42.24356],[-87.81618,42.2436],[-87.81607,42.24344],[-87.81608,42.24338],[-87.81618,42.24342],[-87.81651,42.24329],[-87.81641,42.24293],[-87.81622,42.24245],[-87.81599,42.24217],[-87.8158,42.24204],[-87.816,42.24197],[-87.81592,42.24171],[-87.81561,42.24123],[-87.81537,42.24105],[-87.81538,42.24099],[-87.81553,42.24094],[-87.8155,42.2408],[-87.81539,42.2407],[-87.81515,42.24078],[-87.81514,42.24069],[-87.81532,42.24057],[-87.8153,42.24044],[-87.81494,42.24002],[-87.81504,42.23997],[-87.81503,42.23963],[-87.81456,42.23908],[-87.81466,42.23878],[-87.81458,42.23858],[-87.81422,42.23814],[-87.81433,42.2381],[-87.81431,42.23792],[-87.81415,42.23716],[-87.81402,42.23695],[-87.81403,42.23684],[-87.81384,42.23657],[-87.81396,42.23652],[-87.81391,42.23632],[-87.81364,42.23595],[-87.81367,42.2358],[-87.81342,42.23541],[-87.81329,42.23526],[-87.81314,42.23525],[-87.81341,42.23509],[-87.81335,42.23485],[-87.813,42.23444],[-87.81284,42.23442],[-87.8131,42.23426],[-87.81309,42.23411],[-87.81272,42.23363],[-87.81245,42.23361],[-87.81282,42.23341],[-87.81254,42.23289],[-87.81239,42.23276],[-87.81222,42.23276],[-87.81249,42.23261],[-87.81247,42.23246],[-87.81198,42.23187],[-87.81195,42.23173],[-87.8115,42.23125],[-87.81204,42.23115],[-87.81199,42.23079],[-87.81191,42.23071],[-87.81198,42.2305],[-87.8121,42.23037],[-87.81211,42.23024],[-87.81198,42.22967],[-87.8115,42.22849],[-87.81128,42.22821],[-87.81124,42.22802],[-87.81093,42.22754],[-87.81026,42.22666],[-87.80961,42.22598],[-87.80952,42.22564],[-87.80865,42.22486],[-87.80869,42.22473],[-87.80857,42.22448],[-87.80762,42.2236],[-87.80654,42.22285],[-87.80683,42.22272],[-87.80675,42.22255],[-87.80692,42.22248],[-87.80687,42.22228],[-87.8061,42.22131],[-87.8063,42.22122],[-87.80622,42.22104],[-87.80605,42.22072],[-87.80575,42.2204],[-87.80572,42.22031],[-87.80577,42.22025],[-87.80538,42.21969],[-87.80529,42.21929],[-87.80485,42.21859],[-87.80497,42.21854],[-87.80491,42.21837],[-87.80453,42.21781],[-87.80461,42.21773],[-87.80467,42.21742],[-87.80454,42.21715],[-87.8043,42.21687],[-87.80407,42.21631],[-87.80385,42.21603],[-87.80383,42.21548],[-87.80359,42.21489],[-87.80359,42.21462],[-87.80286,42.21317],[-87.8029,42.21288],[-87.80285,42.2126],[-87.8024,42.21174],[-87.80245,42.21147],[-87.80227,42.21103],[-87.8019,42.21054],[-87.80165,42.21054],[-87.80143,42.21015],[-87.80117,42.21003],[-87.80103,42.21011],[-87.80095,42.21006],[-87.80086,42.20987],[-87.80092,42.20982],[-87.80108,42.20986],[-87.80113,42.20973],[-87.80109,42.20962],[-87.80082,42.20949],[-87.80076,42.20959],[-87.80067,42.2096],[-87.80053,42.20949],[-87.80049,42.20938],[-87.80081,42.20918],[-87.80077,42.20895],[-87.80063,42.20871],[-87.7999,42.20802],[-87.79972,42.20792],[-87.7998,42.20771],[-87.79891,42.20679],[-87.79877,42.20676],[-87.79853,42.20686],[-87.79908,42.20652],[-87.79856,42.20598],[-87.79796,42.20502],[-87.79715,42.20421],[-87.7965,42.20377],[-87.79659,42.2035],[-87.79648,42.20334],[-87.79667,42.20327],[-87.79665,42.20304],[-87.79631,42.2025],[-87.79643,42.20242],[-87.79641,42.20228],[-87.79599,42.20185],[-87.79614,42.20179],[-87.79606,42.20168],[-87.79561,42.20127],[-87.79569,42.20114],[-87.79531,42.2007],[-87.79529,42.20048],[-87.7947,42.19986],[-87.79462,42.19953],[-87.79413,42.19903],[-87.79406,42.1988],[-87.79349,42.19828],[-87.79351,42.19817],[-87.79343,42.19802],[-87.79285,42.19749],[-87.7929,42.19738],[-87.79283,42.19729],[-87.79254,42.19701],[-87.79216,42.19677],[-87.79235,42.19665],[-87.79233,42.19646],[-87.79179,42.19594],[-87.79156,42.19581],[-87.79175,42.19573],[-87.79174,42.19562],[-87.79106,42.19511],[-87.7912,42.19498],[-87.79056,42.19441],[-87.79062,42.19433],[-87.79042,42.19411],[-87.78994,42.19378],[-87.79006,42.19369],[-87.79003,42.1936],[-87.78935,42.19312],[-87.78944,42.19297],[-87.78927,42.19283],[-87.78818,42.19199],[-87.78756,42.19166],[-87.78664,42.19015],[-87.78676,42.1901],[-87.78691,42.19035],[-87.787,42.19034],[-87.78702,42.19026],[-87.78724,42.19011],[-87.78734,42.18981],[-87.7871,42.18924],[-87.78655,42.18873],[-87.78652,42.18867],[-87.78671,42.18857],[-87.78656,42.18837],[-87.78619,42.18812],[-87.78617,42.18808],[-87.78628,42.18798],[-87.78623,42.18789],[-87.78574,42.18752],[-87.78577,42.18742],[-87.78568,42.18727],[-87.78574,42.18723],[-87.78517,42.18676],[-87.78517,42.1866],[-87.78479,42.18635],[-87.78463,42.18606],[-87.78446,42.18598],[-87.78448,42.18588],[-87.78431,42.18565],[-87.784,42.18551],[-87.78409,42.18541],[-87.78405,42.18529],[-87.78359,42.18499],[-87.7837,42.1849],[-87.78358,42.18473],[-87.78313,42.18441],[-87.78322,42.1843],[-87.78209,42.18297],[-87.78187,42.18291],[-87.782,42.18284],[-87.78191,42.18267],[-87.78125,42.1822],[-87.78136,42.18209],[-87.78134,42.18197],[-87.781,42.18159],[-87.78064,42.18134],[-87.78084,42.18121],[-87.78083,42.1811],[-87.78054,42.1808],[-87.78022,42.1806],[-87.78032,42.18052],[-87.78032,42.18042],[-87.7801,42.18016],[-87.7798,42.17995],[-87.77968,42.17993],[-87.77975,42.17989],[-87.77953,42.17958],[-87.77962,42.17954],[-87.77959,42.17946],[-87.77899,42.17897],[-87.77913,42.17889],[-87.7791,42.1788],[-87.7786,42.1784],[-87.77867,42.17839],[-87.77852,42.17827],[-87.77855,42.17823],[-87.77846,42.1781],[-87.778,42.17766],[-87.77807,42.1776],[-87.77801,42.17741],[-87.77755,42.17707],[-87.77766,42.17701],[-87.77763,42.17692],[-87.77715,42.17652],[-87.77704,42.17649],[-87.77716,42.17635],[-87.77533,42.17435],[-87.77506,42.17419],[-87.7751,42.17404],[-87.77446,42.17329],[-87.77418,42.17314],[-87.77428,42.17308],[-87.77414,42.17291],[-87.77355,42.17256],[-87.77363,42.17248],[-87.77347,42.17229],[-87.77301,42.17198],[-87.77301,42.17188],[-87.77289,42.17177],[-87.77291,42.17168],[-87.77277,42.1717],[-87.77253,42.17146],[-87.77264,42.17142],[-87.77263,42.17136],[-87.7724,42.17137],[-87.77256,42.17128],[-87.7725,42.17115],[-87.77232,42.1711],[-87.77229,42.17082],[-87.7714,42.17009],[-87.77149,42.17001],[-87.77134,42.16987],[-87.77101,42.16966],[-87.77114,42.16958],[-87.7711,42.1695],[-87.77024,42.16891],[-87.77036,42.16884],[-87.76972,42.16845],[-87.76968,42.16829],[-87.76946,42.16815],[-87.76958,42.16809],[-87.76937,42.16785],[-87.76898,42.16757],[-87.76894,42.1675],[-87.76903,42.16744],[-87.76895,42.16728],[-87.76831,42.16683],[-87.7686,42.16666],[-87.76817,42.16613],[-87.76773,42.16537],[-87.76729,42.16477],[-87.76704,42.16462],[-87.76701,42.16441],[-87.76655,42.16397],[-87.76658,42.16389],[-87.7665,42.16373],[-87.76613,42.16339],[-87.76611,42.16322],[-87.76585,42.16283],[-87.76511,42.1621],[-87.76465,42.16177],[-87.76504,42.16157],[-87.76515,42.16142],[-87.76481,42.16083],[-87.76434,42.16031],[-87.7643,42.1602],[-87.76406,42.15997],[-87.76377,42.15982],[-87.76402,42.15968],[-87.764,42.15953],[-87.76368,42.15918],[-87.76348,42.15906],[-87.7634,42.15895],[-87.76344,42.15891],[-87.76304,42.15856],[-87.7628,42.15825],[-87.76245,42.15803],[-87.7625,42.15785],[-87.76222,42.15763],[-87.76227,42.15753],[-87.76208,42.1574],[-87.76207,42.15729],[-87.76162,42.157],[-87.76185,42.15689],[-87.76186,42.1568],[-87.76146,42.15622],[-87.7613,42.15607],[-87.76149,42.15597],[-87.7614,42.1557],[-87.76099,42.15513],[-87.76041,42.15453],[-87.75984,42.15371],[-87.75969,42.15366],[-87.75975,42.15356],[-87.75909,42.1525],[-87.75883,42.15227],[-87.75877,42.15237],[-87.75477,42.1525],[-87.74156,42.15323],[-87.72176,42.15343],[-87.62506,42.15213],[-87.50005,42.15199],[-87.37505,42.15152],[-87.12504,42.14991],[-87.11116,42.14941],[-87.10236,42.18219],[-87.08834,42.23533],[-87.08463,42.25003],[-87.06804,42.31435],[-87.05181,42.37503],[-87.04921,42.38456],[-87.04005,42.41699],[-87.01994,42.4935],[-87.12505,42.49368],[-87.25005,42.49357],[-87.37506,42.49382],[-87.50006,42.49352],[-87.62507,42.49295],[-87.75007,42.49269],[-87.79337,42.49172],[-87.79727,42.49192],[-87.80056,42.49192],[-87.80322,42.49257],[-87.80286,42.49072],[-87.80249,42.48997],[-87.80071,42.48976],[-87.80009,42.48963],[-87.79958,42.48939],[-87.79908,42.48907],[-87.79869,42.48864],[-87.7985,42.48828],[-87.79854,42.48819],[-87.79867,42.48823],[-87.79983,42.48789],[-87.79869,42.48515],[-87.79864,42.48485],[-87.79865,42.48364],[-87.79875,42.48315],[-87.79889,42.48116],[-87.79893,42.48101],[-87.79904,42.48094],[-87.79917,42.48018],[-87.79937,42.47987],[-87.79987,42.47965],[-87.80006,42.47964],[-87.80008,42.47958],[-87.8001,42.47911],[-87.79999,42.47791],[-87.8001,42.47742],[-87.79991,42.47648],[-87.79828,42.47276],[-87.79745,42.4712],[-87.79782,42.47076],[-87.7975,42.4699],[-87.79749,42.46953],[-87.79718,42.46909],[-87.79749,42.46904],[-87.79752,42.46831],[-87.79739,42.46812],[-87.79734,42.46789],[-87.79771,42.46788],[-87.79791,42.46777],[-87.7982,42.4671],[-87.79874,42.46645],[-87.79898,42.46532],[-87.79902,42.46442],[-87.79892,42.4638],[-87.79946,42.46333],[-87.79969,42.46323],[-87.8,42.46321],[-87.80024,42.46297],[-87.80038,42.46246],[-87.80035,42.46117],[-87.80026,42.46074],[-87.80034,42.46067],[-87.80036,42.46045],[-87.80015,42.45923],[-87.80021,42.45872],[-87.80014,42.45825],[-87.8002,42.45786],[-87.80009,42.45764],[-87.80023,42.45726],[-87.80023,42.45699],[-87.79984,42.45529],[-87.79985,42.45495],[-87.7997,42.45407],[-87.79976,42.45303],[-87.79956,42.45302],[-87.79967,42.45261],[-87.79957,42.45261],[-87.79969,42.45172],[-87.79955,42.45016],[-87.79994,42.44884],[-87.79995,42.44825],[-87.80022,42.44763],[-87.80023,42.44682],[-87.8003,42.44641],[-87.80044,42.44615],[-87.80029,42.44681],[-87.80035,42.44704],[-87.80038,42.44697],[-87.80034,42.44669],[-87.80048,42.44617],[-87.80058,42.44476],[-87.80072,42.44397],[-87.80119,42.44311],[-87.80127,42.4425],[-87.80185,42.44224],[-87.80191,42.44206],[-87.80241,42.44129],[-87.80262,42.43977],[-87.80263,42.4391],[-87.80274,42.43891],[-87.80278,42.43856],[-87.80293,42.43835],[-87.80299,42.43798],[-87.80318,42.43777],[-87.80387,42.43225],[-87.80413,42.43152],[-87.80443,42.43098],[-87.80448,42.43022],[-87.80425,42.42927],[-87.80422,42.42866],[-87.80445,42.42803],[-87.80441,42.42767],[-87.80392,42.42491],[-87.80402,42.42282],[-87.80418,42.42219],[-87.80416,42.42189],[-87.80343,42.41776],[-87.80308,42.41614],[-87.80297,42.41507],[-87.80283,42.41099],[-87.80258,42.40749],[-87.80303,42.40482],[-87.803,42.40389],[-87.80289,42.40307],[-87.8029,42.40032],[-87.80262,42.39601],[-87.80237,42.39409],[-87.80168,42.39081],[-87.80168,42.39056],[-87.80192,42.39035],[-87.80255,42.39023],[-87.80276,42.39012],[-87.80326,42.38951],[-87.80328,42.38919],[-87.80348,42.38839],[-87.80382,42.38778],[-87.80397,42.38706],[-87.80437,42.38601],[-87.80487,42.38367],[-87.80503,42.38351],[-87.80546,42.38341],[-87.80625,42.38334],[-87.80667,42.38346],[-87.80714,42.38279],[-87.80743,42.38192],[-87.80748,42.38137],[-87.80743,42.3808],[-87.80708,42.38026],[-87.80703,42.37989],[-87.80708,42.37969],[-87.80789,42.37846],[-87.80808,42.37827],[-87.80843,42.37764],[-87.80856,42.37724],[-87.80865,42.37723],[-87.80907,42.37692],[-87.80978,42.37585],[-87.80998,42.37549],[-87.81004,42.37515],[-87.81021,42.37473],[-87.81059,42.3741],[-87.81083,42.37339],[-87.81115,42.37293],[-87.81163,42.37249],[-87.8118,42.37212],[-87.81203,42.37106],[-87.81221,42.37067],[-87.81229,42.37035],[-87.81252,42.36995],[-87.81247,42.37014],[-87.81256,42.37006],[-87.81265,42.36985],[-87.81301,42.36821],[-87.81305,42.36729],[-87.81284,42.36514],[-87.8129,42.36503],[-87.8128,42.36448],[-87.81282,42.36421],[-87.81301,42.36392],[-87.81485,42.36417],[-87.81492,42.36404],[-87.81605,42.36306],[-87.81638,42.36256],[-87.81654,42.36208],[-87.81651,42.36137],[-87.82012,42.36139],[-87.82095,42.36166],[-87.82208,42.36259],[-87.82208,42.36347],[-87.82154,42.36396],[-87.8214,42.36439],[-87.82122,42.36546],[-87.82082,42.36699],[-87.81919,42.36716],[-87.8192,42.36752],[-87.82051,42.36744],[-87.82051,42.36728],[-87.82068,42.36725],[-87.82069,42.36749],[-87.82125,42.36752],[-87.8216,42.36673],[-87.82164,42.36642],[-87.82185,42.3659],[-87.82244,42.36568],[-87.82221,42.36473],[-87.82264,42.36436],[-87.82307,42.36426],[-87.82355,42.36438],[-87.82403,42.36477],[-87.82525,42.3655],[-87.82523,42.36496],[-87.82388,42.36406],[-87.82358,42.3637],[-87.82361,42.36187],[-87.82411,42.36184],[-87.82407,42.3605],[-87.82429,42.36031],[-87.82421,42.35953],[-87.82414,42.35953],[-87.82417,42.35835],[-87.82409,42.35832],[-87.82409,42.35797],[-87.82418,42.35793],[-87.82418,42.35706],[-87.82373,42.35694],[-87.82237,42.35689],[-87.82204,42.3568],[-87.82062,42.35679],[-87.8206,42.35669],[-87.82314,42.35658],[-87.82395,42.3567],[-87.82438,42.3567],[-87.82452,42.35677],[-87.82511,42.35633],[-87.82547,42.35597],[-87.82577,42.35553],[-87.82587,42.3545],[-87.82582,42.35388],[-87.82601,42.35297],[-87.82599,42.35254],[-87.82608,42.35142],[-87.82636,42.34936],[-87.82659,42.34859],[-87.8264,42.34799],[-87.8264,42.34749],[-87.82654,42.34708],[-87.82691,42.3468],[-87.82701,42.34627],[-87.82691,42.34529],[-87.82692,42.34449],[-87.82672,42.3436],[-87.82686,42.34126],[-87.82665,42.34041],[-87.82678,42.33982],[-87.82687,42.33891],[-87.8268,42.33828],[-87.82698,42.338],[-87.82699,42.33771],[-87.82736,42.33715],[-87.82736,42.33688],[-87.82746,42.33657],[-87.8284,42.33509],[-87.82855,42.33445],[-87.8287,42.33418],[-87.82891,42.33389],[-87.82925,42.3336],[-87.8297,42.333],[-87.83018,42.33209],[-87.83022,42.33181],[-87.83037,42.33153],[-87.83074,42.33131],[-87.83104,42.33073],[-87.83142,42.33053],[-87.83147,42.33025],[-87.83141,42.32996],[-87.83151,42.32966],[-87.83154,42.32881],[-87.83163,42.32853],[-87.83149,42.32824],[-87.83148,42.32796],[-87.83171,42.32767],[-87.83171,42.32678],[-87.83188,42.32649],[-87.83197,42.32574],[-87.83147,42.32425],[-87.83049,42.32215],[-87.83053,42.32188],[-87.83074,42.32157],[-87.83037,42.32085],[-87.83051,42.32065],[-87.83058,42.32042],[-87.83072,42.31973],[-87.8307,42.3194],[-87.83094,42.31914],[-87.83087,42.31896],[-87.83089,42.31873],[-87.83079,42.31866],[-87.83112,42.31848],[-87.83111,42.31828],[-87.8309,42.31797],[-87.83114,42.3178],[-87.8308,42.31719],[-87.83059,42.31723],[-87.83048,42.31711],[-87.83064,42.31691],[-87.83091,42.3169],[-87.83106,42.31681],[-87.83106,42.31652],[-87.83029,42.31478],[-87.82837,42.31146],[-87.82816,42.31127],[-87.82768,42.31107],[-87.82766,42.31093],[-87.82622,42.31019],[-87.82617,42.30987],[-87.82664,42.30968],[-87.82688,42.3097],[-87.82725,42.31008],[-87.8282,42.3107],[-87.829,42.31097],[-87.82982,42.311],[-87.83052,42.31084],[-87.83101,42.31062],[-87.83179,42.31015],[-87.83198,42.30994],[-87.83226,42.30937],[-87.83215,42.30889],[-87.83077,42.30867],[-87.8308,42.30875],[-87.83072,42.30877],[-87.83052,42.30828],[-87.83058,42.30824],[-87.83075,42.30862],[-87.83292,42.30899],[-87.83304,42.30852],[-87.83425,42.30874],[-87.83418,42.30903],[-87.83593,42.30932]]]},"properties":{"NAME":"Lk Michigan","MTFCC":"H2030","AREAWATER":2324858816,"OBJECTID":963902}},{"type":"Feature","id":1110066,"geometry":{"type":"Polygon","coordinates":[[[-87.7108,42.09544],[-87.7099,42.09479],[-87.70824,42.09387],[-87.70813,42.09368],[-87.70707,42.09304],[-87.70681,42.09261],[-87.70593,42.09176],[-87.70497,42.09113],[-87.70386,42.09058],[-87.70389,42.09045],[-87.70327,42.08992],[-87.70316,42.08992],[-87.70258,42.08951],[-87.70218,42.08944],[-87.70162,42.08906],[-87.70023,42.08839],[-87.70019,42.08829],[-87.70022,42.08805],[-87.69884,42.08729],[-87.69845,42.08693],[-87.6982,42.08708],[-87.69752,42.08653],[-87.69774,42.0864],[-87.69735,42.08604],[-87.69668,42.08578],[-87.69453,42.08438],[-87.68941,42.08188],[-87.68898,42.08179],[-87.688,42.08128],[-87.6864,42.08068],[-87.68222,42.07887],[-87.68099,42.07794],[-87.68098,42.07739],[-87.68223,42.07719],[-87.68233,42.07686],[-87.68188,42.0768],[-87.68218,42.07543],[-87.6819,42.07476],[-87.68134,42.07405],[-87.68105,42.07348],[-87.68002,42.07241],[-87.67959,42.07171],[-87.67599,42.07162],[-87.66976,42.07163],[-87.67053,42.07227],[-87.67142,42.07345],[-87.67172,42.07502],[-87.67191,42.07623],[-87.67183,42.07729],[-87.67122,42.07948],[-87.67116,42.0809],[-87.67155,42.08194],[-87.67239,42.08261],[-87.6735,42.08312],[-87.67506,42.08371],[-87.68107,42.08621],[-87.68389,42.08759],[-87.688,42.08993],[-87.69437,42.09432],[-87.6973,42.09641],[-87.69953,42.09832],[-87.70014,42.09892],[-87.70353,42.10173],[-87.70821,42.09784],[-87.7108,42.09544]]]},"properties":{"NAME":"Lk Michigan","MTFCC":"H2030","AREAWATER":3477229,"OBJECTID":1110066}},{"type":"Feature","id":1254907,"geometry":{"type":"Polygon","coordinates":[[[-87.20644,41.7663],[-87.20777,41.76096],[-87.12504,41.76137],[-87.12504,41.76042],[-87.00003,41.76074],[-86.93437,41.76104],[-86.87503,41.76033],[-86.84171,41.76027],[-86.83647,41.76038],[-86.82557,41.76035],[-86.82496,41.7603],[-86.81878,41.76307],[-86.81636,41.76435],[-86.8155,41.76468],[-86.81302,41.76608],[-86.81234,41.76632],[-86.81223,41.7666],[-86.81108,41.76714],[-86.81012,41.76774],[-86.80818,41.76875],[-86.80759,41.76902],[-86.80654,41.76938],[-86.80435,41.77045],[-86.80407,41.77074],[-86.80381,41.77087],[-86.80287,41.77118],[-86.80207,41.77166],[-86.80222,41.77184],[-86.80205,41.77202],[-86.80136,41.7722],[-86.79978,41.77286],[-86.79941,41.77305],[-86.79975,41.77297],[-86.79991,41.773],[-86.79849,41.77366],[-86.79772,41.77392],[-86.79557,41.77516],[-86.79469,41.77575],[-86.79389,41.77605],[-86.79346,41.7764],[-86.79307,41.77746],[-86.79309,41.77808],[-86.79286,41.77823],[-86.79082,41.77908],[-86.79009,41.77949],[-86.78635,41.78129],[-86.78352,41.78303],[-86.78258,41.78345],[-86.78103,41.78436],[-86.78028,41.7844],[-86.77903,41.78478],[-86.77851,41.78469],[-86.77771,41.78424],[-86.77661,41.78478],[-86.77669,41.78487],[-86.77595,41.78552],[-86.77468,41.7862],[-86.77324,41.78681],[-86.77273,41.78732],[-86.77255,41.78742],[-86.77211,41.78751],[-86.7716,41.7878],[-86.77104,41.78799],[-86.77026,41.78844],[-86.76846,41.78916],[-86.76788,41.78973],[-86.76747,41.79003],[-86.76469,41.79162],[-86.76327,41.79261],[-86.76257,41.79297],[-86.7609,41.79363],[-86.76017,41.79402],[-86.75926,41.79481],[-86.75706,41.79593],[-86.75484,41.79733],[-86.75445,41.79747],[-86.75396,41.79781],[-86.75323,41.79807],[-86.75212,41.79906],[-86.75133,41.79959],[-86.75102,41.79995],[-86.75064,41.80026],[-86.74998,41.80121],[-86.74931,41.80191],[-86.7475,41.80264],[-86.74627,41.80332],[-86.74496,41.80389],[-86.74471,41.80409],[-86.74319,41.80475],[-86.73999,41.80634],[-86.73898,41.80687],[-86.73814,41.8074],[-86.73783,41.8075],[-86.73673,41.80814],[-86.73375,41.80963],[-86.72906,41.81216],[-86.72743,41.81321],[-86.72706,41.81328],[-86.72686,41.81339],[-86.7245,41.81484],[-86.7221,41.81614],[-86.72119,41.81677],[-86.72044,41.81715],[-86.71665,41.81948],[-86.71354,41.82196],[-86.71182,41.82308],[-86.71124,41.82381],[-86.71073,41.82416],[-86.71042,41.82477],[-86.70877,41.82593],[-86.7076,41.82663],[-86.70443,41.82892],[-86.7035,41.82942],[-86.70114,41.83094],[-86.69974,41.83168],[-86.69676,41.8328],[-86.69616,41.83318],[-86.69424,41.83419],[-86.69296,41.83492],[-86.69209,41.83554],[-86.68783,41.83795],[-86.68742,41.83831],[-86.68584,41.83922],[-86.68508,41.83979],[-86.68481,41.83991],[-86.68445,41.84018],[-86.68383,41.8408],[-86.68358,41.84107],[-86.68345,41.84137],[-86.68371,41.84122],[-86.68429,41.8407],[-86.68415,41.84095],[-86.68389,41.8412],[-86.68343,41.84151],[-86.68309,41.84156],[-86.68268,41.84181],[-86.68195,41.84234],[-86.68193,41.84245],[-86.68212,41.8424],[-86.68179,41.84261],[-86.68147,41.8427],[-86.6808,41.84317],[-86.67987,41.84429],[-86.67883,41.84583],[-86.67837,41.84613],[-86.6772,41.84787],[-86.67683,41.84867],[-86.67607,41.84923],[-86.67386,41.85165],[-86.67294,41.85225],[-86.6717,41.85324],[-86.67102,41.85382],[-86.67023,41.85463],[-86.66901,41.8557],[-86.66772,41.85644],[-86.66673,41.85712],[-86.66631,41.85764],[-86.66481,41.85836],[-86.66362,41.85923],[-86.6598,41.86173],[-86.65873,41.86253],[-86.65649,41.86456],[-86.65584,41.86501],[-86.65529,41.86529],[-86.65327,41.86654],[-86.65208,41.86756],[-86.65116,41.86799],[-86.65075,41.86835],[-86.65034,41.86889],[-86.64837,41.87],[-86.64791,41.87046],[-86.64759,41.87065],[-86.64763,41.8711],[-86.64671,41.87194],[-86.64592,41.8723],[-86.64447,41.87321],[-86.64402,41.87372],[-86.64234,41.8748],[-86.64131,41.87558],[-86.64103,41.87594],[-86.64047,41.87629],[-86.6393,41.8772],[-86.63875,41.87779],[-86.6373,41.87908],[-86.63415,41.88159],[-86.63244,41.88276],[-86.63049,41.88461],[-86.62974,41.88547],[-86.62749,41.88704],[-86.62585,41.88829],[-86.6253,41.88875],[-86.62458,41.88953],[-86.62381,41.89026],[-86.62178,41.89183],[-86.62085,41.89279],[-86.61915,41.89474],[-86.61693,41.89667],[-86.61629,41.89751],[-86.61456,41.89902],[-86.61416,41.89963],[-86.61216,41.90211],[-86.61168,41.90257],[-86.61137,41.90305],[-86.60967,41.90464],[-86.60906,41.90529],[-86.60742,41.90719],[-86.60565,41.90942],[-86.60493,41.91016],[-86.60399,41.91134],[-86.60349,41.9119],[-86.60272,41.9126],[-86.6011,41.91439],[-86.59979,41.9164],[-86.59851,41.91781],[-86.5974,41.91918],[-86.59585,41.9213],[-86.59475,41.92261],[-86.59425,41.92335],[-86.59397,41.92414],[-86.59352,41.92493],[-86.5928,41.92571],[-86.59164,41.92719],[-86.59083,41.9284],[-86.59042,41.92924],[-86.58917,41.93126],[-86.58859,41.93256],[-86.58779,41.93371],[-86.58746,41.93428],[-86.58721,41.93498],[-86.58656,41.93546],[-86.5861,41.93606],[-86.58555,41.93729],[-86.58522,41.93761],[-86.58471,41.9383],[-86.58451,41.93843],[-86.58421,41.93882],[-86.58362,41.93998],[-86.58295,41.94104],[-86.5824,41.9423],[-86.58055,41.94548],[-86.57982,41.94693],[-86.57854,41.95014],[-86.57828,41.95045],[-86.57737,41.9522],[-86.57588,41.95473],[-86.57542,41.95602],[-86.57447,41.95833],[-86.57377,41.95934],[-86.57287,41.96097],[-86.57286,41.96167],[-86.57251,41.96275],[-86.57184,41.96423],[-86.57118,41.96527],[-86.57024,41.96733],[-86.56968,41.96824],[-86.56937,41.96886],[-86.56926,41.97006],[-86.56895,41.97086],[-86.5688,41.9718],[-86.56862,41.97228],[-86.56816,41.97342],[-86.56773,41.97413],[-86.56715,41.97463],[-86.56674,41.97591],[-86.56594,41.97779],[-86.56571,41.97866],[-86.56535,41.97951],[-86.56446,41.98212],[-86.56416,41.98262],[-86.56405,41.98305],[-86.56372,41.98365],[-86.56319,41.9851],[-86.56274,41.9859],[-86.56216,41.98748],[-86.56193,41.98799],[-86.56063,41.9901],[-86.56005,41.99163],[-86.55909,41.99327],[-86.55877,41.99368],[-86.55774,41.99573],[-86.55758,41.99637],[-86.55759,41.99656],[-86.55744,41.99691],[-86.55718,41.9972],[-86.5569,41.99805],[-86.55655,41.99943],[-86.55656,42.00005],[-86.55619,42.00103],[-86.55603,42.0012],[-86.55516,42.00269],[-86.55437,42.00389],[-86.55309,42.00616],[-86.55228,42.00736],[-86.55086,42.00929],[-86.55029,42.00973],[-86.54994,42.01011],[-86.54927,42.01099],[-86.54887,42.01173],[-86.54807,42.01293],[-86.54672,42.01534],[-86.54581,42.01638],[-86.5456,42.01673],[-86.54552,42.01712],[-86.54537,42.01708],[-86.54525,42.01713],[-86.5451,42.01733],[-86.5434,42.02034],[-86.54238,42.02163],[-86.54202,42.02221],[-86.54153,42.02282],[-86.54027,42.02492],[-86.53935,42.02666],[-86.5385,42.02779],[-86.53811,42.02848],[-86.53722,42.02979],[-86.5366,42.03063],[-86.53571,42.03163],[-86.53536,42.0323],[-86.53394,42.03439],[-86.53355,42.03534],[-86.53291,42.03609],[-86.53267,42.03645],[-86.53252,42.03681],[-86.53165,42.03776],[-86.53136,42.03817],[-86.5307,42.03914],[-86.53024,42.04008],[-86.52992,42.04048],[-86.52882,42.04229],[-86.52786,42.04354],[-86.52626,42.04584],[-86.52477,42.04778],[-86.52447,42.04828],[-86.5244,42.0486],[-86.52443,42.04875],[-86.52428,42.04928],[-86.52408,42.04946],[-86.52294,42.05102],[-86.52209,42.05172],[-86.52157,42.05236],[-86.52143,42.05256],[-86.52143,42.05287],[-86.52133,42.05313],[-86.52015,42.05451],[-86.51955,42.05574],[-86.51874,42.05681],[-86.51778,42.0578],[-86.51757,42.05808],[-86.51746,42.05837],[-86.51689,42.05909],[-86.51653,42.06012],[-86.51603,42.061],[-86.51574,42.06143],[-86.5148,42.06247],[-86.51449,42.06297],[-86.51443,42.06338],[-86.51381,42.06394],[-86.51311,42.06487],[-86.51271,42.06559],[-86.51263,42.06588],[-86.5127,42.06608],[-86.51279,42.06614],[-86.51262,42.06644],[-86.51241,42.06662],[-86.51238,42.0668],[-86.51203,42.06727],[-86.51201,42.06749],[-86.51119,42.06892],[-86.5112,42.06912],[-86.51065,42.06962],[-86.51018,42.07022],[-86.50976,42.07061],[-86.50927,42.07135],[-86.50926,42.07149],[-86.50936,42.0717],[-86.50932,42.0719],[-86.50907,42.07231],[-86.50813,42.07306],[-86.50775,42.07351],[-86.50768,42.07368],[-86.50771,42.07404],[-86.50764,42.07418],[-86.50721,42.07474],[-86.5068,42.07552],[-86.50594,42.07672],[-86.50542,42.07784],[-86.50489,42.07866],[-86.50478,42.07897],[-86.5048,42.07913],[-86.50466,42.07932],[-86.50451,42.07981],[-86.50398,42.08035],[-86.5034,42.08122],[-86.50334,42.08142],[-86.50278,42.08209],[-86.50234,42.08282],[-86.50243,42.08292],[-86.50237,42.08305],[-86.50178,42.08392],[-86.50157,42.08437],[-86.50136,42.08455],[-86.50128,42.08478],[-86.50074,42.08535],[-86.50053,42.08587],[-86.50003,42.08652],[-86.49977,42.08725],[-86.49975,42.08743],[-86.49987,42.0876],[-86.49972,42.088],[-86.49969,42.08848],[-86.4996,42.08883],[-86.49914,42.08932],[-86.49837,42.09084],[-86.49717,42.09296],[-86.49662,42.09368],[-86.49614,42.09447],[-86.49558,42.09572],[-86.49528,42.09601],[-86.49516,42.09652],[-86.49499,42.09671],[-86.49473,42.09732],[-86.4947,42.09755],[-86.49477,42.09817],[-86.49449,42.09903],[-86.49429,42.0993],[-86.49288,42.10059],[-86.49271,42.10083],[-86.49247,42.10159],[-86.49151,42.10275],[-86.49101,42.1036],[-86.49086,42.10417],[-86.49062,42.10466],[-86.49028,42.10508],[-86.49002,42.10556],[-86.48975,42.10617],[-86.48978,42.10638],[-86.48863,42.10893],[-86.48823,42.11023],[-86.48815,42.11066],[-86.48818,42.11167],[-86.48801,42.11341],[-86.48789,42.11375],[-86.48554,42.11271],[-86.4855,42.1126],[-86.48508,42.11239],[-86.48343,42.11194],[-86.48294,42.11191],[-86.48259,42.11306],[-86.48279,42.11308],[-86.48286,42.11317],[-86.4827,42.11411],[-86.48287,42.11452],[-86.48274,42.11516],[-86.48408,42.11534],[-86.4847,42.11468],[-86.4838,42.11457],[-86.48351,42.11385],[-86.48479,42.11363],[-86.48486,42.11342],[-86.48499,42.11341],[-86.48523,42.11359],[-86.48546,42.11339],[-86.48843,42.11485],[-86.48947,42.11513],[-86.48927,42.11591],[-86.48902,42.11622],[-86.48847,42.11669],[-86.48754,42.11709],[-86.48708,42.1175],[-86.48678,42.11767],[-86.48579,42.118],[-86.48538,42.11821],[-86.48125,42.12107],[-86.48052,42.12163],[-86.47884,42.12323],[-86.47519,42.12646],[-86.47433,42.12711],[-86.4726,42.1286],[-86.47192,42.12927],[-86.47124,42.12958],[-86.47084,42.13],[-86.47029,42.13076],[-86.46832,42.13238],[-86.46816,42.13267],[-86.46667,42.134],[-86.46656,42.13412],[-86.4666,42.1343],[-86.4664,42.1345],[-86.4649,42.13576],[-86.4648,42.13604],[-86.46432,42.13633],[-86.46365,42.137],[-86.46321,42.1372],[-86.46209,42.13828],[-86.46043,42.13972],[-86.45955,42.14067],[-86.45877,42.14135],[-86.45794,42.14237],[-86.45652,42.14384],[-86.45529,42.14494],[-86.4542,42.1458],[-86.45297,42.14737],[-86.45207,42.14802],[-86.45161,42.14843],[-86.45103,42.14909],[-86.44999,42.15001],[-86.44879,42.1513],[-86.44781,42.15267],[-86.44688,42.15333],[-86.44562,42.15468],[-86.44488,42.1553],[-86.44401,42.15619],[-86.44354,42.15659],[-86.44283,42.15748],[-86.44212,42.15821],[-86.44154,42.159],[-86.44032,42.16036],[-86.44007,42.16055],[-86.43969,42.161],[-86.43866,42.16181],[-86.4373,42.16333],[-86.43666,42.16382],[-86.43542,42.1651],[-86.43424,42.16596],[-86.43358,42.16664],[-86.43247,42.16761],[-86.43209,42.16803],[-86.4305,42.16931],[-86.42864,42.17129],[-86.42681,42.17285],[-86.42553,42.17414],[-86.42394,42.17596],[-86.42365,42.17614],[-86.42338,42.17642],[-86.42318,42.17677],[-86.42293,42.17705],[-86.42239,42.17745],[-86.42203,42.17795],[-86.42132,42.17841],[-86.42087,42.17893],[-86.41856,42.18109],[-86.41742,42.1825],[-86.41695,42.18283],[-86.41593,42.1839],[-86.41537,42.1844],[-86.41468,42.18521],[-86.41456,42.18548],[-86.41367,42.18635],[-86.41319,42.18692],[-86.41256,42.18748],[-86.41237,42.1878],[-86.41153,42.18873],[-86.41044,42.18976],[-86.41016,42.19022],[-86.40919,42.19116],[-86.40872,42.1915],[-86.40738,42.19283],[-86.4069,42.19354],[-86.40612,42.19431],[-86.4053,42.19493],[-86.40442,42.19607],[-86.4027,42.1978],[-86.40194,42.19888],[-86.39861,42.20247],[-86.39813,42.20315],[-86.39751,42.20363],[-86.39685,42.20427],[-86.39653,42.20462],[-86.39633,42.20497],[-86.39585,42.20531],[-86.39467,42.2069],[-86.39206,42.20955],[-86.39151,42.21026],[-86.39095,42.21074],[-86.3905,42.21127],[-86.38983,42.21191],[-86.389,42.213],[-86.38849,42.21356],[-86.38817,42.21375],[-86.38638,42.21602],[-86.38564,42.21682],[-86.3836,42.21927],[-86.38316,42.22009],[-86.38237,42.22093],[-86.38217,42.22128],[-86.3816,42.2219],[-86.38063,42.22275],[-86.38011,42.22351],[-86.38014,42.22358],[-86.38035,42.22328],[-86.38044,42.22325],[-86.38036,42.2235],[-86.37868,42.2251],[-86.37834,42.22569],[-86.37717,42.22711],[-86.37662,42.22791],[-86.37625,42.22828],[-86.37578,42.22902],[-86.37462,42.23033],[-86.37454,42.2305],[-86.37409,42.23093],[-86.3739,42.23121],[-86.37295,42.23208],[-86.37269,42.23268],[-86.37157,42.23379],[-86.37085,42.2349],[-86.37072,42.2352],[-86.36942,42.23663],[-86.36781,42.23917],[-86.36731,42.23978],[-86.36674,42.24027],[-86.36655,42.24057],[-86.36655,42.24077],[-86.36614,42.24111],[-86.36601,42.24135],[-86.36552,42.24186],[-86.36541,42.24209],[-86.36506,42.24229],[-86.3649,42.24254],[-86.36488,42.24275],[-86.3646,42.24314],[-86.37492,42.24296],[-86.50131,42.24286],[-86.62599,42.24248],[-86.75068,42.24169],[-87.00004,42.24039],[-87.00004,42.23545],[-87.08834,42.23533],[-87.10236,42.18219],[-87.11116,42.14941],[-87.12504,42.0971],[-87.12504,42.09512],[-87.13454,42.05876],[-87.15001,42.00003],[-87.14843,42.00001],[-87.17937,41.87503],[-87.20644,41.7663]]]},"properties":{"NAME":"Lk Michigan","MTFCC":"H2030","AREAWATER":2593130981,"OBJECTID":1254907}},{"type":"Feature","id":1326926,"geometry":{"type":"Polygon","coordinates":[[[-87.75883,42.15227],[-87.75862,42.15214],[-87.75873,42.1521],[-87.75874,42.15195],[-87.75823,42.15161],[-87.75835,42.15155],[-87.75809,42.15129],[-87.7577,42.1506],[-87.75739,42.15024],[-87.75744,42.15004],[-87.75675,42.14926],[-87.75687,42.1492],[-87.75676,42.14886],[-87.75588,42.14764],[-87.75506,42.14667],[-87.75471,42.14616],[-87.75482,42.14611],[-87.75433,42.14558],[-87.75445,42.14554],[-87.75405,42.14512],[-87.75406,42.145],[-87.75397,42.14491],[-87.75381,42.14449],[-87.75345,42.1439],[-87.75273,42.14327],[-87.75287,42.14316],[-87.75179,42.14188],[-87.75114,42.14094],[-87.75022,42.13995],[-87.74791,42.13781],[-87.74864,42.13748],[-87.74825,42.13705],[-87.74774,42.1362],[-87.74723,42.13559],[-87.74717,42.13545],[-87.74624,42.13456],[-87.74599,42.13425],[-87.74551,42.13394],[-87.74568,42.13376],[-87.74435,42.13267],[-87.74448,42.13257],[-87.7437,42.13182],[-87.74376,42.13179],[-87.74366,42.13165],[-87.74305,42.13102],[-87.74312,42.13099],[-87.74274,42.13059],[-87.74295,42.13049],[-87.7424,42.12989],[-87.74257,42.12982],[-87.74211,42.1292],[-87.74177,42.1289],[-87.74192,42.12878],[-87.74145,42.12815],[-87.7413,42.12783],[-87.74135,42.12778],[-87.74133,42.12767],[-87.74071,42.12709],[-87.74089,42.12701],[-87.74069,42.12674],[-87.74029,42.1263],[-87.73991,42.12605],[-87.73951,42.12566],[-87.73969,42.12558],[-87.73919,42.12501],[-87.62507,42.12502],[-87.62505,42.00003],[-87.50005,42.00003],[-87.50005,41.87503],[-87.60562,41.87503],[-87.60925,41.88233],[-87.6161,41.88226],[-87.61632,41.88207],[-87.61648,41.88175],[-87.61649,41.88144],[-87.61577,41.88144],[-87.61572,41.88059],[-87.61648,41.88056],[-87.61644,41.87981],[-87.61636,41.8798],[-87.61617,41.87504],[-87.6162,41.87198],[-87.61634,41.87186],[-87.61626,41.8689],[-87.6157,41.86862],[-87.61536,41.86825],[-87.61478,41.86825],[-87.61467,41.86834],[-87.61402,41.86836],[-87.61367,41.86843],[-87.61296,41.86839],[-87.61264,41.86828],[-87.61238,41.86811],[-87.61218,41.86769],[-87.61224,41.86737],[-87.61262,41.86695],[-87.61241,41.8667],[-87.60776,41.86677],[-87.60739,41.86706],[-87.60691,41.86718],[-87.6064,41.86715],[-87.60615,41.86706],[-87.60585,41.86685],[-87.60571,41.86665],[-87.60563,41.8664],[-87.60573,41.86603],[-87.60608,41.86561],[-87.60608,41.86473],[-87.60631,41.86465],[-87.60632,41.86491],[-87.60662,41.86504],[-87.60704,41.86493],[-87.60727,41.86474],[-87.60738,41.86454],[-87.60746,41.86398],[-87.60697,41.8626],[-87.60664,41.8623],[-87.60657,41.86207],[-87.60634,41.8619],[-87.60619,41.86199],[-87.60599,41.86195],[-87.60597,41.86006],[-87.60606,41.85999],[-87.60709,41.85997],[-87.60658,41.85346],[-87.60643,41.85338],[-87.60643,41.85327],[-87.60652,41.8532],[-87.609,41.8531],[-87.6095,41.85325],[-87.60982,41.85351],[-87.61069,41.85322],[-87.61061,41.85292],[-87.60926,41.85096],[-87.6092,41.85038],[-87.60945,41.84909],[-87.60938,41.84781],[-87.60931,41.84755],[-87.60859,41.84641],[-87.60851,41.84613],[-87.60852,41.84581],[-87.60909,41.84459],[-87.60914,41.84442],[-87.60912,41.84419],[-87.60866,41.84296],[-87.60812,41.84228],[-87.60813,41.84143],[-87.60802,41.84117],[-87.60757,41.84057],[-87.60721,41.83962],[-87.60701,41.83932],[-87.6062,41.83875],[-87.60611,41.83688],[-87.60597,41.83642],[-87.60557,41.83579],[-87.60463,41.8349],[-87.60467,41.83479],[-87.60498,41.83459],[-87.6051,41.83442],[-87.60504,41.83375],[-87.60477,41.83338],[-87.6044,41.8331],[-87.60407,41.83298],[-87.60348,41.83303],[-87.60282,41.83237],[-87.6029,41.83146],[-87.60272,41.83086],[-87.60243,41.83044],[-87.60171,41.82983],[-87.60191,41.82953],[-87.60176,41.82873],[-87.60051,41.8269],[-87.59959,41.82666],[-87.59903,41.82633],[-87.59862,41.8257],[-87.5985,41.82447],[-87.5984,41.82429],[-87.59763,41.8236],[-87.59733,41.82303],[-87.59727,41.82265],[-87.59692,41.82212],[-87.59607,41.82115],[-87.59566,41.82042],[-87.59549,41.8202],[-87.59486,41.81979],[-87.59447,41.81915],[-87.594,41.81915],[-87.59356,41.81867],[-87.59282,41.81834],[-87.59232,41.81758],[-87.59237,41.81688],[-87.59225,41.81662],[-87.59169,41.81624],[-87.59094,41.81497],[-87.59079,41.81477],[-87.59044,41.81453],[-87.59029,41.81378],[-87.58963,41.81319],[-87.58916,41.8129],[-87.58892,41.81259],[-87.58883,41.81233],[-87.5885,41.8121],[-87.58825,41.81202],[-87.58758,41.81197],[-87.58715,41.81163],[-87.58706,41.81144],[-87.58693,41.81007],[-87.58639,41.8094],[-87.58562,41.80788],[-87.58523,41.80729],[-87.58459,41.80669],[-87.58413,41.80652],[-87.58158,41.80462],[-87.58129,41.80432],[-87.58112,41.80421],[-87.58063,41.80424],[-87.58003,41.80386],[-87.58006,41.80354],[-87.58041,41.80303],[-87.58066,41.80255],[-87.58082,41.80177],[-87.58088,41.80043],[-87.57999,41.79842],[-87.57858,41.79719],[-87.57826,41.79702],[-87.57757,41.79681],[-87.57647,41.79705],[-87.57598,41.79703],[-87.57524,41.79655],[-87.57515,41.79632],[-87.57517,41.79605],[-87.57544,41.79545],[-87.57552,41.79539],[-87.57579,41.79534],[-87.57626,41.79503],[-87.5769,41.79501],[-87.57831,41.79465],[-87.57857,41.79454],[-87.57905,41.79414],[-87.57932,41.79381],[-87.5795,41.79345],[-87.5796,41.79284],[-87.57952,41.79232],[-87.57833,41.79005],[-87.57784,41.78958],[-87.57655,41.78868],[-87.57669,41.78853],[-87.57782,41.78837],[-87.57792,41.78818],[-87.57741,41.7882],[-87.57728,41.78826],[-87.57713,41.78815],[-87.57733,41.78802],[-87.57725,41.7866],[-87.57682,41.78544],[-87.57616,41.78407],[-87.57595,41.78376],[-87.57563,41.78349],[-87.57452,41.78281],[-87.57308,41.78212],[-87.57104,41.78156],[-87.56981,41.78152],[-87.56961,41.78149],[-87.56951,41.78139],[-87.56955,41.78121],[-87.57315,41.78027],[-87.57304,41.77991],[-87.57433,41.77942],[-87.5737,41.77899],[-87.57341,41.77906],[-87.57323,41.77921],[-87.57286,41.77934],[-87.57248,41.77934],[-87.57228,41.77927],[-87.57144,41.77832],[-87.57017,41.77733],[-87.56945,41.777],[-87.56886,41.77663],[-87.56845,41.77627],[-87.56783,41.77557],[-87.56696,41.77437],[-87.56669,41.77408],[-87.56628,41.7739],[-87.56609,41.77371],[-87.56605,41.7736],[-87.56615,41.77348],[-87.56602,41.7733],[-87.56438,41.77224],[-87.56402,41.77214],[-87.5634,41.77209],[-87.56329,41.77192],[-87.56346,41.77093],[-87.5626,41.76937],[-87.56229,41.76912],[-87.56156,41.7688],[-87.5603,41.76845],[-87.56004,41.76844],[-87.55992,41.76851],[-87.55959,41.76924],[-87.55944,41.76932],[-87.55937,41.76892],[-87.55934,41.76662],[-87.55942,41.76647],[-87.56048,41.76622],[-87.56062,41.76601],[-87.56052,41.76563],[-87.56031,41.76526],[-87.56008,41.76502],[-87.55992,41.76493],[-87.55965,41.765],[-87.55943,41.7648],[-87.55946,41.76443],[-87.55871,41.76393],[-87.55852,41.76404],[-87.5576,41.7632],[-87.55755,41.76285],[-87.55705,41.76254],[-87.55684,41.76257],[-87.55635,41.76206],[-87.55501,41.76173],[-87.55451,41.76196],[-87.55414,41.76125],[-87.55266,41.76043],[-87.55228,41.76031],[-87.55173,41.76001],[-87.55014,41.75943],[-87.5487,41.75904],[-87.54782,41.75894],[-87.54708,41.75895],[-87.54592,41.7593],[-87.54497,41.75974],[-87.54458,41.75973],[-87.54401,41.75988],[-87.54364,41.76013],[-87.54249,41.75903],[-87.54258,41.75875],[-87.54149,41.75777],[-87.54111,41.75777],[-87.54049,41.75718],[-87.54375,41.75517],[-87.54375,41.75508],[-87.54404,41.75477],[-87.54423,41.75404],[-87.5442,41.75387],[-87.5435,41.75257],[-87.54332,41.7523],[-87.54306,41.7521],[-87.5427,41.75194],[-87.54024,41.75182],[-87.5326,41.74886],[-87.53087,41.74802],[-87.53,41.74191],[-87.52982,41.74155],[-87.52942,41.74132],[-87.53,41.74053],[-87.52888,41.73392],[-87.52888,41.7338],[-87.52944,41.73226],[-87.52926,41.73229],[-87.52903,41.73211],[-87.52517,41.73151],[-87.52472,41.73124],[-87.52464,41.73105],[-87.52451,41.72386],[-87.52442,41.7219],[-87.52449,41.72182],[-87.52449,41.72165],[-87.52474,41.7216],[-87.52488,41.72148],[-87.52466,41.72124],[-87.52476,41.72112],[-87.52506,41.72136],[-87.52538,41.72092],[-87.52504,41.72084],[-87.52509,41.72068],[-87.52544,41.72078],[-87.5256,41.71922],[-87.52543,41.71874],[-87.52521,41.71844],[-87.52501,41.71834],[-87.5245,41.71824],[-87.52445,41.7174],[-87.52571,41.7173],[-87.52629,41.71708],[-87.52687,41.71695],[-87.52766,41.71662],[-87.528,41.71638],[-87.52845,41.71591],[-87.52841,41.7155],[-87.52805,41.71444],[-87.52768,41.71365],[-87.52737,41.71327],[-87.52665,41.71265],[-87.52636,41.71243],[-87.5252,41.71334],[-87.52514,41.7133],[-87.52819,41.71097],[-87.52773,41.71055],[-87.52697,41.71007],[-87.52638,41.70991],[-87.5261,41.70992],[-87.5259,41.71004],[-87.52601,41.71034],[-87.52578,41.71037],[-87.5256,41.71031],[-87.52544,41.71002],[-87.52497,41.7099],[-87.52454,41.70951],[-87.52425,41.70944],[-87.52422,41.70925],[-87.52471,41.70926],[-87.52502,41.70957],[-87.52555,41.70986],[-87.52618,41.70948],[-87.52529,41.70883],[-87.52417,41.70818],[-87.52423,41.71727],[-87.52432,41.71832],[-87.5242,41.71951],[-87.52416,41.72185],[-87.52366,41.75991],[-87.50004,41.76014],[-87.50004,41.76042],[-87.37504,41.76025],[-87.25004,41.76062],[-87.20777,41.76096],[-87.17937,41.87503],[-87.14843,42.00001],[-87.15001,42.00003],[-87.13454,42.05876],[-87.12504,42.09512],[-87.12504,42.0971],[-87.11116,42.14941],[-87.12504,42.14991],[-87.37505,42.15152],[-87.50005,42.15199],[-87.62506,42.15213],[-87.72176,42.15343],[-87.74156,42.15323],[-87.75477,42.1525],[-87.75877,42.15237],[-87.75883,42.15227]]]},"properties":{"NAME":"Lk Michigan","MTFCC":"H2030","AREAWATER":1530337203,"OBJECTID":1326926}},{"type":"Feature","id":1376790,"geometry":{"type":"Polygon","coordinates":[[[-87.64108,41.95485],[-87.64056,41.95328],[-87.64007,41.95223],[-87.63993,41.95177],[-87.63774,41.9473],[-87.63683,41.9461],[-87.63602,41.94523],[-87.63454,41.94378],[-87.63375,41.94314],[-87.63345,41.94278],[-87.6333,41.94238],[-87.6334,41.94218],[-87.63354,41.94216],[-87.6339,41.94233],[-87.63402,41.94248],[-87.6344,41.94156],[-87.63419,41.94152],[-87.63401,41.9414],[-87.63395,41.94128],[-87.63401,41.94035],[-87.63376,41.93948],[-87.63344,41.93874],[-87.63277,41.93765],[-87.63231,41.93705],[-87.63207,41.93598],[-87.63181,41.93541],[-87.63058,41.93365],[-87.63053,41.93351],[-87.63057,41.93326],[-87.63074,41.9331],[-87.63136,41.9329],[-87.6314,41.93284],[-87.63103,41.93223],[-87.63076,41.93199],[-87.63115,41.93037],[-87.63109,41.9292],[-87.6307,41.92816],[-87.62986,41.92715],[-87.6296,41.92665],[-87.62961,41.92613],[-87.62984,41.92603],[-87.62963,41.92519],[-87.6293,41.92462],[-87.62955,41.9244],[-87.62949,41.92416],[-87.62929,41.92374],[-87.62868,41.92294],[-87.62927,41.92255],[-87.62936,41.92228],[-87.6293,41.9221],[-87.62855,41.921],[-87.62896,41.92078],[-87.62896,41.92066],[-87.62806,41.9194],[-87.62851,41.91916],[-87.62779,41.91833],[-87.62747,41.91787],[-87.62773,41.9177],[-87.62775,41.9175],[-87.62765,41.91731],[-87.62671,41.91644],[-87.62679,41.91633],[-87.62648,41.91595],[-87.62446,41.91448],[-87.62307,41.91379],[-87.6226,41.91362],[-87.62217,41.91357],[-87.62162,41.91362],[-87.6213,41.9137],[-87.6204,41.91414],[-87.6202,41.91415],[-87.6202,41.91388],[-87.62031,41.91363],[-87.62087,41.91305],[-87.62113,41.91294],[-87.62254,41.91279],[-87.62296,41.91263],[-87.62362,41.91218],[-87.62461,41.91131],[-87.62472,41.91067],[-87.62524,41.90991],[-87.62527,41.90959],[-87.62509,41.90909],[-87.62466,41.90656],[-87.62403,41.90403],[-87.62299,41.90322],[-87.62272,41.90291],[-87.62253,41.9024],[-87.62266,41.90192],[-87.62261,41.90186],[-87.6219,41.90173],[-87.62013,41.9016],[-87.61966,41.90143],[-87.61916,41.90106],[-87.61843,41.90005],[-87.61724,41.89807],[-87.61698,41.89777],[-87.6146,41.89427],[-87.61367,41.8931],[-87.61254,41.89312],[-87.61204,41.89343],[-87.61141,41.89449],[-87.61025,41.89619],[-87.60856,41.89627],[-87.60797,41.89627],[-87.60796,41.89619],[-87.6069,41.89622],[-87.60679,41.89638],[-87.60584,41.89641],[-87.60565,41.89624],[-87.60528,41.89624],[-87.6051,41.89633],[-87.60237,41.89634],[-87.60228,41.89391],[-87.60234,41.89391],[-87.60235,41.89328],[-87.60979,41.89313],[-87.60979,41.89207],[-87.59851,41.89219],[-87.59857,41.89138],[-87.60091,41.89138],[-87.60093,41.89106],[-87.60952,41.89097],[-87.60951,41.88924],[-87.61129,41.88923],[-87.61151,41.89002],[-87.61155,41.89056],[-87.61423,41.89055],[-87.61423,41.89022],[-87.61267,41.89017],[-87.6125,41.88913],[-87.61274,41.88904],[-87.61273,41.88831],[-87.59586,41.88811],[-87.59976,41.89772],[-87.61705,41.90013],[-87.62195,41.90423],[-87.61375,41.91158],[-87.61596,41.91883],[-87.62516,41.92687],[-87.62546,41.93244],[-87.62596,41.93687],[-87.62746,41.94302],[-87.63076,41.94877],[-87.63375,41.95542],[-87.63405,41.95623],[-87.64108,41.95485]]]},"properties":{"NAME":"Lk Michigan","MTFCC":"H2030","AREAWATER":4803588,"OBJECTID":1376790}},{"type":"Feature","id":1376791,"geometry":{"type":"Polygon","coordinates":[[[-87.67317,42.04794],[-87.67271,42.04669],[-87.67219,42.04571],[-87.67225,42.0456],[-87.67208,42.04547],[-87.67216,42.04515],[-87.67214,42.04468],[-87.67196,42.04379],[-87.6712,42.04289],[-87.67057,42.04243],[-87.67024,42.04194],[-87.66937,42.04127],[-87.66911,42.03955],[-87.66953,42.03901],[-87.66957,42.03755],[-87.66987,42.0374],[-87.66999,42.0372],[-87.67004,42.03693],[-87.66986,42.03645],[-87.66915,42.0357],[-87.66908,42.03551],[-87.66965,42.03547],[-87.66962,42.03528],[-87.66951,42.03528],[-87.6694,42.03436],[-87.66959,42.03437],[-87.66959,42.03431],[-87.6695,42.03407],[-87.66929,42.03381],[-87.66915,42.03268],[-87.66896,42.03184],[-87.66901,42.0315],[-87.66879,42.02996],[-87.6686,42.02926],[-87.66868,42.02898],[-87.66857,42.02875],[-87.66849,42.02831],[-87.66843,42.02819],[-87.66745,42.0272],[-87.66698,42.02685],[-87.66723,42.02671],[-87.66668,42.02613],[-87.66517,42.0234],[-87.66508,42.02321],[-87.6651,42.02277],[-87.66464,42.02194],[-87.66475,42.02192],[-87.66465,42.02176],[-87.66453,42.0217],[-87.66445,42.02148],[-87.66426,42.02129],[-87.66406,42.02135],[-87.66379,42.02038],[-87.66385,42.02036],[-87.66384,42.02022],[-87.66408,42.02016],[-87.66386,42.01952],[-87.66371,42.01956],[-87.66368,42.0194],[-87.66384,42.01934],[-87.66375,42.01895],[-87.66358,42.01868],[-87.66323,42.01845],[-87.66329,42.01809],[-87.66308,42.01761],[-87.66314,42.01692],[-87.66281,42.01662],[-87.66267,42.01582],[-87.66247,42.01576],[-87.66239,42.01536],[-87.66209,42.01459],[-87.66155,42.01354],[-87.66144,42.01316],[-87.66115,42.01272],[-87.661,42.01219],[-87.66065,42.01174],[-87.6587,42.01001],[-87.65863,42.0099],[-87.65865,42.00966],[-87.65554,42.00675],[-87.65528,42.00673],[-87.65576,42.0063],[-87.65729,42.00628],[-87.65732,42.00524],[-87.65679,42.00423],[-87.65729,42.00418],[-87.6569,42.00306],[-87.65677,42.00237],[-87.65619,42.00127],[-87.65634,42.00104],[-87.65587,42.00003],[-87.65581,41.99939],[-87.65569,41.9992],[-87.65536,41.99902],[-87.65513,41.99873],[-87.655,41.9983],[-87.65513,41.9983],[-87.65512,41.99816],[-87.65473,41.99815],[-87.65472,41.99728],[-87.65451,41.99728],[-87.65446,41.99649],[-87.65472,41.99637],[-87.65484,41.99546],[-87.65478,41.99535],[-87.65468,41.99531],[-87.65478,41.99496],[-87.65474,41.99457],[-87.65456,41.99451],[-87.65448,41.99439],[-87.65443,41.99409],[-87.65445,41.99401],[-87.65459,41.99395],[-87.6548,41.99318],[-87.65475,41.99285],[-87.65437,41.99273],[-87.65424,41.99256],[-87.6543,41.99238],[-87.65422,41.99191],[-87.65438,41.99101],[-87.65438,41.9902],[-87.65423,41.98982],[-87.65412,41.98906],[-87.65012,41.98494],[-87.65048,41.98412],[-87.65072,41.98292],[-87.65068,41.98068],[-87.65054,41.98026],[-87.65023,41.97972],[-87.65037,41.9796],[-87.6497,41.97904],[-87.64678,41.97746],[-87.64649,41.97713],[-87.64632,41.97543],[-87.64631,41.97358],[-87.64612,41.97287],[-87.64575,41.97208],[-87.64511,41.97101],[-87.6446,41.9703],[-87.63536,41.97073],[-87.64565,41.97813],[-87.64885,41.98423],[-87.64896,41.99193],[-87.65076,41.99833],[-87.65536,42.01343],[-87.65746,42.01983],[-87.65886,42.02343],[-87.65982,42.03418],[-87.6604,42.04181],[-87.66143,42.05145],[-87.67111,42.05088],[-87.67113,42.05054],[-87.67123,42.05055],[-87.67121,42.05072],[-87.67207,42.0507],[-87.67229,42.05045],[-87.67262,42.04974],[-87.67265,42.04908],[-87.67252,42.04868],[-87.67227,42.04843],[-87.67221,42.04823],[-87.67317,42.04794]]]},"properties":{"NAME":"Lk Michigan","MTFCC":"H2030","AREAWATER":4811072,"OBJECTID":1376791}},{"type":"Feature","id":1409121,"geometry":{"type":"Polygon","coordinates":[[[-87.94131,41.69644],[-87.94143,41.69633],[-87.938,41.6961],[-87.93776,41.69593],[-87.93569,41.69581],[-87.93411,41.69589],[-87.93064,41.69567],[-87.91689,41.69359],[-87.8863,41.6891],[-87.88175,41.68837],[-87.88159,41.6882],[-87.88143,41.68831],[-87.87506,41.68739],[-87.87068,41.68706],[-87.8613,41.68612],[-87.85624,41.68553],[-87.85071,41.68503],[-87.85056,41.68497],[-87.85047,41.68478],[-87.85029,41.68498],[-87.84251,41.68417],[-87.83724,41.6837],[-87.82895,41.68279],[-87.81616,41.68092],[-87.80411,41.67863],[-87.80389,41.67855],[-87.80392,41.67847],[-87.80384,41.67842],[-87.80362,41.67854],[-87.77692,41.67342],[-87.77275,41.67244],[-87.77075,41.67184],[-87.76832,41.67095],[-87.76507,41.66955],[-87.76127,41.66754],[-87.75354,41.66309],[-87.75304,41.66278],[-87.75279,41.66243],[-87.75262,41.66252],[-87.75199,41.66219],[-87.74854,41.66028],[-87.74798,41.65993],[-87.74792,41.65976],[-87.74769,41.65974],[-87.74212,41.65661],[-87.7397,41.65543],[-87.73898,41.65513],[-87.73816,41.65509],[-87.738,41.65482],[-87.73777,41.65467],[-87.73591,41.65397],[-87.73352,41.65318],[-87.73128,41.65253],[-87.72748,41.65176],[-87.72393,41.65121],[-87.71955,41.65097],[-87.71928,41.65098],[-87.71883,41.65112],[-87.71854,41.65109],[-87.71823,41.65096],[-87.71745,41.65095],[-87.69939,41.6513],[-87.6925,41.65165],[-87.68814,41.65171],[-87.68789,41.65185],[-87.68751,41.65187],[-87.68687,41.65176],[-87.68213,41.65178],[-87.67907,41.65171],[-87.67366,41.65172],[-87.6707,41.65227],[-87.66067,41.65466],[-87.65146,41.65602],[-87.65158,41.65577],[-87.65202,41.65546],[-87.65156,41.65543],[-87.64685,41.65703],[-87.64676,41.65779],[-87.65118,41.65685],[-87.66087,41.65541],[-87.66949,41.65325],[-87.67283,41.65266],[-87.67429,41.65251],[-87.67881,41.65244],[-87.68381,41.65255],[-87.68892,41.65253],[-87.68901,41.65268],[-87.68915,41.65267],[-87.68923,41.65252],[-87.69455,41.65236],[-87.70051,41.65208],[-87.70139,41.65209],[-87.70148,41.6522],[-87.70163,41.6522],[-87.70206,41.65202],[-87.70609,41.65188],[-87.7189,41.6517],[-87.7236,41.65197],[-87.72584,41.65221],[-87.72794,41.65255],[-87.73195,41.65346],[-87.73448,41.65424],[-87.73749,41.65532],[-87.7388,41.65593],[-87.74017,41.65648],[-87.74436,41.65868],[-87.74904,41.66146],[-87.7622,41.66899],[-87.7646,41.67019],[-87.76774,41.67158],[-87.77019,41.67247],[-87.77261,41.67316],[-87.77487,41.67373],[-87.77814,41.67443],[-87.78077,41.67488],[-87.8144,41.68134],[-87.81726,41.68184],[-87.82867,41.68347],[-87.83764,41.68445],[-87.85898,41.68659],[-87.87517,41.68815],[-87.93029,41.69618],[-87.94083,41.69686],[-87.94131,41.69644]]]},"properties":{"NAME":"Cal Sag Chnnl","MTFCC":"H2030","AREAWATER":2030902,"OBJECTID":1409121}},{"type":"Feature","id":1653944,"geometry":{"type":"Polygon","coordinates":[[[-87.73919,42.12501],[-87.73809,42.12365],[-87.73828,42.12355],[-87.73797,42.12328],[-87.73774,42.12291],[-87.73755,42.12281],[-87.73745,42.12285],[-87.73743,42.1226],[-87.73735,42.12247],[-87.73668,42.12181],[-87.73677,42.12178],[-87.73678,42.1217],[-87.73668,42.12148],[-87.73599,42.12091],[-87.73622,42.12079],[-87.73561,42.12017],[-87.73445,42.11939],[-87.73454,42.1193],[-87.73347,42.1186],[-87.73289,42.11811],[-87.73192,42.11752],[-87.73161,42.11722],[-87.73091,42.11675],[-87.73055,42.11638],[-87.7302,42.11632],[-87.72974,42.11654],[-87.72946,42.1162],[-87.73036,42.11572],[-87.7305,42.11549],[-87.73023,42.11519],[-87.73001,42.11526],[-87.72997,42.11518],[-87.73015,42.11511],[-87.73009,42.11503],[-87.72989,42.11511],[-87.72982,42.11503],[-87.73056,42.11468],[-87.72938,42.11342],[-87.72955,42.11326],[-87.7282,42.11205],[-87.72819,42.11195],[-87.72777,42.11133],[-87.72738,42.11093],[-87.72696,42.11065],[-87.72701,42.11057],[-87.72692,42.11027],[-87.72635,42.10969],[-87.72631,42.10946],[-87.72615,42.10922],[-87.72552,42.10857],[-87.72458,42.10792],[-87.72463,42.10775],[-87.72445,42.10749],[-87.72383,42.10695],[-87.7233,42.10659],[-87.72307,42.10633],[-87.72266,42.10608],[-87.72228,42.10557],[-87.72154,42.10492],[-87.7212,42.10444],[-87.72065,42.104],[-87.72033,42.10384],[-87.72011,42.1034],[-87.71962,42.10311],[-87.71952,42.10289],[-87.71925,42.10276],[-87.7188,42.10231],[-87.71784,42.10161],[-87.71695,42.10067],[-87.7157,42.09954],[-87.71467,42.09838],[-87.71376,42.09767],[-87.71354,42.09757],[-87.71338,42.09736],[-87.71254,42.09664],[-87.71145,42.09605],[-87.71123,42.0957],[-87.7108,42.09544],[-87.70821,42.09784],[-87.70353,42.10173],[-87.70014,42.09892],[-87.69953,42.09832],[-87.6973,42.09641],[-87.69437,42.09432],[-87.688,42.08993],[-87.68389,42.08759],[-87.68107,42.08621],[-87.67506,42.08371],[-87.6735,42.08312],[-87.67239,42.08261],[-87.67155,42.08194],[-87.67116,42.0809],[-87.67122,42.07948],[-87.67183,42.07729],[-87.67191,42.07623],[-87.67172,42.07502],[-87.67142,42.07345],[-87.67053,42.07227],[-87.66976,42.07163],[-87.67599,42.07162],[-87.67959,42.07171],[-87.67811,42.06922],[-87.67715,42.06796],[-87.67724,42.06792],[-87.67663,42.06708],[-87.67634,42.06698],[-87.67591,42.06658],[-87.67587,42.06633],[-87.67573,42.06624],[-87.67563,42.06598],[-87.67572,42.06579],[-87.67548,42.06529],[-87.67549,42.06499],[-87.67541,42.06486],[-87.67399,42.06404],[-87.6742,42.06386],[-87.67377,42.06322],[-87.67338,42.06182],[-87.67306,42.06135],[-87.6726,42.06083],[-87.67154,42.05986],[-87.67128,42.05973],[-87.67106,42.06],[-87.67086,42.06008],[-87.66987,42.05994],[-87.66955,42.05972],[-87.66956,42.05948],[-87.67,42.05787],[-87.67008,42.05733],[-87.67011,42.05593],[-87.67008,42.05522],[-87.66986,42.05399],[-87.66933,42.05248],[-87.66938,42.05216],[-87.6695,42.05208],[-87.67016,42.05196],[-87.67036,42.05222],[-87.67047,42.05253],[-87.6709,42.05254],[-87.67093,42.05265],[-87.67063,42.05266],[-87.67053,42.05272],[-87.67073,42.0533],[-87.67089,42.05422],[-87.67106,42.05458],[-87.67191,42.05539],[-87.6719,42.0558],[-87.67178,42.05593],[-87.67097,42.0559],[-87.67077,42.05599],[-87.67069,42.05629],[-87.67081,42.05657],[-87.67095,42.05668],[-87.67162,42.0568],[-87.67216,42.05664],[-87.67225,42.05652],[-87.67238,42.05594],[-87.67277,42.05562],[-87.67355,42.05525],[-87.67384,42.05474],[-87.67382,42.05449],[-87.67372,42.05435],[-87.67338,42.05415],[-87.67304,42.05406],[-87.67159,42.05398],[-87.67154,42.0539],[-87.67161,42.05266],[-87.67103,42.05263],[-87.67111,42.05088],[-87.66143,42.05145],[-87.6604,42.04181],[-87.65982,42.03418],[-87.65886,42.02343],[-87.65746,42.01983],[-87.65536,42.01343],[-87.65076,41.99833],[-87.64896,41.99193],[-87.64885,41.98423],[-87.64565,41.97813],[-87.63536,41.97073],[-87.62775,41.96463],[-87.63405,41.95623],[-87.63375,41.95542],[-87.63076,41.94877],[-87.62746,41.94302],[-87.62596,41.93687],[-87.62546,41.93244],[-87.62516,41.92687],[-87.61596,41.91883],[-87.61375,41.91158],[-87.62195,41.90423],[-87.61705,41.90013],[-87.59976,41.89772],[-87.59586,41.88811],[-87.61273,41.88831],[-87.61275,41.88352],[-87.61309,41.88311],[-87.61333,41.88293],[-87.61402,41.88262],[-87.61441,41.88253],[-87.6157,41.88244],[-87.6161,41.88226],[-87.60925,41.88233],[-87.60562,41.87503],[-87.50005,41.87503],[-87.50005,42.00003],[-87.62505,42.00003],[-87.62507,42.12502],[-87.73919,42.12501]]]},"properties":{"NAME":"North Shore Chnnl","MTFCC":"H2030","AREAWATER":208463771,"OBJECTID":1653944}},{"type":"Feature","id":1686299,"geometry":{"type":"Polygon","coordinates":[[[-87.08463,42.25003],[-87.08834,42.23533],[-87.00004,42.23545],[-87.00004,42.24039],[-86.75068,42.24169],[-86.62599,42.24248],[-86.50131,42.24286],[-86.37492,42.24296],[-86.3646,42.24314],[-86.3643,42.24365],[-86.36176,42.24668],[-86.35926,42.25002],[-86.359,42.25048],[-86.35829,42.2514],[-86.35736,42.25275],[-86.35609,42.25478],[-86.35512,42.25585],[-86.35454,42.25666],[-86.35367,42.25821],[-86.35277,42.25945],[-86.3515,42.26163],[-86.34972,42.26414],[-86.34597,42.2708],[-86.34504,42.27183],[-86.34376,42.27444],[-86.34243,42.27682],[-86.339,42.28189],[-86.33859,42.28285],[-86.33808,42.28373],[-86.33709,42.28488],[-86.33588,42.28662],[-86.33492,42.28888],[-86.33365,42.29078],[-86.33242,42.29291],[-86.33212,42.29367],[-86.33158,42.29458],[-86.33056,42.29596],[-86.33001,42.29685],[-86.32958,42.29774],[-86.32946,42.29824],[-86.32866,42.29918],[-86.32822,42.2996],[-86.32773,42.30041],[-86.32689,42.30234],[-86.3258,42.30368],[-86.32498,42.30506],[-86.32425,42.30653],[-86.32326,42.30818],[-86.32306,42.30888],[-86.32281,42.30932],[-86.32205,42.31003],[-86.32158,42.31098],[-86.32086,42.31281],[-86.32056,42.31383],[-86.32019,42.31448],[-86.31964,42.31505],[-86.31936,42.316],[-86.31912,42.31651],[-86.31802,42.31841],[-86.31734,42.3203],[-86.31707,42.32058],[-86.31637,42.32185],[-86.31597,42.32234],[-86.31581,42.32284],[-86.31589,42.32325],[-86.31568,42.32356],[-86.31466,42.32455],[-86.314,42.32566],[-86.31352,42.32729],[-86.31195,42.32986],[-86.31077,42.33245],[-86.30971,42.33408],[-86.30909,42.33546],[-86.30834,42.33682],[-86.30706,42.33871],[-86.30664,42.33943],[-86.30479,42.34293],[-86.30444,42.34408],[-86.30387,42.34481],[-86.30267,42.34729],[-86.30157,42.34909],[-86.30003,42.35229],[-86.29957,42.35309],[-86.2992,42.35347],[-86.29897,42.35463],[-86.29803,42.35636],[-86.29747,42.35724],[-86.29642,42.35995],[-86.296,42.3613],[-86.29602,42.36284],[-86.29587,42.36336],[-86.2957,42.3639],[-86.29521,42.36497],[-86.29496,42.36534],[-86.29434,42.36773],[-86.29394,42.36859],[-86.29375,42.36956],[-86.29329,42.3706],[-86.29303,42.37169],[-86.29308,42.37289],[-86.29194,42.3757],[-86.29131,42.37758],[-86.29111,42.37824],[-86.29098,42.3793],[-86.29067,42.3803],[-86.28973,42.38221],[-86.28894,42.38313],[-86.28852,42.38376],[-86.28813,42.38456],[-86.28766,42.38515],[-86.2876,42.38579],[-86.28746,42.38629],[-86.28683,42.38725],[-86.28685,42.38768],[-86.28692,42.38789],[-86.28635,42.38832],[-86.28595,42.38897],[-86.28599,42.38961],[-86.28588,42.3903],[-86.28592,42.39046],[-86.28554,42.39123],[-86.28511,42.39237],[-86.28479,42.39368],[-86.28431,42.39501],[-86.28418,42.39622],[-86.28396,42.39682],[-86.28386,42.39751],[-86.28402,42.39878],[-86.28429,42.39988],[-86.28489,42.40178],[-86.28649,42.40168],[-86.28655,42.40196],[-86.2844,42.40228],[-86.2844,42.40239],[-86.28419,42.40252],[-86.28414,42.40276],[-86.28379,42.40319],[-86.28286,42.4047],[-86.28088,42.4068],[-86.27757,42.41192],[-86.27726,42.41223],[-86.27682,42.41287],[-86.27617,42.41435],[-86.27604,42.41452],[-86.2759,42.41526],[-86.27557,42.41582],[-86.27535,42.41637],[-86.27456,42.41762],[-86.27389,42.41928],[-86.28933,42.41947],[-86.37502,42.41994],[-86.37489,42.41892],[-86.62483,42.41775],[-86.7498,42.41685],[-86.87477,42.41541],[-86.87504,42.41661],[-86.99985,42.41602],[-87.04005,42.41699],[-87.04921,42.38456],[-87.05181,42.37503],[-87.06804,42.31435],[-87.08463,42.25003]]]},"properties":{"NAME":"Lk Michigan","MTFCC":"H2030","AREAWATER":1208879307,"OBJECTID":1686299}},{"type":"Feature","id":1730453,"geometry":{"type":"Polygon","coordinates":[[[-87.8199,42.62095],[-87.81984,42.61981],[-87.81989,42.61861],[-87.81978,42.61744],[-87.81981,42.61482],[-87.81975,42.61414],[-87.8194,42.61184],[-87.81932,42.61018],[-87.81912,42.60916],[-87.81916,42.60853],[-87.81908,42.60747],[-87.8189,42.60718],[-87.81869,42.60623],[-87.81873,42.6061],[-87.81854,42.60543],[-87.81743,42.6027],[-87.81689,42.60251],[-87.81661,42.60252],[-87.81636,42.60166],[-87.81633,42.6012],[-87.81622,42.60087],[-87.81626,42.60069],[-87.81619,42.6006],[-87.81521,42.59617],[-87.81526,42.59607],[-87.81585,42.59609],[-87.81602,42.596],[-87.81608,42.59576],[-87.81605,42.59506],[-87.81543,42.59357],[-87.8151,42.59295],[-87.81437,42.59199],[-87.81382,42.59141],[-87.81365,42.59131],[-87.81355,42.59112],[-87.81301,42.59058],[-87.81239,42.58975],[-87.81171,42.58909],[-87.81143,42.58872],[-87.8085,42.58889],[-87.8085,42.5888],[-87.81612,42.58839],[-87.81672,42.58933],[-87.8164,42.5894],[-87.81648,42.58967],[-87.81699,42.58973],[-87.81701,42.58986],[-87.8173,42.59038],[-87.81811,42.59019],[-87.81821,42.59027],[-87.81813,42.59034],[-87.81843,42.59055],[-87.81853,42.59093],[-87.8192,42.59089],[-87.81932,42.59088],[-87.81886,42.59033],[-87.81886,42.59022],[-87.81832,42.58973],[-87.81804,42.5896],[-87.81879,42.58825],[-87.81889,42.5878],[-87.81861,42.58755],[-87.81361,42.58792],[-87.81169,42.58795],[-87.80741,42.58818],[-87.80741,42.58807],[-87.80763,42.58804],[-87.80758,42.58506],[-87.81128,42.58504],[-87.81138,42.58479],[-87.81151,42.58469],[-87.81326,42.58448],[-87.8134,42.58442],[-87.81353,42.58422],[-87.81362,42.58186],[-87.81186,42.58183],[-87.81171,42.5816],[-87.81171,42.58094],[-87.8118,42.58056],[-87.81179,42.57905],[-87.81188,42.57919],[-87.81193,42.57994],[-87.81194,42.57984],[-87.81218,42.57971],[-87.81253,42.57967],[-87.81313,42.57943],[-87.81371,42.57891],[-87.81385,42.57865],[-87.81335,42.57741],[-87.81337,42.57721],[-87.81356,42.5771],[-87.81355,42.57694],[-87.81337,42.57687],[-87.8133,42.57675],[-87.81298,42.5761],[-87.8129,42.57573],[-87.81294,42.57551],[-87.81288,42.57539],[-87.81297,42.57529],[-87.81286,42.57477],[-87.81297,42.57456],[-87.81302,42.57408],[-87.81312,42.5739],[-87.81293,42.57354],[-87.8129,42.57328],[-87.81308,42.573],[-87.81302,42.57268],[-87.81313,42.57277],[-87.81328,42.57269],[-87.81332,42.57255],[-87.81324,42.5724],[-87.81302,42.57238],[-87.81293,42.57229],[-87.81276,42.57173],[-87.81212,42.57093],[-87.81212,42.57087],[-87.81253,42.57087],[-87.8125,42.57059],[-87.81256,42.57046],[-87.81248,42.57016],[-87.81253,42.56968],[-87.81281,42.56951],[-87.81288,42.56935],[-87.81282,42.56922],[-87.81261,42.56908],[-87.81235,42.56849],[-87.81226,42.56616],[-87.81211,42.56572],[-87.81226,42.56548],[-87.81226,42.56522],[-87.8122,42.56498],[-87.81207,42.56491],[-87.81232,42.56483],[-87.81235,42.56465],[-87.81237,42.56316],[-87.81231,42.56222],[-87.81207,42.5618],[-87.81157,42.56173],[-87.81136,42.56131],[-87.81147,42.5613],[-87.81173,42.56166],[-87.81193,42.56153],[-87.81199,42.56133],[-87.8119,42.56122],[-87.8118,42.5612],[-87.81171,42.56133],[-87.81164,42.56132],[-87.81167,42.56106],[-87.81174,42.56092],[-87.81217,42.5609],[-87.81239,42.56078],[-87.81239,42.55985],[-87.81234,42.55978],[-87.81249,42.55969],[-87.8125,42.55954],[-87.81277,42.5592],[-87.81271,42.55878],[-87.81273,42.55843],[-87.81286,42.55833],[-87.81351,42.55821],[-87.81373,42.55811],[-87.81398,42.55782],[-87.81407,42.55739],[-87.81399,42.55605],[-87.81369,42.55491],[-87.81354,42.55406],[-87.81293,42.55205],[-87.81243,42.55109],[-87.81244,42.55092],[-87.81234,42.55083],[-87.81238,42.55074],[-87.8123,42.55044],[-87.81245,42.55027],[-87.81247,42.55012],[-87.81233,42.54986],[-87.81226,42.54945],[-87.81226,42.54892],[-87.81237,42.54879],[-87.81237,42.5484],[-87.81247,42.54794],[-87.81246,42.54774],[-87.81238,42.54759],[-87.81269,42.54753],[-87.81276,42.54733],[-87.81267,42.54674],[-87.81287,42.54657],[-87.81283,42.54633],[-87.81286,42.54622],[-87.81298,42.54621],[-87.81299,42.54616],[-87.81295,42.54585],[-87.81283,42.54567],[-87.81291,42.54564],[-87.81299,42.54548],[-87.81294,42.54527],[-87.81299,42.54518],[-87.81311,42.54516],[-87.81307,42.54486],[-87.81325,42.5447],[-87.81326,42.54448],[-87.81333,42.54444],[-87.81337,42.54429],[-87.8134,42.54399],[-87.81334,42.54388],[-87.81359,42.54383],[-87.81368,42.54348],[-87.81365,42.54269],[-87.81344,42.54162],[-87.81329,42.5412],[-87.8134,42.54117],[-87.81347,42.54108],[-87.8134,42.54092],[-87.81328,42.54091],[-87.81337,42.54085],[-87.81338,42.54078],[-87.81331,42.54059],[-87.81321,42.54056],[-87.81329,42.54053],[-87.8133,42.5404],[-87.81317,42.54032],[-87.81327,42.54031],[-87.81331,42.54024],[-87.81328,42.54012],[-87.81314,42.54008],[-87.81342,42.53997],[-87.81353,42.53968],[-87.81346,42.53883],[-87.81305,42.53775],[-87.8132,42.53743],[-87.81333,42.5367],[-87.81297,42.53597],[-87.81299,42.53578],[-87.81278,42.53541],[-87.81276,42.53505],[-87.81283,42.53478],[-87.81303,42.53463],[-87.81321,42.53438],[-87.81303,42.53359],[-87.81301,42.53306],[-87.81311,42.53305],[-87.81317,42.53286],[-87.81345,42.53269],[-87.81347,42.53261],[-87.81348,42.5323],[-87.81327,42.53163],[-87.81342,42.53138],[-87.81326,42.53102],[-87.81319,42.53033],[-87.81292,42.52978],[-87.81302,42.52966],[-87.81293,42.52905],[-87.81285,42.52901],[-87.81296,42.52886],[-87.81276,42.52842],[-87.81273,42.52814],[-87.81288,42.5281],[-87.81291,42.52801],[-87.81261,42.52736],[-87.81252,42.5269],[-87.81247,42.52597],[-87.81229,42.5252],[-87.81235,42.52508],[-87.8123,42.52472],[-87.8122,42.52447],[-87.81215,42.52398],[-87.8119,42.52332],[-87.81192,42.52305],[-87.81165,42.52205],[-87.81182,42.52174],[-87.8116,42.52102],[-87.81181,42.52056],[-87.8115,42.51966],[-87.81152,42.51933],[-87.81173,42.51912],[-87.81172,42.51877],[-87.81133,42.51771],[-87.81126,42.5174],[-87.81128,42.51713],[-87.81057,42.51461],[-87.81001,42.51338],[-87.80999,42.5128],[-87.80978,42.51246],[-87.8098,42.51228],[-87.8097,42.51197],[-87.8093,42.51112],[-87.8093,42.51105],[-87.80953,42.51089],[-87.80951,42.51072],[-87.80925,42.51024],[-87.80906,42.51016],[-87.80891,42.50996],[-87.80865,42.5093],[-87.80856,42.5092],[-87.80869,42.50909],[-87.80843,42.50898],[-87.80835,42.50888],[-87.80828,42.50845],[-87.8085,42.50805],[-87.80806,42.50741],[-87.80788,42.50728],[-87.80802,42.50724],[-87.80793,42.5069],[-87.80716,42.50581],[-87.80687,42.5056],[-87.80679,42.50535],[-87.80652,42.50524],[-87.80644,42.50479],[-87.80656,42.50472],[-87.80659,42.50448],[-87.80582,42.50346],[-87.80567,42.50336],[-87.80585,42.5031],[-87.80581,42.50286],[-87.80561,42.50266],[-87.80566,42.50263],[-87.80561,42.50253],[-87.80503,42.50237],[-87.80503,42.5021],[-87.80589,42.50199],[-87.80606,42.50163],[-87.80597,42.50075],[-87.80576,42.50018],[-87.8058,42.50004],[-87.80586,42.50002],[-87.8056,42.49952],[-87.8056,42.4993],[-87.80509,42.49858],[-87.80491,42.49796],[-87.80447,42.49746],[-87.80369,42.49734],[-87.8033,42.49709],[-87.80336,42.49695],[-87.80332,42.49675],[-87.80369,42.49673],[-87.80387,42.49641],[-87.80361,42.49571],[-87.80344,42.49548],[-87.8032,42.4954],[-87.80314,42.49522],[-87.80315,42.49513],[-87.80345,42.49496],[-87.8034,42.49466],[-87.80273,42.49368],[-87.80228,42.49364],[-87.80212,42.49311],[-87.80226,42.49296],[-87.80253,42.49239],[-87.80056,42.49192],[-87.79727,42.49192],[-87.79337,42.49172],[-87.75007,42.49269],[-87.62507,42.49295],[-87.50006,42.49352],[-87.37506,42.49382],[-87.25005,42.49357],[-87.12505,42.49368],[-87.01994,42.4935],[-87.01986,42.49376],[-87.02043,42.50003],[-87.0213,42.50002],[-87.0384,42.62502],[-87.0439,42.66373],[-87.12506,42.66366],[-87.25006,42.66524],[-87.25006,42.6651],[-87.37506,42.66665],[-87.37506,42.66565],[-87.50007,42.66749],[-87.62507,42.66776],[-87.75007,42.66788],[-87.79371,42.66826],[-87.79891,42.66826],[-87.80491,42.66836],[-87.80562,42.66817],[-87.80559,42.66781],[-87.80577,42.6675],[-87.80605,42.6662],[-87.80613,42.66553],[-87.8063,42.66548],[-87.80646,42.66495],[-87.80672,42.6649],[-87.80681,42.66458],[-87.80738,42.66453],[-87.80774,42.66422],[-87.8079,42.6639],[-87.80817,42.66286],[-87.80827,42.66273],[-87.80851,42.66157],[-87.80865,42.66141],[-87.8087,42.66083],[-87.80877,42.66064],[-87.80901,42.66063],[-87.80926,42.66047],[-87.80957,42.66017],[-87.80974,42.65988],[-87.80989,42.65934],[-87.80997,42.65869],[-87.80991,42.65739],[-87.81006,42.65702],[-87.81002,42.65688],[-87.81018,42.65669],[-87.81021,42.6565],[-87.8104,42.65643],[-87.81054,42.656],[-87.81073,42.65598],[-87.81096,42.65574],[-87.811,42.65508],[-87.81111,42.6548],[-87.81104,42.65434],[-87.81121,42.65416],[-87.81144,42.65362],[-87.81136,42.65337],[-87.81139,42.65272],[-87.81149,42.65247],[-87.81161,42.65243],[-87.81174,42.65226],[-87.81189,42.65194],[-87.81199,42.65115],[-87.81226,42.65062],[-87.81224,42.65048],[-87.81235,42.65024],[-87.81233,42.65013],[-87.81273,42.64908],[-87.8128,42.64912],[-87.81303,42.64877],[-87.81339,42.64848],[-87.81419,42.64743],[-87.81435,42.64691],[-87.81442,42.64621],[-87.81492,42.64529],[-87.8151,42.64473],[-87.81515,42.64452],[-87.81507,42.64439],[-87.81503,42.64416],[-87.81515,42.64376],[-87.81527,42.64369],[-87.8155,42.64318],[-87.81586,42.64281],[-87.81597,42.64207],[-87.81592,42.64129],[-87.81606,42.64108],[-87.81624,42.64049],[-87.81619,42.63993],[-87.81626,42.63972],[-87.81615,42.63954],[-87.81624,42.63947],[-87.81627,42.63933],[-87.81631,42.63871],[-87.81629,42.63812],[-87.8162,42.63805],[-87.81627,42.638],[-87.81618,42.63792],[-87.81633,42.63789],[-87.81663,42.63742],[-87.81682,42.63677],[-87.81689,42.63623],[-87.81701,42.63606],[-87.81707,42.63575],[-87.81731,42.63545],[-87.8174,42.63515],[-87.81734,42.63409],[-87.81719,42.63384],[-87.81716,42.63354],[-87.81729,42.63301],[-87.81719,42.63259],[-87.8173,42.63223],[-87.81722,42.63181],[-87.81735,42.63096],[-87.81735,42.63056],[-87.81745,42.63046],[-87.8174,42.63036],[-87.81744,42.6303],[-87.81763,42.63025],[-87.81783,42.62994],[-87.81777,42.62954],[-87.818,42.62905],[-87.81803,42.62868],[-87.81822,42.62837],[-87.81839,42.62778],[-87.8187,42.62654],[-87.81876,42.62608],[-87.81905,42.62549],[-87.81916,42.62471],[-87.81926,42.62446],[-87.81921,42.62419],[-87.81926,42.62371],[-87.81934,42.62356],[-87.8195,42.62345],[-87.81968,42.62282],[-87.8199,42.62095]]]},"properties":{"NAME":"Lk Michigan","MTFCC":"H2030","AREAWATER":1231757396,"OBJECTID":1730453}},{"type":"Feature","id":2227781,"geometry":{"type":"Polygon","coordinates":[[[-87.22293,41.6326],[-87.22265,41.62411],[-87.2219,41.62412],[-87.22092,41.62432],[-87.2196,41.62432],[-87.21934,41.62444],[-87.21595,41.625],[-87.21568,41.62512],[-87.21084,41.62578],[-87.20955,41.62588],[-87.18805,41.62946],[-87.18611,41.63001],[-87.18355,41.6304],[-87.18285,41.63057],[-87.18181,41.63067],[-87.18099,41.63083],[-87.1806,41.63101],[-87.1796,41.63096],[-87.17939,41.63105],[-87.17788,41.63342],[-87.17777,41.63339],[-87.17888,41.63164],[-87.17883,41.63142],[-87.1785,41.63131],[-87.17809,41.63127],[-87.17752,41.63151],[-87.17714,41.63143],[-87.1764,41.63186],[-87.17648,41.63262],[-87.17574,41.63283],[-87.17569,41.63434],[-87.17802,41.63436],[-87.17822,41.63439],[-87.17818,41.63447],[-87.17571,41.63449],[-87.1757,41.63467],[-87.17557,41.6347],[-87.17528,41.63417],[-87.17514,41.6341],[-87.17419,41.63407],[-87.17313,41.63422],[-87.16803,41.63462],[-87.16655,41.63491],[-87.16209,41.63539],[-87.16192,41.63584],[-87.16195,41.64143],[-87.16187,41.64173],[-87.16191,41.64189],[-87.16206,41.64196],[-87.16205,41.64455],[-87.16202,41.64516],[-87.16186,41.64526],[-87.15892,41.64522],[-87.1586,41.64528],[-87.14864,41.64775],[-87.14583,41.6489],[-87.14573,41.64878],[-87.14815,41.64775],[-87.15899,41.64507],[-87.16183,41.64505],[-87.16188,41.64202],[-87.1617,41.64177],[-87.16168,41.63103],[-87.16066,41.63103],[-87.16065,41.63136],[-87.15975,41.63136],[-87.15976,41.63101],[-87.1588,41.63099],[-87.15874,41.63104],[-87.15873,41.64014],[-87.15836,41.64032],[-87.15833,41.64176],[-87.15531,41.64173],[-87.15533,41.64196],[-87.15523,41.64198],[-87.15423,41.64198],[-87.1542,41.64177],[-87.15081,41.64168],[-87.1508,41.64146],[-87.15062,41.64132],[-87.15062,41.64122],[-87.15073,41.64117],[-87.15101,41.64129],[-87.1517,41.64127],[-87.15172,41.64088],[-87.15096,41.64086],[-87.15093,41.64073],[-87.15044,41.64074],[-87.15034,41.6358],[-87.14985,41.63582],[-87.14985,41.63593],[-87.14913,41.63592],[-87.14913,41.63582],[-87.14889,41.6358],[-87.1489,41.63561],[-87.14882,41.63548],[-87.14771,41.63548],[-87.14767,41.63573],[-87.14742,41.63574],[-87.14742,41.64638],[-87.1473,41.64634],[-87.14698,41.64646],[-87.14707,41.6462],[-87.14697,41.64613],[-87.14509,41.64571],[-87.14331,41.64565],[-87.14277,41.64554],[-87.14218,41.64554],[-87.14211,41.64559],[-87.14205,41.64588],[-87.14203,41.64681],[-87.14187,41.64695],[-87.14088,41.64729],[-87.13098,41.64967],[-87.12718,41.64481],[-87.12709,41.64486],[-87.12695,41.6452],[-87.12686,41.64529],[-87.12575,41.64551],[-87.12503,41.64593],[-87.12464,41.64588],[-87.12421,41.64604],[-87.12252,41.64635],[-87.12204,41.64635],[-87.12151,41.64654],[-87.11997,41.64671],[-87.11894,41.64699],[-87.11791,41.64713],[-87.11741,41.64728],[-87.11549,41.64764],[-87.1125,41.648],[-87.11117,41.64834],[-87.11018,41.64873],[-87.10799,41.6492],[-87.10741,41.64943],[-87.10578,41.64992],[-87.10373,41.65041],[-87.09905,41.65177],[-87.09715,41.65251],[-87.09516,41.65295],[-87.0921,41.654],[-87.08856,41.65496],[-87.08486,41.65615],[-87.08341,41.65648],[-87.08145,41.65726],[-87.07882,41.65797],[-87.07425,41.65953],[-87.07196,41.66017],[-87.07032,41.6608],[-87.06627,41.66196],[-87.06239,41.66337],[-87.06069,41.66418],[-87.05944,41.66454],[-87.05864,41.66488],[-87.0565,41.66539],[-87.05502,41.66587],[-87.0526,41.66686],[-87.04932,41.66807],[-87.04486,41.6693],[-87.04279,41.66994],[-87.04018,41.67094],[-87.03502,41.67255],[-87.03418,41.6729],[-87.02936,41.67429],[-87.02848,41.67465],[-87.02808,41.675],[-87.02777,41.67514],[-87.026,41.67551],[-87.02496,41.67596],[-87.0238,41.67659],[-87.02341,41.67665],[-87.02159,41.67724],[-87.02063,41.67771],[-87.01954,41.67788],[-87.01866,41.67817],[-87.01653,41.67907],[-87.01368,41.68004],[-87.01123,41.68111],[-87.00827,41.68218],[-87.00407,41.6839],[-87.0001,41.68531],[-86.99435,41.68746],[-86.99264,41.68827],[-86.99163,41.68866],[-86.98619,41.69056],[-86.98397,41.69147],[-86.98127,41.6927],[-86.9778,41.69394],[-86.97398,41.69555],[-86.96976,41.69705],[-86.96922,41.69736],[-86.96805,41.6978],[-86.96754,41.69811],[-86.96291,41.69991],[-86.9597,41.70096],[-86.95794,41.70159],[-86.95719,41.70193],[-86.9559,41.70237],[-86.95298,41.70369],[-86.94876,41.70493],[-86.94533,41.70636],[-86.94339,41.70681],[-86.93972,41.70809],[-86.9374,41.70868],[-86.93542,41.70935],[-86.93376,41.7098],[-86.93273,41.71017],[-86.93311,41.73038],[-86.93337,41.75004],[-86.93333,41.76103],[-87.00003,41.76074],[-87.12504,41.76042],[-87.12504,41.76137],[-87.221,41.76089],[-87.22089,41.75004],[-87.22293,41.6326]]]},"properties":{"NAME":"Lk Michigan","MTFCC":"H2030","AREAWATER":263551627,"OBJECTID":2227781}}]}