{"type":"FeatureCollection","asof":"2026-10-10T08:58","today":"2026-10-10","features":[{"type":"Feature","properties":{"proj":"rle","name":"Red Line Extension","street":"S Doty Ave","extent":"11500–12998 S Doty Ave","kind":"closed","art":false,"start":"2026-09-25","end":"2026-10-24","hours":null,"days":null,"both":true,"who":"WALSH CONSTRUCTION COMPANY II, LLC","desc":"Street closure for water elevation surveys at Calumet prior to construction activities."},"geometry":{"type":"LineString","coordinates":[[-87.603466,41.685684],[-87.603466,41.663067]]}},{"type":"Feature","properties":{"proj":"rle","name":"Red Line Extension","street":"S Perry Ave","extent":"11426–11450 S Perry Ave","kind":"closed","art":false,"start":"2026-10-09","end":"2027-05-28","hours":null,"days":null,"both":true,"who":"WALSH CONSTRUCTION COMPANY II, LLC","desc":"S Perry Closure for the CTA RLE construction happening in the properties adjacent. Alderman letter of support attached. This will ultimately be reconstructed at the end of the project."},"geometry":{"type":"LineString","coordinates":[[-87.625785,41.686297],[-87.625785,41.68586]]}},{"type":"Feature","properties":{"proj":"rle","name":"Red Line Extension","street":"S Princeton Ave","extent":"11317–11327 S Princeton Ave","kind":"closed","art":false,"start":"2026-08-18","end":"2027-05-28","hours":null,"days":null,"both":true,"who":"WALSH CONSTRUCTION COMPANY II, LLC","desc":"Closures along Segment 4 of the CTA Red Line Extension project near properties owned by CTA where the future alignment of the Red Line will go."},"geometry":{"type":"LineString","coordinates":[[-87.630042,41.688414],[-87.630042,41.688232]]}},{"type":"Feature","properties":{"proj":"rle","name":"Red Line Extension","street":"W 103rd Pl","extent":"400–412 W 103rd Pl","kind":"closed","art":false,"start":"2026-08-18","end":"2027-05-28","hours":null,"days":null,"both":true,"who":"WALSH CONSTRUCTION COMPANY II, LLC","desc":"Closures along the future alignment of the CTA Red Line Extension project around CTA owned properties."},"geometry":{"type":"LineString","coordinates":[[-87.633296,41.706226],[-87.633587,41.706226]]}},{"type":"Feature","properties":{"proj":"rle","name":"Red Line Extension","street":"W 104th St","extent":"406–408 W 104th St","kind":"closed","art":false,"start":"2026-08-18","end":"2027-05-28","hours":null,"days":null,"both":true,"who":"WALSH CONSTRUCTION COMPANY II, LLC","desc":"Closures along the future alignment of the CTA Red Line Extension project around CTA owned properties."},"geometry":{"type":"LineString","coordinates":[[-87.633549,41.705327],[-87.633598,41.705327]]}},{"type":"Feature","properties":{"proj":"rle","name":"Red Line Extension","street":"W 105th St","extent":"410–416 W 105th St","kind":"closed","art":false,"start":"2026-08-18","end":"2027-05-28","hours":null,"days":null,"both":true,"who":"WALSH CONSTRUCTION COMPANY II, LLC","desc":"Closures along the future alignment of the CTA Red Line Extension project around CTA owned properties."},"geometry":{"type":"LineString","coordinates":[[-87.633643,41.703464],[-87.633789,41.703464]]}},{"type":"Feature","properties":{"proj":"rle","name":"Red Line Extension","street":"W 108th St","extent":"348–352 W 108th St","kind":"closed","art":false,"start":"2026-08-18","end":"2027-05-28","hours":null,"days":null,"both":true,"who":"WALSH CONSTRUCTION COMPANY II, LLC","desc":"Closures along the future alignment of the CTA Red Line Extension project around CTA owned properties."},"geometry":{"type":"LineString","coordinates":[[-87.632337,41.698051],[-87.632434,41.698051]]}},{"type":"Feature","properties":{"proj":"rle","name":"Red Line Extension","street":"W 109th Pl","extent":"348–354 W 109th Pl","kind":"closed","art":false,"start":"2026-08-18","end":"2027-05-28","hours":null,"days":null,"both":true,"who":"WALSH CONSTRUCTION COMPANY II, LLC","desc":"Closures along the future alignment of the CTA Red Line Extension project around CTA owned properties."},"geometry":{"type":"LineString","coordinates":[[-87.632161,41.695319],[-87.632307,41.695319]]}},{"type":"Feature","properties":{"proj":"rle","name":"Red Line Extension","street":"W 110th St","extent":"352 W 110th St","kind":"closed","art":false,"start":"2026-08-18","end":"2027-05-28","hours":null,"days":null,"both":true,"who":"WALSH CONSTRUCTION COMPANY II, LLC","desc":"Closures along the future alignment of the CTA Red Line Extension project around CTA owned properties."},"geometry":{"type":"LineString","coordinates":[[-87.632401,41.694406],[-87.632763,41.694406]]}},{"type":"Feature","properties":{"proj":"rle","name":"Red Line Extension","street":"W 112th St","extent":"334–344 W 112th St","kind":"closed","art":false,"start":"2026-08-18","end":"2027-05-28","hours":null,"days":null,"both":true,"who":"WALSH CONSTRUCTION COMPANY II, LLC","desc":"Closures along Segment 4 of the CTA Red Line Extension project near properties owned by CTA where the future alignment of the Red Line will go."},"geometry":{"type":"LineString","coordinates":[[-87.631616,41.69078],[-87.631858,41.69078]]}},{"type":"Feature","properties":{"proj":"rle","name":"Red Line Extension","street":"W 113th St","extent":"310–320 W 113th St","kind":"closed","art":false,"start":"2026-08-18","end":"2027-05-28","hours":null,"days":null,"both":true,"who":"WALSH CONSTRUCTION COMPANY II, LLC","desc":"Closures along Segment 4 of the CTA Red Line Extension project near properties owned by CTA where the future alignment of the Red Line will go."},"geometry":{"type":"LineString","coordinates":[[-87.630572,41.688973],[-87.630815,41.688973]]}},{"type":"Feature","properties":{"proj":"rle","name":"Red Line Extension","street":"E 130th St","extent":"800–1120 E 130th St","kind":"narrowed","art":true,"start":"2026-09-16","end":"2026-10-15","hours":null,"days":null,"both":false,"who":"ComED North","desc":"Permit in relation to the CTA RLE Project. Pole installation/RIP/Ground Rod Installation - OVHD EQUIPMENT, bucket trucks, alley closure where required. 11900 S COTTAGE GROVE AVE - CTA RED LINE - RELO- SECTION 3"},"geometry":{"type":"LineString","coordinates":[[-87.603121,41.659263],[-87.595357,41.659263]]}},{"type":"Feature","properties":{"proj":"rle","name":"Red Line Extension","street":"E 130th St","extent":"800–1130 E 130th St","kind":"narrowed","art":true,"start":"2026-09-30","end":"2026-10-30","hours":null,"days":null,"both":false,"who":"ComED North","desc":"PROPOSED JOINT BUILD CONDUIT INSTALLATION FOR CTA REDLINE RELOCATION VIA OPEN CUT TRENCH. PROPOSED 8 POLE INSTALLATIONS ComEd worked with developers and telecommunication companies to reduce the installation footprint an"},"geometry":{"type":"LineString","coordinates":[[-87.603121,41.659263],[-87.595115,41.659263]]}},{"type":"Feature","properties":{"proj":"rle","name":"Red Line Extension","street":"W 111th St","extent":"320–362 W 111th St","kind":"narrowed","art":true,"start":"2026-10-08","end":"2026-11-06","hours":null,"days":null,"both":false,"who":"WALSH CONSTRUCTION COMPANY II, LLC","desc":"QLA Potholing operations for the CTA Red Line Project and subsequent restoration work. Per the general contractor's contract with the CTA, all areas in the footprint will be milled and overlayed."},"geometry":{"type":"LineString","coordinates":[[-87.631181,41.692599],[-87.6322,41.692599]]}}]}