{"type":"FeatureCollection", "features": [
{"type":"Feature","geometry":{"type":"MultiPolygon","coordinates":[[[[-87.73973,41.69078],[-87.73966,41.68913],[-87.73949,41.68913],[-87.73927,41.68375],[-87.72489,41.684],[-87.72489,41.68398],[-87.72183,41.68403],[-87.72183,41.68394],[-87.71515,41.68404],[-87.71515,41.68481],[-87.71467,41.68487],[-87.71478,41.68772],[-87.71527,41.68777],[-87.71528,41.6885],[-87.71047,41.68862],[-87.71058,41.69142],[-87.72032,41.6913],[-87.72032,41.69127],[-87.72518,41.69118],[-87.72517,41.69104],[-87.73973,41.69078]]],[[[-87.7116,41.6818],[-87.71133,41.68181],[-87.71142,41.68227],[-87.71147,41.6831],[-87.71141,41.68184],[-87.7116,41.6818]]],[[[-87.6712,41.69922],[-87.67436,41.69915],[-87.67433,41.69807],[-87.67402,41.69722],[-87.67408,41.69674],[-87.67883,41.69665],[-87.67903,41.69602],[-87.67908,41.69543],[-87.68127,41.69542],[-87.68093,41.6845],[-87.68572,41.68447],[-87.68557,41.67962],[-87.68565,41.67867],[-87.68587,41.67797],[-87.68621,41.67721],[-87.68522,41.67722],[-87.68169,41.6773],[-87.67956,41.67723],[-87.6785,41.67723],[-87.66795,41.67742],[-87.6684,41.67619],[-87.66732,41.67596],[-87.66677,41.67744],[-87.66137,41.67754],[-87.66138,41.67731],[-87.66115,41.67034],[-87.65936,41.67032],[-87.65865,41.67029],[-87.65775,41.6703],[-87.64167,41.67054],[-87.64142,41.66325],[-87.64722,41.66316],[-87.64699,41.65774],[-87.64677,41.65767],[-87.64591,41.65778],[-87.64475,41.65772],[-87.64366,41.65775],[-87.64142,41.65777],[-87.64143,41.65809],[-87.64106,41.6581],[-87.64105,41.65777],[-87.64042,41.65779],[-87.63914,41.65775],[-87.63856,41.65771],[-87.63654,41.65743],[-87.63513,41.65743],[-87.63514,41.65756],[-87.63284,41.65769],[-87.63265,41.65773],[-87.63233,41.65779],[-87.63228,41.65781],[-87.63171,41.65792],[-87.63148,41.65795],[-87.63134,41.65793],[-87.63121,41.65782],[-87.63082,41.65796],[-87.63076,41.65827],[-87.62973,41.65901],[-87.62915,41.65932],[-87.62875,41.65964],[-87.62754,41.66076],[-87.62644,41.66149],[-87.62627,41.66166],[-87.62476,41.66209],[-87.62442,41.66226],[-87.62381,41.66227],[-87.62329,41.6624],[-87.62204,41.66241],[-87.62202,41.66213],[-87.62179,41.66203],[-87.62195,41.66326],[-87.62209,41.66345],[-87.62244,41.67073],[-87.62352,41.70717],[-87.62592,41.70713],[-87.626,41.71078],[-87.6236,41.71081],[-87.62364,41.71401],[-87.62342,41.71468],[-87.62288,41.71574],[-87.62209,41.715],[-87.62073,41.71419],[-87.6195,41.71374],[-87.61813,41.71347],[-87.61724,41.71341],[-87.61385,41.71343],[-87.60512,41.71359],[-87.60652,41.70743],[-87.59632,41.70761],[-87.59514,41.70898],[-87.59421,41.71065],[-87.59225,41.7162],[-87.59208,41.71763],[-87.59213,41.72131],[-87.5921,41.72155],[-87.59187,41.722],[-87.59165,41.72225],[-87.58513,41.72234],[-87.58496,41.72057],[-87.57366,41.70797],[-87.56451,41.7081],[-87.56452,41.70854],[-87.56512,41.70853],[-87.56514,41.70989],[-87.56454,41.7099],[-87.56472,41.7226],[-87.5566,41.7227],[-87.55669,41.72635],[-87.55807,41.72633],[-87.55809,41.72684],[-87.55671,41.72686],[-87.55673,41.72768],[-87.55811,41.72766],[-87.55815,41.72948],[-87.561,41.73154],[-87.56104,41.73206],[-87.55986,41.73299],[-87.56019,41.73323],[-87.55965,41.73362],[-87.55549,41.73368],[-87.55554,41.73551],[-87.55692,41.73549],[-87.55697,41.73731],[-87.55689,41.73731],[-87.55692,41.73913],[-87.55571,41.73914],[-87.55574,41.74096],[-87.55513,41.74097],[-87.55519,41.74428],[-87.55577,41.7446],[-87.5552,41.74461],[-87.55522,41.74643],[-87.55401,41.74644],[-87.55404,41.74826],[-87.55526,41.74824],[-87.55532,41.75188],[-87.55593,41.75187],[-87.55592,41.75142],[-87.55714,41.7514],[-87.56501,41.7513],[-87.56502,41.75175],[-87.56623,41.75173],[-87.5663,41.75536],[-87.56691,41.75535],[-87.56697,41.75854],[-87.56759,41.75853],[-87.56759,41.75897],[-87.56637,41.75899],[-87.56645,41.76262],[-87.56767,41.76261],[-87.5677,41.76442],[-87.56649,41.76444],[-87.56651,41.76599],[-87.56697,41.76617],[-87.56737,41.76623],[-87.57385,41.76616],[-87.57383,41.76533],[-87.5737,41.76436],[-87.57626,41.76433],[-87.5763,41.76621],[-87.58633,41.76612],[-87.58639,41.76846],[-87.58624,41.7697],[-87.58132,41.76975],[-87.58141,41.77339],[-87.5863,41.77334],[-87.58635,41.77511],[-87.58627,41.77532],[-87.58641,41.77854],[-87.58671,41.79133],[-87.58664,41.79338],[-87.58794,41.79336],[-87.58751,41.79519],[-87.58727,41.79519],[-87.58705,41.79645],[-87.58696,41.79843],[-87.58702,41.79957],[-87.59179,41.79951],[-87.59188,41.80423],[-87.59674,41.80418],[-87.59683,41.80964],[-87.6039,41.80957],[-87.60406,41.81685],[-87.59728,41.81692],[-87.59665,41.81684],[-87.59643,41.81692],[-87.59236,41.81697],[-87.59232,41.81758],[-87.59282,41.81834],[-87.59356,41.81867],[-87.594,41.81915],[-87.59447,41.81915],[-87.59484,41.81976],[-87.59512,41.81981],[-87.59549,41.82016],[-87.59607,41.82115],[-87.59684,41.82196],[-87.59725,41.82262],[-87.59733,41.82303],[-87.59763,41.8236],[-87.5984,41.82429],[-87.5985,41.82447],[-87.59862,41.8257],[-87.59903,41.82633],[-87.59959,41.82666],[-87.60051,41.8269],[-87.60176,41.82873],[-87.60191,41.82953],[-87.60171,41.82983],[-87.60243,41.83044],[-87.60272,41.83086],[-87.6029,41.83146],[-87.60282,41.83237],[-87.60345,41.833],[-87.60407,41.83298],[-87.6044,41.8331],[-87.60477,41.83338],[-87.60504,41.83375],[-87.6051,41.83442],[-87.60463,41.8349],[-87.60557,41.83579],[-87.60597,41.83642],[-87.60611,41.83688],[-87.6062,41.8387],[-87.60626,41.83879],[-87.60701,41.83932],[-87.60721,41.83962],[-87.60757,41.84057],[-87.60802,41.84117],[-87.60813,41.84143],[-87.60812,41.84228],[-87.60866,41.84296],[-87.60912,41.84419],[-87.60917,41.84446],[-87.60911,41.8448],[-87.60875,41.84533],[-87.60852,41.84581],[-87.60859,41.84641],[-87.60931,41.84755],[-87.60949,41.84807],[-87.60954,41.8487],[-87.6092,41.85042],[-87.60926,41.85096],[-87.61,41.85203],[-87.61059,41.85283],[-87.6136,41.85275],[-87.61383,41.85283],[-87.61454,41.85283],[-87.61673,41.85795],[-87.61765,41.85799],[-87.61888,41.85792],[-87.6204,41.86011],[-87.62083,41.86051],[-87.62086,41.86024],[-87.62247,41.86025],[-87.62224,41.85114],[-87.62376,41.85111],[-87.62367,41.84747],[-87.62358,41.84738],[-87.62339,41.84564],[-87.62214,41.84566],[-87.6221,41.84417],[-87.62221,41.84386],[-87.62208,41.84362],[-87.62208,41.84274],[-87.62198,41.84199],[-87.62269,41.84193],[-87.62268,41.84131],[-87.62328,41.84129],[-87.62323,41.83917],[-87.62331,41.83835],[-87.62344,41.83834],[-87.62333,41.8347],[-87.63057,41.83461],[-87.6303,41.82366],[-87.61673,41.82384],[-87.61658,41.81844],[-87.61376,41.81848],[-87.61394,41.81758],[-87.61656,41.81754],[-87.61648,41.81483],[-87.61571,41.81484],[-87.6157,41.81546],[-87.61487,41.81547],[-87.6148,41.81486],[-87.61403,41.81487],[-87.61394,41.81306],[-87.61459,41.81305],[-87.61456,41.81214],[-87.61389,41.81215],[-87.61381,41.81118],[-87.61387,41.80394],[-87.61402,41.80305],[-87.615,41.80303],[-87.61497,41.80212],[-87.61611,41.8021],[-87.61614,41.80191],[-87.61562,41.78024],[-87.6197,41.78017],[-87.62106,41.78005],[-87.62579,41.78005],[-87.64617,41.77973],[-87.64613,41.77793],[-87.64595,41.77773],[-87.64561,41.76473],[-87.64622,41.76472],[-87.64619,41.76336],[-87.64558,41.76336],[-87.64553,41.76154],[-87.64432,41.76156],[-87.64423,41.75799],[-87.65878,41.75773],[-87.66971,41.75765],[-87.67083,41.75762],[-87.6709,41.75756],[-87.67206,41.75762],[-87.67214,41.75755],[-87.67647,41.75746],[-87.68305,41.75738],[-87.68367,41.75754],[-87.68668,41.75748],[-87.68686,41.76281],[-87.68808,41.76279],[-87.68814,41.76462],[-87.70281,41.76439],[-87.70261,41.75722],[-87.71108,41.75704],[-87.71233,41.75719],[-87.71232,41.75691],[-87.72219,41.75684],[-87.72218,41.75493],[-87.72197,41.75136],[-87.72036,41.75138],[-87.72029,41.74953],[-87.72191,41.7495],[-87.72168,41.74218],[-87.7229,41.74216],[-87.72277,41.7385],[-87.72399,41.73847],[-87.72386,41.73483],[-87.70212,41.7352],[-87.70212,41.73519],[-87.70124,41.73521],[-87.69547,41.7353],[-87.68251,41.73553],[-87.68224,41.72669],[-87.68199,41.71861],[-87.68251,41.73552],[-87.67309,41.73565],[-87.66975,41.73191],[-87.66822,41.73018],[-87.66744,41.72845],[-87.66847,41.7284],[-87.66918,41.72823],[-87.66847,41.72722],[-87.66815,41.72649],[-87.668,41.7259],[-87.66818,41.72553],[-87.66834,41.72118],[-87.66915,41.72116],[-87.6689,41.71204],[-87.6692,41.7105],[-87.66952,41.71004],[-87.67001,41.70896],[-87.67023,41.70809],[-87.67064,41.70709],[-87.6709,41.70542],[-87.67083,41.70332],[-87.67105,41.70209],[-87.67103,41.69991],[-87.67115,41.69934],[-87.6712,41.69922]]]]},"properties":{"num":1,"lp":[-87.61312,41.74717]}},
{"type":"Feature","geometry":{"type":"MultiPolygon","coordinates":[[[[-87.63265,41.65773],[-87.63284,41.65769],[-87.63514,41.65756],[-87.63513,41.65743],[-87.63654,41.65743],[-87.63574,41.65735],[-87.63501,41.65737],[-87.63392,41.65747],[-87.633,41.65753],[-87.63265,41.65773]]],[[[-87.59236,41.81697],[-87.59643,41.81692],[-87.59665,41.81684],[-87.59728,41.81692],[-87.60406,41.81685],[-87.6039,41.80957],[-87.59683,41.80964],[-87.59674,41.80418],[-87.59188,41.80423],[-87.59179,41.79951],[-87.58702,41.79957],[-87.58696,41.79843],[-87.58705,41.79645],[-87.58727,41.79519],[-87.58751,41.79519],[-87.58794,41.79336],[-87.58664,41.79338],[-87.58671,41.79133],[-87.58641,41.77854],[-87.58627,41.77532],[-87.58635,41.77511],[-87.5863,41.77334],[-87.58141,41.77339],[-87.58132,41.76975],[-87.58624,41.7697],[-87.58639,41.76846],[-87.58633,41.76612],[-87.5763,41.76621],[-87.57626,41.76433],[-87.5737,41.76436],[-87.57383,41.76533],[-87.57385,41.76616],[-87.56737,41.76623],[-87.56697,41.76617],[-87.56651,41.76599],[-87.56649,41.76444],[-87.5677,41.76442],[-87.56767,41.76261],[-87.56645,41.76262],[-87.56637,41.75899],[-87.56759,41.75897],[-87.56759,41.75853],[-87.56697,41.75854],[-87.56691,41.75535],[-87.5663,41.75536],[-87.56623,41.75173],[-87.56502,41.75175],[-87.56501,41.7513],[-87.55714,41.7514],[-87.55592,41.75142],[-87.55593,41.75187],[-87.55532,41.75188],[-87.55526,41.74824],[-87.55404,41.74826],[-87.55401,41.74644],[-87.55522,41.74643],[-87.5552,41.74461],[-87.55577,41.7446],[-87.55519,41.74428],[-87.55513,41.74097],[-87.55574,41.74096],[-87.55571,41.73914],[-87.55692,41.73913],[-87.55689,41.73731],[-87.55697,41.73731],[-87.55692,41.73549],[-87.55554,41.73551],[-87.55549,41.73368],[-87.55965,41.73362],[-87.56019,41.73323],[-87.55986,41.73299],[-87.56104,41.73206],[-87.561,41.73154],[-87.55815,41.72948],[-87.55811,41.72766],[-87.55673,41.72768],[-87.55671,41.72686],[-87.55809,41.72684],[-87.55807,41.72633],[-87.55669,41.72635],[-87.5566,41.7227],[-87.56472,41.7226],[-87.56454,41.7099],[-87.56514,41.70989],[-87.56512,41.70853],[-87.56452,41.70854],[-87.56451,41.7081],[-87.57366,41.70797],[-87.58496,41.72057],[-87.58513,41.72234],[-87.59165,41.72225],[-87.59187,41.722],[-87.5921,41.72155],[-87.59213,41.72131],[-87.59208,41.71763],[-87.59225,41.7162],[-87.59421,41.71065],[-87.59514,41.70898],[-87.59632,41.70761],[-87.60652,41.70743],[-87.60512,41.71359],[-87.61385,41.71343],[-87.61724,41.71341],[-87.61813,41.71347],[-87.6195,41.71374],[-87.62073,41.71419],[-87.62209,41.715],[-87.62288,41.71574],[-87.62342,41.71468],[-87.62364,41.71401],[-87.6236,41.71081],[-87.626,41.71078],[-87.62592,41.70713],[-87.62352,41.70717],[-87.62244,41.67073],[-87.62209,41.66345],[-87.62195,41.66326],[-87.62179,41.66203],[-87.62025,41.66137],[-87.61986,41.66114],[-87.61951,41.66079],[-87.61939,41.66006],[-87.61946,41.65954],[-87.61968,41.65906],[-87.61771,41.6591],[-87.61848,41.65555],[-87.61875,41.65458],[-87.61907,41.65361],[-87.61945,41.65266],[-87.61982,41.65183],[-87.62032,41.65089],[-87.62021,41.65085],[-87.61803,41.65037],[-87.61723,41.65028],[-87.61724,41.64763],[-87.61722,41.64458],[-87.61336,41.64461],[-87.6121,41.6446],[-87.60124,41.64461],[-87.59783,41.64461],[-87.59789,41.64803],[-87.59761,41.64805],[-87.59667,41.6483],[-87.59467,41.64878],[-87.59367,41.64892],[-87.59233,41.64893],[-87.59209,41.64891],[-87.59114,41.6486],[-87.59047,41.64828],[-87.59011,41.64782],[-87.58986,41.64766],[-87.5892,41.64698],[-87.5888,41.64687],[-87.58816,41.64632],[-87.5873,41.64543],[-87.58693,41.64495],[-87.58684,41.64469],[-87.58567,41.6447],[-87.57858,41.6447],[-87.57725,41.64471],[-87.57487,41.64468],[-87.57373,41.64468],[-87.56237,41.64466],[-87.5498,41.64457],[-87.53503,41.64456],[-87.52994,41.64457],[-87.52517,41.64454],[-87.52499,41.65906],[-87.52484,41.67365],[-87.52482,41.67494],[-87.52484,41.67544],[-87.52482,41.68095],[-87.52474,41.68173],[-87.52481,41.68694],[-87.52466,41.6918],[-87.52462,41.69724],[-87.52454,41.70033],[-87.52453,41.7026],[-87.52455,41.70795],[-87.52454,41.70839],[-87.52529,41.70883],[-87.52543,41.70885],[-87.52622,41.70954],[-87.52559,41.70994],[-87.52526,41.70971],[-87.52512,41.70974],[-87.52482,41.70937],[-87.52454,41.70951],[-87.52497,41.7099],[-87.52544,41.71002],[-87.52561,41.71031],[-87.526,41.71034],[-87.5259,41.71004],[-87.52624,41.70982],[-87.52669,41.70986],[-87.5272,41.71003],[-87.52841,41.7108],[-87.52643,41.71231],[-87.52742,41.71308],[-87.52777,41.71351],[-87.52813,41.71424],[-87.52848,41.71473],[-87.5287,41.71537],[-87.52857,41.71585],[-87.5281,41.71631],[-87.52766,41.71662],[-87.527,41.71695],[-87.52692,41.71693],[-87.5258,41.71732],[-87.52555,41.71737],[-87.52447,41.7174],[-87.5245,41.71799],[-87.52491,41.71805],[-87.52529,41.71849],[-87.52555,41.71899],[-87.52561,41.71955],[-87.52556,41.72037],[-87.52541,41.72092],[-87.525,41.72152],[-87.52447,41.7219],[-87.52448,41.7232],[-87.52454,41.72358],[-87.52469,41.73109],[-87.52483,41.73131],[-87.52515,41.7315],[-87.52575,41.7316],[-87.52895,41.73205],[-87.52949,41.73237],[-87.52899,41.7337],[-87.52915,41.7349],[-87.52912,41.73497],[-87.52928,41.73594],[-87.5294,41.737],[-87.53,41.74053],[-87.52994,41.74061],[-87.53141,41.74059],[-87.53887,41.7405],[-87.53983,41.7405],[-87.53986,41.74101],[-87.53176,41.7411],[-87.53069,41.74112],[-87.53019,41.74126],[-87.52985,41.74146],[-87.53004,41.74179],[-87.53008,41.7424],[-87.53076,41.74728],[-87.53091,41.74796],[-87.5311,41.74813],[-87.53208,41.74859],[-87.53274,41.74882],[-87.5339,41.74931],[-87.53438,41.74945],[-87.53549,41.74988],[-87.53601,41.75016],[-87.53765,41.75082],[-87.5385,41.75112],[-87.53887,41.75129],[-87.53992,41.75163],[-87.54039,41.75183],[-87.54228,41.75192],[-87.54294,41.75193],[-87.54319,41.75199],[-87.54351,41.75225],[-87.54372,41.75253],[-87.54415,41.75344],[-87.54441,41.75413],[-87.54415,41.75462],[-87.54418,41.7548],[-87.54393,41.75505],[-87.54395,41.75526],[-87.5425,41.75615],[-87.5418,41.75654],[-87.5406,41.75728],[-87.54112,41.75777],[-87.54165,41.75782],[-87.54263,41.75874],[-87.54253,41.75907],[-87.5432,41.7597],[-87.5437,41.76009],[-87.54401,41.75988],[-87.54458,41.75973],[-87.54495,41.75974],[-87.54551,41.75936],[-87.54659,41.75888],[-87.54725,41.75872],[-87.54797,41.75867],[-87.54871,41.75873],[-87.54955,41.75896],[-87.55225,41.75998],[-87.55411,41.76081],[-87.55435,41.76105],[-87.55488,41.76179],[-87.55527,41.76162],[-87.55559,41.76158],[-87.55608,41.76182],[-87.55672,41.76227],[-87.55687,41.76243],[-87.55764,41.76285],[-87.55759,41.76313],[-87.55848,41.764],[-87.55898,41.76375],[-87.55928,41.76404],[-87.55944,41.76408],[-87.55974,41.76439],[-87.55952,41.76453],[-87.55983,41.76495],[-87.56002,41.7649],[-87.56061,41.76564],[-87.56062,41.76601],[-87.56048,41.76622],[-87.56018,41.76644],[-87.55964,41.76655],[-87.55939,41.76678],[-87.55945,41.76806],[-87.55943,41.76872],[-87.55964,41.76913],[-87.55992,41.76851],[-87.56053,41.7684],[-87.56092,41.76844],[-87.56154,41.76863],[-87.56234,41.769],[-87.5626,41.76937],[-87.56294,41.76999],[-87.56324,41.77036],[-87.56346,41.77093],[-87.56342,41.77118],[-87.56364,41.77208],[-87.56398,41.77209],[-87.565,41.77253],[-87.56565,41.77292],[-87.56629,41.77347],[-87.56643,41.77378],[-87.56681,41.77396],[-87.56782,41.77531],[-87.56813,41.7757],[-87.56881,41.7764],[-87.56919,41.77669],[-87.56969,41.77697],[-87.5699,41.777],[-87.57033,41.77742],[-87.57114,41.77805],[-87.57167,41.77854],[-87.57182,41.77858],[-87.57224,41.77923],[-87.57271,41.77932],[-87.57321,41.77919],[-87.57336,41.7789],[-87.57336,41.77831],[-87.57316,41.778],[-87.57279,41.77767],[-87.57265,41.77733],[-87.57245,41.77741],[-87.57216,41.77718],[-87.57175,41.7766],[-87.57184,41.77607],[-87.572,41.77582],[-87.57284,41.77561],[-87.57348,41.77551],[-87.57412,41.77553],[-87.57481,41.77577],[-87.5747,41.77599],[-87.57469,41.77628],[-87.57507,41.77678],[-87.5753,41.77741],[-87.57528,41.77787],[-87.57494,41.77881],[-87.57473,41.77911],[-87.57444,41.77937],[-87.57304,41.77991],[-87.57315,41.78027],[-87.57248,41.78045],[-87.57128,41.78084],[-87.56955,41.78125],[-87.5705,41.78137],[-87.57135,41.78156],[-87.57248,41.7819],[-87.57331,41.7822],[-87.57421,41.78263],[-87.5761,41.78365],[-87.57638,41.78422],[-87.57682,41.78521],[-87.5772,41.78631],[-87.57731,41.78681],[-87.57733,41.78802],[-87.57715,41.78816],[-87.57792,41.78818],[-87.57782,41.78837],[-87.57669,41.78853],[-87.57655,41.78868],[-87.57782,41.78955],[-87.57842,41.7901],[-87.57868,41.79067],[-87.57927,41.79143],[-87.57963,41.79204],[-87.57952,41.79232],[-87.5796,41.79284],[-87.5795,41.79345],[-87.57932,41.79381],[-87.57894,41.79427],[-87.5783,41.79473],[-87.57783,41.79492],[-87.57691,41.79511],[-87.57662,41.79505],[-87.57618,41.79508],[-87.57579,41.79534],[-87.57544,41.79545],[-87.57516,41.79624],[-87.57525,41.79656],[-87.57591,41.79698],[-87.57647,41.79705],[-87.57757,41.79681],[-87.57826,41.79702],[-87.57858,41.79719],[-87.57933,41.79778],[-87.57999,41.79842],[-87.58088,41.80043],[-87.58082,41.80177],[-87.58066,41.80255],[-87.58041,41.80303],[-87.58006,41.80354],[-87.5801,41.8039],[-87.58067,41.80421],[-87.58112,41.80421],[-87.58291,41.80558],[-87.58365,41.80603],[-87.5839,41.80624],[-87.58452,41.80662],[-87.58523,41.80729],[-87.58576,41.80817],[-87.58615,41.80872],[-87.5861,41.80884],[-87.5863,41.80923],[-87.58693,41.81007],[-87.58702,41.81044],[-87.58706,41.81142],[-87.58733,41.81177],[-87.5877,41.81198],[-87.58825,41.81202],[-87.5885,41.8121],[-87.58883,41.81233],[-87.58913,41.81282],[-87.58957,41.81306],[-87.59029,41.81378],[-87.59044,41.81453],[-87.59079,41.81477],[-87.59094,41.81497],[-87.59154,41.81598],[-87.59171,41.81603],[-87.59225,41.81662],[-87.59236,41.81697]]]]},"properties":{"num":2,"lp":[-87.55701,41.67679]}},
{"type":"Feature","geometry":{"type":"MultiPolygon","coordinates":[[[[-87.89313,42.00395],[-87.89313,42.00328],[-87.89347,42.00327],[-87.89356,42.0029],[-87.89355,42.00274],[-87.89435,42.00271],[-87.89429,42.0057],[-87.89531,42.00567],[-87.89576,42.00588],[-87.89598,42.00578],[-87.89718,42.00633],[-87.89835,42.00679],[-87.89916,42.00705],[-87.90238,42.00792],[-87.90238,42.00809],[-87.90575,42.00899],[-87.90768,42.00892],[-87.90767,42.00525],[-87.90827,42.00521],[-87.91133,42.0051],[-87.91303,42.00509],[-87.91303,42.00627],[-87.91331,42.00626],[-87.91331,42.00872],[-87.91377,42.0087],[-87.91377,42.00507],[-87.92061,42.00495],[-87.9206,42.00389],[-87.92085,42.00388],[-87.92048,42.0038],[-87.9205,42.00495],[-87.91511,42.00505],[-87.91457,42.00492],[-87.91336,42.00482],[-87.91091,42.00438],[-87.90889,42.00382],[-87.90886,42.00277],[-87.89879,42.00073],[-87.89596,42.0003],[-87.89596,42.00033],[-87.89746,42.00053],[-87.89744,42.00155],[-87.89954,42.00148],[-87.90312,42.00342],[-87.90406,42.00356],[-87.90406,42.00397],[-87.9024,42.00403],[-87.90241,42.00361],[-87.89924,42.0019],[-87.89603,42.002],[-87.89604,42.00227],[-87.89412,42.00223],[-87.89039,42.00231],[-87.89038,42.00285],[-87.89003,42.00318],[-87.89002,42.00324],[-87.89189,42.00399],[-87.89313,42.00395]]],[[[-87.93845,41.99497],[-87.93747,41.99713],[-87.93602,41.99936],[-87.93373,42.00173],[-87.93374,42.00129],[-87.93054,42.00398],[-87.92907,42.00496],[-87.92152,42.00385],[-87.9209,42.00393],[-87.92256,42.00587],[-87.92545,42.00771],[-87.92925,42.005],[-87.93033,42.00516],[-87.93033,42.005],[-87.93348,42.00542],[-87.93351,42.00566],[-87.93356,42.00802],[-87.93358,42.00817],[-87.93529,42.00815],[-87.93517,42.00333],[-87.93509,42.00094],[-87.93514,42.00089],[-87.93466,42.0009],[-87.93541,42.00017],[-87.93591,41.9996],[-87.93653,41.99879],[-87.93708,41.99797],[-87.93762,41.99703],[-87.93817,41.99579],[-87.93845,41.99497]]],[[[-87.89221,41.95806],[-87.89309,41.95809],[-87.89325,41.95471],[-87.89578,41.95221],[-87.8963,41.95183],[-87.8971,41.95143],[-87.89844,41.95106],[-87.89973,41.95096],[-87.90208,41.95104],[-87.90686,41.95522],[-87.90861,41.95569],[-87.91181,41.95635],[-87.91223,41.95675],[-87.91265,41.957],[-87.91341,41.95777],[-87.91473,41.95849],[-87.91573,41.95875],[-87.91668,41.96035],[-87.91849,41.96224],[-87.92002,41.96352],[-87.92007,41.96369],[-87.91971,41.96417],[-87.91971,41.9649],[-87.91962,41.96499],[-87.91881,41.9653],[-87.91595,41.96535],[-87.91535,41.96544],[-87.91505,41.96579],[-87.91497,41.96647],[-87.91503,41.96826],[-87.91695,41.9706],[-87.92023,41.97184],[-87.92048,41.99389],[-87.93897,41.99352],[-87.93897,41.99353],[-87.93993,41.99349],[-87.93988,41.99049],[-87.93986,41.99015],[-87.93982,41.9878],[-87.93983,41.98702],[-87.93975,41.98189],[-87.93971,41.97864],[-87.93972,41.96428],[-87.93936,41.96428],[-87.93938,41.95953],[-87.93928,41.95885],[-87.93912,41.95839],[-87.93947,41.95839],[-87.93947,41.95679],[-87.93723,41.95645],[-87.9342,41.95597],[-87.92634,41.95465],[-87.92556,41.95461],[-87.92215,41.95378],[-87.92215,41.95383],[-87.91594,41.95227],[-87.91596,41.95509],[-87.91633,41.95509],[-87.91585,41.95716],[-87.91523,41.95684],[-87.91504,41.95619],[-87.91484,41.95509],[-87.91477,41.95434],[-87.91475,41.95288],[-87.90378,41.95062],[-87.89288,41.95079],[-87.8929,41.95805],[-87.89221,41.95806]]],[[[-87.88362,41.95734],[-87.88454,41.9576],[-87.88588,41.9581],[-87.88715,41.95828],[-87.88828,41.95822],[-87.88932,41.95797],[-87.88563,41.95749],[-87.88563,41.95754],[-87.88385,41.9573],[-87.88362,41.95734]]],[[[-87.85014,41.95155],[-87.85411,41.95133],[-87.85425,41.95092],[-87.85494,41.94948],[-87.85501,41.94894],[-87.855,41.9482],[-87.85487,41.9478],[-87.85408,41.94656],[-87.85382,41.94584],[-87.85358,41.94504],[-87.85326,41.94376],[-87.85301,41.94335],[-87.8531,41.94288],[-87.85308,41.9426],[-87.85253,41.94126],[-87.85227,41.94041],[-87.85211,41.93979],[-87.85181,41.93917],[-87.85141,41.9387],[-87.85066,41.93808],[-87.85019,41.93775],[-87.84963,41.93729],[-87.84959,41.93729],[-87.84445,41.9374],[-87.84261,41.93743],[-87.83542,41.93757],[-87.83345,41.9376],[-87.83321,41.93762],[-87.82657,41.93775],[-87.82594,41.93775],[-87.81652,41.93794],[-87.81639,41.93431],[-87.80714,41.93451],[-87.80662,41.93451],[-87.80627,41.92464],[-87.80622,41.92282],[-87.80601,41.91619],[-87.80143,41.91624],[-87.80148,41.91807],[-87.79873,41.91809],[-87.79866,41.91581],[-87.795,41.91585],[-87.79496,41.91448],[-87.78518,41.91459],[-87.78528,41.91823],[-87.7804,41.91829],[-87.78039,41.91792],[-87.78026,41.91785],[-87.7682,41.91805],[-87.76816,41.91686],[-87.76694,41.91687],[-87.76702,41.91898],[-87.76087,41.91785],[-87.76079,41.91626],[-87.75286,41.91533],[-87.75265,41.90954],[-87.75104,41.90956],[-87.75099,41.90774],[-87.74854,41.90776],[-87.7485,41.90596],[-87.74604,41.90599],[-87.74581,41.895],[-87.72608,41.89537],[-87.72614,41.8972],[-87.72492,41.89721],[-87.72497,41.89903],[-87.69556,41.89929],[-87.69547,41.89566],[-87.68684,41.89574],[-87.68764,41.9249],[-87.68771,41.92668],[-87.68777,41.92864],[-87.68425,41.93139],[-87.684,41.93168],[-87.68396,41.93222],[-87.68546,41.9322],[-87.68549,41.9331],[-87.68792,41.93308],[-87.68826,41.94673],[-87.69803,41.94668],[-87.69846,41.96118],[-87.69848,41.96125],[-87.70091,41.96123],[-87.70106,41.9662],[-87.69871,41.9662],[-87.70064,41.96802],[-87.70245,41.97003],[-87.70311,41.97089],[-87.70382,41.97245],[-87.70475,41.97578],[-87.71723,41.97565],[-87.71722,41.97519],[-87.71782,41.97519],[-87.71783,41.97564],[-87.73192,41.97549],[-87.73183,41.97185],[-87.73928,41.97177],[-87.73918,41.96812],[-87.74016,41.96811],[-87.72969,41.96093],[-87.72783,41.96095],[-87.72767,41.95548],[-87.72276,41.95552],[-87.72262,41.9497],[-87.72243,41.9488],[-87.72009,41.94772],[-87.71929,41.94713],[-87.71876,41.94649],[-87.72495,41.94641],[-87.7249,41.94459],[-87.72734,41.94456],[-87.7274,41.94637],[-87.73932,41.94622],[-87.74073,41.94894],[-87.74096,41.94953],[-87.74054,41.94927],[-87.74275,41.95347],[-87.74558,41.95344],[-87.74576,41.95881],[-87.74625,41.95982],[-87.74683,41.95982],[-87.74687,41.96073],[-87.74646,41.96074],[-87.74728,41.96238],[-87.74759,41.96224],[-87.74815,41.96254],[-87.75066,41.96251],[-87.7507,41.96398],[-87.75131,41.96398],[-87.75133,41.96429],[-87.75192,41.96432],[-87.75187,41.9625],[-87.75745,41.96247],[-87.75739,41.9606],[-87.76478,41.96051],[-87.76481,41.96142],[-87.76667,41.9614],[-87.76669,41.96236],[-87.7728,41.96228],[-87.77276,41.96086],[-87.77337,41.96086],[-87.77341,41.96227],[-87.77708,41.96222],[-87.77716,41.96478],[-87.78266,41.9647],[-87.78254,41.96073],[-87.78315,41.96072],[-87.78313,41.96027],[-87.78558,41.96024],[-87.78546,41.95659],[-87.7867,41.95657],[-87.78666,41.95571],[-87.7892,41.95567],[-87.78919,41.95547],[-87.79101,41.95559],[-87.79094,41.955],[-87.791,41.95494],[-87.79098,41.95437],[-87.79081,41.95406],[-87.79079,41.95356],[-87.79068,41.95355],[-87.79065,41.95285],[-87.79627,41.95274],[-87.80727,41.95277],[-87.8087,41.95274],[-87.8093,41.95272],[-87.80972,41.95271],[-87.81035,41.95239],[-87.81023,41.95065],[-87.81214,41.95061],[-87.81203,41.9488],[-87.8169,41.94871],[-87.81692,41.94916],[-87.82001,41.9476],[-87.82011,41.95246],[-87.82165,41.95242],[-87.82935,41.95223],[-87.82928,41.95041],[-87.83112,41.95036],[-87.83105,41.94854],[-87.83289,41.94849],[-87.83296,41.95031],[-87.83673,41.95022],[-87.83675,41.95205],[-87.84662,41.95263],[-87.84661,41.95164],[-87.85014,41.95155]]],[[[-87.93514,42.00089],[-87.93639,42.00086],[-87.94011,42.00079],[-87.94002,41.99811],[-87.93708,41.99859],[-87.93633,41.9996],[-87.9359,42.0001],[-87.93514,42.00089]]]]},"properties":{"num":3,"lp":[-87.71202,41.92336]}},
{"type":"Feature","geometry":{"type":"MultiPolygon","coordinates":[[[[-87.76416,41.86561],[-87.77235,41.86549],[-87.76457,41.86559],[-87.76416,41.86561]]],[[[-87.73988,41.86245],[-87.73993,41.86596],[-87.74006,41.86596],[-87.73998,41.86596],[-87.73988,41.86245]]],[[[-87.69303,41.76454],[-87.69321,41.77182],[-87.70781,41.7716],[-87.70794,41.77706],[-87.7031,41.77714],[-87.70314,41.77897],[-87.69096,41.77915],[-87.69116,41.78645],[-87.6875,41.7865],[-87.68755,41.78833],[-87.68633,41.78835],[-87.68638,41.79018],[-87.68517,41.79019],[-87.68524,41.79201],[-87.68399,41.79204],[-87.68404,41.79388],[-87.68229,41.79383],[-87.68231,41.79475],[-87.67995,41.79478],[-87.67995,41.79466],[-87.67916,41.79475],[-87.67958,41.79518],[-87.67964,41.80117],[-87.66964,41.80128],[-87.66969,41.8031],[-87.66361,41.80316],[-87.66366,41.80498],[-87.66001,41.80503],[-87.66,41.80475],[-87.65029,41.80493],[-87.65027,41.80426],[-87.64542,41.80431],[-87.64643,41.84451],[-87.64981,41.84441],[-87.65084,41.8455],[-87.64978,41.84565],[-87.64922,41.8459],[-87.64948,41.84626],[-87.64671,41.84766],[-87.64552,41.84812],[-87.6438,41.84849],[-87.64442,41.84941],[-87.64416,41.84944],[-87.6449,41.85084],[-87.6451,41.85152],[-87.64519,41.85226],[-87.64512,41.85311],[-87.64433,41.85586],[-87.64415,41.85676],[-87.64422,41.85996],[-87.67308,41.85951],[-87.67605,41.85958],[-87.67605,41.85952],[-87.67796,41.85948],[-87.67858,41.85939],[-87.68583,41.85937],[-87.68584,41.85764],[-87.68727,41.85713],[-87.69556,41.85524],[-87.69557,41.85555],[-87.69921,41.85551],[-87.69918,41.85446],[-87.70006,41.85427],[-87.70289,41.85418],[-87.70288,41.8538],[-87.70377,41.85361],[-87.70531,41.85359],[-87.70529,41.85311],[-87.71014,41.85201],[-87.71013,41.85171],[-87.71089,41.85165],[-87.71114,41.85199],[-87.71253,41.85169],[-87.71378,41.85168],[-87.71376,41.85118],[-87.7392,41.84547],[-87.73935,41.85043],[-87.73964,41.85499],[-87.7395,41.85114],[-87.73928,41.84414],[-87.73911,41.83855],[-87.73899,41.83855],[-87.73893,41.83672],[-87.73881,41.83673],[-87.73864,41.82943],[-87.73849,41.82212],[-87.74476,41.82203],[-87.74465,41.81596],[-87.75308,41.81331],[-87.75293,41.80749],[-87.75274,41.80019],[-87.75728,41.80012],[-87.76223,41.80005],[-87.76254,41.80006],[-87.7623,41.79274],[-87.77207,41.79254],[-87.77135,41.77429],[-87.75661,41.77458],[-87.74716,41.77475],[-87.74704,41.77468],[-87.74217,41.77478],[-87.74215,41.77445],[-87.74203,41.7704],[-87.7419,41.76426],[-87.7417,41.75921],[-87.74162,41.75706],[-87.74162,41.75705],[-87.7415,41.75373],[-87.7415,41.75267],[-87.74141,41.75067],[-87.74139,41.74952],[-87.74132,41.74872],[-87.7413,41.74765],[-87.7412,41.74433],[-87.74109,41.74164],[-87.74093,41.73687],[-87.74095,41.73556],[-87.74107,41.73452],[-87.73859,41.73456],[-87.72386,41.73483],[-87.72399,41.73847],[-87.72277,41.7385],[-87.7229,41.74216],[-87.72168,41.74218],[-87.72191,41.7495],[-87.72029,41.74953],[-87.72036,41.75138],[-87.72197,41.75136],[-87.72218,41.75493],[-87.72219,41.75684],[-87.71232,41.75691],[-87.71233,41.75719],[-87.71108,41.75704],[-87.70261,41.75722],[-87.70281,41.76439],[-87.69303,41.76454]]],[[[-87.77318,41.79985],[-87.7626,41.80006],[-87.76428,41.80005],[-87.77208,41.79989],[-87.77318,41.79985]]],[[[-87.79616,41.79946],[-87.79604,41.79943],[-87.79282,41.79947],[-87.78257,41.79967],[-87.78311,41.79967],[-87.78794,41.79961],[-87.79052,41.79954],[-87.79616,41.79946]]],[[[-87.80114,41.78291],[-87.80161,41.79481],[-87.80161,41.79485],[-87.80154,41.7922],[-87.80114,41.78291]]]]},"properties":{"num":4,"lp":[-87.70631,41.81941]}},
{"type":"Feature","geometry":{"type":"MultiPolygon","coordinates":[[[[-87.82131,42.00706],[-87.82112,42.00723],[-87.82131,42.00735],[-87.82131,42.00706]]],[[[-87.80674,42.00208],[-87.80672,42.00447],[-87.81648,42.00415],[-87.81725,42.00347],[-87.82132,42.00605],[-87.82137,42.00083],[-87.82138,42.00055],[-87.8214,41.99692],[-87.82181,41.99522],[-87.82216,41.99311],[-87.82283,41.98822],[-87.82335,41.98436],[-87.82811,41.98504],[-87.83503,41.98603],[-87.83503,41.98607],[-87.83638,41.98627],[-87.83658,41.98638],[-87.83732,41.98646],[-87.83662,41.98636],[-87.83655,41.98257],[-87.83661,41.97531],[-87.83363,41.97537],[-87.83363,41.97491],[-87.83341,41.97492],[-87.83342,41.97392],[-87.83172,41.97395],[-87.83173,41.97306],[-87.82674,41.97314],[-87.82674,41.97403],[-87.8194,41.97422],[-87.81943,41.97322],[-87.81897,41.97322],[-87.81899,41.97061],[-87.81695,41.97066],[-87.81692,41.97429],[-87.80729,41.97454],[-87.80707,41.97454],[-87.80706,41.9732],[-87.80712,41.9697],[-87.80716,41.96827],[-87.80254,41.9683],[-87.80252,41.96877],[-87.79758,41.9688],[-87.78801,41.96889],[-87.78801,41.96841],[-87.78677,41.96843],[-87.78674,41.96734],[-87.78678,41.96347],[-87.78705,41.9633],[-87.78689,41.96269],[-87.78681,41.96022],[-87.78815,41.96018],[-87.7918,41.96012],[-87.7942,41.96006],[-87.79473,41.95987],[-87.80013,41.95728],[-87.80012,41.95711],[-87.8073,41.95368],[-87.80727,41.95277],[-87.79627,41.95274],[-87.79065,41.95285],[-87.79068,41.95355],[-87.79079,41.95356],[-87.79081,41.95406],[-87.79098,41.95437],[-87.791,41.95494],[-87.79094,41.955],[-87.79101,41.95559],[-87.78919,41.95547],[-87.7892,41.95567],[-87.78666,41.95571],[-87.7867,41.95657],[-87.78546,41.95659],[-87.78558,41.96024],[-87.78313,41.96027],[-87.78315,41.96072],[-87.78254,41.96073],[-87.78266,41.9647],[-87.77716,41.96478],[-87.77708,41.96222],[-87.77341,41.96227],[-87.77337,41.96086],[-87.77276,41.96086],[-87.7728,41.96228],[-87.76669,41.96236],[-87.76667,41.9614],[-87.76481,41.96142],[-87.76478,41.96051],[-87.75739,41.9606],[-87.75745,41.96247],[-87.75187,41.9625],[-87.75192,41.96432],[-87.75133,41.96429],[-87.75131,41.96398],[-87.7507,41.96398],[-87.75066,41.96251],[-87.74815,41.96254],[-87.74759,41.96224],[-87.74728,41.96238],[-87.74646,41.96074],[-87.74687,41.96073],[-87.74683,41.95982],[-87.74625,41.95982],[-87.74576,41.95881],[-87.74558,41.95344],[-87.74275,41.95347],[-87.74054,41.94927],[-87.74096,41.94953],[-87.74073,41.94894],[-87.73932,41.94622],[-87.7274,41.94637],[-87.72734,41.94456],[-87.7249,41.94459],[-87.72495,41.94641],[-87.71876,41.94649],[-87.71929,41.94713],[-87.72009,41.94772],[-87.72243,41.9488],[-87.72262,41.9497],[-87.72276,41.95552],[-87.72767,41.95548],[-87.72783,41.96095],[-87.72969,41.96093],[-87.74016,41.96811],[-87.73918,41.96812],[-87.73928,41.97177],[-87.73183,41.97185],[-87.73192,41.97549],[-87.71783,41.97564],[-87.71782,41.97519],[-87.71722,41.97519],[-87.71723,41.97565],[-87.70475,41.97578],[-87.70382,41.97245],[-87.70311,41.97089],[-87.70245,41.97003],[-87.70064,41.96802],[-87.69871,41.9662],[-87.70106,41.9662],[-87.70091,41.96123],[-87.69848,41.96125],[-87.69846,41.96118],[-87.69803,41.94668],[-87.68826,41.94673],[-87.68792,41.93308],[-87.68549,41.9331],[-87.68546,41.9322],[-87.68396,41.93222],[-87.684,41.93168],[-87.68425,41.93139],[-87.68777,41.92864],[-87.68771,41.92668],[-87.68722,41.91032],[-87.67746,41.91047],[-87.67726,41.90319],[-87.66383,41.90339],[-87.66384,41.90384],[-87.66262,41.90386],[-87.66263,41.90341],[-87.64809,41.90364],[-87.64836,41.91383],[-87.64352,41.9139],[-87.64355,41.91463],[-87.64113,41.91466],[-87.64108,41.91287],[-87.64033,41.91291],[-87.63864,41.91282],[-87.63672,41.91285],[-87.63666,41.9112],[-87.63859,41.91117],[-87.63859,41.91104],[-87.63762,41.91106],[-87.6376,41.91034],[-87.6379,41.91047],[-87.63857,41.91049],[-87.63848,41.9076],[-87.63719,41.90762],[-87.63715,41.90666],[-87.63458,41.90669],[-87.63454,41.90573],[-87.63306,41.90576],[-87.633,41.90388],[-87.63285,41.90388],[-87.63275,41.90054],[-87.63135,41.90055],[-87.6313,41.89873],[-87.62983,41.89875],[-87.62987,41.89991],[-87.62829,41.89994],[-87.62807,41.89167],[-87.62425,41.89173],[-87.62428,41.89242],[-87.6242,41.89289],[-87.62425,41.89494],[-87.62032,41.89502],[-87.62034,41.8958],[-87.61571,41.89588],[-87.61596,41.89627],[-87.61724,41.89807],[-87.61766,41.89877],[-87.61904,41.90086],[-87.6193,41.90116],[-87.61966,41.90143],[-87.62013,41.9016],[-87.6219,41.90173],[-87.62261,41.90186],[-87.62253,41.9024],[-87.62272,41.90291],[-87.62299,41.90322],[-87.62403,41.90403],[-87.62466,41.90656],[-87.62509,41.90909],[-87.62527,41.90959],[-87.62522,41.91],[-87.62499,41.91046],[-87.62469,41.91087],[-87.62466,41.91142],[-87.62329,41.91247],[-87.62263,41.91279],[-87.62209,41.9129],[-87.62159,41.91293],[-87.62105,41.91306],[-87.62072,41.91321],[-87.62049,41.91358],[-87.62059,41.91379],[-87.62109,41.9136],[-87.62173,41.91353],[-87.62243,41.91357],[-87.62327,41.91381],[-87.62402,41.91418],[-87.62501,41.91483],[-87.62534,41.91512],[-87.62601,41.91561],[-87.62621,41.9157],[-87.62681,41.91629],[-87.62671,41.91644],[-87.62758,41.91721],[-87.62791,41.9176],[-87.62747,41.91787],[-87.62851,41.91916],[-87.62806,41.9194],[-87.62896,41.92066],[-87.62893,41.92082],[-87.62855,41.921],[-87.62943,41.92229],[-87.62949,41.92244],[-87.629,41.92275],[-87.6299,41.92348],[-87.63008,41.92404],[-87.63019,41.92468],[-87.63027,41.92575],[-87.62988,41.92616],[-87.62961,41.92634],[-87.62961,41.92667],[-87.62986,41.92715],[-87.63052,41.92786],[-87.6307,41.92816],[-87.63109,41.9292],[-87.63115,41.93037],[-87.63076,41.93199],[-87.63109,41.93232],[-87.63128,41.93242],[-87.63182,41.93244],[-87.6314,41.93269],[-87.63138,41.93297],[-87.63074,41.9331],[-87.63057,41.93326],[-87.63053,41.93351],[-87.63124,41.93457],[-87.63172,41.93519],[-87.6321,41.93584],[-87.63229,41.93691],[-87.63241,41.93719],[-87.63277,41.93765],[-87.63344,41.93874],[-87.63376,41.93948],[-87.63401,41.94035],[-87.63395,41.94128],[-87.63419,41.94152],[-87.63445,41.94159],[-87.6347,41.94141],[-87.63478,41.94069],[-87.63499,41.94015],[-87.6355,41.93971],[-87.63584,41.93978],[-87.63682,41.93976],[-87.63673,41.94023],[-87.63695,41.94026],[-87.63712,41.93983],[-87.63754,41.94028],[-87.63826,41.94114],[-87.6384,41.94143],[-87.63843,41.94212],[-87.63851,41.94251],[-87.63885,41.94311],[-87.63933,41.94352],[-87.63959,41.9436],[-87.64046,41.94483],[-87.64041,41.94524],[-87.6402,41.94529],[-87.6402,41.94552],[-87.64003,41.94591],[-87.64064,41.94646],[-87.64136,41.94704],[-87.64189,41.94753],[-87.64213,41.94786],[-87.64187,41.948],[-87.64143,41.94781],[-87.64103,41.94755],[-87.64027,41.9467],[-87.64026,41.94652],[-87.63964,41.94633],[-87.63889,41.94631],[-87.6387,41.9462],[-87.63742,41.94582],[-87.63731,41.94575],[-87.63682,41.94505],[-87.63696,41.9449],[-87.63618,41.94324],[-87.6359,41.94297],[-87.63548,41.9429],[-87.63469,41.94321],[-87.63427,41.94311],[-87.63406,41.94291],[-87.63388,41.94239],[-87.63354,41.94216],[-87.6333,41.94238],[-87.63345,41.94278],[-87.63375,41.94314],[-87.63454,41.94378],[-87.63602,41.94523],[-87.63683,41.9461],[-87.63774,41.9473],[-87.63993,41.95177],[-87.64056,41.95328],[-87.64108,41.95485],[-87.64419,41.95466],[-87.64665,41.95461],[-87.64655,41.95293],[-87.6479,41.95285],[-87.64785,41.95164],[-87.64962,41.9512],[-87.65681,41.95109],[-87.65685,41.95397],[-87.65679,41.95445],[-87.66225,41.95438],[-87.66447,41.95796],[-87.66595,41.96163],[-87.66493,41.96165],[-87.66508,41.96364],[-87.6662,41.96892],[-87.67417,41.96882],[-87.67431,41.97337],[-87.67632,41.97331],[-87.67626,41.97062],[-87.68897,41.97041],[-87.68915,41.97589],[-87.6794,41.97603],[-87.67957,41.98146],[-87.67951,41.98316],[-87.67928,41.98326],[-87.67484,41.98332],[-87.67504,41.99076],[-87.68991,41.9905],[-87.71886,41.99026],[-87.71891,41.99198],[-87.7183,41.99199],[-87.7184,41.99552],[-87.7178,41.99553],[-87.71781,41.99628],[-87.71748,41.99659],[-87.71861,41.99728],[-87.72903,41.99724],[-87.74094,41.99725],[-87.74604,41.99728],[-87.75247,41.9973],[-87.75291,41.9973],[-87.76218,42.00165],[-87.76227,42.00169],[-87.76196,42.00263],[-87.76194,42.00279],[-87.76186,42.00364],[-87.76172,42.0067],[-87.76172,42.00681],[-87.76166,42.00827],[-87.76746,42.00832],[-87.76754,42.00471],[-87.76547,42.00374],[-87.76579,42.00333],[-87.7692,42.00491],[-87.76995,42.00638],[-87.77036,42.00619],[-87.77335,42.01196],[-87.77448,42.01196],[-87.77646,42.01198],[-87.77694,42.01198],[-87.77705,42.01198],[-87.77697,42.01539],[-87.7791,42.01544],[-87.77911,42.01508],[-87.77906,42.01199],[-87.78595,42.012],[-87.78754,42.012],[-87.78851,42.012],[-87.78872,42.012],[-87.78492,42.00755],[-87.78319,42.00552],[-87.78221,42.00464],[-87.782,42.0045],[-87.78539,42.0029],[-87.79065,42.0004],[-87.79077,42.00053],[-87.7912,42.00098],[-87.79324,42.00097],[-87.79427,42.00096],[-87.7948,42.00096],[-87.79555,42.00095],[-87.79712,42.00094],[-87.79713,42],[-87.79948,41.99998],[-87.79967,42.00087],[-87.80109,42.00087],[-87.80108,42.00152],[-87.80535,42.00151],[-87.80539,42.00086],[-87.80676,42.00084],[-87.80674,42.00208]],[[-87.82409,41.97864],[-87.82443,41.97607],[-87.83362,41.97592],[-87.83362,41.97689],[-87.8296,41.97696],[-87.82961,41.97734],[-87.83004,41.97733],[-87.83005,41.97806],[-87.82971,41.97813],[-87.82972,41.97842],[-87.82864,41.97844],[-87.8287,41.97912],[-87.82808,41.97912],[-87.82808,41.97929],[-87.8287,41.97929],[-87.82869,41.98033],[-87.82886,41.9806],[-87.8351,41.9805],[-87.8351,41.98084],[-87.83436,41.98085],[-87.83435,41.98116],[-87.83509,41.98115],[-87.83507,41.98267],[-87.8336,41.98267],[-87.83358,41.98357],[-87.83321,41.98357],[-87.83303,41.9838],[-87.82811,41.98387],[-87.82814,41.98192],[-87.82527,41.98196],[-87.8253,41.983],[-87.82353,41.98303],[-87.82409,41.97864]]],[[[-87.82165,41.95242],[-87.82011,41.95246],[-87.82001,41.9476],[-87.81692,41.94916],[-87.8169,41.94871],[-87.81203,41.9488],[-87.81214,41.95061],[-87.81023,41.95065],[-87.81035,41.95239],[-87.80972,41.95271],[-87.81304,41.95263],[-87.81856,41.95249],[-87.81931,41.95248],[-87.82165,41.95242]]],[[[-87.84662,41.95263],[-87.83675,41.95205],[-87.83673,41.95022],[-87.83296,41.95031],[-87.83289,41.94849],[-87.83105,41.94854],[-87.83112,41.95036],[-87.82928,41.95041],[-87.82935,41.95223],[-87.83179,41.95216],[-87.83183,41.95404],[-87.83182,41.95567],[-87.83209,41.95707],[-87.8326,41.95908],[-87.83268,41.95944],[-87.8367,41.95936],[-87.83668,41.9666],[-87.84213,41.9665],[-87.85484,41.96614],[-87.8548,41.96677],[-87.85497,41.96595],[-87.8553,41.96512],[-87.85551,41.96446],[-87.85568,41.96284],[-87.85582,41.96241],[-87.8563,41.96159],[-87.85703,41.9602],[-87.85742,41.95956],[-87.85758,41.95919],[-87.85813,41.95834],[-87.85868,41.95761],[-87.85876,41.95742],[-87.85878,41.95693],[-87.85859,41.95614],[-87.85825,41.95558],[-87.85808,41.95544],[-87.8466,41.95569],[-87.84662,41.95263]]],[[[-87.85411,41.95133],[-87.85014,41.95155],[-87.85407,41.95145],[-87.85411,41.95133]]],[[[-87.88932,41.95797],[-87.88828,41.95822],[-87.88715,41.95828],[-87.88588,41.9581],[-87.88454,41.9576],[-87.88362,41.95734],[-87.88163,41.95711],[-87.88079,41.9572],[-87.88084,41.9655],[-87.88079,41.96918],[-87.88077,41.97285],[-87.86989,41.97312],[-87.86962,41.97314],[-87.86942,41.97404],[-87.87589,41.97388],[-87.87588,41.9766],[-87.87373,41.97666],[-87.87502,41.98024],[-87.87489,41.98025],[-87.87586,41.98294],[-87.87586,41.9857],[-87.87691,41.98567],[-87.88035,41.99523],[-87.88454,41.9951],[-87.88453,41.9982],[-87.88496,41.99832],[-87.88908,41.99924],[-87.8923,41.99971],[-87.89287,41.99986],[-87.89597,42.00003],[-87.89596,42.0003],[-87.89879,42.00073],[-87.90886,42.00277],[-87.90889,42.00382],[-87.91091,42.00438],[-87.91286,42.00474],[-87.91457,42.00492],[-87.91511,42.00505],[-87.9205,42.00495],[-87.92048,42.0038],[-87.92085,42.00388],[-87.9209,42.00393],[-87.92152,42.00385],[-87.92907,42.00496],[-87.93054,42.00398],[-87.93374,42.00129],[-87.93373,42.00173],[-87.93602,41.99936],[-87.93747,41.99713],[-87.93845,41.99497],[-87.9388,41.99353],[-87.93897,41.99353],[-87.93897,41.99352],[-87.92048,41.99389],[-87.92023,41.97184],[-87.91695,41.9706],[-87.91503,41.96826],[-87.91497,41.96647],[-87.91505,41.96579],[-87.91535,41.96544],[-87.91595,41.96535],[-87.91881,41.9653],[-87.91962,41.96499],[-87.91971,41.9649],[-87.91971,41.96417],[-87.92007,41.96369],[-87.92002,41.96352],[-87.91849,41.96224],[-87.91668,41.96035],[-87.91573,41.95875],[-87.91473,41.95849],[-87.91341,41.95777],[-87.91265,41.957],[-87.91223,41.95675],[-87.91181,41.95635],[-87.90861,41.95569],[-87.90686,41.95522],[-87.90208,41.95104],[-87.89973,41.95096],[-87.89844,41.95106],[-87.8971,41.95143],[-87.8963,41.95183],[-87.89578,41.95221],[-87.89325,41.95471],[-87.89309,41.95809],[-87.89221,41.95806],[-87.89027,41.9581],[-87.88932,41.95797]]],[[[-87.8585,41.97155],[-87.85902,41.97147],[-87.85953,41.97157],[-87.86092,41.97233],[-87.86166,41.97299],[-87.86185,41.97336],[-87.86857,41.97316],[-87.86485,41.97324],[-87.8619,41.97332],[-87.8617,41.97299],[-87.86134,41.97261],[-87.86043,41.97193],[-87.85975,41.9716],[-87.85941,41.9715],[-87.8588,41.97143],[-87.8585,41.97155]]],[[[-87.85414,41.971],[-87.85416,41.97147],[-87.85447,41.9719],[-87.85419,41.97143],[-87.85414,41.971]]],[[[-87.85498,41.96885],[-87.85447,41.97001],[-87.85478,41.96943],[-87.85498,41.96885]]],[[[-87.85584,41.98906],[-87.85483,41.98876],[-87.85386,41.98862],[-87.85133,41.98849],[-87.84954,41.9883],[-87.84671,41.98788],[-87.84673,41.98798],[-87.84925,41.98835],[-87.85074,41.98853],[-87.85184,41.98861],[-87.85359,41.98868],[-87.85457,41.98881],[-87.85584,41.98906]]]]},"properties":{"num":5,"lp":[-87.66235,41.93029]}},
{"type":"Feature","geometry":{"type":"MultiPolygon","coordinates":[[[[-87.801,41.77948],[-87.80098,41.77879],[-87.80087,41.77695],[-87.80083,41.77547],[-87.80078,41.7742],[-87.80081,41.77378],[-87.78112,41.77409],[-87.77135,41.77429],[-87.77207,41.79254],[-87.7623,41.79274],[-87.76254,41.80006],[-87.7626,41.80006],[-87.77318,41.79985],[-87.77365,41.79983],[-87.78179,41.79967],[-87.78257,41.79967],[-87.79282,41.79947],[-87.79604,41.79943],[-87.79616,41.79946],[-87.79704,41.79945],[-87.80163,41.798],[-87.80161,41.79576],[-87.80161,41.79485],[-87.80161,41.79481],[-87.80114,41.78291],[-87.80102,41.78022],[-87.801,41.77948]]],[[[-87.74217,41.77478],[-87.74704,41.77468],[-87.74446,41.77472],[-87.74217,41.77478]]],[[[-87.7417,41.75921],[-87.7419,41.76426],[-87.74184,41.76227],[-87.74178,41.76128],[-87.74178,41.76046],[-87.7417,41.75921]]],[[[-87.71301,41.73501],[-87.73858,41.73456],[-87.73826,41.73455],[-87.72716,41.73473],[-87.72596,41.73478],[-87.71399,41.73499],[-87.71301,41.73501]]],[[[-87.68856,41.7136],[-87.68904,41.7136],[-87.69173,41.71357],[-87.69165,41.71104],[-87.69152,41.7072],[-87.69631,41.70715],[-87.69668,41.70714],[-87.7012,41.70708],[-87.70137,41.70705],[-87.70132,41.70618],[-87.70261,41.70618],[-87.70792,41.7061],[-87.71112,41.70607],[-87.7113,41.71149],[-87.71252,41.71147],[-87.71258,41.7133],[-87.72113,41.71317],[-87.72107,41.71069],[-87.72088,41.70501],[-87.72084,41.70428],[-87.72068,41.70025],[-87.72066,41.69928],[-87.72053,41.69615],[-87.72037,41.69221],[-87.72032,41.6913],[-87.71058,41.69142],[-87.71047,41.68862],[-87.71528,41.6885],[-87.71527,41.68777],[-87.71478,41.68772],[-87.71467,41.68487],[-87.71515,41.68481],[-87.71515,41.68404],[-87.71151,41.68409],[-87.71147,41.6831],[-87.71142,41.68227],[-87.71133,41.68181],[-87.7116,41.6818],[-87.71158,41.68138],[-87.71139,41.68127],[-87.71138,41.68111],[-87.71136,41.68054],[-87.70772,41.6806],[-87.70771,41.68051],[-87.70529,41.68055],[-87.70528,41.68069],[-87.70542,41.68419],[-87.70055,41.68426],[-87.70062,41.68614],[-87.6994,41.68615],[-87.69947,41.68793],[-87.69743,41.68796],[-87.69661,41.68798],[-87.69576,41.68808],[-87.69563,41.68433],[-87.68621,41.68447],[-87.68572,41.68447],[-87.68093,41.6845],[-87.68127,41.69542],[-87.67908,41.69543],[-87.67903,41.69602],[-87.67883,41.69665],[-87.67408,41.69674],[-87.67402,41.69722],[-87.67433,41.69807],[-87.67436,41.69915],[-87.6712,41.69922],[-87.67108,41.69963],[-87.67105,41.70209],[-87.67083,41.70332],[-87.6709,41.70542],[-87.67064,41.70709],[-87.67023,41.70809],[-87.67001,41.70896],[-87.66952,41.71004],[-87.6692,41.7105],[-87.6689,41.71204],[-87.66915,41.72116],[-87.66834,41.72118],[-87.66818,41.72553],[-87.668,41.7259],[-87.66815,41.72649],[-87.66847,41.72722],[-87.66918,41.72823],[-87.66847,41.7284],[-87.66744,41.72845],[-87.66822,41.73018],[-87.67309,41.73565],[-87.68251,41.73552],[-87.68199,41.71861],[-87.68198,41.71838],[-87.68187,41.71455],[-87.68185,41.71405],[-87.68184,41.71367],[-87.68206,41.71367],[-87.68576,41.71363],[-87.68665,41.71362],[-87.68794,41.71361],[-87.68856,41.7136]],[[-87.6921,41.69214],[-87.69209,41.69176],[-87.69576,41.69172],[-87.69602,41.69893],[-87.69124,41.69898],[-87.69101,41.69228],[-87.69171,41.69227],[-87.6921,41.69214]]]]},"properties":{"num":6,"lp":[-87.68276,41.70474]}},
{"type":"Feature","geometry":{"type":"Polygon","coordinates":[[[-87.80591,41.91319],[-87.80587,41.91201],[-87.80575,41.90884],[-87.80257,41.90893],[-87.80011,41.90895],[-87.7899,41.90909],[-87.78305,41.90917],[-87.78194,41.90917],[-87.7756,41.90925],[-87.77498,41.89025],[-87.77463,41.87943],[-87.7745,41.87559],[-87.77442,41.873],[-87.77434,41.87136],[-87.77428,41.87073],[-87.77427,41.86925],[-87.77414,41.86571],[-87.77414,41.86546],[-87.77326,41.86547],[-87.77235,41.86549],[-87.76416,41.86561],[-87.74508,41.86589],[-87.74006,41.86596],[-87.73993,41.86596],[-87.73988,41.86245],[-87.73977,41.85865],[-87.73964,41.85499],[-87.73935,41.85043],[-87.7392,41.84547],[-87.71376,41.85118],[-87.71378,41.85168],[-87.71253,41.85169],[-87.71114,41.85199],[-87.71089,41.85165],[-87.71013,41.85171],[-87.71014,41.85201],[-87.70529,41.85311],[-87.70531,41.85359],[-87.70377,41.85361],[-87.70288,41.8538],[-87.70289,41.85418],[-87.70006,41.85427],[-87.69918,41.85446],[-87.69921,41.85551],[-87.69557,41.85555],[-87.69556,41.85524],[-87.68727,41.85713],[-87.68584,41.85764],[-87.68583,41.85937],[-87.67858,41.85939],[-87.67796,41.85948],[-87.67605,41.85952],[-87.67605,41.85958],[-87.67308,41.85951],[-87.64422,41.85996],[-87.64415,41.85676],[-87.64433,41.85586],[-87.64512,41.85311],[-87.64519,41.85226],[-87.6451,41.85152],[-87.6449,41.85084],[-87.64416,41.84944],[-87.64442,41.84941],[-87.6438,41.84849],[-87.64552,41.84812],[-87.64671,41.84766],[-87.64948,41.84626],[-87.64922,41.8459],[-87.64978,41.84565],[-87.65084,41.8455],[-87.64981,41.84441],[-87.64643,41.84451],[-87.64542,41.80431],[-87.65027,41.80426],[-87.65029,41.80493],[-87.66,41.80475],[-87.66001,41.80503],[-87.66366,41.80498],[-87.66361,41.80316],[-87.66969,41.8031],[-87.66964,41.80128],[-87.67964,41.80117],[-87.67958,41.79518],[-87.67916,41.79475],[-87.67995,41.79466],[-87.67995,41.79478],[-87.68231,41.79475],[-87.68229,41.79383],[-87.68404,41.79388],[-87.68399,41.79204],[-87.68524,41.79201],[-87.68517,41.79019],[-87.68638,41.79018],[-87.68633,41.78835],[-87.68755,41.78833],[-87.6875,41.7865],[-87.69116,41.78645],[-87.69096,41.77915],[-87.70314,41.77897],[-87.7031,41.77714],[-87.70794,41.77706],[-87.70781,41.7716],[-87.69321,41.77182],[-87.69303,41.76454],[-87.68814,41.76462],[-87.68808,41.76279],[-87.68686,41.76281],[-87.68668,41.75748],[-87.68367,41.75754],[-87.68305,41.75738],[-87.67647,41.75746],[-87.67214,41.75755],[-87.67206,41.75762],[-87.6709,41.75756],[-87.67083,41.75762],[-87.66971,41.75765],[-87.65878,41.75773],[-87.64423,41.75799],[-87.64432,41.76156],[-87.64553,41.76154],[-87.64558,41.76336],[-87.64619,41.76336],[-87.64622,41.76472],[-87.64561,41.76473],[-87.64595,41.77773],[-87.64613,41.77793],[-87.64617,41.77973],[-87.62579,41.78005],[-87.62106,41.78005],[-87.6197,41.78017],[-87.61562,41.78024],[-87.61614,41.80191],[-87.61611,41.8021],[-87.61497,41.80212],[-87.615,41.80303],[-87.61402,41.80305],[-87.61387,41.80394],[-87.61381,41.81118],[-87.61389,41.81215],[-87.61456,41.81214],[-87.61459,41.81305],[-87.61394,41.81306],[-87.61403,41.81487],[-87.6148,41.81486],[-87.61487,41.81547],[-87.6157,41.81546],[-87.61571,41.81484],[-87.61648,41.81483],[-87.61656,41.81754],[-87.61394,41.81758],[-87.61376,41.81848],[-87.61658,41.81844],[-87.61673,41.82384],[-87.6303,41.82366],[-87.63057,41.83461],[-87.62333,41.8347],[-87.62344,41.83834],[-87.62331,41.83835],[-87.62323,41.83917],[-87.62328,41.84129],[-87.62268,41.84131],[-87.62269,41.84193],[-87.62198,41.84199],[-87.62208,41.84274],[-87.62208,41.84362],[-87.62221,41.84386],[-87.6221,41.84417],[-87.62214,41.84566],[-87.62339,41.84564],[-87.62358,41.84738],[-87.62367,41.84747],[-87.62376,41.85111],[-87.62224,41.85114],[-87.62247,41.86025],[-87.62086,41.86024],[-87.62083,41.86051],[-87.6204,41.86011],[-87.61888,41.85792],[-87.61765,41.85799],[-87.61673,41.85795],[-87.61454,41.85283],[-87.61383,41.85283],[-87.6136,41.85275],[-87.61059,41.85283],[-87.61077,41.8532],[-87.61096,41.85384],[-87.61104,41.85458],[-87.61112,41.8548],[-87.61149,41.8552],[-87.61224,41.85566],[-87.61263,41.856],[-87.61285,41.85636],[-87.61304,41.85696],[-87.61304,41.85761],[-87.61284,41.85819],[-87.61254,41.85849],[-87.61227,41.85851],[-87.61217,41.85867],[-87.6122,41.85927],[-87.61244,41.85999],[-87.61215,41.86035],[-87.6122,41.86063],[-87.61255,41.86082],[-87.61265,41.86137],[-87.61295,41.8618],[-87.61326,41.86238],[-87.61343,41.86285],[-87.61342,41.86346],[-87.61329,41.864],[-87.61304,41.86466],[-87.61274,41.86529],[-87.61267,41.86584],[-87.61048,41.86586],[-87.61037,41.86532],[-87.60996,41.86463],[-87.60974,41.86409],[-87.60965,41.86351],[-87.60978,41.86249],[-87.61004,41.8618],[-87.61036,41.8614],[-87.61035,41.86085],[-87.61067,41.86065],[-87.61067,41.86021],[-87.61043,41.86008],[-87.61036,41.85975],[-87.61048,41.85931],[-87.61007,41.85895],[-87.60988,41.85859],[-87.60999,41.85803],[-87.60992,41.85766],[-87.60977,41.85738],[-87.60934,41.85687],[-87.60945,41.85641],[-87.60992,41.85398],[-87.60985,41.85366],[-87.60968,41.85347],[-87.60932,41.85326],[-87.60876,41.85317],[-87.6075,41.85327],[-87.6066,41.85341],[-87.60674,41.85547],[-87.60709,41.85997],[-87.60684,41.86006],[-87.60597,41.86008],[-87.60602,41.86196],[-87.60634,41.8619],[-87.60698,41.86241],[-87.60753,41.86385],[-87.60757,41.86436],[-87.6073,41.86487],[-87.60699,41.86513],[-87.60667,41.86523],[-87.60608,41.86479],[-87.60608,41.86561],[-87.60573,41.86603],[-87.60563,41.8664],[-87.60585,41.86685],[-87.6064,41.86715],[-87.60691,41.86718],[-87.60739,41.86706],[-87.60776,41.86677],[-87.61241,41.8667],[-87.61269,41.86675],[-87.61269,41.86697],[-87.61249,41.86717],[-87.61234,41.86751],[-87.61242,41.86794],[-87.6126,41.86818],[-87.61296,41.86839],[-87.61367,41.86843],[-87.61402,41.86836],[-87.61467,41.86834],[-87.61478,41.86825],[-87.61536,41.86825],[-87.6157,41.86862],[-87.61626,41.8689],[-87.61634,41.87186],[-87.6162,41.87198],[-87.61624,41.87377],[-87.61618,41.87529],[-87.61626,41.87726],[-87.61634,41.87783],[-87.61637,41.87978],[-87.61646,41.87978],[-87.61648,41.88056],[-87.61572,41.88059],[-87.61577,41.88142],[-87.6165,41.88141],[-87.61643,41.88196],[-87.616,41.88236],[-87.61546,41.88249],[-87.61417,41.8826],[-87.61364,41.88279],[-87.61325,41.88302],[-87.61283,41.88348],[-87.61275,41.88372],[-87.61273,41.88793],[-87.61344,41.88789],[-87.61391,41.88808],[-87.61391,41.88832],[-87.61273,41.88831],[-87.61274,41.88904],[-87.6125,41.88913],[-87.61267,41.89017],[-87.61423,41.89022],[-87.61423,41.89055],[-87.61155,41.89056],[-87.61151,41.89002],[-87.61129,41.88923],[-87.60951,41.88924],[-87.60954,41.89101],[-87.60092,41.89115],[-87.60091,41.89138],[-87.60057,41.89142],[-87.59856,41.89145],[-87.59855,41.89219],[-87.60979,41.89207],[-87.60982,41.89315],[-87.60558,41.89321],[-87.60235,41.89328],[-87.60231,41.89467],[-87.60237,41.89634],[-87.60496,41.89633],[-87.60528,41.89624],[-87.60587,41.8963],[-87.60655,41.89628],[-87.6069,41.89622],[-87.60796,41.89619],[-87.60797,41.89627],[-87.60858,41.89627],[-87.6102,41.89619],[-87.61203,41.89333],[-87.61218,41.89334],[-87.61254,41.89312],[-87.61367,41.8931],[-87.61491,41.89467],[-87.61571,41.89588],[-87.62034,41.8958],[-87.62032,41.89502],[-87.62425,41.89494],[-87.6242,41.89289],[-87.62428,41.89242],[-87.62425,41.89173],[-87.62807,41.89167],[-87.62829,41.89994],[-87.62987,41.89991],[-87.62983,41.89875],[-87.6313,41.89873],[-87.63135,41.90055],[-87.63275,41.90054],[-87.63285,41.90388],[-87.633,41.90388],[-87.63306,41.90576],[-87.63454,41.90573],[-87.63458,41.90669],[-87.63715,41.90666],[-87.63719,41.90762],[-87.63848,41.9076],[-87.63857,41.91049],[-87.6379,41.91047],[-87.6376,41.91034],[-87.63762,41.91106],[-87.63859,41.91104],[-87.63859,41.91117],[-87.63666,41.9112],[-87.63672,41.91285],[-87.63864,41.91282],[-87.64033,41.91291],[-87.64108,41.91287],[-87.64113,41.91466],[-87.64355,41.91463],[-87.64352,41.9139],[-87.64836,41.91383],[-87.64809,41.90364],[-87.66263,41.90341],[-87.66262,41.90386],[-87.66384,41.90384],[-87.66383,41.90339],[-87.67726,41.90319],[-87.67746,41.91047],[-87.68722,41.91032],[-87.68684,41.89574],[-87.69547,41.89566],[-87.69556,41.89929],[-87.72497,41.89903],[-87.72492,41.89721],[-87.72614,41.8972],[-87.72608,41.89537],[-87.74581,41.895],[-87.74604,41.90599],[-87.7485,41.90596],[-87.74854,41.90776],[-87.75099,41.90774],[-87.75104,41.90956],[-87.75265,41.90954],[-87.75286,41.91533],[-87.76079,41.91626],[-87.76087,41.91785],[-87.76702,41.91898],[-87.76694,41.91687],[-87.76816,41.91686],[-87.7682,41.91805],[-87.78026,41.91785],[-87.78039,41.91792],[-87.7804,41.91829],[-87.78528,41.91823],[-87.78518,41.91459],[-87.79496,41.91448],[-87.795,41.91585],[-87.79866,41.91581],[-87.79873,41.91809],[-87.80148,41.91807],[-87.80143,41.91624],[-87.80601,41.91619],[-87.80591,41.91319]]]},"properties":{"num":7,"lp":[-87.71352,41.87556]}},
{"type":"Feature","geometry":{"type":"MultiPolygon","coordinates":[[[[-87.84671,41.98788],[-87.84954,41.9883],[-87.85133,41.98849],[-87.85386,41.98862],[-87.85483,41.98876],[-87.85584,41.98906],[-87.85568,41.98866],[-87.85554,41.98794],[-87.85558,41.98774],[-87.85587,41.98715],[-87.85636,41.98599],[-87.85647,41.98536],[-87.85664,41.98466],[-87.85664,41.98432],[-87.85623,41.98348],[-87.85597,41.9828],[-87.85578,41.98216],[-87.85578,41.9817],[-87.85588,41.9811],[-87.85627,41.98046],[-87.85846,41.97866],[-87.85938,41.97757],[-87.85996,41.97699],[-87.86067,41.97654],[-87.86124,41.976],[-87.86168,41.97535],[-87.86201,41.97431],[-87.86201,41.97386],[-87.86749,41.97373],[-87.86749,41.97399],[-87.86784,41.97398],[-87.86784,41.97382],[-87.86861,41.9738],[-87.8686,41.97405],[-87.86942,41.97404],[-87.86962,41.97314],[-87.86857,41.97316],[-87.86185,41.97336],[-87.86166,41.97299],[-87.86092,41.97233],[-87.85953,41.97157],[-87.85902,41.97147],[-87.8585,41.97155],[-87.85783,41.97197],[-87.85746,41.97215],[-87.85659,41.97246],[-87.85606,41.97258],[-87.85548,41.97254],[-87.85536,41.97252],[-87.85509,41.97241],[-87.85492,41.9723],[-87.85447,41.9719],[-87.85416,41.97147],[-87.85414,41.971],[-87.85432,41.9703],[-87.85447,41.97001],[-87.85498,41.96885],[-87.85504,41.96833],[-87.85498,41.96793],[-87.85478,41.9672],[-87.8548,41.96677],[-87.85484,41.96614],[-87.84213,41.9665],[-87.84657,41.96641],[-87.84654,41.9682],[-87.84656,41.96955],[-87.84654,41.97158],[-87.84651,41.97189],[-87.84158,41.97198],[-87.84159,41.97014],[-87.83666,41.97023],[-87.83665,41.97137],[-87.83795,41.97135],[-87.83793,41.97384],[-87.84155,41.97379],[-87.84155,41.97469],[-87.83663,41.97477],[-87.83661,41.97531],[-87.83655,41.98257],[-87.83662,41.98636],[-87.83732,41.98646],[-87.83832,41.98662],[-87.84053,41.98695],[-87.84318,41.98735],[-87.84353,41.9874],[-87.84381,41.98744],[-87.84386,41.98745],[-87.84671,41.98788]]],[[[-87.89597,42.00003],[-87.89287,41.99986],[-87.8923,41.99971],[-87.88908,41.99924],[-87.88496,41.99832],[-87.88501,41.99847],[-87.88673,41.99886],[-87.8894,41.99939],[-87.89075,41.99961],[-87.89081,41.99957],[-87.89297,41.99991],[-87.89411,42.00007],[-87.89435,42.0001],[-87.89448,42.00012],[-87.89507,42.0002],[-87.89598,42.00033],[-87.89597,42.00003]]],[[[-87.89604,42.00227],[-87.89603,42.002],[-87.89436,42.00206],[-87.89436,42.00217],[-87.89039,42.0023],[-87.89039,42.00231],[-87.89412,42.00223],[-87.89604,42.00227]]],[[[-87.89356,42.0029],[-87.89347,42.00327],[-87.89313,42.00328],[-87.89313,42.00395],[-87.89326,42.00394],[-87.89323,42.00334],[-87.89358,42.00333],[-87.89356,42.0029]]]]},"properties":{"num":8,"lp":[-87.84779,41.97979]}},
{"type":"Feature","geometry":{"type":"MultiPolygon","coordinates":[[[[-87.64108,41.95485],[-87.64139,41.95595],[-87.64164,41.95793],[-87.64175,41.95836],[-87.64167,41.95942],[-87.64154,41.96014],[-87.6416,41.96035],[-87.6422,41.96096],[-87.64232,41.9612],[-87.64223,41.96172],[-87.6418,41.96217],[-87.64141,41.96231],[-87.64043,41.96245],[-87.63957,41.96254],[-87.63685,41.96288],[-87.63592,41.96284],[-87.63551,41.96261],[-87.63533,41.96231],[-87.63535,41.96204],[-87.63583,41.96138],[-87.63639,41.96094],[-87.63677,41.96073],[-87.63764,41.9604],[-87.63847,41.96028],[-87.63882,41.96029],[-87.63932,41.9604],[-87.6398,41.96065],[-87.64039,41.96086],[-87.64068,41.96082],[-87.64086,41.96065],[-87.64093,41.96039],[-87.64076,41.96002],[-87.6403,41.9598],[-87.63852,41.95947],[-87.63753,41.95949],[-87.63618,41.9599],[-87.63559,41.96029],[-87.63442,41.96135],[-87.63183,41.96258],[-87.63147,41.96292],[-87.63139,41.96313],[-87.63175,41.96419],[-87.63199,41.96507],[-87.63262,41.96527],[-87.63497,41.96536],[-87.63644,41.96552],[-87.6392,41.96621],[-87.6405,41.96688],[-87.64173,41.96765],[-87.64257,41.96829],[-87.6428,41.96805],[-87.64297,41.96806],[-87.64327,41.96831],[-87.64299,41.9686],[-87.64367,41.96924],[-87.64424,41.96983],[-87.64503,41.9708],[-87.64557,41.97166],[-87.64601,41.9725],[-87.64618,41.97298],[-87.64631,41.97358],[-87.64632,41.97543],[-87.64649,41.97713],[-87.64678,41.97746],[-87.64732,41.97775],[-87.6486,41.97784],[-87.64877,41.97815],[-87.64988,41.97901],[-87.65019,41.97932],[-87.65048,41.97946],[-87.65023,41.97972],[-87.65059,41.98035],[-87.65068,41.98068],[-87.65074,41.98248],[-87.65072,41.98292],[-87.65048,41.98412],[-87.65012,41.98494],[-87.65082,41.98566],[-87.65106,41.98576],[-87.65159,41.98614],[-87.65226,41.98669],[-87.65368,41.9877],[-87.65431,41.98841],[-87.65423,41.98853],[-87.6542,41.98946],[-87.65423,41.98982],[-87.65438,41.9902],[-87.65438,41.99101],[-87.65425,41.99209],[-87.65424,41.99256],[-87.65437,41.99273],[-87.65475,41.99285],[-87.6548,41.99318],[-87.65459,41.99395],[-87.65443,41.99409],[-87.65448,41.99439],[-87.65474,41.99457],[-87.65478,41.99496],[-87.65468,41.99531],[-87.65484,41.99546],[-87.65472,41.99637],[-87.65446,41.99649],[-87.65451,41.99728],[-87.65472,41.99728],[-87.65473,41.99815],[-87.655,41.9983],[-87.65513,41.99873],[-87.65536,41.99902],[-87.65569,41.9992],[-87.65581,41.99939],[-87.65587,42.00003],[-87.65634,42.00104],[-87.65619,42.00127],[-87.6569,42.0026],[-87.65698,42.0032],[-87.65724,42.00371],[-87.65729,42.00421],[-87.65682,42.00423],[-87.65731,42.00507],[-87.65742,42.00562],[-87.65739,42.00628],[-87.65584,42.00631],[-87.65535,42.00669],[-87.65646,42.00742],[-87.65674,42.00768],[-87.65698,42.008],[-87.65752,42.00845],[-87.65812,42.00905],[-87.65866,42.00954],[-87.65922,42.01024],[-87.66012,42.01098],[-87.66015,42.01124],[-87.66079,42.01175],[-87.66103,42.01205],[-87.661,42.01219],[-87.66133,42.01295],[-87.66162,42.01332],[-87.66155,42.01354],[-87.66209,42.01459],[-87.66254,42.01578],[-87.66267,42.01582],[-87.66281,42.01662],[-87.66314,42.01692],[-87.66314,42.01772],[-87.66327,42.01776],[-87.66332,42.01851],[-87.66372,42.01874],[-87.66398,42.01908],[-87.66388,42.01952],[-87.66408,42.02016],[-87.66379,42.02038],[-87.66405,42.02131],[-87.66419,42.02125],[-87.66453,42.02149],[-87.66472,42.02173],[-87.66466,42.02194],[-87.6648,42.02223],[-87.66505,42.02236],[-87.66527,42.02262],[-87.66513,42.02295],[-87.6707,42.02299],[-87.67706,42.02304],[-87.67624,42.02193],[-87.67312,42.01939],[-87.67708,42.01941],[-87.67728,42.01943],[-87.68024,42.01944],[-87.68485,42.01949],[-87.68629,42.01951],[-87.68999,42.01953],[-87.69209,42.01949],[-87.70213,42.01927],[-87.70414,42.01923],[-87.7045,42.01923],[-87.70901,42.01913],[-87.70919,42.01167],[-87.70932,42.01054],[-87.70948,42.00452],[-87.70948,42.00117],[-87.70945,41.99739],[-87.71395,41.99731],[-87.71861,41.99728],[-87.71748,41.99659],[-87.71781,41.99628],[-87.7178,41.99553],[-87.7184,41.99552],[-87.7183,41.99199],[-87.71891,41.99198],[-87.71886,41.99026],[-87.68991,41.9905],[-87.67504,41.99076],[-87.67484,41.98332],[-87.67928,41.98326],[-87.67951,41.98316],[-87.67957,41.98146],[-87.6794,41.97603],[-87.68915,41.97589],[-87.68897,41.97041],[-87.67626,41.97062],[-87.67632,41.97331],[-87.67431,41.97337],[-87.67417,41.96882],[-87.6662,41.96892],[-87.66508,41.96364],[-87.66493,41.96165],[-87.66595,41.96163],[-87.66447,41.95796],[-87.66225,41.95438],[-87.65679,41.95445],[-87.65685,41.95397],[-87.65681,41.95109],[-87.64962,41.9512],[-87.64785,41.95164],[-87.6479,41.95285],[-87.64655,41.95293],[-87.64665,41.95461],[-87.64419,41.95466],[-87.64108,41.95485]]],[[[-87.76218,42.00165],[-87.75291,41.9973],[-87.75247,41.9973],[-87.7529,41.9973],[-87.75444,41.99804],[-87.76143,42.00132],[-87.76218,42.00165]]],[[[-87.78595,42.012],[-87.77906,42.01199],[-87.77911,42.01508],[-87.77915,42.01357],[-87.77927,42.01199],[-87.78109,42.01201],[-87.78207,42.012],[-87.78595,42.012]]],[[[-87.78492,42.00755],[-87.78872,42.012],[-87.78882,42.012],[-87.7876,42.01056],[-87.78752,42.01059],[-87.78492,42.00755]]],[[[-87.78221,42.00464],[-87.78319,42.00552],[-87.78255,42.00489],[-87.78221,42.00464]]],[[[-87.79967,42.00087],[-87.79948,41.99998],[-87.79713,42],[-87.79712,42.00094],[-87.79717,42.00089],[-87.79717,42.00004],[-87.79945,42.00003],[-87.79967,42.00087]]],[[[-87.80535,42.00151],[-87.80108,42.00152],[-87.80185,42.00156],[-87.80535,42.00151]]],[[[-87.82132,42.00605],[-87.81725,42.00347],[-87.81648,42.00415],[-87.80672,42.00447],[-87.80674,42.00208],[-87.80662,42.01368],[-87.80655,42.01896],[-87.82121,42.01864],[-87.82123,42.01554],[-87.82007,42.01557],[-87.8201,42.01193],[-87.81973,42.01193],[-87.81973,42.01139],[-87.82125,42.01136],[-87.82126,42.011],[-87.82132,42.00756],[-87.82132,42.00748],[-87.82131,42.00735],[-87.82112,42.00723],[-87.82131,42.00706],[-87.82132,42.00605]]]]},"properties":{"num":9,"lp":[-87.69002,42.00501]}}
]}