{"type":"FeatureCollection","features":[{"type":"Feature","properties":{"id":"rle","name":"Red Line Extension","short":"Red Line Extension","mode":"subway","color":"#C60C30","owner":"Chicago Transit Authority","opens":"2030 (CTA)","length":"5.5 miles, 4 stations","about":"Extends the Red Line south from 95th Street to 130th Street, mostly elevated alongside the Union Pacific tracks, with a new rail yard.","link":"https://www.transitchicago.com/rle/"},"geometry":{"type":"MultiLineString","coordinates":[[[-87.62472,41.71892],[-87.62462,41.71948],[-87.62452,41.7198]],[[-87.6105,41.67769],[-87.61081,41.67795],[-87.61205,41.67884],[-87.61302,41.67939],[-87.61604,41.68098],[-87.6167,41.68134],[-87.61974,41.68289],[-87.62231,41.68421],[-87.6231,41.68453],[-87.62936,41.68771],[-87.62973,41.68793],[-87.63011,41.6882],[-87.63042,41.68847],[-87.63114,41.68928],[-87.63161,41.69011],[-87.63198,41.69097],[-87.63224,41.6918],[-87.63235,41.69234],[-87.63237,41.69292],[-87.63242,41.69443],[-87.63244,41.69508],[-87.63253,41.69801],[-87.63262,41.69835],[-87.63314,41.69994],[-87.63324,41.70043],[-87.63334,41.70411],[-87.63328,41.70547],[-87.63342,41.7099],[-87.63344,41.71045],[-87.63353,41.7132],[-87.63352,41.71345],[-87.63348,41.71365],[-87.63338,41.71392],[-87.63319,41.71419],[-87.63293,41.71444],[-87.63241,41.7148],[-87.63195,41.71503],[-87.63144,41.71519],[-87.63101,41.71529],[-87.6297,41.71558],[-87.62836,41.71588],[-87.62747,41.7161],[-87.62689,41.71629],[-87.62602,41.71672],[-87.62526,41.71744],[-87.62504,41.71774],[-87.62487,41.71798],[-87.62455,41.71874]],[[-87.60881,41.67583],[-87.61012,41.67732],[-87.61032,41.67752]],[[-87.60865,41.67564],[-87.60647,41.67316],[-87.60625,41.67291],[-87.60368,41.67005],[-87.60182,41.66792],[-87.5972,41.66259],[-87.59539,41.65965],[-87.59513,41.65924],[-87.59491,41.65887],[-87.59469,41.6586],[-87.59305,41.65584]],[[-87.60567,41.67074],[-87.60387,41.66966],[-87.60342,41.66933]]]}},{"type":"Feature","properties":{"part":"station","id":"rle","name":"103rd Street"},"geometry":{"type":"Point","coordinates":[-87.63333,41.70705]}},{"type":"Feature","properties":{"part":"station","id":"rle","name":"111th Street"},"geometry":{"type":"Point","coordinates":[-87.63235,41.69247]}},{"type":"Feature","properties":{"part":"station","id":"rle","name":"Michigan Avenue"},"geometry":{"type":"Point","coordinates":[-87.62068,41.68337]}},{"type":"Feature","properties":{"part":"station","id":"rle","name":"130th Street"},"geometry":{"type":"Point","coordinates":[-87.59545,41.65976]}}]}