{"type":"FeatureCollection","features":[{"type":"Feature","properties":{"name":"18th","lines":["Pink"],"terminus":false},"geometry":{"type":"Point","coordinates":[-87.66915,41.85791]}},{"type":"Feature","properties":{"name":"35th/Archer","lines":["Orange"],"terminus":false},"geometry":{"type":"Point","coordinates":[-87.68062,41.82935]}},{"type":"Feature","properties":{"name":"35th-Bronzeville-IIT","lines":["Green"],"terminus":false},"geometry":{"type":"Point","coordinates":[-87.62583,41.83168]}},{"type":"Feature","properties":{"name":"43rd","lines":["Green"],"terminus":false},"geometry":{"type":"Point","coordinates":[-87.61902,41.81646]}},{"type":"Feature","properties":{"name":"47th","lines":["Green"],"terminus":false},"geometry":{"type":"Point","coordinates":[-87.61883,41.80921]}},{"type":"Feature","properties":{"name":"47th","lines":["Red"],"terminus":false},"geometry":{"type":"Point","coordinates":[-87.63094,41.81032]}},{"type":"Feature","properties":{"name":"51st","lines":["Green"],"terminus":false},"geometry":{"type":"Point","coordinates":[-87.61849,41.80209]}},{"type":"Feature","properties":{"name":"54th/Cermak","lines":["Pink"],"terminus":true},"geometry":{"type":"Point","coordinates":[-87.75669,41.85177]}},{"type":"Feature","properties":{"name":"63rd","lines":["Red"],"terminus":false},"geometry":{"type":"Point","coordinates":[-87.63095,41.78054]}},{"type":"Feature","properties":{"name":"69th","lines":["Red"],"terminus":false},"geometry":{"type":"Point","coordinates":[-87.62572,41.76837]}},{"type":"Feature","properties":{"name":"79th","lines":["Red"],"terminus":false},"geometry":{"type":"Point","coordinates":[-87.62511,41.75042]}},{"type":"Feature","properties":{"name":"87th","lines":["Red"],"terminus":false},"geometry":{"type":"Point","coordinates":[-87.62472,41.73537]}},{"type":"Feature","properties":{"name":"95th/Dan Ryan","lines":["Red"],"terminus":true},"geometry":{"type":"Point","coordinates":[-87.62434,41.72238]}},{"type":"Feature","properties":{"name":"Adams/Wabash","lines":["Brown","Green","Orange","Pink","Purple"],"terminus":false},"geometry":{"type":"Point","coordinates":[-87.62604,41.87951]}},{"type":"Feature","properties":{"name":"Addison","lines":["Red"],"terminus":false},"geometry":{"type":"Point","coordinates":[-87.65363,41.94743]}},{"type":"Feature","properties":{"name":"Addison","lines":["Brown"],"terminus":false},"geometry":{"type":"Point","coordinates":[-87.67464,41.94703]}},{"type":"Feature","properties":{"name":"Addison","lines":["Blue"],"terminus":false},"geometry":{"type":"Point","coordinates":[-87.71906,41.94738]}},{"type":"Feature","properties":{"name":"Argyle","lines":["Red"],"terminus":false},"geometry":{"type":"Point","coordinates":[-87.65853,41.97345]}},{"type":"Feature","properties":{"name":"Armitage","lines":["Brown","Purple"],"terminus":false},"geometry":{"type":"Point","coordinates":[-87.65264,41.91822]}},{"type":"Feature","properties":{"name":"Ashland","lines":["Green","Pink"],"terminus":false},"geometry":{"type":"Point","coordinates":[-87.66697,41.88527]}},{"type":"Feature","properties":{"name":"Ashland","lines":["Orange"],"terminus":false},"geometry":{"type":"Point","coordinates":[-87.66532,41.83923]}},{"type":"Feature","properties":{"name":"Ashland/63rd","lines":["Green"],"terminus":true},"geometry":{"type":"Point","coordinates":[-87.66377,41.77886]}},{"type":"Feature","properties":{"name":"Austin","lines":["Blue"],"terminus":false},"geometry":{"type":"Point","coordinates":[-87.77681,41.87085]}},{"type":"Feature","properties":{"name":"Austin","lines":["Green"],"terminus":false},"geometry":{"type":"Point","coordinates":[-87.77414,41.88729]}},{"type":"Feature","properties":{"name":"Belmont","lines":["Blue"],"terminus":false},"geometry":{"type":"Point","coordinates":[-87.71236,41.93813]}},{"type":"Feature","properties":{"name":"Belmont","lines":["Red","Brown","Purple"],"terminus":false},"geometry":{"type":"Point","coordinates":[-87.65338,41.93975]}},{"type":"Feature","properties":{"name":"Berwyn","lines":["Red"],"terminus":false},"geometry":{"type":"Point","coordinates":[-87.65867,41.97798]}},{"type":"Feature","properties":{"name":"Bryn Mawr","lines":["Red"],"terminus":false},"geometry":{"type":"Point","coordinates":[-87.65884,41.9835]}},{"type":"Feature","properties":{"name":"California","lines":["Green"],"terminus":false},"geometry":{"type":"Point","coordinates":[-87.69623,41.88422]}},{"type":"Feature","properties":{"name":"California","lines":["Blue"],"terminus":false},"geometry":{"type":"Point","coordinates":[-87.69689,41.92194]}},{"type":"Feature","properties":{"name":"California","lines":["Pink"],"terminus":false},"geometry":{"type":"Point","coordinates":[-87.69477,41.85411]}},{"type":"Feature","properties":{"name":"Central","lines":["Green"],"terminus":false},"geometry":{"type":"Point","coordinates":[-87.76565,41.88739]}},{"type":"Feature","properties":{"name":"Central","lines":["Purple"],"terminus":false},"geometry":{"type":"Point","coordinates":[-87.68562,42.06399]}},{"type":"Feature","properties":{"name":"Central Park","lines":["Pink"],"terminus":false},"geometry":{"type":"Point","coordinates":[-87.71484,41.85384]}},{"type":"Feature","properties":{"name":"Cermak-Chinatown","lines":["Red"],"terminus":false},"geometry":{"type":"Point","coordinates":[-87.63097,41.85321]}},{"type":"Feature","properties":{"name":"Cermak-McCormick Place","lines":["Green"],"terminus":false},"geometry":{"type":"Point","coordinates":[-87.6264,41.85312]}},{"type":"Feature","properties":{"name":"Chicago","lines":["Red"],"terminus":false},"geometry":{"type":"Point","coordinates":[-87.62818,41.89667]}},{"type":"Feature","properties":{"name":"Chicago","lines":["Brown","Purple"],"terminus":false},"geometry":{"type":"Point","coordinates":[-87.63592,41.89681]}},{"type":"Feature","properties":{"name":"Chicago","lines":["Blue"],"terminus":false},"geometry":{"type":"Point","coordinates":[-87.65521,41.89608]}},{"type":"Feature","properties":{"name":"Cicero","lines":["Blue"],"terminus":false},"geometry":{"type":"Point","coordinates":[-87.74515,41.87157]}},{"type":"Feature","properties":{"name":"Cicero","lines":["Green"],"terminus":false},"geometry":{"type":"Point","coordinates":[-87.7447,41.88652]}},{"type":"Feature","properties":{"name":"Cicero","lines":["Pink"],"terminus":false},"geometry":{"type":"Point","coordinates":[-87.74534,41.85182]}},{"type":"Feature","properties":{"name":"Clark/Division","lines":["Red"],"terminus":false},"geometry":{"type":"Point","coordinates":[-87.63141,41.90392]}},{"type":"Feature","properties":{"name":"Clark/Lake","lines":["Blue","Brown","Green","Orange","Pink","Purple"],"terminus":false},"geometry":{"type":"Point","coordinates":[-87.63089,41.88574]}},{"type":"Feature","properties":{"name":"Clinton","lines":["Green","Pink"],"terminus":false},"geometry":{"type":"Point","coordinates":[-87.64178,41.88568]}},{"type":"Feature","properties":{"name":"Clinton","lines":["Blue"],"terminus":false},"geometry":{"type":"Point","coordinates":[-87.64098,41.87554]}},{"type":"Feature","properties":{"name":"Conservatory","lines":["Green"],"terminus":false},"geometry":{"type":"Point","coordinates":[-87.71652,41.8849]}},{"type":"Feature","properties":{"name":"Cottage Grove","lines":["Green"],"terminus":true},"geometry":{"type":"Point","coordinates":[-87.60586,41.78031]}},{"type":"Feature","properties":{"name":"Cumberland","lines":["Blue"],"terminus":false},"geometry":{"type":"Point","coordinates":[-87.83803,41.98425]}},{"type":"Feature","properties":{"name":"Damen","lines":["Blue"],"terminus":false},"geometry":{"type":"Point","coordinates":[-87.67744,41.90974]}},{"type":"Feature","properties":{"name":"Damen","lines":["Green"],"terminus":false},"geometry":{"type":"Point","coordinates":[-87.67689,41.88497]}},{"type":"Feature","properties":{"name":"Damen","lines":["Pink"],"terminus":false},"geometry":{"type":"Point","coordinates":[-87.67597,41.85452]}},{"type":"Feature","properties":{"name":"Damen","lines":["Brown"],"terminus":false},"geometry":{"type":"Point","coordinates":[-87.67864,41.96629]}},{"type":"Feature","properties":{"name":"Davis","lines":["Purple"],"terminus":false},"geometry":{"type":"Point","coordinates":[-87.68354,42.04771]}},{"type":"Feature","properties":{"name":"Dempster","lines":["Purple"],"terminus":false},"geometry":{"type":"Point","coordinates":[-87.6816,42.04165]}},{"type":"Feature","properties":{"name":"Dempster-Skokie","lines":["Yellow"],"terminus":true},"geometry":{"type":"Point","coordinates":[-87.75192,42.03895]}},{"type":"Feature","properties":{"name":"Diversey","lines":["Brown","Purple"],"terminus":false},"geometry":{"type":"Point","coordinates":[-87.65313,41.93273]}},{"type":"Feature","properties":{"name":"Division","lines":["Blue"],"terminus":false},"geometry":{"type":"Point","coordinates":[-87.6665,41.90335]}},{"type":"Feature","properties":{"name":"Forest Park","lines":["Blue"],"terminus":true},"geometry":{"type":"Point","coordinates":[-87.81732,41.87426]}},{"type":"Feature","properties":{"name":"Foster","lines":["Purple"],"terminus":false},"geometry":{"type":"Point","coordinates":[-87.68356,42.05416]}},{"type":"Feature","properties":{"name":"Francisco","lines":["Brown"],"terminus":false},"geometry":{"type":"Point","coordinates":[-87.70164,41.96605]}},{"type":"Feature","properties":{"name":"Fullerton","lines":["Red","Brown","Purple"],"terminus":false},"geometry":{"type":"Point","coordinates":[-87.65287,41.92505]}},{"type":"Feature","properties":{"name":"Garfield","lines":["Red"],"terminus":false},"geometry":{"type":"Point","coordinates":[-87.63116,41.79542]}},{"type":"Feature","properties":{"name":"Garfield","lines":["Green"],"terminus":false},"geometry":{"type":"Point","coordinates":[-87.61833,41.79517]}},{"type":"Feature","properties":{"name":"Grand","lines":["Red"],"terminus":false},"geometry":{"type":"Point","coordinates":[-87.62802,41.89167]}},{"type":"Feature","properties":{"name":"Grand","lines":["Blue"],"terminus":false},"geometry":{"type":"Point","coordinates":[-87.64758,41.89119]}},{"type":"Feature","properties":{"name":"Granville","lines":["Red"],"terminus":false},"geometry":{"type":"Point","coordinates":[-87.6592,41.99366]}},{"type":"Feature","properties":{"name":"Halsted","lines":["Green"],"terminus":false},"geometry":{"type":"Point","coordinates":[-87.64424,41.77894]}},{"type":"Feature","properties":{"name":"Halsted","lines":["Orange"],"terminus":false},"geometry":{"type":"Point","coordinates":[-87.64809,41.84678]}},{"type":"Feature","properties":{"name":"Harlem","lines":["Blue"],"terminus":false},"geometry":{"type":"Point","coordinates":[-87.80696,41.87349]}},{"type":"Feature","properties":{"name":"Harlem","lines":["Blue"],"terminus":false},"geometry":{"type":"Point","coordinates":[-87.8089,41.98227]}},{"type":"Feature","properties":{"name":"Harlem/Lake","lines":["Green"],"terminus":true},"geometry":{"type":"Point","coordinates":[-87.80318,41.88685]}},{"type":"Feature","properties":{"name":"Harold Washington Library-State/Van Buren","lines":["Brown","Orange","Pink","Purple"],"terminus":false},"geometry":{"type":"Point","coordinates":[-87.6282,41.87686]}},{"type":"Feature","properties":{"name":"Harrison","lines":["Red"],"terminus":false},"geometry":{"type":"Point","coordinates":[-87.62748,41.87404]}},{"type":"Feature","properties":{"name":"Howard","lines":["Red","Purple","Yellow"],"terminus":true},"geometry":{"type":"Point","coordinates":[-87.67289,42.01906]}},{"type":"Feature","properties":{"name":"Illinois Medical District","lines":["Blue"],"terminus":false},"geometry":{"type":"Point","coordinates":[-87.67393,41.87571]}},{"type":"Feature","properties":{"name":"Indiana","lines":["Green"],"terminus":false},"geometry":{"type":"Point","coordinates":[-87.62137,41.82173]}},{"type":"Feature","properties":{"name":"Irving Park","lines":["Blue"],"terminus":false},"geometry":{"type":"Point","coordinates":[-87.72923,41.95293]}},{"type":"Feature","properties":{"name":"Irving Park","lines":["Brown"],"terminus":false},"geometry":{"type":"Point","coordinates":[-87.67487,41.95452]}},{"type":"Feature","properties":{"name":"Jackson","lines":["Blue"],"terminus":false},"geometry":{"type":"Point","coordinates":[-87.6293,41.87818]}},{"type":"Feature","properties":{"name":"Jackson","lines":["Red"],"terminus":false},"geometry":{"type":"Point","coordinates":[-87.6276,41.87815]}},{"type":"Feature","properties":{"name":"Jarvis","lines":["Red"],"terminus":false},"geometry":{"type":"Point","coordinates":[-87.66909,42.01588]}},{"type":"Feature","properties":{"name":"Jefferson Park","lines":["Blue"],"terminus":false},"geometry":{"type":"Point","coordinates":[-87.76089,41.97063]}},{"type":"Feature","properties":{"name":"Kedzie","lines":["Orange"],"terminus":false},"geometry":{"type":"Point","coordinates":[-87.70441,41.80424]}},{"type":"Feature","properties":{"name":"Kedzie","lines":["Green"],"terminus":false},"geometry":{"type":"Point","coordinates":[-87.70615,41.88432]}},{"type":"Feature","properties":{"name":"Kedzie","lines":["Pink"],"terminus":false},"geometry":{"type":"Point","coordinates":[-87.70541,41.85396]}},{"type":"Feature","properties":{"name":"Kedzie","lines":["Brown"],"terminus":false},"geometry":{"type":"Point","coordinates":[-87.70882,41.966]}},{"type":"Feature","properties":{"name":"Kedzie-Homan","lines":["Blue"],"terminus":false},"geometry":{"type":"Point","coordinates":[-87.70604,41.87434]}},{"type":"Feature","properties":{"name":"Kimball","lines":["Brown"],"terminus":true},"geometry":{"type":"Point","coordinates":[-87.71307,41.9679]}},{"type":"Feature","properties":{"name":"King Drive","lines":["Green"],"terminus":false},"geometry":{"type":"Point","coordinates":[-87.61555,41.78013]}},{"type":"Feature","properties":{"name":"Kostner","lines":["Pink"],"terminus":false},"geometry":{"type":"Point","coordinates":[-87.73326,41.85375]}},{"type":"Feature","properties":{"name":"Lake","lines":["Red"],"terminus":false},"geometry":{"type":"Point","coordinates":[-87.62781,41.88481]}},{"type":"Feature","properties":{"name":"Laramie","lines":["Green"],"terminus":false},"geometry":{"type":"Point","coordinates":[-87.75499,41.88716]}},{"type":"Feature","properties":{"name":"LaSalle","lines":["Blue"],"terminus":false},"geometry":{"type":"Point","coordinates":[-87.63172,41.87557]}},{"type":"Feature","properties":{"name":"LaSalle/Van Buren","lines":["Brown","Orange","Pink","Purple"],"terminus":false},"geometry":{"type":"Point","coordinates":[-87.63174,41.8768]}},{"type":"Feature","properties":{"name":"Lawrence","lines":["Red"],"terminus":false},"geometry":{"type":"Point","coordinates":[-87.65849,41.96914]}},{"type":"Feature","properties":{"name":"Linden","lines":["Purple"],"terminus":true},"geometry":{"type":"Point","coordinates":[-87.69073,42.07315]}},{"type":"Feature","properties":{"name":"Logan Square","lines":["Blue"],"terminus":false},"geometry":{"type":"Point","coordinates":[-87.70854,41.92973]}},{"type":"Feature","properties":{"name":"Loyola","lines":["Red"],"terminus":false},"geometry":{"type":"Point","coordinates":[-87.66106,42.00107]}},{"type":"Feature","properties":{"name":"Main","lines":["Purple"],"terminus":false},"geometry":{"type":"Point","coordinates":[-87.67954,42.03346]}},{"type":"Feature","properties":{"name":"Merchandise Mart","lines":["Brown","Purple"],"terminus":false},"geometry":{"type":"Point","coordinates":[-87.63392,41.88897]}},{"type":"Feature","properties":{"name":"Midway","lines":["Orange"],"terminus":true},"geometry":{"type":"Point","coordinates":[-87.73788,41.78661]}},{"type":"Feature","properties":{"name":"Monroe","lines":["Red"],"terminus":false},"geometry":{"type":"Point","coordinates":[-87.6277,41.88074]}},{"type":"Feature","properties":{"name":"Monroe","lines":["Blue"],"terminus":false},"geometry":{"type":"Point","coordinates":[-87.62938,41.8807]}},{"type":"Feature","properties":{"name":"Montrose","lines":["Blue"],"terminus":false},"geometry":{"type":"Point","coordinates":[-87.74357,41.96154]}},{"type":"Feature","properties":{"name":"Montrose","lines":["Brown"],"terminus":false},"geometry":{"type":"Point","coordinates":[-87.67505,41.96176]}},{"type":"Feature","properties":{"name":"Morgan","lines":["Green","Pink"],"terminus":false},"geometry":{"type":"Point","coordinates":[-87.65219,41.88559]}},{"type":"Feature","properties":{"name":"Morse","lines":["Red"],"terminus":false},"geometry":{"type":"Point","coordinates":[-87.66591,42.00836]}},{"type":"Feature","properties":{"name":"North/Clybourn","lines":["Red"],"terminus":false},"geometry":{"type":"Point","coordinates":[-87.64918,41.91065]}},{"type":"Feature","properties":{"name":"Noyes","lines":["Purple"],"terminus":false},"geometry":{"type":"Point","coordinates":[-87.68334,42.05828]}},{"type":"Feature","properties":{"name":"Oak Park","lines":["Green"],"terminus":false},"geometry":{"type":"Point","coordinates":[-87.79378,41.88699]}},{"type":"Feature","properties":{"name":"Oak Park","lines":["Blue"],"terminus":false},"geometry":{"type":"Point","coordinates":[-87.7916,41.87211]}},{"type":"Feature","properties":{"name":"Oakton-Skokie","lines":["Yellow"],"terminus":false},"geometry":{"type":"Point","coordinates":[-87.74722,42.02624]}},{"type":"Feature","properties":{"name":"O'Hare","lines":["Blue"],"terminus":true},"geometry":{"type":"Point","coordinates":[-87.90422,41.97767]}},{"type":"Feature","properties":{"name":"Paulina","lines":["Brown"],"terminus":false},"geometry":{"type":"Point","coordinates":[-87.67091,41.94362]}},{"type":"Feature","properties":{"name":"Polk","lines":["Pink"],"terminus":false},"geometry":{"type":"Point","coordinates":[-87.66953,41.87155]}},{"type":"Feature","properties":{"name":"Pulaski","lines":["Green"],"terminus":false},"geometry":{"type":"Point","coordinates":[-87.7254,41.88541]}},{"type":"Feature","properties":{"name":"Pulaski","lines":["Blue"],"terminus":false},"geometry":{"type":"Point","coordinates":[-87.72566,41.8738]}},{"type":"Feature","properties":{"name":"Pulaski","lines":["Pink"],"terminus":false},"geometry":{"type":"Point","coordinates":[-87.72431,41.85373]}},{"type":"Feature","properties":{"name":"Pulaski","lines":["Orange"],"terminus":false},"geometry":{"type":"Point","coordinates":[-87.72449,41.79976]}},{"type":"Feature","properties":{"name":"Quincy/Wells","lines":["Brown","Orange","Pink","Purple"],"terminus":false},"geometry":{"type":"Point","coordinates":[-87.63374,41.87872]}},{"type":"Feature","properties":{"name":"Racine","lines":["Blue"],"terminus":false},"geometry":{"type":"Point","coordinates":[-87.65946,41.87592]}},{"type":"Feature","properties":{"name":"Ridgeland","lines":["Green"],"terminus":false},"geometry":{"type":"Point","coordinates":[-87.78366,41.88716]}},{"type":"Feature","properties":{"name":"Rockwell","lines":["Brown"],"terminus":false},"geometry":{"type":"Point","coordinates":[-87.6941,41.96612]}},{"type":"Feature","properties":{"name":"Roosevelt","lines":["Red","Green","Orange"],"terminus":false},"geometry":{"type":"Point","coordinates":[-87.627,41.86739]}},{"type":"Feature","properties":{"name":"Rosemont","lines":["Blue"],"terminus":false},"geometry":{"type":"Point","coordinates":[-87.85939,41.98351]}},{"type":"Feature","properties":{"name":"Sedgwick","lines":["Brown","Purple"],"terminus":false},"geometry":{"type":"Point","coordinates":[-87.6393,41.91041]}},{"type":"Feature","properties":{"name":"Sheridan","lines":["Red"],"terminus":false},"geometry":{"type":"Point","coordinates":[-87.65493,41.95378]}},{"type":"Feature","properties":{"name":"South Boulevard","lines":["Purple"],"terminus":false},"geometry":{"type":"Point","coordinates":[-87.67833,42.02761]}},{"type":"Feature","properties":{"name":"Southport","lines":["Brown"],"terminus":false},"geometry":{"type":"Point","coordinates":[-87.66362,41.94374]}},{"type":"Feature","properties":{"name":"Sox-35th","lines":["Red"],"terminus":false},"geometry":{"type":"Point","coordinates":[-87.63064,41.83119]}},{"type":"Feature","properties":{"name":"State/Lake","lines":["Brown","Green","Orange","Pink","Purple"],"terminus":false},"geometry":{"type":"Point","coordinates":[-87.62784,41.88574]}},{"type":"Feature","properties":{"name":"Thorndale","lines":["Red"],"terminus":false},"geometry":{"type":"Point","coordinates":[-87.65908,41.99026]}},{"type":"Feature","properties":{"name":"UIC-Halsted","lines":["Blue"],"terminus":false},"geometry":{"type":"Point","coordinates":[-87.64971,41.87547]}},{"type":"Feature","properties":{"name":"Washington","lines":["Blue"],"terminus":false},"geometry":{"type":"Point","coordinates":[-87.62944,41.88316]}},{"type":"Feature","properties":{"name":"Washington/Wabash","lines":["Brown","Green","Orange","Pink","Purple"],"terminus":false},"geometry":{"type":"Point","coordinates":[-87.62619,41.88322]}},{"type":"Feature","properties":{"name":"Washington/Wells","lines":["Brown","Orange","Pink","Purple"],"terminus":false},"geometry":{"type":"Point","coordinates":[-87.63378,41.88269]}},{"type":"Feature","properties":{"name":"Wellington","lines":["Brown","Purple"],"terminus":false},"geometry":{"type":"Point","coordinates":[-87.65327,41.93603]}},{"type":"Feature","properties":{"name":"Western","lines":["Brown"],"terminus":false},"geometry":{"type":"Point","coordinates":[-87.6885,41.96616]}},{"type":"Feature","properties":{"name":"Western","lines":["Blue"],"terminus":false},"geometry":{"type":"Point","coordinates":[-87.68736,41.91616]}},{"type":"Feature","properties":{"name":"Western","lines":["Blue"],"terminus":false},"geometry":{"type":"Point","coordinates":[-87.68844,41.87548]}},{"type":"Feature","properties":{"name":"Western","lines":["Orange"],"terminus":false},"geometry":{"type":"Point","coordinates":[-87.68402,41.80455]}},{"type":"Feature","properties":{"name":"Western","lines":["Pink"],"terminus":false},"geometry":{"type":"Point","coordinates":[-87.68513,41.85422]}},{"type":"Feature","properties":{"name":"Wilson","lines":["Red","Purple"],"terminus":false},"geometry":{"type":"Point","coordinates":[-87.65759,41.96427]}}]}