{"type":"FeatureCollection", "features": [
{"type":"Feature","geometry":{"type":"LineString","coordinates":[[-87.75192,42.03895],[-87.75161,42.03811],[-87.7508,42.03635],[-87.7504,42.0355],[-87.75006,42.03473],[-87.74969,42.03396],[-87.74948,42.03335],[-87.74937,42.03293],[-87.74908,42.03202],[-87.74868,42.03091],[-87.74861,42.03065],[-87.7482,42.02926],[-87.74795,42.02846],[-87.74758,42.02733],[-87.74743,42.02679],[-87.7471,42.02591],[-87.74681,42.02535],[-87.74663,42.02508],[-87.74622,42.02457],[-87.74573,42.0241],[-87.74517,42.02367],[-87.74487,42.02347],[-87.74422,42.02312],[-87.74352,42.02283],[-87.74278,42.0226],[-87.742,42.02243],[-87.74124,42.02235],[-87.74059,42.02231],[-87.73788,42.02231],[-87.73081,42.02234],[-87.72332,42.02234],[-87.72243,42.02236],[-87.72195,42.0224],[-87.72089,42.0225],[-87.72046,42.02253],[-87.71914,42.02261],[-87.71852,42.02262],[-87.7182,42.02264],[-87.71691,42.02265],[-87.71602,42.02265],[-87.71496,42.02266],[-87.71382,42.02265],[-87.71274,42.0226],[-87.71133,42.02256],[-87.71039,42.02255],[-87.70879,42.02249],[-87.70787,42.02251],[-87.70732,42.0225],[-87.70415,42.02258],[-87.703,42.02262],[-87.70181,42.02263],[-87.70101,42.02259],[-87.70031,42.02253],[-87.69856,42.02232],[-87.69719,42.0222],[-87.69664,42.02219],[-87.6958,42.0222],[-87.69497,42.02223],[-87.69333,42.02226],[-87.69256,42.02224],[-87.69186,42.02215],[-87.69096,42.022],[-87.69049,42.02195],[-87.69005,42.02192],[-87.68923,42.0218],[-87.68801,42.0217],[-87.68746,42.0217],[-87.68606,42.02171],[-87.68217,42.02171],[-87.67963,42.02171],[-87.67916,42.02168],[-87.67811,42.02158],[-87.67716,42.0214],[-87.6766,42.02126],[-87.67628,42.02115],[-87.67589,42.02098],[-87.67474,42.02036],[-87.67388,42.01986],[-87.67289,42.01906]]},"properties":{"line":"yellow","name":"Yellow Line"}},
{"type":"Feature","geometry":{"type":"MultiLineString","coordinates":[[[-87.69073,42.07315],[-87.69032,42.07239],[-87.68985,42.07162],[-87.68891,42.07013],[-87.68852,42.0694],[-87.68792,42.06822],[-87.68731,42.067],[-87.68608,42.06479],[-87.68562,42.06399],[-87.68485,42.06274],[-87.68417,42.06148],[-87.68382,42.06086],[-87.68366,42.06043],[-87.68343,42.05963],[-87.68335,42.05902],[-87.68333,42.05845],[-87.68333,42.05794],[-87.68339,42.05691],[-87.68352,42.05577],[-87.68351,42.0553],[-87.68356,42.05416],[-87.68354,42.05297],[-87.6835,42.05234],[-87.68349,42.05165],[-87.68353,42.049],[-87.68354,42.04849],[-87.68354,42.04771],[-87.68358,42.04699],[-87.68326,42.04638],[-87.68277,42.04527],[-87.68242,42.04445],[-87.68222,42.04392],[-87.68186,42.04274],[-87.68152,42.04132],[-87.68136,42.04051],[-87.68085,42.03824],[-87.68033,42.03592],[-87.67994,42.03423],[-87.67983,42.03396],[-87.67961,42.03363],[-87.67954,42.03346],[-87.67926,42.03212],[-87.67892,42.0306],[-87.67855,42.02894],[-87.67833,42.02761],[-87.67811,42.0261],[-87.67775,42.02432],[-87.67752,42.02321],[-87.67743,42.02274],[-87.6773,42.02241],[-87.67705,42.02209],[-87.67689,42.02197],[-87.67574,42.0213],[-87.67406,42.02002],[-87.67388,42.01986],[-87.67289,42.01906],[-87.67177,42.01814],[-87.66988,42.01658],[-87.66909,42.01588],[-87.66769,42.01466],[-87.66718,42.01421],[-87.66689,42.01388],[-87.66663,42.01355],[-87.6663,42.01297],[-87.66613,42.01259],[-87.66606,42.01227],[-87.66601,42.01183],[-87.66597,42.01059],[-87.66591,42.00836],[-87.66583,42.00687],[-87.66577,42.00618],[-87.66571,42.00586],[-87.66553,42.00525],[-87.66527,42.00467],[-87.665,42.00415],[-87.66477,42.00382],[-87.66448,42.00348],[-87.66401,42.00305],[-87.66346,42.00264],[-87.66225,42.00187],[-87.66166,42.00152],[-87.66142,42.00137],[-87.66083,42.0009],[-87.66049,42.00059],[-87.66005,42.00009],[-87.6599,41.99989],[-87.65965,41.99943],[-87.65948,41.999],[-87.65935,41.99849],[-87.65927,41.99798],[-87.65926,41.99722],[-87.65921,41.99632],[-87.65919,41.99549],[-87.65918,41.99463],[-87.6592,41.99366],[-87.65913,41.99235],[-87.65908,41.99083],[-87.65908,41.99026],[-87.65901,41.98881],[-87.65898,41.9876],[-87.65884,41.9835],[-87.65879,41.98184],[-87.65872,41.97967],[-87.65859,41.97523],[-87.65853,41.97345],[-87.65849,41.97118],[-87.65849,41.96914],[-87.65847,41.96838],[-87.65842,41.96746],[-87.65838,41.96688],[-87.65831,41.96618],[-87.6582,41.96578],[-87.65773,41.96425],[-87.65763,41.96395],[-87.657,41.96181],[-87.65689,41.95861],[-87.65677,41.95491],[-87.65672,41.95417],[-87.65665,41.95404],[-87.65635,41.9538],[-87.65606,41.95376],[-87.65493,41.95377],[-87.65431,41.95375],[-87.65394,41.9537],[-87.65373,41.95352],[-87.65369,41.95343],[-87.65363,41.95246],[-87.65366,41.952],[-87.65366,41.95108],[-87.65365,41.9506],[-87.65364,41.9482],[-87.65362,41.94689],[-87.65353,41.94539],[-87.65351,41.94448],[-87.65342,41.94421],[-87.65336,41.94317],[-87.65338,41.94288],[-87.65345,41.94218],[-87.6534,41.94083],[-87.65336,41.93865],[-87.65327,41.93603],[-87.65314,41.93312],[-87.65313,41.93273],[-87.6531,41.93218],[-87.65296,41.9287],[-87.65287,41.92505],[-87.65274,41.92113],[-87.65261,41.91718],[-87.65251,41.91475],[-87.6525,41.91406],[-87.65242,41.91377],[-87.65234,41.91362],[-87.65208,41.91339],[-87.65093,41.9126],[-87.64985,41.9118],[-87.64948,41.9116],[-87.6492,41.91153],[-87.649,41.9115],[-87.64792,41.91151],[-87.64768,41.91146],[-87.64756,41.91139],[-87.6474,41.91112],[-87.64734,41.91061],[-87.64728,41.91051],[-87.64709,41.9104],[-87.64682,41.91034],[-87.64664,41.91033],[-87.6458,41.91034],[-87.64523,41.91034],[-87.64348,41.91036],[-87.64255,41.91039],[-87.63975,41.9104],[-87.63814,41.91042],[-87.63787,41.91039],[-87.63771,41.91034],[-87.63746,41.91021],[-87.6373,41.90999],[-87.63727,41.90986],[-87.63718,41.90758],[-87.63711,41.90543],[-87.63702,41.90381],[-87.63702,41.90368],[-87.63699,41.90322],[-87.63688,41.90299],[-87.63659,41.90265],[-87.63646,41.90235],[-87.63647,41.90211],[-87.63669,41.90143],[-87.6367,41.90119],[-87.63664,41.90029],[-87.63664,41.90008],[-87.63656,41.89867],[-87.63654,41.89738],[-87.63649,41.89726],[-87.63634,41.89708],[-87.63583,41.89667],[-87.63568,41.89645],[-87.63565,41.89542],[-87.63563,41.89434],[-87.63558,41.89261],[-87.63554,41.89147],[-87.63553,41.89051],[-87.63548,41.8903],[-87.63524,41.89007],[-87.63493,41.88997],[-87.63447,41.88989],[-87.63425,41.88979],[-87.63407,41.88962],[-87.63399,41.88943],[-87.63397,41.88897],[-87.63396,41.88707],[-87.63391,41.88572]],[[-87.62784,41.88574],[-87.62887,41.88574],[-87.62982,41.88574],[-87.63204,41.88574],[-87.63391,41.88572]],[[-87.63391,41.88572],[-87.63385,41.8827],[-87.63384,41.88144],[-87.63378,41.88014],[-87.63374,41.87872],[-87.63369,41.87726],[-87.63369,41.87706],[-87.63365,41.87695],[-87.63338,41.87685],[-87.63173,41.87686],[-87.62925,41.87689],[-87.62821,41.87691],[-87.62757,41.87693],[-87.6265,41.87696],[-87.62625,41.87695],[-87.62605,41.87681],[-87.62603,41.8767],[-87.62605,41.87831],[-87.6261,41.87951],[-87.62616,41.88203],[-87.62619,41.88322],[-87.62627,41.88562],[-87.62642,41.88572],[-87.62661,41.88574],[-87.62784,41.88574]]]},"properties":{"line":"purple","name":"Purple Line"}},
{"type":"Feature","geometry":{"type":"MultiLineString","coordinates":[[[-87.63391,41.88572],[-87.63606,41.88572],[-87.63944,41.8857],[-87.6428,41.8857],[-87.64394,41.88571],[-87.64634,41.88568],[-87.64851,41.88565],[-87.65088,41.8856],[-87.65187,41.88558],[-87.65311,41.88556],[-87.65559,41.88553],[-87.65673,41.8855],[-87.65835,41.88548],[-87.66148,41.88543],[-87.66312,41.88539],[-87.66414,41.88538],[-87.66695,41.88531],[-87.66943,41.88524],[-87.66963,41.8852],[-87.66989,41.88506],[-87.67011,41.8848],[-87.67014,41.88456],[-87.6701,41.88341],[-87.67019,41.88275],[-87.67012,41.88058],[-87.67006,41.87893],[-87.67006,41.87848],[-87.67,41.87826],[-87.66983,41.878],[-87.66976,41.87776],[-87.66973,41.87688],[-87.66971,41.87574],[-87.6697,41.87543],[-87.66964,41.87515],[-87.66954,41.87156],[-87.66942,41.86674],[-87.66935,41.86481],[-87.66924,41.86103],[-87.66922,41.86009],[-87.6691,41.85533],[-87.66919,41.85499],[-87.6693,41.85486],[-87.66948,41.85474],[-87.66975,41.85463],[-87.66995,41.8546],[-87.67357,41.85456],[-87.67597,41.85451],[-87.68234,41.85444],[-87.68518,41.8544],[-87.68852,41.85438],[-87.69482,41.85428],[-87.6983,41.85425],[-87.70116,41.85419],[-87.70543,41.85413],[-87.70977,41.85405],[-87.71488,41.85399],[-87.71671,41.85395],[-87.72014,41.85391],[-87.72303,41.85387],[-87.72433,41.85386],[-87.72593,41.85388],[-87.72736,41.85387],[-87.72995,41.85381],[-87.73326,41.85375],[-87.7346,41.85373],[-87.73496,41.85372],[-87.73538,41.85361],[-87.7358,41.85341],[-87.73591,41.85333],[-87.73615,41.85308],[-87.73659,41.8526],[-87.73694,41.85232],[-87.73717,41.8522],[-87.73761,41.85207],[-87.73793,41.85204],[-87.73903,41.85203],[-87.73987,41.85202],[-87.74253,41.85196],[-87.74534,41.85192],[-87.74921,41.85188],[-87.75213,41.85188],[-87.75669,41.85177]],[[-87.62784,41.88574],[-87.62887,41.88574],[-87.62982,41.88574],[-87.63204,41.88574],[-87.63391,41.88572]],[[-87.63391,41.88572],[-87.63385,41.8827],[-87.63384,41.88144],[-87.63378,41.88014],[-87.63374,41.87872],[-87.63369,41.87726],[-87.63369,41.87706],[-87.63365,41.87695],[-87.63338,41.87685],[-87.63173,41.87686],[-87.62925,41.87689],[-87.62821,41.87691],[-87.62757,41.87693],[-87.6265,41.87696],[-87.62625,41.87695],[-87.62605,41.87681],[-87.62603,41.8767],[-87.62605,41.87831],[-87.6261,41.87951],[-87.62616,41.88203],[-87.62619,41.88322],[-87.62627,41.88562],[-87.62642,41.88572],[-87.62661,41.88574],[-87.62784,41.88574]]]},"properties":{"line":"pink","name":"Pink Line"}},
{"type":"Feature","geometry":{"type":"MultiLineString","coordinates":[[[-87.73796,41.78661],[-87.73816,41.79232],[-87.73816,41.7927],[-87.73806,41.79323],[-87.73771,41.79381],[-87.73757,41.794],[-87.73731,41.79425],[-87.73697,41.79454],[-87.7366,41.79481],[-87.73619,41.79509],[-87.73524,41.79561],[-87.73478,41.79582],[-87.73401,41.79611],[-87.72819,41.79842],[-87.72445,41.79989],[-87.72074,41.80151],[-87.71814,41.80261],[-87.71575,41.80357],[-87.71506,41.80379],[-87.71464,41.8039],[-87.71412,41.80402],[-87.71363,41.80411],[-87.71323,41.80417],[-87.71252,41.80423],[-87.71177,41.80425],[-87.70979,41.80429],[-87.70673,41.80433],[-87.70432,41.80435],[-87.6982,41.80446],[-87.69427,41.80454],[-87.69109,41.80459],[-87.68687,41.80464],[-87.68304,41.8047],[-87.68241,41.80469],[-87.6818,41.80476],[-87.68134,41.80487],[-87.68104,41.80497],[-87.6807,41.80513],[-87.68042,41.80531],[-87.68016,41.80552],[-87.67996,41.80573],[-87.67969,41.80617],[-87.67961,41.8064],[-87.67953,41.80693],[-87.67958,41.80869],[-87.67963,41.81089],[-87.67967,41.81189],[-87.67972,41.81425],[-87.6798,41.81481],[-87.67988,41.81518],[-87.68001,41.81568],[-87.68037,41.81655],[-87.68171,41.81859],[-87.68309,41.82058],[-87.68494,41.82318],[-87.68595,41.82462],[-87.68614,41.82498],[-87.6862,41.82525],[-87.68621,41.82557],[-87.68613,41.82588],[-87.68603,41.82611],[-87.68591,41.82628],[-87.6857,41.82649],[-87.68547,41.82666],[-87.68517,41.82684],[-87.6843,41.8273],[-87.68174,41.82888],[-87.68059,41.82956],[-87.67797,41.83117],[-87.67476,41.83314],[-87.67326,41.83411],[-87.67079,41.83585],[-87.66907,41.83706],[-87.66785,41.8379],[-87.66691,41.83851],[-87.66624,41.83889],[-87.66531,41.83936],[-87.66227,41.8408],[-87.65873,41.84251],[-87.6578,41.84295],[-87.65434,41.84463],[-87.65313,41.84508],[-87.65264,41.84523],[-87.65206,41.84539],[-87.65142,41.84555],[-87.65065,41.84578],[-87.6501,41.84598],[-87.64942,41.84626],[-87.64813,41.8469],[-87.64653,41.84768],[-87.64578,41.84797],[-87.64514,41.84818],[-87.64439,41.84837],[-87.64351,41.8486],[-87.64282,41.84881],[-87.64122,41.84958],[-87.64061,41.84995],[-87.64015,41.8503],[-87.63891,41.85167],[-87.638,41.85268],[-87.63656,41.85432],[-87.63595,41.85495],[-87.63525,41.85554],[-87.63398,41.85657],[-87.63357,41.85684],[-87.63305,41.85711],[-87.63251,41.85732],[-87.63198,41.85746],[-87.63158,41.85755],[-87.6313,41.85759],[-87.63076,41.85764],[-87.62783,41.85769],[-87.62741,41.85772],[-87.62699,41.85784],[-87.62669,41.85798],[-87.62655,41.85812],[-87.62647,41.85824],[-87.62646,41.85839],[-87.62642,41.85876],[-87.62647,41.86016],[-87.62659,41.8674],[-87.62671,41.86997],[-87.6268,41.874],[-87.62673,41.87421],[-87.62651,41.87458],[-87.62622,41.8749],[-87.62602,41.87526],[-87.62598,41.87569],[-87.62603,41.8767]],[[-87.62603,41.8767],[-87.62605,41.87831],[-87.6261,41.87951],[-87.62616,41.88203],[-87.62619,41.88322],[-87.62627,41.88562],[-87.62642,41.88572],[-87.62661,41.88574],[-87.62784,41.88574]],[[-87.62784,41.88574],[-87.62887,41.88574],[-87.62982,41.88574],[-87.63204,41.88574],[-87.63391,41.88572],[-87.63385,41.8827],[-87.63384,41.88144],[-87.63378,41.88014],[-87.63374,41.87872],[-87.63369,41.87726],[-87.63369,41.87706],[-87.63365,41.87695],[-87.63338,41.87685],[-87.63173,41.87686],[-87.62925,41.87689],[-87.62821,41.87691],[-87.62757,41.87693],[-87.6265,41.87696],[-87.62625,41.87695],[-87.62605,41.87681],[-87.62603,41.8767]]]},"properties":{"line":"orange","name":"Orange Line"}},
{"type":"Feature","geometry":{"type":"MultiLineString","coordinates":[[[-87.71314,41.96793],[-87.71311,41.96643],[-87.71309,41.9663],[-87.71298,41.96615],[-87.71268,41.96605],[-87.71108,41.96607],[-87.71027,41.96607],[-87.70763,41.96611],[-87.70399,41.96613],[-87.70166,41.96615],[-87.70075,41.96615],[-87.69873,41.96616],[-87.69789,41.96618],[-87.69675,41.9662],[-87.69411,41.96621],[-87.69145,41.96623],[-87.68946,41.96625],[-87.6885,41.96625],[-87.68718,41.96628],[-87.68545,41.96631],[-87.68399,41.96632],[-87.68271,41.96635],[-87.68159,41.96636],[-87.67863,41.96641],[-87.67766,41.96642],[-87.67695,41.96638],[-87.67665,41.96632],[-87.67638,41.96623],[-87.67613,41.96612],[-87.67589,41.96596],[-87.6757,41.96579],[-87.67544,41.96547],[-87.67524,41.96503],[-87.67522,41.96477],[-87.67519,41.96371],[-87.67517,41.96175],[-87.67513,41.96077],[-87.67505,41.95798],[-87.67501,41.95666],[-87.67496,41.95452],[-87.67491,41.95392],[-87.67487,41.95302],[-87.67484,41.95101],[-87.67476,41.94859],[-87.67474,41.94703],[-87.67468,41.94596],[-87.67466,41.94513],[-87.67457,41.94474],[-87.67442,41.94438],[-87.6743,41.94424],[-87.67405,41.94404],[-87.67386,41.94393],[-87.67334,41.94376],[-87.67289,41.9437],[-87.67263,41.94369],[-87.66938,41.94373],[-87.66749,41.94377],[-87.66508,41.94379],[-87.66361,41.94381],[-87.6591,41.94391],[-87.65767,41.94391],[-87.6555,41.94394],[-87.65503,41.94393],[-87.6547,41.94386],[-87.65441,41.94375],[-87.65425,41.94364],[-87.654,41.94342],[-87.65382,41.94319],[-87.65367,41.94292],[-87.65351,41.94257],[-87.65345,41.94218],[-87.6534,41.94083],[-87.65336,41.93865],[-87.65327,41.93603],[-87.65314,41.93312],[-87.65313,41.93273],[-87.6531,41.93218],[-87.65296,41.9287],[-87.65287,41.92505],[-87.65274,41.92113],[-87.65261,41.91718],[-87.65251,41.91475],[-87.6525,41.91406],[-87.65242,41.91377],[-87.65234,41.91362],[-87.65208,41.91339],[-87.65093,41.9126],[-87.64985,41.9118],[-87.64948,41.9116],[-87.6492,41.91153],[-87.649,41.9115],[-87.64792,41.91151],[-87.64768,41.91146],[-87.64756,41.91139],[-87.6474,41.91112],[-87.64734,41.91061],[-87.64728,41.91051],[-87.64709,41.9104],[-87.64682,41.91034],[-87.64664,41.91033],[-87.6458,41.91034],[-87.64523,41.91034],[-87.64348,41.91036],[-87.64255,41.91039],[-87.63975,41.9104],[-87.63814,41.91042],[-87.63787,41.91039],[-87.63771,41.91034],[-87.63746,41.91021],[-87.6373,41.90999],[-87.63727,41.90986],[-87.63718,41.90758],[-87.63711,41.90543],[-87.63702,41.90381],[-87.63702,41.90368],[-87.63699,41.90322],[-87.63688,41.90299],[-87.63659,41.90265],[-87.63646,41.90235],[-87.63647,41.90211],[-87.63669,41.90143],[-87.6367,41.90119],[-87.63664,41.90029],[-87.63664,41.90008],[-87.63656,41.89867],[-87.63654,41.89738],[-87.63649,41.89726],[-87.63634,41.89708],[-87.63583,41.89667],[-87.63568,41.89645],[-87.63565,41.89542],[-87.63563,41.89434],[-87.63558,41.89261],[-87.63554,41.89147],[-87.63553,41.89051],[-87.63548,41.8903],[-87.63524,41.89007],[-87.63493,41.88997],[-87.63447,41.88989],[-87.63425,41.88979],[-87.63407,41.88962],[-87.63399,41.88943],[-87.63397,41.88897],[-87.63396,41.88707],[-87.63391,41.88572]],[[-87.62784,41.88574],[-87.62887,41.88574],[-87.62982,41.88574],[-87.63204,41.88574],[-87.63391,41.88572]],[[-87.63391,41.88572],[-87.63385,41.8827],[-87.63384,41.88144],[-87.63378,41.88014],[-87.63374,41.87872],[-87.63369,41.87726],[-87.63369,41.87706],[-87.63365,41.87695],[-87.63338,41.87685],[-87.63173,41.87686],[-87.62925,41.87689],[-87.62821,41.87691],[-87.62757,41.87693],[-87.6265,41.87696],[-87.62625,41.87695],[-87.62605,41.87681],[-87.62603,41.8767],[-87.62605,41.87831],[-87.6261,41.87951],[-87.62616,41.88203],[-87.62619,41.88322],[-87.62627,41.88562],[-87.62642,41.88572],[-87.62661,41.88574],[-87.62784,41.88574]]]},"properties":{"line":"brown","name":"Brown Line"}},
{"type":"Feature","geometry":{"type":"MultiLineString","coordinates":[[[-87.62784,41.88574],[-87.62887,41.88574],[-87.62982,41.88574],[-87.63204,41.88574],[-87.63391,41.88572],[-87.63606,41.88572],[-87.63944,41.8857],[-87.6428,41.8857],[-87.64394,41.88571],[-87.64634,41.88568],[-87.64851,41.88565],[-87.65088,41.8856],[-87.65187,41.88558],[-87.65311,41.88556],[-87.65559,41.88553],[-87.65673,41.8855],[-87.65835,41.88548],[-87.66148,41.88543],[-87.66312,41.88539],[-87.66414,41.88538],[-87.66695,41.88531],[-87.66943,41.88524],[-87.67082,41.8852],[-87.67222,41.88514],[-87.6743,41.88506],[-87.67665,41.88498],[-87.67775,41.88493],[-87.67946,41.88487],[-87.68183,41.88477],[-87.68404,41.88468],[-87.68609,41.8846],[-87.68765,41.88456],[-87.69075,41.88441],[-87.69167,41.88437],[-87.69265,41.88435],[-87.69511,41.88425],[-87.69623,41.88422],[-87.69787,41.88413],[-87.6988,41.88411],[-87.69953,41.88408],[-87.70131,41.88402],[-87.70418,41.8842],[-87.70857,41.88446],[-87.71414,41.88477],[-87.71996,41.88511],[-87.7254,41.88541],[-87.7338,41.88589],[-87.74054,41.88627],[-87.7447,41.88652],[-87.74547,41.88659],[-87.74646,41.88666],[-87.7487,41.88679],[-87.75035,41.8869],[-87.75162,41.88696],[-87.75327,41.88704],[-87.75499,41.88716],[-87.75531,41.88718],[-87.75615,41.8873],[-87.7565,41.88738],[-87.75727,41.88748],[-87.75781,41.8875],[-87.75846,41.88748],[-87.76077,41.88744],[-87.7626,41.88744],[-87.76513,41.88739],[-87.7665,41.88739],[-87.76741,41.88738],[-87.76803,41.88736],[-87.77002,41.88735],[-87.7719,41.88733],[-87.77316,41.88731],[-87.77414,41.88729],[-87.77511,41.88729],[-87.77613,41.88727],[-87.77737,41.88726],[-87.77857,41.88723],[-87.7798,41.88723],[-87.78248,41.88719],[-87.78366,41.88716],[-87.78794,41.8871],[-87.7886,41.88707],[-87.79124,41.88704],[-87.79246,41.88701],[-87.79449,41.88697],[-87.79795,41.88692],[-87.79992,41.88691],[-87.80211,41.88686],[-87.80318,41.88685]],[[-87.61814,41.78747],[-87.61818,41.78729],[-87.61832,41.78711],[-87.61855,41.787],[-87.61873,41.78697],[-87.62065,41.78694],[-87.62295,41.78692],[-87.6247,41.78689],[-87.6257,41.78691],[-87.62793,41.78685],[-87.62941,41.78682],[-87.63071,41.78678],[-87.63097,41.78677],[-87.63121,41.78676],[-87.63156,41.78666],[-87.63185,41.78648],[-87.632,41.78625],[-87.63203,41.78613],[-87.63202,41.78574],[-87.63205,41.7833],[-87.63203,41.7819],[-87.63203,41.78154],[-87.632,41.78074],[-87.632,41.78054],[-87.63205,41.78036],[-87.63218,41.78019],[-87.6331,41.77948],[-87.63337,41.77934],[-87.63353,41.77931],[-87.63472,41.77922],[-87.63565,41.77914],[-87.6373,41.77912],[-87.6396,41.77908],[-87.64402,41.77903],[-87.64541,41.77903],[-87.64639,41.77922],[-87.64959,41.77918],[-87.65262,41.77913],[-87.65709,41.77908],[-87.66156,41.77899],[-87.66384,41.77895]],[[-87.62784,41.88574],[-87.62661,41.88574],[-87.62642,41.88572],[-87.62627,41.88562],[-87.62619,41.88322],[-87.62616,41.88203],[-87.6261,41.87951],[-87.62605,41.87831],[-87.62603,41.8767],[-87.62598,41.87569],[-87.62602,41.87526],[-87.62622,41.8749],[-87.62651,41.87458],[-87.62673,41.87421],[-87.6268,41.874],[-87.62671,41.86997],[-87.62659,41.8674],[-87.62647,41.86016],[-87.62642,41.85876],[-87.62646,41.85839],[-87.62649,41.85807],[-87.62646,41.85646],[-87.62641,41.85332],[-87.62632,41.84955],[-87.62627,41.84798],[-87.62625,41.84747],[-87.62623,41.8471],[-87.62615,41.84432],[-87.62615,41.8427],[-87.62611,41.84116],[-87.626,41.83828],[-87.62598,41.83722],[-87.62593,41.83494],[-87.62588,41.83168],[-87.62587,41.83098],[-87.62578,41.82785],[-87.62571,41.82479],[-87.62567,41.82246],[-87.62564,41.82215],[-87.62547,41.82191],[-87.62531,41.82183],[-87.62505,41.82177],[-87.62481,41.82176],[-87.62354,41.82179],[-87.62146,41.82182],[-87.62002,41.82184],[-87.61975,41.82183],[-87.61948,41.82175],[-87.61936,41.82168],[-87.6192,41.82147],[-87.61916,41.82133],[-87.61916,41.82095],[-87.61909,41.81869],[-87.61904,41.81646],[-87.61898,41.81475],[-87.61886,41.8106],[-87.61877,41.80675],[-87.61864,41.80621],[-87.6186,41.80579],[-87.61858,41.80392],[-87.6185,41.80209],[-87.61845,41.79933],[-87.61836,41.79704],[-87.61834,41.79568],[-87.61827,41.79329],[-87.61823,41.79153],[-87.61814,41.78931],[-87.61818,41.78897],[-87.61814,41.78747]],[[-87.61814,41.78747],[-87.61801,41.78477],[-87.618,41.78381],[-87.61796,41.78146],[-87.61794,41.78036],[-87.6179,41.78022],[-87.61769,41.78007],[-87.61751,41.78006],[-87.61709,41.78009],[-87.61555,41.78013],[-87.61229,41.78017],[-87.60971,41.78024],[-87.60586,41.78031]]]},"properties":{"line":"green","name":"Green Line"}},
{"type":"Feature","geometry":{"type":"LineString","coordinates":[[-87.90185,41.97888],[-87.90152,41.97916],[-87.90082,41.97983],[-87.90059,41.98002],[-87.90014,41.98043],[-87.89965,41.98084],[-87.8992,41.98117],[-87.89872,41.98147],[-87.89823,41.98165],[-87.89777,41.9817],[-87.89713,41.98174],[-87.89658,41.98167],[-87.89627,41.98159],[-87.89601,41.98147],[-87.89576,41.98132],[-87.89562,41.98118],[-87.89383,41.97965],[-87.89279,41.97871],[-87.8917,41.97779],[-87.89148,41.97763],[-87.89095,41.97736],[-87.89065,41.97724],[-87.89031,41.97716],[-87.88959,41.97704],[-87.88901,41.97703],[-87.88875,41.97704],[-87.8884,41.97709],[-87.88805,41.97717],[-87.88747,41.97737],[-87.88551,41.97823],[-87.87874,41.98098],[-87.8757,41.98223],[-87.87434,41.98277],[-87.87364,41.98297],[-87.87317,41.98307],[-87.87276,41.98313],[-87.87194,41.98319],[-87.87139,41.98321],[-87.87093,41.98321],[-87.87033,41.98323],[-87.86877,41.98326],[-87.86633,41.9833],[-87.86395,41.98335],[-87.85939,41.98351],[-87.85669,41.98362],[-87.8536,41.98375],[-87.85238,41.98377],[-87.85067,41.98379],[-87.84814,41.98388],[-87.84568,41.98398],[-87.84477,41.98398],[-87.84186,41.98409],[-87.84022,41.98419],[-87.83803,41.98429],[-87.83679,41.98434],[-87.83276,41.98454],[-87.83116,41.98457],[-87.82959,41.98455],[-87.82834,41.98451],[-87.82684,41.98443],[-87.82528,41.98431],[-87.82179,41.98389],[-87.81949,41.98358],[-87.81861,41.98344],[-87.81773,41.98326],[-87.81685,41.98306],[-87.81594,41.98283],[-87.81528,41.98266],[-87.8147,41.98254],[-87.81355,41.98235],[-87.81303,41.98231],[-87.81248,41.98228],[-87.81112,41.98229],[-87.80984,41.98231],[-87.80718,41.98234],[-87.80307,41.98236],[-87.80107,41.98238],[-87.79876,41.9824],[-87.79403,41.98243],[-87.79065,41.98246],[-87.78792,41.98248],[-87.78598,41.9825],[-87.78554,41.98248],[-87.78516,41.98245],[-87.78469,41.98238],[-87.7842,41.98227],[-87.78364,41.98212],[-87.78307,41.98189],[-87.78252,41.98164],[-87.78175,41.98119],[-87.78083,41.98068],[-87.77838,41.97928],[-87.77701,41.97852],[-87.77524,41.97751],[-87.77368,41.97663],[-87.76944,41.97421],[-87.76797,41.97339],[-87.76722,41.97298],[-87.76624,41.97243],[-87.76572,41.97216],[-87.76513,41.97191],[-87.76471,41.97175],[-87.7643,41.97161],[-87.76371,41.97146],[-87.7632,41.97135],[-87.76209,41.97107],[-87.76149,41.97088],[-87.76089,41.97063],[-87.76013,41.97031],[-87.75918,41.96979],[-87.75857,41.96944],[-87.75738,41.96876],[-87.7564,41.9682],[-87.75466,41.96722],[-87.75332,41.96645],[-87.75261,41.96602],[-87.75163,41.96537],[-87.75086,41.96478],[-87.74975,41.96419],[-87.74925,41.96395],[-87.7487,41.96373],[-87.74759,41.96336],[-87.74655,41.96305],[-87.74611,41.96291],[-87.74546,41.96266],[-87.74477,41.96229],[-87.7441,41.96185],[-87.74362,41.96149],[-87.74326,41.96117],[-87.743,41.96098],[-87.74251,41.96056],[-87.74215,41.96028],[-87.74074,41.95941],[-87.73724,41.95743],[-87.73594,41.9567],[-87.73447,41.95595],[-87.73273,41.95495],[-87.73043,41.95364],[-87.72798,41.95227],[-87.72632,41.95132],[-87.72548,41.95085],[-87.72357,41.94975],[-87.72302,41.94944],[-87.7224,41.9491],[-87.72181,41.94881],[-87.72073,41.94833],[-87.72043,41.9482],[-87.71992,41.94796],[-87.71972,41.94784],[-87.71928,41.94751],[-87.71891,41.9472],[-87.71868,41.94694],[-87.7185,41.94666],[-87.71831,41.94641],[-87.71771,41.94536],[-87.71727,41.94456],[-87.7168,41.94379],[-87.71652,41.9434],[-87.71617,41.943],[-87.71593,41.94279],[-87.71529,41.9423],[-87.71473,41.94196],[-87.71394,41.94156],[-87.71361,41.94143],[-87.71329,41.94127],[-87.71299,41.94109],[-87.71278,41.94091],[-87.71258,41.94065],[-87.71248,41.94046],[-87.71242,41.94014],[-87.71236,41.93813],[-87.71231,41.93677],[-87.71225,41.93458],[-87.7122,41.93242],[-87.71214,41.93208],[-87.71206,41.93194],[-87.7116,41.93159],[-87.71032,41.93083],[-87.70854,41.92973],[-87.70735,41.929],[-87.70639,41.92833],[-87.70594,41.92796],[-87.7047,41.92683],[-87.70395,41.92627],[-87.70203,41.92506],[-87.69994,41.92382],[-87.69823,41.92277],[-87.69689,41.92194],[-87.69406,41.92024],[-87.69113,41.91847],[-87.68897,41.91715],[-87.68736,41.91616],[-87.68522,41.91477],[-87.68382,41.91386],[-87.68209,41.91274],[-87.68099,41.91204],[-87.67928,41.91092],[-87.67744,41.90974],[-87.67572,41.9086],[-87.67363,41.90726],[-87.67104,41.9056],[-87.67064,41.90538],[-87.67014,41.90514],[-87.669,41.90465],[-87.66828,41.9044],[-87.6665,41.90336],[-87.66593,41.90297],[-87.66524,41.90252],[-87.66357,41.90146],[-87.66259,41.90082],[-87.66162,41.90022],[-87.6609,41.89974],[-87.65987,41.8991],[-87.65879,41.8984],[-87.65781,41.89777],[-87.6558,41.89644],[-87.65521,41.89608],[-87.6538,41.8952],[-87.65285,41.8946],[-87.65193,41.89398],[-87.64942,41.89237],[-87.64859,41.89184],[-87.64758,41.89119],[-87.64572,41.88997],[-87.64444,41.8891],[-87.64335,41.8883],[-87.64001,41.88584],[-87.63985,41.88575],[-87.63944,41.8857],[-87.63606,41.88572],[-87.63391,41.88572],[-87.63204,41.88574],[-87.62982,41.88574],[-87.62958,41.88568],[-87.62948,41.88557],[-87.62947,41.88537],[-87.62944,41.88316],[-87.62942,41.88213],[-87.62925,41.87689],[-87.62922,41.87598],[-87.62929,41.87574],[-87.62942,41.87567],[-87.62969,41.87561],[-87.63172,41.87557],[-87.63363,41.87557],[-87.6373,41.8756],[-87.64098,41.87554],[-87.64191,41.87551],[-87.6471,41.87552],[-87.64964,41.87552],[-87.6504,41.87548],[-87.6518,41.87547],[-87.65376,41.8756],[-87.65584,41.87578],[-87.65786,41.8759],[-87.65946,41.87589],[-87.66018,41.87587],[-87.66499,41.87581],[-87.66658,41.87577],[-87.66753,41.87576],[-87.66886,41.87573],[-87.67275,41.87565],[-87.67395,41.87564],[-87.67645,41.87561],[-87.68027,41.87558],[-87.68613,41.87555],[-87.68843,41.87553],[-87.69103,41.87549],[-87.69148,41.87547],[-87.69233,41.87547],[-87.69673,41.8754],[-87.69778,41.8754],[-87.69878,41.87536],[-87.7,41.87526],[-87.70081,41.87518],[-87.70147,41.87509],[-87.70598,41.87443],[-87.70752,41.87421],[-87.70826,41.87413],[-87.70945,41.8741],[-87.71076,41.87406],[-87.71252,41.87406],[-87.71562,41.87402],[-87.7197,41.87397],[-87.72422,41.87392],[-87.72514,41.87389],[-87.72707,41.87388],[-87.73026,41.87383],[-87.73268,41.87381],[-87.73318,41.87377],[-87.73375,41.8737],[-87.73421,41.87361],[-87.73504,41.87338],[-87.73584,41.87306],[-87.73623,41.87287],[-87.73711,41.87243],[-87.73787,41.87214],[-87.73851,41.87197],[-87.73941,41.87179],[-87.73976,41.87174],[-87.74018,41.8717],[-87.74146,41.87167],[-87.74381,41.87163],[-87.74485,41.8716],[-87.74517,41.87161],[-87.74999,41.87156],[-87.75335,41.8715],[-87.75584,41.87149],[-87.75674,41.87148],[-87.75765,41.87146],[-87.75891,41.87141],[-87.7594,41.87135],[-87.75978,41.87126],[-87.76043,41.87103],[-87.76091,41.87083],[-87.76188,41.87039],[-87.76237,41.87023],[-87.76301,41.87011],[-87.76354,41.87005],[-87.76432,41.87005],[-87.76739,41.87031],[-87.76825,41.87038],[-87.77246,41.87063],[-87.77395,41.87072],[-87.77445,41.87074],[-87.77826,41.87098],[-87.78252,41.8713],[-87.78724,41.87172],[-87.79279,41.87221],[-87.79635,41.87251],[-87.80152,41.87297],[-87.80569,41.87336],[-87.81045,41.87384],[-87.8108,41.87384],[-87.81149,41.8738],[-87.81241,41.87368],[-87.81268,41.87367],[-87.81321,41.87361],[-87.8137,41.87358],[-87.8141,41.87365],[-87.81484,41.87398],[-87.81523,41.87407],[-87.81591,41.87414],[-87.81732,41.87426]]},"properties":{"line":"blue","name":"Blue Line"}},
{"type":"Feature","geometry":{"type":"LineString","coordinates":[[-87.67289,42.01906],[-87.67177,42.01814],[-87.66988,42.01658],[-87.66909,42.01588],[-87.66769,42.01466],[-87.66718,42.01421],[-87.66689,42.01388],[-87.66663,42.01355],[-87.6663,42.01297],[-87.66613,42.01259],[-87.66606,42.01227],[-87.66601,42.01183],[-87.66597,42.01059],[-87.66591,42.00836],[-87.66583,42.00687],[-87.66577,42.00618],[-87.66571,42.00586],[-87.66553,42.00525],[-87.66527,42.00467],[-87.665,42.00415],[-87.66477,42.00382],[-87.66448,42.00348],[-87.66401,42.00305],[-87.66346,42.00264],[-87.66225,42.00187],[-87.66166,42.00152],[-87.66142,42.00137],[-87.66083,42.0009],[-87.66049,42.00059],[-87.66005,42.00009],[-87.6599,41.99989],[-87.65965,41.99943],[-87.65948,41.999],[-87.65935,41.99849],[-87.65927,41.99798],[-87.65926,41.99722],[-87.65921,41.99632],[-87.65919,41.99549],[-87.65918,41.99463],[-87.6592,41.99366],[-87.65913,41.99235],[-87.65908,41.99083],[-87.65908,41.99026],[-87.65901,41.98881],[-87.65898,41.9876],[-87.65884,41.9835],[-87.65879,41.98184],[-87.65872,41.97967],[-87.65859,41.97523],[-87.65853,41.97345],[-87.65849,41.97118],[-87.65849,41.96914],[-87.65847,41.96838],[-87.65842,41.96746],[-87.65838,41.96688],[-87.65831,41.96618],[-87.6582,41.96578],[-87.65773,41.96425],[-87.65763,41.96395],[-87.657,41.96181],[-87.65689,41.95861],[-87.65677,41.95491],[-87.65672,41.95417],[-87.65665,41.95404],[-87.65635,41.9538],[-87.65606,41.95376],[-87.65493,41.95377],[-87.65431,41.95375],[-87.65394,41.9537],[-87.65373,41.95352],[-87.65369,41.95343],[-87.65363,41.95246],[-87.65366,41.952],[-87.65366,41.95108],[-87.65365,41.9506],[-87.65364,41.9482],[-87.65362,41.94689],[-87.65353,41.94539],[-87.65351,41.94448],[-87.65342,41.94421],[-87.65336,41.94317],[-87.65338,41.94288],[-87.65345,41.94218],[-87.6534,41.94083],[-87.65336,41.93865],[-87.65327,41.93603],[-87.65314,41.93312],[-87.65313,41.93273],[-87.6531,41.93218],[-87.65296,41.9287],[-87.65287,41.92505],[-87.65274,41.92113],[-87.65261,41.91718],[-87.65251,41.91475],[-87.6525,41.91406],[-87.65249,41.91308],[-87.65235,41.91293],[-87.64918,41.91065],[-87.64785,41.90971],[-87.64555,41.90807],[-87.63993,41.90404],[-87.63951,41.90383],[-87.63926,41.90379],[-87.63896,41.90379],[-87.63698,41.90382],[-87.63447,41.90387],[-87.63141,41.90392],[-87.62908,41.90395],[-87.6288,41.9039],[-87.62869,41.90382],[-87.62864,41.90364],[-87.62862,41.90316],[-87.62835,41.90212],[-87.62826,41.89914],[-87.62818,41.89667],[-87.62813,41.89562],[-87.628,41.89071],[-87.62799,41.88965],[-87.62793,41.88783],[-87.62783,41.88596],[-87.62784,41.88574],[-87.62781,41.88481],[-87.62775,41.88321],[-87.6277,41.88074],[-87.6276,41.87815],[-87.62757,41.87687],[-87.62754,41.87592],[-87.62751,41.87471],[-87.62748,41.87404],[-87.62749,41.87306],[-87.62746,41.87189],[-87.62747,41.87076],[-87.62745,41.86921],[-87.62736,41.86575],[-87.62731,41.86404],[-87.62739,41.86363],[-87.62756,41.86337],[-87.62778,41.86316],[-87.62803,41.86296],[-87.62849,41.86269],[-87.62934,41.86211],[-87.63018,41.86138],[-87.63058,41.86093],[-87.63094,41.86035],[-87.63112,41.86013],[-87.63129,41.85976],[-87.63142,41.85923],[-87.63144,41.85869],[-87.63142,41.85746],[-87.63136,41.85575],[-87.63128,41.85454],[-87.63116,41.85389],[-87.63097,41.85321],[-87.63085,41.85268],[-87.63073,41.85179],[-87.63069,41.85107],[-87.63069,41.8496],[-87.63072,41.84897],[-87.63085,41.84836],[-87.63101,41.84748],[-87.63109,41.84717],[-87.6312,41.84647],[-87.63127,41.84586],[-87.63128,41.84547],[-87.63126,41.84458],[-87.63114,41.84285],[-87.63103,41.84184],[-87.63093,41.84037],[-87.63087,41.83953],[-87.63081,41.83721],[-87.63064,41.83119],[-87.63056,41.82748],[-87.6305,41.82519],[-87.63044,41.82269],[-87.63031,41.81769],[-87.63021,41.81351],[-87.63019,41.81281],[-87.63022,41.81214],[-87.63027,41.81182],[-87.63038,41.81147],[-87.63056,41.81109],[-87.63134,41.80985],[-87.63152,41.80947],[-87.6317,41.80895],[-87.63177,41.80853],[-87.63181,41.80805],[-87.63179,41.80768],[-87.63162,41.80535],[-87.63146,41.80305],[-87.63135,41.80189],[-87.63132,41.80084],[-87.63124,41.79775],[-87.63117,41.79542],[-87.63114,41.7939],[-87.6311,41.79167],[-87.631,41.78772],[-87.63103,41.78722],[-87.63112,41.78558],[-87.63106,41.78336],[-87.631,41.78053],[-87.63097,41.77982],[-87.63093,41.77942],[-87.63077,41.77874],[-87.63048,41.77815],[-87.63004,41.77749],[-87.62954,41.77698],[-87.62882,41.77644],[-87.62853,41.77623],[-87.6275,41.77541],[-87.62712,41.77501],[-87.6267,41.77445],[-87.62642,41.77397],[-87.62619,41.77349],[-87.62603,41.77296],[-87.62595,41.77252],[-87.6259,41.77187],[-87.62585,41.77015],[-87.62581,41.76837],[-87.62569,41.76542],[-87.62567,41.7629],[-87.62557,41.75815],[-87.62553,41.75604],[-87.6255,41.75516],[-87.62531,41.75316],[-87.62525,41.75264],[-87.6252,41.75189],[-87.62518,41.75041],[-87.625,41.7446],[-87.62497,41.74303],[-87.62482,41.73948],[-87.62478,41.73613],[-87.62463,41.73212],[-87.62458,41.72904],[-87.62454,41.728],[-87.62441,41.72238]]},"properties":{"line":"red","name":"Red Line"}}
]}