{"type":"FeatureCollection", "features": [
{"type":"Feature","geometry":{"type":"Polygon","coordinates":[[[-87.6568,41.95098],[-87.65621,41.95099],[-87.65626,41.95265],[-87.65627,41.95275],[-87.65689,41.95275],[-87.65686,41.95098],[-87.6568,41.95098]]]},"properties":{"name":"Alta Vista Terrace","lp":[-87.65656,41.95189],"since":1971}},
{"type":"Feature","geometry":{"type":"Polygon","coordinates":[[[-87.63963,41.92784],[-87.63932,41.92793],[-87.63933,41.92813],[-87.63999,41.92792],[-87.64012,41.92814],[-87.64141,41.92772],[-87.64121,41.92738],[-87.64107,41.92742],[-87.64094,41.9272],[-87.64083,41.92724],[-87.64065,41.92692],[-87.6409,41.92684],[-87.64078,41.92665],[-87.64009,41.92687],[-87.63987,41.92688],[-87.64002,41.92713],[-87.6393,41.92737],[-87.63931,41.92774],[-87.63958,41.92765],[-87.63971,41.92787],[-87.63963,41.92784]]]},"properties":{"name":"Arlington & Roslyn","lp":[-87.64049,41.92752],"since":1989}},
{"type":"Feature","geometry":{"type":"Polygon","coordinates":[[[-87.64175,41.92614],[-87.64248,41.92739],[-87.64335,41.92737],[-87.64362,41.92809],[-87.64299,41.92824],[-87.64306,41.92837],[-87.64338,41.9289],[-87.64384,41.92879],[-87.64419,41.92871],[-87.64454,41.92865],[-87.6449,41.9286],[-87.64525,41.92857],[-87.64584,41.92853],[-87.64584,41.92836],[-87.64592,41.92836],[-87.6459,41.92795],[-87.64632,41.92794],[-87.64633,41.92815],[-87.64705,41.92814],[-87.64698,41.92616],[-87.64646,41.92617],[-87.64645,41.92606],[-87.6457,41.92608],[-87.64405,41.9261],[-87.6439,41.92611],[-87.64257,41.92613],[-87.64175,41.92614]]]},"properties":{"name":"Arlington-Deming","lp":[-87.64465,41.9274],"since":2007}},
{"type":"Feature","geometry":{"type":"Polygon","coordinates":[[[-87.64852,41.92191],[-87.64928,41.9219],[-87.64926,41.92172],[-87.64921,41.92025],[-87.64916,41.91865],[-87.64986,41.91864],[-87.64984,41.91825],[-87.65002,41.91825],[-87.65003,41.91863],[-87.65107,41.91862],[-87.65107,41.91843],[-87.65124,41.91843],[-87.65125,41.91861],[-87.65277,41.91859],[-87.65277,41.91847],[-87.65284,41.91847],[-87.65284,41.91859],[-87.6535,41.91858],[-87.65691,41.91853],[-87.65715,41.91854],[-87.6575,41.91854],[-87.65766,41.91855],[-87.65771,41.91852],[-87.65836,41.91851],[-87.65834,41.91794],[-87.6545,41.918],[-87.65449,41.91768],[-87.65347,41.9177],[-87.65347,41.91774],[-87.65277,41.91775],[-87.65277,41.91769],[-87.65252,41.9177],[-87.65252,41.9178],[-87.65243,41.91784],[-87.65225,41.91784],[-87.65224,41.91776],[-87.65105,41.91778],[-87.65104,41.91774],[-87.65027,41.91775],[-87.65028,41.91779],[-87.64862,41.91782],[-87.64862,41.91769],[-87.64786,41.91771],[-87.64787,41.91808],[-87.64789,41.91828],[-87.64839,41.91828],[-87.64852,41.92191]]]},"properties":{"name":"Armitage-Halsted","lp":[-87.65409,41.91816],"since":2003}},
{"type":"Feature","geometry":{"type":"Polygon","coordinates":[[[-87.62704,41.91003],[-87.62702,41.91006],[-87.62704,41.91054],[-87.62706,41.91133],[-87.62903,41.91131],[-87.629,41.91028],[-87.62824,41.9103],[-87.62823,41.91028],[-87.62815,41.90775],[-87.62784,41.90776],[-87.62764,41.90687],[-87.6281,41.90686],[-87.62802,41.90437],[-87.62722,41.90438],[-87.6272,41.90387],[-87.62711,41.90388],[-87.62708,41.90365],[-87.62643,41.90366],[-87.62643,41.90389],[-87.62629,41.90389],[-87.62642,41.90481],[-87.62643,41.90499],[-87.62647,41.90539],[-87.62654,41.90539],[-87.62658,41.90575],[-87.62643,41.90575],[-87.62653,41.90689],[-87.62688,41.90688],[-87.62698,41.90732],[-87.62693,41.90732],[-87.62698,41.90754],[-87.62708,41.90754],[-87.62714,41.90777],[-87.62671,41.90778],[-87.62699,41.9096],[-87.62703,41.9096],[-87.62704,41.91003]]]},"properties":{"name":"Astor Street","lp":[-87.6273,41.90617],"since":1975}},
{"type":"Feature","geometry":{"type":"MultiPolygon","coordinates":[[[[-87.66745,41.72133],[-87.66736,41.72137],[-87.66727,41.72137],[-87.66726,41.72152],[-87.66736,41.72153],[-87.66744,41.72158],[-87.66745,41.72133]]],[[[-87.66742,41.7279],[-87.66729,41.72789],[-87.66727,41.72805],[-87.66741,41.72805],[-87.66742,41.7279]]],[[[-87.66756,41.71366],[-87.6674,41.71366],[-87.6674,41.71377],[-87.66756,41.71377],[-87.66756,41.71366]]],[[[-87.66997,41.69882],[-87.66988,41.69881],[-87.66986,41.69893],[-87.67002,41.69893],[-87.67003,41.69885],[-87.66997,41.69882]]],[[[-87.67077,41.69244],[-87.67062,41.69243],[-87.67058,41.69275],[-87.67072,41.69276],[-87.67077,41.69244]]],[[[-87.67167,41.68491],[-87.67154,41.68491],[-87.67152,41.68508],[-87.67165,41.68509],[-87.67167,41.68491]]]]},"properties":{"name":"Beverly/Morgan Park Railroad Stations","lp":[-87.67066,41.69269],"since":1995}},
{"type":"Feature","geometry":{"type":"Polygon","coordinates":[[[-87.65265,41.92128],[-87.65261,41.92003],[-87.65163,41.92004],[-87.65167,41.9213],[-87.65265,41.92128]]]},"properties":{"name":"Bissell Street","lp":[-87.65214,41.92065],"since":2007}},
{"type":"Feature","geometry":{"type":"MultiPolygon","coordinates":[[[[-87.61648,41.83033],[-87.61631,41.83033],[-87.61632,41.83103],[-87.61734,41.83102],[-87.61734,41.83032],[-87.61648,41.83033]]],[[[-87.61872,41.82982],[-87.61874,41.83073],[-87.61848,41.83073],[-87.61849,41.831],[-87.61872,41.831],[-87.61871,41.83077],[-87.6192,41.83077],[-87.61918,41.82982],[-87.61872,41.82982]]],[[[-87.6212,41.83177],[-87.6212,41.83198],[-87.62166,41.83197],[-87.62165,41.83177],[-87.6212,41.83177]]],[[[-87.62201,41.83711],[-87.62202,41.83724],[-87.62261,41.83724],[-87.6226,41.8371],[-87.62201,41.83711]]],[[[-87.6241,41.82556],[-87.62411,41.82591],[-87.62467,41.8259],[-87.62466,41.82555],[-87.6241,41.82556]]],[[[-87.62586,41.82794],[-87.62586,41.82821],[-87.62631,41.82821],[-87.62631,41.82793],[-87.62586,41.82794]]],[[[-87.62605,41.8288],[-87.62606,41.82917],[-87.62632,41.82917],[-87.62631,41.8288],[-87.62605,41.8288]]]]},"properties":{"name":"Black Metropolis-Bronzeville","lp":[-87.61683,41.83067],"since":1998}},
{"type":"Feature","geometry":{"type":"Polygon","coordinates":[[[-87.64733,41.92258],[-87.64688,41.92258],[-87.6469,41.92318],[-87.64736,41.92317],[-87.64733,41.92258]]]},"properties":{"name":"Burling Row House","lp":[-87.64712,41.92288],"since":2000}},
{"type":"Feature","geometry":{"type":"Polygon","coordinates":[[[-87.61992,41.83172],[-87.61992,41.83179],[-87.61922,41.83179],[-87.61922,41.83181],[-87.61825,41.83182],[-87.61801,41.83182],[-87.61803,41.83267],[-87.61756,41.83268],[-87.61759,41.834],[-87.61761,41.83467],[-87.61819,41.83466],[-87.61819,41.83476],[-87.61761,41.83476],[-87.61764,41.83643],[-87.61768,41.83777],[-87.61884,41.83776],[-87.61884,41.83798],[-87.61996,41.83797],[-87.61996,41.83803],[-87.62124,41.83801],[-87.62121,41.83664],[-87.62072,41.83664],[-87.62071,41.83655],[-87.62124,41.83655],[-87.62124,41.83637],[-87.6212,41.83481],[-87.6212,41.83463],[-87.62113,41.8315],[-87.62067,41.83151],[-87.62066,41.83116],[-87.61991,41.83117],[-87.61992,41.83172]]]},"properties":{"name":"Calumet-Giles-Prairie","lp":[-87.61951,41.83363],"since":1988}},
{"type":"Feature","geometry":{"type":"Polygon","coordinates":[[[-87.64046,41.85219],[-87.63971,41.85194],[-87.63965,41.85202],[-87.6396,41.85201],[-87.63919,41.85267],[-87.6401,41.85266],[-87.63998,41.85284],[-87.64082,41.85283],[-87.64023,41.85364],[-87.64079,41.85383],[-87.64174,41.85383],[-87.64172,41.85335],[-87.64205,41.85334],[-87.64205,41.85303],[-87.6426,41.85302],[-87.64259,41.85281],[-87.64083,41.85283],[-87.64097,41.85265],[-87.64015,41.85266],[-87.64046,41.85219]]]},"properties":{"name":"Cermak Road Bridge","lp":[-87.64132,41.85331],"since":2006}},
{"type":"Feature","geometry":{"type":"MultiPolygon","coordinates":[[[[-87.60143,41.7516],[-87.60143,41.75143],[-87.60097,41.75144],[-87.60097,41.7516],[-87.60143,41.7516]]],[[[-87.60514,41.75484],[-87.60514,41.75467],[-87.60468,41.75468],[-87.60468,41.75485],[-87.60514,41.75484]]],[[[-87.606,41.75886],[-87.606,41.75866],[-87.60614,41.75866],[-87.60614,41.75846],[-87.60605,41.75846],[-87.60604,41.75813],[-87.60598,41.75813],[-87.60598,41.75825],[-87.60523,41.75827],[-87.60523,41.75847],[-87.60477,41.75848],[-87.60478,41.75899],[-87.60555,41.75898],[-87.60555,41.75887],[-87.606,41.75886]]],[[[-87.60606,41.75163],[-87.60713,41.75161],[-87.60711,41.75116],[-87.60657,41.75117],[-87.60656,41.75078],[-87.60541,41.7508],[-87.60504,41.75081],[-87.60506,41.75165],[-87.60606,41.75163]]],[[[-87.60574,41.7486],[-87.60573,41.7484],[-87.60534,41.7484],[-87.60535,41.74861],[-87.60574,41.7486]]],[[[-87.60576,41.74936],[-87.60575,41.74908],[-87.60536,41.74909],[-87.60537,41.74936],[-87.60576,41.74936]]],[[[-87.60594,41.75649],[-87.60549,41.7565],[-87.60549,41.75666],[-87.60594,41.75666],[-87.60594,41.75649]]],[[[-87.60875,41.75113],[-87.60874,41.75079],[-87.60853,41.75079],[-87.60854,41.75114],[-87.60875,41.75113]]]]},"properties":{"name":"Chatham-Greater Grand Crossing Commercial","lp":[-87.60608,41.75121],"since":2008}},
{"type":"Feature","geometry":{"type":"Polygon","coordinates":[[[-87.66692,41.96883],[-87.66657,41.96717],[-87.66653,41.96699],[-87.66619,41.96539],[-87.6658,41.96355],[-87.66442,41.96357],[-87.66445,41.96398],[-87.66457,41.96504],[-87.66536,41.96495],[-87.66543,41.96529],[-87.6646,41.9653],[-87.66492,41.96702],[-87.66495,41.96721],[-87.66516,41.96826],[-87.66445,41.96833],[-87.66452,41.96874],[-87.66456,41.96881],[-87.66471,41.96886],[-87.66585,41.96884],[-87.6659,41.96884],[-87.66692,41.96883]]]},"properties":{"name":"Dover Street","lp":[-87.66557,41.96621],"since":2007}},
{"type":"Feature","geometry":{"type":"Polygon","coordinates":[[[-87.62399,41.90092],[-87.62394,41.90083],[-87.62395,41.90071],[-87.62393,41.90011],[-87.62246,41.90013],[-87.62247,41.90043],[-87.62029,41.90047],[-87.62029,41.90044],[-87.61962,41.90045],[-87.61932,41.90047],[-87.61951,41.90078],[-87.61968,41.90095],[-87.61976,41.901],[-87.62003,41.90113],[-87.62021,41.90118],[-87.62038,41.9012],[-87.62068,41.90122],[-87.62113,41.90123],[-87.62175,41.90128],[-87.62205,41.90132],[-87.62262,41.90147],[-87.623,41.90163],[-87.62338,41.90184],[-87.62366,41.90206],[-87.6237,41.90194],[-87.62398,41.90096],[-87.62399,41.90092]]]},"properties":{"name":"East Lake Shore Drive","lp":[-87.62318,41.90087],"since":1985}},
{"type":"Feature","geometry":{"type":"MultiPolygon","coordinates":[[[[-87.67108,41.89648],[-87.67086,41.89649],[-87.67092,41.89844],[-87.67162,41.89843],[-87.67156,41.89648],[-87.67108,41.89648]]],[[[-87.67244,41.90095],[-87.67245,41.90136],[-87.67464,41.90132],[-87.67462,41.90064],[-87.67428,41.90064],[-87.67428,41.90058],[-87.6734,41.90059],[-87.6734,41.90039],[-87.67294,41.9004],[-87.67288,41.90039],[-87.67242,41.9004],[-87.67242,41.90033],[-87.6722,41.90034],[-87.67173,41.90035],[-87.67174,41.9009],[-87.67243,41.90088],[-87.67244,41.90095]]],[[[-87.67406,41.89705],[-87.67408,41.89769],[-87.67576,41.89766],[-87.67572,41.89641],[-87.67526,41.89642],[-87.67528,41.89699],[-87.67452,41.897],[-87.67452,41.89695],[-87.67406,41.89696],[-87.67406,41.89705]]],[[[-87.67708,41.90115],[-87.67708,41.90108],[-87.67656,41.90109],[-87.67652,41.89965],[-87.67606,41.89966],[-87.67611,41.90148],[-87.67489,41.9015],[-87.67493,41.9027],[-87.6759,41.90269],[-87.67615,41.9027],[-87.67659,41.90269],[-87.6766,41.90268],[-87.67658,41.90181],[-87.67657,41.90147],[-87.67657,41.90129],[-87.67708,41.90128],[-87.67708,41.90115]]]]},"properties":{"name":"East Village","lp":[-87.6758,41.90213],"since":2006}},
{"type":"Feature","geometry":{"type":"Polygon","coordinates":[[[-87.7217,41.85324],[-87.72169,41.85314],[-87.72091,41.85315],[-87.72094,41.85385],[-87.72118,41.85383],[-87.72171,41.85383],[-87.7217,41.85324]]]},"properties":{"name":"Five Houses on Avers Avenue","lp":[-87.72131,41.85349],"since":1994}},
{"type":"Feature","geometry":{"type":"Polygon","coordinates":[[[-87.65162,41.9213],[-87.65157,41.91986],[-87.65087,41.91987],[-87.65092,41.92135],[-87.65163,41.92134],[-87.65162,41.9213]]]},"properties":{"name":"Fremont Row House","lp":[-87.65125,41.92058],"since":2004}},
{"type":"Feature","geometry":{"type":"Polygon","coordinates":[[[-87.61935,41.82634],[-87.61931,41.82418],[-87.61872,41.82419],[-87.61781,41.8242],[-87.61782,41.82471],[-87.61788,41.82473],[-87.61814,41.82473],[-87.61816,41.82555],[-87.61813,41.82573],[-87.61865,41.82572],[-87.61866,41.82634],[-87.61935,41.82634]]]},"properties":{"name":"Giles Calumet","lp":[-87.61871,41.82485],"since":2009}},
{"type":"Feature","geometry":{"type":"Polygon","coordinates":[[[-87.60052,41.80097],[-87.60053,41.80076],[-87.6005,41.79952],[-87.60048,41.7993],[-87.59988,41.79931],[-87.59992,41.80097],[-87.60052,41.80097]]]},"properties":{"name":"Greenwood Row House","lp":[-87.60021,41.80013],"since":2004}},
{"type":"Feature","geometry":{"type":"Polygon","coordinates":[[[-87.64242,41.94486],[-87.64258,41.9454],[-87.64428,41.94482],[-87.64431,41.94486],[-87.64479,41.9447],[-87.64477,41.94466],[-87.64495,41.9446],[-87.64498,41.94464],[-87.64515,41.94458],[-87.645,41.94411],[-87.64489,41.94387],[-87.64341,41.94389],[-87.64356,41.94435],[-87.64233,41.94456],[-87.64242,41.94486]]]},"properties":{"name":"Hawthorne Place","lp":[-87.64418,41.94437],"since":1996}},
{"type":"Feature","geometry":{"type":"Polygon","coordinates":[[[-87.6253,41.88072],[-87.62528,41.87984],[-87.62531,41.87984],[-87.62528,41.87836],[-87.62527,41.87818],[-87.62524,41.87708],[-87.62558,41.87708],[-87.62557,41.87663],[-87.62523,41.87663],[-87.62523,41.87646],[-87.6252,41.87646],[-87.62519,41.87624],[-87.62622,41.87622],[-87.62621,41.8756],[-87.6252,41.87562],[-87.62515,41.87345],[-87.62549,41.87345],[-87.62548,41.87304],[-87.62511,41.87305],[-87.62506,41.87087],[-87.62502,41.87087],[-87.62502,41.87067],[-87.62528,41.87066],[-87.62527,41.87011],[-87.62512,41.87012],[-87.62511,41.86972],[-87.62488,41.86973],[-87.62486,41.8692],[-87.62388,41.86922],[-87.62409,41.87818],[-87.6233,41.87819],[-87.62332,41.87913],[-87.62313,41.87913],[-87.62315,41.88],[-87.62334,41.88],[-87.62337,41.88096],[-87.62416,41.88095],[-87.62419,41.88212],[-87.62424,41.88461],[-87.62545,41.88461],[-87.62543,41.8836],[-87.62542,41.88311],[-87.62539,41.88199],[-87.62536,41.88199],[-87.62535,41.88155],[-87.62532,41.88155],[-87.6253,41.88072]]]},"properties":{"name":"Historic Michigan Boulevard","lp":[-87.62431,41.87944],"since":2002}},
{"type":"Feature","geometry":{"type":"Polygon","coordinates":[[[-87.64665,41.95966],[-87.64665,41.95972],[-87.64973,41.95967],[-87.64997,41.95968],[-87.65198,41.95966],[-87.65189,41.95945],[-87.65246,41.95926],[-87.65236,41.95911],[-87.65182,41.9593],[-87.65142,41.95838],[-87.64969,41.9584],[-87.64971,41.95894],[-87.64675,41.95898],[-87.64651,41.95898],[-87.6466,41.95934],[-87.64665,41.95966]]]},"properties":{"name":"Hutchinson Street","lp":[-87.65088,41.95896],"since":1977}},
{"type":"Feature","geometry":{"type":"Polygon","coordinates":[[[-87.66446,41.87827],[-87.66446,41.87832],[-87.66421,41.87832],[-87.66423,41.87903],[-87.66692,41.87898],[-87.6669,41.87853],[-87.66599,41.87854],[-87.66598,41.87827],[-87.6669,41.87825],[-87.66686,41.87699],[-87.66595,41.877],[-87.66595,41.87703],[-87.66497,41.87705],[-87.66498,41.8772],[-87.66443,41.87721],[-87.66446,41.87827]]]},"properties":{"name":"Jackson Boulevard","lp":[-87.66531,41.87792],"since":1977}},
{"type":"Feature","geometry":{"type":"Polygon","coordinates":[[[-87.5771,41.77297],[-87.57711,41.77335],[-87.58029,41.77331],[-87.58028,41.77294],[-87.58126,41.77293],[-87.58153,41.77294],[-87.58205,41.77293],[-87.58202,41.77173],[-87.58197,41.76974],[-87.58145,41.76975],[-87.58138,41.76675],[-87.58111,41.76674],[-87.5789,41.76677],[-87.57865,41.76677],[-87.57693,41.76679],[-87.57696,41.76788],[-87.57704,41.77091],[-87.5771,41.77297]]]},"properties":{"name":"Jackson Park Highlands","lp":[-87.57939,41.77077],"since":2007}},
{"type":"Feature","geometry":{"type":"Polygon","coordinates":[[[-87.62543,41.8836],[-87.62603,41.8836],[-87.6264,41.8836],[-87.62639,41.88333],[-87.62706,41.88333],[-87.62707,41.88311],[-87.62706,41.88283],[-87.62708,41.88271],[-87.62808,41.88271],[-87.62806,41.88212],[-87.62806,41.88196],[-87.62759,41.88195],[-87.62707,41.88196],[-87.62706,41.88146],[-87.62704,41.88119],[-87.62722,41.88119],[-87.62721,41.88069],[-87.62664,41.8807],[-87.62664,41.88055],[-87.62596,41.88056],[-87.62596,41.88071],[-87.6253,41.88072],[-87.62532,41.88155],[-87.62528,41.88155],[-87.62529,41.88199],[-87.62525,41.88221],[-87.62528,41.88333],[-87.62529,41.8836],[-87.62543,41.8836]]]},"properties":{"name":"Jewelers Row","lp":[-87.62618,41.88236],"since":2003}},
{"type":"Feature","geometry":{"type":"Polygon","coordinates":[[[-87.60372,41.80766],[-87.60372,41.80729],[-87.60272,41.80731],[-87.60271,41.80685],[-87.60371,41.80684],[-87.60368,41.80584],[-87.60288,41.80585],[-87.60286,41.80507],[-87.60231,41.80507],[-87.60229,41.80421],[-87.60286,41.80421],[-87.60285,41.80342],[-87.60253,41.80342],[-87.60252,41.80291],[-87.60245,41.80291],[-87.60244,41.80244],[-87.59828,41.80248],[-87.59555,41.80251],[-87.59344,41.80254],[-87.59173,41.80256],[-87.59174,41.80293],[-87.59119,41.80294],[-87.59119,41.80299],[-87.59064,41.80299],[-87.59065,41.8035],[-87.5912,41.80349],[-87.59124,41.80568],[-87.59068,41.80568],[-87.59069,41.80599],[-87.59204,41.80597],[-87.59207,41.80779],[-87.59208,41.80797],[-87.5926,41.80796],[-87.5926,41.80829],[-87.59265,41.8083],[-87.59317,41.8083],[-87.59318,41.80883],[-87.59368,41.80883],[-87.59368,41.80868],[-87.59375,41.80873],[-87.59403,41.80872],[-87.59428,41.80873],[-87.59428,41.80877],[-87.59532,41.80875],[-87.59532,41.80882],[-87.59582,41.80882],[-87.59582,41.80887],[-87.59694,41.80886],[-87.59695,41.80935],[-87.59741,41.80934],[-87.59741,41.80898],[-87.59804,41.80897],[-87.59804,41.80891],[-87.59852,41.8089],[-87.59852,41.80916],[-87.59873,41.80916],[-87.59873,41.80933],[-87.59938,41.80932],[-87.59937,41.80904],[-87.60154,41.80901],[-87.60183,41.809],[-87.60181,41.80786],[-87.60373,41.80784],[-87.60372,41.80766]]]},"properties":{"name":"Kenwood","lp":[-87.59902,41.80569],"since":1979}},
{"type":"Feature","geometry":{"type":"Polygon","coordinates":[[[-87.63758,41.91701],[-87.63729,41.91723],[-87.63753,41.9174],[-87.63794,41.9171],[-87.6379,41.91702],[-87.63758,41.91701]]]},"properties":{"name":"Lincoln Ave Row House","lp":[-87.63761,41.91717],"since":2009}},
{"type":"Feature","geometry":{"type":"Polygon","coordinates":[[[-87.70102,41.91555],[-87.70097,41.91555],[-87.70103,41.91736],[-87.70076,41.91755],[-87.70083,41.91965],[-87.70146,41.91964],[-87.70146,41.9198],[-87.70083,41.91981],[-87.70088,41.92111],[-87.70088,41.92133],[-87.70151,41.92133],[-87.70152,41.92156],[-87.70154,41.92174],[-87.70155,41.92202],[-87.70446,41.922],[-87.70444,41.92163],[-87.70499,41.92163],[-87.70501,41.92199],[-87.70623,41.92198],[-87.70626,41.92271],[-87.70621,41.92275],[-87.70622,41.92314],[-87.70613,41.92333],[-87.70618,41.92459],[-87.70628,41.92487],[-87.70631,41.92612],[-87.70631,41.9263],[-87.7068,41.9263],[-87.70681,41.92663],[-87.70636,41.92663],[-87.70632,41.92672],[-87.70634,41.92706],[-87.70613,41.92724],[-87.70579,41.92755],[-87.70537,41.92729],[-87.70509,41.92754],[-87.705,41.92748],[-87.70487,41.92763],[-87.70464,41.92783],[-87.70431,41.92768],[-87.70361,41.9277],[-87.70341,41.92788],[-87.703,41.92762],[-87.7024,41.92763],[-87.7024,41.92773],[-87.70117,41.92774],[-87.70117,41.92768],[-87.69994,41.92768],[-87.6975,41.92771],[-87.69749,41.92763],[-87.69507,41.92765],[-87.69387,41.92767],[-87.69263,41.92768],[-87.69141,41.92769],[-87.69129,41.92769],[-87.6913,41.92816],[-87.69109,41.92816],[-87.69107,41.9276],[-87.69082,41.9276],[-87.69082,41.92767],[-87.68885,41.92769],[-87.68886,41.9281],[-87.6896,41.92854],[-87.69035,41.92895],[-87.69108,41.9293],[-87.69257,41.92929],[-87.69379,41.92928],[-87.69742,41.92925],[-87.69766,41.92916],[-87.69864,41.92915],[-87.69888,41.92913],[-87.69887,41.92878],[-87.69923,41.92878],[-87.69924,41.92912],[-87.70012,41.92912],[-87.70012,41.92877],[-87.70037,41.92877],[-87.70039,41.92916],[-87.70135,41.92915],[-87.70232,41.92915],[-87.70256,41.92925],[-87.70355,41.92924],[-87.70379,41.92918],[-87.70545,41.92916],[-87.70548,41.92918],[-87.70549,41.92937],[-87.706,41.92937],[-87.70723,41.92936],[-87.70747,41.92923],[-87.7079,41.9295],[-87.70847,41.92895],[-87.70863,41.92895],[-87.70862,41.92847],[-87.70852,41.92825],[-87.7085,41.92781],[-87.70858,41.92775],[-87.70854,41.92668],[-87.7085,41.92533],[-87.70769,41.92534],[-87.70769,41.9252],[-87.7085,41.92519],[-87.70849,41.92484],[-87.70851,41.92457],[-87.70845,41.92257],[-87.70842,41.9216],[-87.70822,41.9216],[-87.70821,41.92119],[-87.70828,41.92091],[-87.70827,41.9205],[-87.70825,41.92045],[-87.70824,41.92007],[-87.70725,41.92007],[-87.70688,41.91992],[-87.70596,41.91993],[-87.70597,41.92007],[-87.70401,41.92009],[-87.70333,41.92009],[-87.7033,41.92006],[-87.70322,41.91752],[-87.70326,41.91734],[-87.70322,41.91604],[-87.70251,41.91605],[-87.70249,41.91552],[-87.70157,41.91554],[-87.70102,41.91555]]]},"properties":{"name":"Logan Square Boulevards","lp":[-87.70716,41.928],"since":2005}},
{"type":"Feature","geometry":{"type":"Polygon","coordinates":[[[-87.66884,41.71577],[-87.66987,41.71575],[-87.66985,41.7153],[-87.66998,41.7153],[-87.66997,41.71476],[-87.66986,41.71476],[-87.66984,41.71396],[-87.66981,41.71396],[-87.66977,41.71211],[-87.67062,41.7121],[-87.67062,41.71193],[-87.67066,41.71152],[-87.66986,41.71153],[-87.67002,41.71071],[-87.66997,41.71071],[-87.67001,41.7103],[-87.67064,41.71029],[-87.67062,41.70966],[-87.66982,41.70967],[-87.6701,41.70905],[-87.67057,41.70907],[-87.67066,41.70872],[-87.671,41.70873],[-87.67102,41.70853],[-87.67202,41.70858],[-87.67202,41.70859],[-87.67238,41.70859],[-87.67237,41.70818],[-87.6737,41.70816],[-87.67362,41.70801],[-87.67345,41.70776],[-87.6742,41.70759],[-87.67382,41.70748],[-87.67386,41.70747],[-87.67384,41.70709],[-87.67254,41.70711],[-87.67244,41.70703],[-87.6723,41.70688],[-87.67223,41.70671],[-87.67221,41.70663],[-87.67371,41.7066],[-87.6737,41.70624],[-87.67315,41.70625],[-87.67312,41.70557],[-87.67368,41.70556],[-87.67367,41.70532],[-87.67312,41.70533],[-87.67301,41.70203],[-87.67294,41.69986],[-87.67292,41.69907],[-87.67229,41.69908],[-87.67225,41.69773],[-87.67236,41.69772],[-87.67233,41.69731],[-87.67306,41.6973],[-87.67305,41.69684],[-87.67274,41.69672],[-87.67275,41.69629],[-87.67293,41.69629],[-87.67293,41.69617],[-87.67312,41.69617],[-87.67312,41.69573],[-87.67294,41.69574],[-87.67295,41.69526],[-87.67146,41.69528],[-87.67148,41.69604],[-87.67147,41.69627],[-87.6714,41.69653],[-87.67124,41.6969],[-87.67114,41.69725],[-87.6711,41.69745],[-87.67108,41.69764],[-87.67109,41.69802],[-87.67111,41.6982],[-87.67118,41.69851],[-87.67119,41.69864],[-87.67116,41.69888],[-87.67102,41.69931],[-87.67094,41.69961],[-87.67091,41.6998],[-87.67089,41.7],[-87.67088,41.7002],[-87.6709,41.70104],[-87.67037,41.701],[-87.67035,41.70114],[-87.6709,41.70118],[-87.67092,41.70179],[-87.67089,41.70214],[-87.67085,41.70234],[-87.67077,41.70262],[-87.67073,41.70281],[-87.6707,41.70309],[-87.67068,41.7037],[-87.67068,41.70398],[-87.6707,41.70425],[-87.67076,41.70476],[-87.67077,41.705],[-87.67077,41.70525],[-87.67075,41.70551],[-87.67072,41.70574],[-87.67068,41.70599],[-87.67057,41.70647],[-87.67051,41.7071],[-87.67011,41.70808],[-87.66994,41.70884],[-87.66946,41.70993],[-87.66939,41.71015],[-87.6692,41.71015],[-87.66907,41.71041],[-87.66903,41.71052],[-87.66875,41.71196],[-87.66874,41.71213],[-87.66879,41.71397],[-87.66884,41.71577]]]},"properties":{"name":"Longwood Drive","lp":[-87.67195,41.70535],"since":1981}},
{"type":"Feature","geometry":{"type":"Polygon","coordinates":[[[-87.64997,41.92526],[-87.64997,41.92535],[-87.65239,41.92531],[-87.65238,41.92498],[-87.65121,41.925],[-87.6512,41.92474],[-87.65116,41.9247],[-87.65116,41.92462],[-87.6512,41.92459],[-87.65119,41.92443],[-87.65116,41.92435],[-87.65119,41.92431],[-87.65117,41.92368],[-87.64989,41.9237],[-87.64991,41.92421],[-87.64983,41.92429],[-87.64986,41.92432],[-87.64988,41.92506],[-87.64996,41.92506],[-87.64997,41.92526]]]},"properties":{"name":"McCormick Row House","lp":[-87.65053,41.92449],"since":1977}},
{"type":"Feature","geometry":{"type":"Polygon","coordinates":[[[-87.64645,41.92606],[-87.64644,41.92558],[-87.64645,41.9254],[-87.64641,41.92389],[-87.6464,41.92357],[-87.64546,41.92359],[-87.64496,41.92323],[-87.64462,41.92323],[-87.64431,41.92271],[-87.64416,41.92253],[-87.64368,41.92253],[-87.64369,41.92272],[-87.64264,41.92273],[-87.64263,41.92234],[-87.64219,41.92235],[-87.64217,41.92191],[-87.64216,41.92183],[-87.64199,41.92183],[-87.64195,41.92045],[-87.64134,41.92002],[-87.63899,41.92005],[-87.63894,41.91875],[-87.6383,41.91875],[-87.6383,41.91873],[-87.63763,41.91874],[-87.63768,41.92025],[-87.63786,41.92025],[-87.63848,41.92128],[-87.63849,41.92155],[-87.63863,41.9216],[-87.63864,41.92206],[-87.63882,41.92205],[-87.63885,41.92298],[-87.63958,41.92297],[-87.63958,41.92279],[-87.63957,41.92247],[-87.63961,41.92244],[-87.64073,41.92243],[-87.64076,41.92244],[-87.64077,41.92278],[-87.64081,41.92278],[-87.64082,41.92333],[-87.64046,41.92333],[-87.64047,41.92367],[-87.64056,41.92366],[-87.64058,41.92384],[-87.64059,41.92438],[-87.6406,41.92448],[-87.6406,41.92468],[-87.64088,41.92513],[-87.64074,41.92518],[-87.64076,41.92567],[-87.64147,41.92566],[-87.64175,41.92614],[-87.64257,41.92613],[-87.6439,41.92611],[-87.64405,41.9261],[-87.6457,41.92608],[-87.64645,41.92606]]]},"properties":{"name":"Mid North","lp":[-87.64342,41.92437],"since":1977}},
{"type":"Feature","geometry":{"type":"Polygon","coordinates":[[[-87.64059,41.92438],[-87.6406,41.92438],[-87.64059,41.92384],[-87.64058,41.92384],[-87.63955,41.92386],[-87.63972,41.92415],[-87.64018,41.92399],[-87.64048,41.92449],[-87.6406,41.92448],[-87.64059,41.92438]]]},"properties":{"name":"Mid-North Extension","lp":[-87.64047,41.92403],"since":2004}},
{"type":"Feature","geometry":{"type":"Polygon","coordinates":[[[-87.67216,41.90644],[-87.67182,41.90622],[-87.67159,41.90614],[-87.67013,41.90521],[-87.67016,41.90518],[-87.66926,41.90461],[-87.66899,41.90485],[-87.66882,41.90498],[-87.66858,41.90518],[-87.66919,41.90557],[-87.66988,41.90604],[-87.67014,41.90619],[-87.67215,41.90747],[-87.67237,41.90746],[-87.67236,41.90724],[-87.67261,41.90739],[-87.67262,41.9077],[-87.67275,41.9077],[-87.67297,41.90804],[-87.67302,41.908],[-87.6731,41.90813],[-87.67461,41.9091],[-87.67637,41.91022],[-87.67637,41.91059],[-87.67691,41.91058],[-87.67691,41.9108],[-87.67735,41.9108],[-87.67786,41.91112],[-87.67811,41.91091],[-87.67804,41.91087],[-87.67833,41.91061],[-87.67833,41.91056],[-87.67879,41.91055],[-87.67878,41.91037],[-87.67917,41.91036],[-87.67916,41.90993],[-87.67914,41.90992],[-87.67839,41.90993],[-87.67821,41.90993],[-87.6782,41.91007],[-87.67808,41.91007],[-87.67781,41.90989],[-87.6778,41.90946],[-87.67756,41.90946],[-87.67757,41.90972],[-87.67745,41.90964],[-87.67732,41.90962],[-87.67421,41.90764],[-87.67403,41.90752],[-87.6732,41.90699],[-87.67312,41.90706],[-87.67294,41.90694],[-87.67216,41.90644]]]},"properties":{"name":"Milwaukee Avenue","lp":[-87.6771,41.9101],"since":2008}},
{"type":"Feature","geometry":{"type":"Polygon","coordinates":[[[-87.71298,41.93206],[-87.71298,41.93196],[-87.71289,41.93196],[-87.71288,41.93169],[-87.7123,41.9317],[-87.71229,41.93146],[-87.71217,41.93137],[-87.71147,41.93093],[-87.71114,41.93124],[-87.71118,41.93137],[-87.71078,41.93174],[-87.7108,41.93176],[-87.71054,41.93199],[-87.71167,41.93198],[-87.71225,41.93198],[-87.71253,41.9322],[-87.71279,41.93236],[-87.71298,41.93218],[-87.71298,41.93206]]]},"properties":{"name":"Milwaukee-Diversey-Kimball","lp":[-87.71169,41.93157],"since":2005}},
{"type":"Feature","geometry":{"type":"MultiPolygon","coordinates":[[[[-87.62357,41.84938],[-87.62232,41.8494],[-87.62233,41.84975],[-87.62358,41.84973],[-87.62357,41.84938]]],[[[-87.62292,41.84979],[-87.62233,41.8498],[-87.62236,41.85104],[-87.62295,41.85104],[-87.62292,41.84979]]],[[[-87.62295,41.85122],[-87.62236,41.85123],[-87.62238,41.85164],[-87.62296,41.85163],[-87.62295,41.85122]]],[[[-87.62355,41.84859],[-87.62295,41.8486],[-87.62293,41.84866],[-87.62294,41.84921],[-87.62357,41.8492],[-87.62355,41.84859]]],[[[-87.62358,41.84978],[-87.62299,41.84979],[-87.62302,41.85103],[-87.62361,41.85103],[-87.62358,41.84978]]],[[[-87.62362,41.85121],[-87.62303,41.85122],[-87.62306,41.85271],[-87.62365,41.8527],[-87.62362,41.85121]]],[[[-87.62372,41.85581],[-87.62313,41.85582],[-87.62313,41.85597],[-87.62372,41.85596],[-87.62372,41.85581]]],[[[-87.62377,41.85797],[-87.62317,41.85798],[-87.62318,41.8582],[-87.62377,41.85819],[-87.62377,41.85797]]],[[[-87.6245,41.8485],[-87.62384,41.84851],[-87.62386,41.8492],[-87.62451,41.84919],[-87.6245,41.8485]]],[[[-87.62456,41.84937],[-87.62386,41.84938],[-87.62391,41.85102],[-87.62456,41.85101],[-87.62454,41.84986],[-87.62457,41.84986],[-87.62456,41.84937]]],[[[-87.62534,41.85118],[-87.62462,41.85119],[-87.62463,41.85174],[-87.62456,41.85174],[-87.62455,41.85119],[-87.62391,41.8512],[-87.62394,41.8523],[-87.62463,41.85229],[-87.62463,41.85236],[-87.62394,41.85237],[-87.62394,41.85257],[-87.62537,41.85255],[-87.62534,41.85118]]],[[[-87.62537,41.8526],[-87.62394,41.85262],[-87.62395,41.8527],[-87.62538,41.85268],[-87.62537,41.8526]]],[[[-87.62466,41.85518],[-87.62404,41.85519],[-87.62404,41.8554],[-87.62467,41.85539],[-87.62466,41.85518]]],[[[-87.62483,41.86242],[-87.6242,41.86243],[-87.6242,41.86255],[-87.62484,41.86254],[-87.62483,41.86242]]],[[[-87.62484,41.86263],[-87.62421,41.86263],[-87.62421,41.86277],[-87.62484,41.86276],[-87.62484,41.86263]]],[[[-87.6263,41.85172],[-87.6256,41.85173],[-87.6256,41.85192],[-87.6263,41.85191],[-87.6263,41.85172]]]]},"properties":{"name":"Motor Row","lp":[-87.62492,41.85197],"since":2000}},
{"type":"Feature","geometry":{"type":"Polygon","coordinates":[[[-87.6538,41.94437],[-87.65379,41.94424],[-87.65345,41.94424],[-87.65328,41.94404],[-87.65005,41.94409],[-87.65001,41.94412],[-87.65004,41.94492],[-87.65007,41.94494],[-87.65344,41.94488],[-87.65343,41.94456],[-87.65333,41.94438],[-87.6538,41.94437]]]},"properties":{"name":"Newport Avenue","lp":[-87.65191,41.94449],"since":2005}},
{"type":"Feature","geometry":{"type":"MultiPolygon","coordinates":[[[[-87.59345,41.8117],[-87.59311,41.81184],[-87.59331,41.81212],[-87.59365,41.81197],[-87.59345,41.8117]]],[[[-87.59336,41.81127],[-87.59331,41.8113],[-87.59359,41.81153],[-87.59364,41.8115],[-87.59336,41.81127]]],[[[-87.59391,41.81153],[-87.59369,41.81168],[-87.59383,41.81187],[-87.59413,41.81174],[-87.59391,41.81153]]],[[[-87.59417,41.81266],[-87.5938,41.81281],[-87.59389,41.81293],[-87.59426,41.81278],[-87.59417,41.81266]]],[[[-87.59454,41.81315],[-87.59444,41.81302],[-87.59406,41.81318],[-87.59415,41.81331],[-87.59454,41.81315]]],[[[-87.59465,41.8133],[-87.59426,41.81346],[-87.59431,41.81354],[-87.59471,41.81338],[-87.59465,41.8133]]],[[[-87.5948,41.81181],[-87.59465,41.81168],[-87.59436,41.81188],[-87.5945,41.81201],[-87.5948,41.81181]]],[[[-87.5949,41.81253],[-87.59446,41.81271],[-87.5945,41.81276],[-87.59494,41.81258],[-87.5949,41.81253]]],[[[-87.59506,41.81203],[-87.59485,41.81216],[-87.59472,41.81222],[-87.59478,41.81227],[-87.59515,41.8121],[-87.59506,41.81203]]],[[[-87.59505,41.81129],[-87.59475,41.81149],[-87.59492,41.81163],[-87.59522,41.81144],[-87.59505,41.81129]]],[[[-87.5953,41.81415],[-87.59487,41.81433],[-87.595,41.81451],[-87.59543,41.81433],[-87.5953,41.81415]]],[[[-87.59534,41.81232],[-87.59494,41.81249],[-87.59497,41.81254],[-87.59537,41.81237],[-87.59534,41.81232]]],[[[-87.59552,41.81256],[-87.59541,41.81242],[-87.59501,41.81259],[-87.59512,41.81273],[-87.59552,41.81256]]],[[[-87.59529,41.81113],[-87.59508,41.81127],[-87.59536,41.81151],[-87.59547,41.81149],[-87.5956,41.8114],[-87.59529,41.81113]]],[[[-87.59574,41.81172],[-87.5955,41.81152],[-87.5951,41.81179],[-87.59532,41.81197],[-87.59574,41.81172]]],[[[-87.59573,41.81473],[-87.59528,41.81492],[-87.59533,41.81499],[-87.59578,41.8148],[-87.59573,41.81473]]],[[[-87.59584,41.81488],[-87.59538,41.81507],[-87.59553,41.81529],[-87.59599,41.81509],[-87.59584,41.81488]]],[[[-87.59586,41.81181],[-87.59542,41.81206],[-87.59556,41.81225],[-87.59609,41.81202],[-87.596,41.81199],[-87.59591,41.81185],[-87.59586,41.81181]]],[[[-87.5956,41.81093],[-87.59548,41.81101],[-87.5958,41.81128],[-87.59589,41.81122],[-87.5956,41.81093]]],[[[-87.59615,41.81339],[-87.59557,41.81364],[-87.59568,41.81381],[-87.59627,41.81356],[-87.59615,41.81339]]],[[[-87.59604,41.81515],[-87.59557,41.81535],[-87.59562,41.81541],[-87.59608,41.81521],[-87.59604,41.81515]]],[[[-87.5963,41.8136],[-87.59571,41.81385],[-87.59574,41.81389],[-87.59633,41.81364],[-87.5963,41.8136]]],[[[-87.59587,41.81032],[-87.59586,41.80976],[-87.59577,41.80976],[-87.59578,41.81032],[-87.59587,41.81032]]],[[[-87.59624,41.81543],[-87.59578,41.81562],[-87.59584,41.81571],[-87.59631,41.81552],[-87.59624,41.81543]]],[[[-87.59653,41.81468],[-87.59608,41.81486],[-87.59628,41.81514],[-87.59673,41.81495],[-87.59653,41.81468]]],[[[-87.59694,41.81638],[-87.59648,41.81657],[-87.59655,41.81665],[-87.597,41.81646],[-87.59694,41.81638]]],[[[-87.59694,41.81524],[-87.5965,41.81543],[-87.59653,41.81548],[-87.59698,41.81529],[-87.59694,41.81524]]],[[[-87.59717,41.81555],[-87.59673,41.81574],[-87.59684,41.8159],[-87.59729,41.81571],[-87.59717,41.81555]]],[[[-87.59723,41.81484],[-87.59683,41.81501],[-87.59688,41.81508],[-87.59728,41.81491],[-87.59723,41.81484]]],[[[-87.59778,41.81298],[-87.59705,41.81299],[-87.59705,41.81306],[-87.59778,41.81305],[-87.59778,41.81298]]],[[[-87.5975,41.816],[-87.59705,41.81619],[-87.59716,41.81633],[-87.59761,41.81614],[-87.5975,41.816]]],[[[-87.5977,41.81626],[-87.59725,41.81645],[-87.59734,41.81657],[-87.59778,41.81638],[-87.5977,41.81626]]],[[[-87.59925,41.8147],[-87.59795,41.81472],[-87.59793,41.81485],[-87.59751,41.81485],[-87.59769,41.8151],[-87.59874,41.81509],[-87.59873,41.81499],[-87.59888,41.81498],[-87.59887,41.81485],[-87.59925,41.81484],[-87.59925,41.8147]]],[[[-87.59796,41.81584],[-87.59756,41.816],[-87.59761,41.81606],[-87.59801,41.8159],[-87.59796,41.81584]]],[[[-87.59806,41.81353],[-87.59774,41.81353],[-87.59774,41.81364],[-87.59806,41.81363],[-87.59806,41.81353]]],[[[-87.59806,41.81374],[-87.59774,41.81374],[-87.59774,41.81385],[-87.59806,41.81385],[-87.59806,41.81374]]],[[[-87.59919,41.81153],[-87.59868,41.81153],[-87.59868,41.81183],[-87.59845,41.81183],[-87.59846,41.81231],[-87.59814,41.81232],[-87.59815,41.81277],[-87.59826,41.81277],[-87.59827,41.81318],[-87.59922,41.81317],[-87.59919,41.81153]]],[[[-87.59853,41.81406],[-87.59821,41.81406],[-87.59821,41.81418],[-87.59854,41.81418],[-87.59853,41.81406]]],[[[-87.59917,41.81083],[-87.59849,41.81084],[-87.5985,41.81135],[-87.59918,41.81135],[-87.59917,41.81083]]],[[[-87.60013,41.81044],[-87.5994,41.81045],[-87.59941,41.81059],[-87.60013,41.81058],[-87.60013,41.81044]]],[[[-87.60013,41.81072],[-87.59941,41.81073],[-87.59941,41.81086],[-87.60013,41.81085],[-87.60013,41.81072]]],[[[-87.60014,41.81099],[-87.59942,41.811],[-87.59942,41.81134],[-87.60015,41.81133],[-87.60014,41.81099]]],[[[-87.60002,41.81176],[-87.59943,41.81177],[-87.59943,41.81193],[-87.60017,41.81193],[-87.60016,41.81179],[-87.60002,41.81176]]],[[[-87.60159,41.8115],[-87.60099,41.81151],[-87.601,41.81178],[-87.60097,41.81178],[-87.60097,41.81204],[-87.601,41.81204],[-87.60101,41.8126],[-87.60054,41.81261],[-87.60054,41.81243],[-87.59944,41.81244],[-87.59946,41.81317],[-87.60163,41.81314],[-87.60159,41.8115]]],[[[-87.60003,41.81334],[-87.59946,41.81335],[-87.5995,41.81499],[-87.60007,41.81498],[-87.60003,41.81334]]],[[[-87.59999,41.81605],[-87.59952,41.81606],[-87.59952,41.81615],[-87.59999,41.81615],[-87.59999,41.81605]]],[[[-87.60049,41.81523],[-87.60003,41.81523],[-87.60003,41.8153],[-87.60049,41.8153],[-87.60049,41.81523]]],[[[-87.6005,41.81577],[-87.60004,41.81578],[-87.60004,41.81585],[-87.60051,41.81584],[-87.6005,41.81577]]],[[[-87.60052,41.81634],[-87.60005,41.81634],[-87.60005,41.81647],[-87.60052,41.81646],[-87.60052,41.81634]]],[[[-87.60045,41.81334],[-87.60008,41.81334],[-87.60012,41.81498],[-87.60049,41.81498],[-87.60045,41.81334]]],[[[-87.60103,41.81333],[-87.60067,41.81333],[-87.60071,41.81497],[-87.60107,41.81497],[-87.60103,41.81333]]],[[[-87.60117,41.81515],[-87.60071,41.81515],[-87.60071,41.81523],[-87.60117,41.81522],[-87.60117,41.81515]]],[[[-87.60119,41.81646],[-87.60074,41.81646],[-87.60074,41.81653],[-87.60119,41.81652],[-87.60119,41.81646]]],[[[-87.60157,41.81055],[-87.60087,41.81056],[-87.60088,41.81072],[-87.60158,41.81072],[-87.60157,41.81055]]],[[[-87.60158,41.81077],[-87.60088,41.81078],[-87.60088,41.81083],[-87.60158,41.81083],[-87.60158,41.81077]]],[[[-87.60163,41.81332],[-87.60108,41.81333],[-87.60112,41.81497],[-87.60166,41.81496],[-87.60163,41.81332]]],[[[-87.60167,41.81534],[-87.60122,41.81535],[-87.60122,41.81549],[-87.60167,41.81548],[-87.60167,41.81534]]],[[[-87.60169,41.81619],[-87.60124,41.81619],[-87.60124,41.81633],[-87.60169,41.81632],[-87.60169,41.81619]]],[[[-87.60169,41.81638],[-87.60124,41.81638],[-87.60124,41.81647],[-87.6017,41.81647],[-87.60169,41.81638]]],[[[-87.60275,41.81149],[-87.60189,41.8115],[-87.60189,41.8118],[-87.60257,41.81179],[-87.60258,41.81205],[-87.6019,41.81206],[-87.6019,41.8122],[-87.60252,41.81219],[-87.60252,41.81217],[-87.6029,41.81217],[-87.60292,41.81205],[-87.60276,41.81205],[-87.60275,41.81149]]],[[[-87.6025,41.81313],[-87.60249,41.8128],[-87.60243,41.8128],[-87.60242,41.81248],[-87.60293,41.81247],[-87.60292,41.81223],[-87.6029,41.81221],[-87.6026,41.81222],[-87.60258,41.81226],[-87.6019,41.81227],[-87.60192,41.81314],[-87.6025,41.81313]]],[[[-87.60252,41.81561],[-87.60197,41.81562],[-87.60197,41.81584],[-87.60252,41.81583],[-87.60252,41.81561]]],[[[-87.60253,41.81595],[-87.60198,41.81596],[-87.60198,41.8161],[-87.60253,41.81609],[-87.60253,41.81595]]],[[[-87.60253,41.81623],[-87.60198,41.81623],[-87.60199,41.81637],[-87.60254,41.81636],[-87.60253,41.81623]]],[[[-87.60306,41.81513],[-87.60271,41.81513],[-87.60272,41.81552],[-87.60307,41.81551],[-87.60306,41.81513]]],[[[-87.60381,41.81148],[-87.60297,41.81148],[-87.60298,41.81181],[-87.60382,41.8118],[-87.60381,41.81148]]],[[[-87.60525,41.81047],[-87.60452,41.81047],[-87.60452,41.81058],[-87.60526,41.81059],[-87.60525,41.81047]]],[[[-87.60526,41.8109],[-87.60453,41.81091],[-87.60453,41.81102],[-87.60527,41.81101],[-87.60526,41.8109]]],[[[-87.60548,41.81255],[-87.60457,41.81256],[-87.60457,41.81265],[-87.60548,41.81264],[-87.60548,41.81255]]],[[[-87.60549,41.81271],[-87.60457,41.81273],[-87.60457,41.81293],[-87.60549,41.81292],[-87.60549,41.81271]]]]},"properties":{"name":"North Kenwood Multiple Resource","lp":[-87.60013,41.81274],"since":1993}},
{"type":"Feature","geometry":{"type":"Polygon","coordinates":[[[-87.65166,41.93589],[-87.65163,41.93493],[-87.64973,41.93497],[-87.64976,41.93593],[-87.65166,41.93589]]]},"properties":{"name":"Oakdale Avenue","lp":[-87.6507,41.93543],"since":2006}},
{"type":"Feature","geometry":{"type":"MultiPolygon","coordinates":[[[[-87.59983,41.8181],[-87.60068,41.81953],[-87.60108,41.81952],[-87.60024,41.8181],[-87.59983,41.8181]]],[[[-87.6003,41.81811],[-87.60058,41.81858],[-87.6008,41.81851],[-87.60056,41.81811],[-87.6003,41.81811]]],[[[-87.60065,41.81871],[-87.60113,41.81952],[-87.6014,41.81952],[-87.60087,41.81864],[-87.60065,41.81871]]],[[[-87.6011,41.81811],[-87.60083,41.81811],[-87.60166,41.81952],[-87.60185,41.81952],[-87.60184,41.81939],[-87.60133,41.81835],[-87.60123,41.81831],[-87.60123,41.8181],[-87.6011,41.81811]]],[[[-87.60223,41.81968],[-87.60123,41.81969],[-87.60123,41.81985],[-87.60125,41.81987],[-87.60234,41.81985],[-87.60228,41.81967],[-87.60223,41.81968]]],[[[-87.60126,41.8205],[-87.60133,41.82063],[-87.6019,41.82043],[-87.60182,41.8203],[-87.60126,41.8205]]],[[[-87.60196,41.82065],[-87.60145,41.82083],[-87.6015,41.82092],[-87.60207,41.82072],[-87.60202,41.82063],[-87.60196,41.82065]]],[[[-87.60191,41.8191],[-87.60177,41.81913],[-87.60188,41.81935],[-87.60188,41.81952],[-87.60223,41.81952],[-87.60208,41.81907],[-87.60191,41.8191]]],[[[-87.60252,41.81833],[-87.60216,41.81839],[-87.60218,41.81846],[-87.60283,41.81834],[-87.6028,41.81827],[-87.60252,41.81833]]],[[[-87.60239,41.81908],[-87.60263,41.81982],[-87.60322,41.81971],[-87.60325,41.81963],[-87.60303,41.81896],[-87.60239,41.81908]]],[[[-87.60251,41.82259],[-87.60265,41.82281],[-87.60332,41.82258],[-87.60323,41.82255],[-87.60311,41.82237],[-87.60251,41.82259]]],[[[-87.60326,41.81808],[-87.60284,41.81809],[-87.60297,41.8185],[-87.60334,41.81849],[-87.60334,41.81808],[-87.60326,41.81808]]],[[[-87.60313,41.82356],[-87.6032,41.82367],[-87.60387,41.82343],[-87.6038,41.82332],[-87.60313,41.82356]]],[[[-87.60323,41.81928],[-87.60329,41.81947],[-87.60422,41.81943],[-87.6042,41.81923],[-87.60323,41.81928]]],[[[-87.60325,41.82083],[-87.6034,41.82108],[-87.604,41.82087],[-87.60384,41.82062],[-87.60325,41.82083]]],[[[-87.60349,41.81881],[-87.60352,41.81908],[-87.60417,41.81904],[-87.60414,41.81877],[-87.60349,41.81881]]],[[[-87.60364,41.82307],[-87.60371,41.82319],[-87.60432,41.82298],[-87.60425,41.82286],[-87.60364,41.82307]]],[[[-87.60439,41.82557],[-87.60449,41.82572],[-87.60508,41.82551],[-87.60499,41.82536],[-87.60439,41.82557]]],[[[-87.60443,41.82272],[-87.6045,41.82283],[-87.60517,41.82261],[-87.60509,41.82249],[-87.60443,41.82272]]],[[[-87.60474,41.81761],[-87.60478,41.81788],[-87.60537,41.81788],[-87.60536,41.8176],[-87.60474,41.81761]]],[[[-87.60482,41.82775],[-87.60512,41.82814],[-87.60563,41.82792],[-87.60535,41.82756],[-87.60482,41.82775]]],[[[-87.60525,41.82238],[-87.60531,41.82247],[-87.60526,41.82249],[-87.60535,41.82263],[-87.60581,41.82247],[-87.60567,41.82224],[-87.60525,41.82238]]],[[[-87.60619,41.82178],[-87.6065,41.82179],[-87.6065,41.82158],[-87.60606,41.82157],[-87.60619,41.82178]]],[[[-87.60629,41.82741],[-87.60639,41.82755],[-87.60693,41.82737],[-87.60684,41.82722],[-87.60629,41.82741]]],[[[-87.60648,41.82867],[-87.60666,41.8289],[-87.60699,41.82876],[-87.60683,41.82862],[-87.60673,41.82866],[-87.60667,41.82858],[-87.60648,41.82867]]],[[[-87.60733,41.82977],[-87.60746,41.82995],[-87.6078,41.82981],[-87.60766,41.82963],[-87.60733,41.82977]]],[[[-87.60821,41.82896],[-87.60824,41.82901],[-87.60869,41.82886],[-87.60866,41.82881],[-87.60821,41.82896]]]]},"properties":{"name":"Oakland","lp":[-87.60046,41.81882],"since":1992}},
{"type":"Feature","geometry":{"type":"Polygon","coordinates":[[[-87.62481,41.89681],[-87.62282,41.89683],[-87.62282,41.89757],[-87.62413,41.89755],[-87.62482,41.89754],[-87.62481,41.89681]]]},"properties":{"name":"Old Chicago Water Tower","lp":[-87.62382,41.89718],"since":1971}},
{"type":"Feature","geometry":{"type":"Polygon","coordinates":[[[-87.62478,41.89681],[-87.62187,41.89684],[-87.62189,41.89757],[-87.6248,41.89754],[-87.62478,41.89681]]]},"properties":{"name":"Old Chicago Water Tower Extension","lp":[-87.62442,41.89718],"since":1981}},
{"type":"Feature","geometry":{"type":"Polygon","coordinates":[[[-87.76629,41.99703],[-87.76654,41.99715],[-87.76677,41.99719],[-87.768,41.99713],[-87.76887,41.99707],[-87.76936,41.99704],[-87.77011,41.99702],[-87.77083,41.99702],[-87.77124,41.99704],[-87.77142,41.99649],[-87.77131,41.99633],[-87.77114,41.9959],[-87.77111,41.99558],[-87.77113,41.99533],[-87.77125,41.99506],[-87.7713,41.99497],[-87.77111,41.99494],[-87.77108,41.99478],[-87.77099,41.99464],[-87.77092,41.99458],[-87.77073,41.99446],[-87.77059,41.9944],[-87.77033,41.99434],[-87.77008,41.99431],[-87.76971,41.9943],[-87.76941,41.99428],[-87.769,41.99423],[-87.76869,41.99412],[-87.76846,41.99401],[-87.76836,41.99394],[-87.7682,41.99377],[-87.7681,41.99361],[-87.76585,41.99256],[-87.76563,41.99267],[-87.76471,41.99514],[-87.765,41.9957],[-87.76535,41.99643],[-87.7655,41.9967],[-87.76552,41.99665],[-87.76629,41.99703]]]},"properties":{"name":"Old Edgebrook","lp":[-87.76692,41.99519],"since":1989}},
{"type":"Feature","geometry":{"type":"Polygon","coordinates":[[[-87.63463,41.9133],[-87.63467,41.91477],[-87.6347,41.91485],[-87.63472,41.91553],[-87.63538,41.91601],[-87.63521,41.91615],[-87.63552,41.91666],[-87.63619,41.91665],[-87.63662,41.91663],[-87.63766,41.91662],[-87.63764,41.91616],[-87.63804,41.91616],[-87.63815,41.91605],[-87.63813,41.91506],[-87.63883,41.91505],[-87.63882,41.91473],[-87.63956,41.91473],[-87.63954,41.91404],[-87.64035,41.91403],[-87.64045,41.91393],[-87.64043,41.91329],[-87.64096,41.91329],[-87.64095,41.91294],[-87.6424,41.91292],[-87.64236,41.91141],[-87.64211,41.91142],[-87.6409,41.91144],[-87.64089,41.91122],[-87.63992,41.91123],[-87.63993,41.91143],[-87.63847,41.91145],[-87.63848,41.91168],[-87.63808,41.91169],[-87.63808,41.91171],[-87.63656,41.91174],[-87.63656,41.912],[-87.63614,41.91201],[-87.63615,41.91232],[-87.63613,41.91247],[-87.63532,41.91248],[-87.63533,41.9128],[-87.63426,41.91281],[-87.63427,41.9132],[-87.63462,41.91319],[-87.63463,41.9133]]]},"properties":{"name":"Old Town Triangle","lp":[-87.63655,41.91419],"since":1977}},
{"type":"Feature","geometry":{"type":"Polygon","coordinates":[[[-87.62065,41.85802],[-87.62252,41.85799],[-87.62248,41.85653],[-87.62212,41.85653],[-87.62151,41.85654],[-87.62151,41.85658],[-87.62086,41.85659],[-87.62084,41.85562],[-87.62181,41.85561],[-87.6218,41.8552],[-87.62178,41.85519],[-87.62149,41.85519],[-87.62149,41.85543],[-87.6206,41.85545],[-87.62061,41.85605],[-87.61988,41.85606],[-87.61989,41.85627],[-87.62061,41.85625],[-87.62064,41.85747],[-87.62008,41.85748],[-87.62009,41.85802],[-87.62065,41.85802]]]},"properties":{"name":"Prairie Avenue","lp":[-87.62182,41.85723],"since":1979}},
{"type":"Feature","geometry":{"type":"Polygon","coordinates":[[[-87.63011,41.87214],[-87.62969,41.87215],[-87.62966,41.87107],[-87.62851,41.87108],[-87.62854,41.87216],[-87.62811,41.87217],[-87.62816,41.87402],[-87.62859,41.87402],[-87.6286,41.87445],[-87.62814,41.87446],[-87.62816,41.87546],[-87.62907,41.87545],[-87.62961,41.87544],[-87.62976,41.87544],[-87.62974,41.87462],[-87.63016,41.87462],[-87.63013,41.87334],[-87.63014,41.87334],[-87.63011,41.87214]]]},"properties":{"name":"Printing House Row","lp":[-87.62914,41.87326],"since":1996}},
{"type":"Feature","geometry":{"type":"MultiPolygon","coordinates":[[[[-87.60385,41.70189],[-87.60252,41.70191],[-87.60263,41.70575],[-87.60411,41.70573],[-87.604,41.70188],[-87.60385,41.70189]]],[[[-87.60717,41.69363],[-87.60723,41.6955],[-87.60908,41.69548],[-87.60938,41.69547],[-87.61004,41.69258],[-87.61101,41.68836],[-87.61008,41.68837],[-87.61008,41.6884],[-87.60965,41.6884],[-87.6096,41.68585],[-87.60815,41.68586],[-87.60652,41.68589],[-87.60643,41.68595],[-87.60646,41.68729],[-87.60539,41.6873],[-87.60534,41.68762],[-87.60544,41.69296],[-87.60715,41.69294],[-87.60717,41.69363]]],[[[-87.60603,41.69817],[-87.60606,41.69831],[-87.60617,41.70204],[-87.60754,41.70202],[-87.60752,41.70126],[-87.60748,41.70019],[-87.60831,41.70018],[-87.60877,41.69814],[-87.60848,41.69813],[-87.60776,41.69814],[-87.60777,41.6978],[-87.60743,41.6978],[-87.60738,41.69629],[-87.60612,41.69631],[-87.60597,41.69631],[-87.60603,41.69817]]]]},"properties":{"name":"Pullman","lp":[-87.60787,41.69037],"since":1993}},
{"type":"Feature","geometry":{"type":"MultiPolygon","coordinates":[[[[-87.62569,41.90539],[-87.62538,41.90539],[-87.62547,41.90577],[-87.62568,41.90576],[-87.62569,41.90539]]],[[[-87.62704,41.91003],[-87.62641,41.91004],[-87.62643,41.91055],[-87.62704,41.91054],[-87.62702,41.91006],[-87.62704,41.91003]]]]},"properties":{"name":"Seven Houses on Lake Shore Drive","lp":[-87.62673,41.91029],"since":1989}},
{"type":"Feature","geometry":{"type":"Polygon","coordinates":[[[-87.6441,41.93489],[-87.64435,41.93489],[-87.64433,41.93442],[-87.64445,41.93417],[-87.6442,41.93417],[-87.64418,41.9335],[-87.64343,41.93351],[-87.64345,41.93391],[-87.6429,41.93392],[-87.64289,41.9339],[-87.6421,41.93391],[-87.64209,41.93336],[-87.64021,41.9334],[-87.64022,41.93395],[-87.64002,41.93395],[-87.64003,41.93443],[-87.64005,41.93496],[-87.64229,41.93492],[-87.6441,41.93489]]]},"properties":{"name":"Surf-Pine","lp":[-87.64127,41.93402],"since":2007}},
{"type":"Feature","geometry":{"type":"Polygon","coordinates":[[[-87.65652,41.93574],[-87.6565,41.93541],[-87.65649,41.93485],[-87.65604,41.93486],[-87.65605,41.93523],[-87.65551,41.93524],[-87.65553,41.9358],[-87.65652,41.93579],[-87.65652,41.93574]]]},"properties":{"name":"Terra Cotta Row","lp":[-87.65614,41.93545],"since":2005}},
{"type":"Feature","geometry":{"type":"Polygon","coordinates":[[[-87.67657,41.90147],[-87.67658,41.90181],[-87.6766,41.90268],[-87.67659,41.90274],[-87.67712,41.90273],[-87.67737,41.90272],[-87.67948,41.90268],[-87.67981,41.90268],[-87.68163,41.90265],[-87.68161,41.90181],[-87.68223,41.90179],[-87.68222,41.90119],[-87.6822,41.90046],[-87.68219,41.90028],[-87.68218,41.89991],[-87.68156,41.89992],[-87.68156,41.89991],[-87.68017,41.89993],[-87.68016,41.89941],[-87.67948,41.89942],[-87.67949,41.89994],[-87.67767,41.89998],[-87.6777,41.90114],[-87.67708,41.90115],[-87.67708,41.90128],[-87.67657,41.90129],[-87.67657,41.90147]]]},"properties":{"name":"Ukrainian Village","lp":[-87.67913,41.90134],"since":2002}},
{"type":"Feature","geometry":{"type":"Polygon","coordinates":[[[-87.68151,41.89811],[-87.68145,41.89813],[-87.68007,41.89816],[-87.68006,41.89797],[-87.67968,41.89798],[-87.6797,41.89851],[-87.67901,41.89852],[-87.679,41.89818],[-87.67768,41.8982],[-87.6777,41.89907],[-87.67947,41.89903],[-87.67948,41.89928],[-87.68007,41.89927],[-87.68006,41.89902],[-87.68147,41.899],[-87.68148,41.89925],[-87.68154,41.89925],[-87.68192,41.89924],[-87.68191,41.89899],[-87.68436,41.89895],[-87.68436,41.89889],[-87.68498,41.89888],[-87.68498,41.89894],[-87.68636,41.89891],[-87.68634,41.89805],[-87.68496,41.89807],[-87.68496,41.89809],[-87.68434,41.8981],[-87.68434,41.89808],[-87.68189,41.89812],[-87.68189,41.8981],[-87.68151,41.89811]]]},"properties":{"name":"Ukrainian Village Extension","lp":[-87.68568,41.89849],"since":2005}},
{"type":"Feature","geometry":{"type":"MultiPolygon","coordinates":[[[[-87.68189,41.8981],[-87.68189,41.89808],[-87.68433,41.89804],[-87.68458,41.89801],[-87.68496,41.898],[-87.68502,41.89803],[-87.68634,41.898],[-87.68632,41.89716],[-87.6863,41.89714],[-87.68493,41.89717],[-87.68492,41.89679],[-87.68499,41.8966],[-87.68498,41.89627],[-87.68496,41.89626],[-87.68254,41.8963],[-87.68253,41.89632],[-87.68254,41.89665],[-87.68353,41.89663],[-87.68354,41.89719],[-87.68149,41.89723],[-87.6815,41.89775],[-87.68012,41.89777],[-87.68012,41.89811],[-87.68145,41.89809],[-87.68151,41.89811],[-87.68189,41.8981]]],[[[-87.6822,41.90046],[-87.68222,41.90119],[-87.68441,41.90115],[-87.6844,41.90077],[-87.68397,41.90077],[-87.68396,41.90043],[-87.68464,41.90042],[-87.68466,41.90115],[-87.68504,41.90114],[-87.68503,41.90075],[-87.68639,41.90073],[-87.68641,41.90072],[-87.68639,41.89988],[-87.68637,41.89986],[-87.68509,41.89989],[-87.68501,41.8999],[-87.685,41.8995],[-87.68437,41.89952],[-87.68436,41.89899],[-87.68216,41.89903],[-87.68216,41.89924],[-87.68192,41.89924],[-87.68154,41.89925],[-87.68154,41.89938],[-87.68217,41.89937],[-87.68219,41.90028],[-87.6822,41.90046]]]]},"properties":{"name":"Ukrainian Village Extension II","lp":[-87.68314,41.90001],"since":2007}},
{"type":"Feature","geometry":{"type":"Polygon","coordinates":[[[-87.72504,41.94958],[-87.72694,41.95065],[-87.72688,41.94843],[-87.72734,41.94842],[-87.72733,41.94797],[-87.72686,41.94798],[-87.72682,41.94629],[-87.72238,41.94635],[-87.72243,41.94809],[-87.72504,41.94958]]]},"properties":{"name":"Villa","lp":[-87.72525,41.94793],"since":1983}},
{"type":"Feature","geometry":{"type":"Polygon","coordinates":[[[-87.66277,41.70352],[-87.66188,41.70353],[-87.66192,41.70384],[-87.66194,41.70407],[-87.66192,41.70443],[-87.66291,41.70442],[-87.66292,41.70465],[-87.66366,41.70464],[-87.66366,41.70441],[-87.66384,41.70441],[-87.66385,41.70463],[-87.66455,41.70462],[-87.66455,41.7044],[-87.66473,41.70439],[-87.66474,41.70462],[-87.66499,41.70462],[-87.66498,41.70439],[-87.66517,41.70439],[-87.66517,41.70461],[-87.66572,41.70461],[-87.66571,41.70438],[-87.66717,41.70436],[-87.66714,41.70346],[-87.66688,41.70345],[-87.66277,41.70352]]]},"properties":{"name":"Walter Burley Griffin Place","lp":[-87.66543,41.70397],"since":1981}},
{"type":"Feature","geometry":{"type":"Polygon","coordinates":[[[-87.61559,41.80567],[-87.61554,41.80403],[-87.61558,41.80403],[-87.61556,41.80348],[-87.61454,41.8035],[-87.61455,41.80386],[-87.61449,41.80386],[-87.61454,41.80569],[-87.61559,41.80567]]]},"properties":{"name":"Washington Park Court","lp":[-87.61503,41.80459],"since":1991}},
{"type":"Feature","geometry":{"type":"Polygon","coordinates":[[[-87.62969,41.89874],[-87.6297,41.89901],[-87.62916,41.89902],[-87.62916,41.89934],[-87.62917,41.89954],[-87.62909,41.89956],[-87.6291,41.90002],[-87.62973,41.90001],[-87.62973,41.90015],[-87.63149,41.90012],[-87.63144,41.89865],[-87.62969,41.89867],[-87.62969,41.89874]]]},"properties":{"name":"Washington Square","lp":[-87.63032,41.89942],"since":1990}},
{"type":"Feature","geometry":{"type":"MultiPolygon","coordinates":[[[[-87.62967,41.89809],[-87.62913,41.89809],[-87.62914,41.89842],[-87.62968,41.89842],[-87.62967,41.89809]]],[[[-87.62966,41.89753],[-87.62914,41.89753],[-87.62916,41.89761],[-87.62917,41.89791],[-87.62967,41.89791],[-87.62966,41.89753]]],[[[-87.62976,41.90129],[-87.62921,41.90129],[-87.62922,41.9015],[-87.62977,41.90149],[-87.62976,41.90129]]],[[[-87.62969,41.89874],[-87.62968,41.89847],[-87.62934,41.89847],[-87.62935,41.89874],[-87.62969,41.89874]]],[[[-87.63026,41.89684],[-87.62993,41.89685],[-87.62994,41.89734],[-87.6305,41.89733],[-87.63049,41.89706],[-87.63027,41.89706],[-87.63026,41.89684]]],[[[-87.6306,41.90094],[-87.63005,41.90095],[-87.63005,41.90111],[-87.6306,41.90111],[-87.6306,41.90094]]],[[[-87.63066,41.90324],[-87.63011,41.90324],[-87.63012,41.90349],[-87.63067,41.90348],[-87.63066,41.90324]]]]},"properties":{"name":"Washington Square Extension","lp":[-87.63007,41.89723],"since":2002}},
{"type":"Feature","geometry":{"type":"Polygon","coordinates":[[[-87.6323,41.89916],[-87.6323,41.89902],[-87.63208,41.89902],[-87.63208,41.89917],[-87.6323,41.89916]]]},"properties":{"name":"Washington Square Extension, III","lp":[-87.63219,41.89909],"since":2005}},
{"type":"Feature","geometry":{"type":"Polygon","coordinates":[[[-87.67916,41.90993],[-87.67916,41.91009],[-87.67978,41.91008],[-87.67978,41.91015],[-87.68064,41.91013],[-87.68063,41.9099],[-87.68065,41.90989],[-87.68158,41.90987],[-87.6816,41.90989],[-87.68161,41.91031],[-87.68096,41.91033],[-87.68097,41.91084],[-87.67996,41.91085],[-87.67997,41.91118],[-87.6797,41.91118],[-87.68073,41.91183],[-87.68092,41.91197],[-87.68133,41.91223],[-87.68251,41.91222],[-87.68251,41.9122],[-87.68303,41.91219],[-87.683,41.91083],[-87.68275,41.91083],[-87.68274,41.91048],[-87.68369,41.91046],[-87.68364,41.90846],[-87.68242,41.90848],[-87.68241,41.90807],[-87.68161,41.90809],[-87.68154,41.90544],[-87.68233,41.90543],[-87.68231,41.90446],[-87.68041,41.90449],[-87.68039,41.90447],[-87.68037,41.90398],[-87.67904,41.904],[-87.67905,41.90451],[-87.67788,41.90453],[-87.67786,41.90402],[-87.67667,41.90404],[-87.67669,41.90492],[-87.67651,41.90492],[-87.67653,41.90547],[-87.67557,41.90549],[-87.67417,41.9067],[-87.6738,41.90646],[-87.67395,41.90634],[-87.67315,41.90583],[-87.67281,41.90612],[-87.67267,41.90604],[-87.67222,41.90641],[-87.67216,41.90644],[-87.67294,41.90694],[-87.67312,41.90706],[-87.6732,41.90699],[-87.67403,41.90752],[-87.67421,41.90764],[-87.67732,41.90962],[-87.67745,41.90964],[-87.67757,41.90972],[-87.67756,41.90946],[-87.67756,41.90937],[-87.67747,41.90634],[-87.67809,41.90633],[-87.67808,41.90609],[-87.67905,41.90607],[-87.67913,41.90875],[-87.67911,41.90876],[-87.6781,41.90878],[-87.67812,41.90945],[-87.67838,41.90944],[-87.67839,41.90993],[-87.67914,41.90992],[-87.67916,41.90993]],[[-87.67498,41.90698],[-87.67529,41.90671],[-87.6753,41.90709],[-87.67484,41.9071],[-87.67498,41.90698]]]},"properties":{"name":"Wicker Park","lp":[-87.68027,41.90576],"since":1991}}
]}