{"type":"FeatureCollection", "features": [
{"type":"Feature","geometry":{"type":"MultiLineString","coordinates":[[[-87.61607,41.84819],[-87.61831,41.84816],[-87.62274,41.84813],[-87.62337,41.84811],[-87.62382,41.84807],[-87.62479,41.84791],[-87.62538,41.84777],[-87.62682,41.84732],[-87.62751,41.84716],[-87.62815,41.84709],[-87.62893,41.84709],[-87.62934,41.84713],[-87.63003,41.84724],[-87.63097,41.84742],[-87.63183,41.84751],[-87.63223,41.84752],[-87.6344,41.8474],[-87.63537,41.84736],[-87.63725,41.84733],[-87.63826,41.84733],[-87.64029,41.84729],[-87.64153,41.84728],[-87.64171,41.84727],[-87.64186,41.84726],[-87.64211,41.84724],[-87.64228,41.84723],[-87.64248,41.84721],[-87.64295,41.84713],[-87.64375,41.84694],[-87.64405,41.84684],[-87.64591,41.84616],[-87.64683,41.84592],[-87.64729,41.84584],[-87.64888,41.84571],[-87.64952,41.84567],[-87.65019,41.84561],[-87.65067,41.84554],[-87.65179,41.84529],[-87.65271,41.84496],[-87.65621,41.8435],[-87.65803,41.84267],[-87.65972,41.84185],[-87.6606,41.8414],[-87.66208,41.8406],[-87.66343,41.83984],[-87.66593,41.8384],[-87.66641,41.83816],[-87.66691,41.83795],[-87.66744,41.83777],[-87.66809,41.8376],[-87.66903,41.83745],[-87.66948,41.83742],[-87.67307,41.83733],[-87.67883,41.83721],[-87.6792,41.83718],[-87.6798,41.8371],[-87.68044,41.83697],[-87.68083,41.83686],[-87.68516,41.83552],[-87.69034,41.83388],[-87.69457,41.83255],[-87.69543,41.83229],[-87.69883,41.83121],[-87.70431,41.82949],[-87.70645,41.82881],[-87.70883,41.82807],[-87.71834,41.82508],[-87.72301,41.82361],[-87.72423,41.82324],[-87.72977,41.82148],[-87.73791,41.8189],[-87.73887,41.81862],[-87.73978,41.81834],[-87.74044,41.81815],[-87.74219,41.81775],[-87.743,41.81755],[-87.74382,41.8173],[-87.74489,41.81689],[-87.74517,41.81677]],[[-87.74516,41.81647],[-87.74423,41.81686],[-87.74342,41.81714],[-87.74241,41.81742],[-87.74189,41.81755],[-87.74088,41.81777],[-87.73975,41.81807],[-87.73822,41.81854],[-87.73689,41.81896],[-87.73558,41.81936],[-87.72941,41.82131],[-87.72686,41.82211],[-87.72134,41.82386],[-87.71772,41.82499],[-87.70757,41.82819],[-87.69877,41.83095],[-87.69456,41.83228],[-87.69285,41.83281],[-87.69021,41.83365],[-87.68537,41.83515],[-87.683,41.83591],[-87.68087,41.83657],[-87.68039,41.83671],[-87.67983,41.83683],[-87.6793,41.83691],[-87.67867,41.83696],[-87.67792,41.83699],[-87.67017,41.83715],[-87.66922,41.8372],[-87.66849,41.83729],[-87.66807,41.83737],[-87.66724,41.83759],[-87.6667,41.83779],[-87.66615,41.83803],[-87.6659,41.83816],[-87.66423,41.8391],[-87.66285,41.8399],[-87.66228,41.84022],[-87.66084,41.84098],[-87.65918,41.84179],[-87.65896,41.84188],[-87.65746,41.84259],[-87.65585,41.84329],[-87.65416,41.84398],[-87.65253,41.84462],[-87.65174,41.84494],[-87.65102,41.84516],[-87.65012,41.84534],[-87.64939,41.84542],[-87.64779,41.84554],[-87.64741,41.84558],[-87.6466,41.84574],[-87.64586,41.84595],[-87.64534,41.84615],[-87.64399,41.8467],[-87.64304,41.84696],[-87.64232,41.84708],[-87.64194,41.84712],[-87.64176,41.84713],[-87.64166,41.84713],[-87.64155,41.84714],[-87.64134,41.84714],[-87.63826,41.84719],[-87.63665,41.84722],[-87.636,41.84722],[-87.63482,41.84725],[-87.63415,41.84728],[-87.63234,41.84739],[-87.63193,41.84739],[-87.63139,41.84734],[-87.63076,41.84724],[-87.63011,41.84711],[-87.62907,41.84695],[-87.62866,41.84692],[-87.62823,41.84692],[-87.62759,41.84696],[-87.62717,41.84704],[-87.62643,41.84724],[-87.62545,41.84752],[-87.6245,41.84774],[-87.62384,41.84783],[-87.62266,41.84789],[-87.62208,41.84789],[-87.62021,41.84793],[-87.6183,41.84795],[-87.61685,41.84798]]]},"properties":{"route":"55","name":"Stevenson Expressway (I-55)","kind":"provincial"}},
{"type":"Feature","geometry":{"type":"MultiLineString","coordinates":[[[-87.87521,41.98261],[-87.87628,41.98219],[-87.87756,41.98165],[-87.87822,41.98139],[-87.88191,41.97985],[-87.88289,41.97946],[-87.88597,41.97817],[-87.88758,41.97751],[-87.88817,41.9773],[-87.88877,41.97718],[-87.88922,41.97715],[-87.88964,41.97716],[-87.89014,41.97723],[-87.89047,41.9773],[-87.89094,41.97746],[-87.8915,41.97775],[-87.89212,41.97824],[-87.89383,41.97979],[-87.89544,41.98122],[-87.8961,41.98178]],[[-87.89513,41.98051],[-87.89486,41.98029],[-87.89341,41.97902],[-87.89271,41.97842],[-87.89215,41.9779],[-87.89183,41.97765],[-87.8915,41.97744],[-87.89104,41.97723],[-87.89063,41.97709],[-87.89022,41.97699],[-87.88949,41.97691],[-87.88898,41.97692],[-87.88837,41.97701],[-87.88762,41.97722],[-87.88412,41.97868],[-87.88327,41.97903],[-87.8785,41.98102],[-87.87688,41.98169],[-87.87586,41.9821],[-87.87513,41.98237]],[[-87.85677,41.98344],[-87.85583,41.98345],[-87.85269,41.9835],[-87.84921,41.98356],[-87.8459,41.98371],[-87.84412,41.98382],[-87.84362,41.98389],[-87.84121,41.98402],[-87.83676,41.98422],[-87.83433,41.98434],[-87.83261,41.98442],[-87.83071,41.98445],[-87.82917,41.98444],[-87.82799,41.98439],[-87.82736,41.98435],[-87.8258,41.98423],[-87.82497,41.98415],[-87.82361,41.984],[-87.82177,41.98377],[-87.81945,41.98346],[-87.81843,41.9833],[-87.8177,41.98315],[-87.81505,41.98251],[-87.81436,41.98238],[-87.81358,41.98227],[-87.81314,41.98223],[-87.81213,41.98219],[-87.81153,41.9822],[-87.80715,41.98222],[-87.80386,41.98226],[-87.80256,41.98226],[-87.79917,41.98229],[-87.79728,41.98231],[-87.79287,41.98235],[-87.79002,41.98236],[-87.78634,41.98239],[-87.78569,41.98237],[-87.78518,41.98233],[-87.78478,41.98227],[-87.78384,41.98205],[-87.78337,41.98188],[-87.78277,41.98161],[-87.78214,41.98127],[-87.77891,41.97943],[-87.77416,41.97675],[-87.77197,41.97551],[-87.77076,41.97483],[-87.76993,41.97434],[-87.7686,41.9736],[-87.76687,41.97261],[-87.76615,41.97224],[-87.76519,41.97182],[-87.76453,41.97159],[-87.76372,41.97135],[-87.76321,41.97123],[-87.76202,41.97091],[-87.76168,41.9708],[-87.76083,41.97047],[-87.76013,41.97014],[-87.75755,41.96869],[-87.75542,41.96751],[-87.75362,41.96648],[-87.75244,41.96577],[-87.75173,41.9653],[-87.75064,41.96456],[-87.74989,41.96412],[-87.74907,41.96376],[-87.7477,41.96329],[-87.74728,41.96316],[-87.7468,41.96297],[-87.74638,41.96277],[-87.74595,41.96253],[-87.74555,41.96228],[-87.74496,41.96185],[-87.74306,41.96059],[-87.74266,41.96029],[-87.7421,41.95993],[-87.74068,41.95907],[-87.73799,41.95754],[-87.73622,41.95654],[-87.73448,41.95561],[-87.73279,41.95469],[-87.73137,41.95388],[-87.73044,41.95336],[-87.72803,41.95199],[-87.72785,41.9519],[-87.72662,41.95119],[-87.72418,41.94981],[-87.72353,41.94943],[-87.72266,41.94894],[-87.72185,41.94853],[-87.72075,41.94806],[-87.72036,41.94788],[-87.72001,41.94769],[-87.71959,41.94741],[-87.71935,41.94721],[-87.719,41.94685],[-87.71866,41.94638],[-87.71831,41.94578],[-87.71763,41.94454],[-87.71705,41.94353],[-87.71664,41.94301],[-87.71641,41.94277],[-87.71613,41.94253],[-87.71553,41.94209],[-87.71521,41.94191],[-87.71463,41.94163],[-87.71391,41.94138],[-87.71294,41.94113],[-87.7112,41.94071],[-87.71078,41.94058],[-87.71042,41.94044],[-87.70862,41.93944],[-87.70739,41.93873],[-87.70611,41.938],[-87.70463,41.93712],[-87.70292,41.93612],[-87.70118,41.93509],[-87.69996,41.93436],[-87.69959,41.93416],[-87.69794,41.93318],[-87.69735,41.93282],[-87.69652,41.93234],[-87.69357,41.93059],[-87.69249,41.93005],[-87.69093,41.92935],[-87.69042,41.92911],[-87.68992,41.92885],[-87.68813,41.92783],[-87.68736,41.9274],[-87.68609,41.92667],[-87.68354,41.92523],[-87.68021,41.92333],[-87.67898,41.92264],[-87.67749,41.92178],[-87.67353,41.91955],[-87.67185,41.91859],[-87.67112,41.91814],[-87.67015,41.91746],[-87.66975,41.91712],[-87.66902,41.91644],[-87.66829,41.91559],[-87.66814,41.9154],[-87.66778,41.91487],[-87.66671,41.91309],[-87.66505,41.91042],[-87.66453,41.90969],[-87.66398,41.90909],[-87.66227,41.90757],[-87.66188,41.90713],[-87.66156,41.90663],[-87.66138,41.90626],[-87.66128,41.90598],[-87.66116,41.90545],[-87.66113,41.90493],[-87.66114,41.9047],[-87.66126,41.90379],[-87.66131,41.90311],[-87.66129,41.90255],[-87.66121,41.90195],[-87.66106,41.90131],[-87.66088,41.90079],[-87.66042,41.89978],[-87.66031,41.89951],[-87.65938,41.89754],[-87.65905,41.89697],[-87.65856,41.89633],[-87.65801,41.89575],[-87.65746,41.89528],[-87.65651,41.89464],[-87.65585,41.89422],[-87.65487,41.89354],[-87.65361,41.8927],[-87.65283,41.89223],[-87.65222,41.89184],[-87.64945,41.88996],[-87.6486,41.88935],[-87.64779,41.88864],[-87.64753,41.88834],[-87.6471,41.88778],[-87.64661,41.88697],[-87.64647,41.88668],[-87.64622,41.88593],[-87.64613,41.88545],[-87.64607,41.884],[-87.64601,41.88298],[-87.64596,41.88153],[-87.64593,41.88041],[-87.64594,41.87966],[-87.646,41.87822],[-87.64599,41.8777],[-87.64589,41.87696],[-87.64575,41.87631],[-87.64566,41.87555]],[[-87.74584,41.96296],[-87.74645,41.96317],[-87.74747,41.96349],[-87.74823,41.96371],[-87.74911,41.96402],[-87.74971,41.96429],[-87.75008,41.9645],[-87.75062,41.96484],[-87.75198,41.96576],[-87.75265,41.9662],[-87.75328,41.96659],[-87.75408,41.96706],[-87.7549,41.96752],[-87.75623,41.96829],[-87.75936,41.97007],[-87.76032,41.97057],[-87.76133,41.97097],[-87.76166,41.97108],[-87.76246,41.97131],[-87.76311,41.97146],[-87.76403,41.9717],[-87.7645,41.97184],[-87.76517,41.97208],[-87.76583,41.97237],[-87.76654,41.97274],[-87.76764,41.97335],[-87.76889,41.97406],[-87.77206,41.97585],[-87.77434,41.97715],[-87.77579,41.97797],[-87.78198,41.98148],[-87.78257,41.9818],[-87.78291,41.98196],[-87.78354,41.98221],[-87.78422,41.98241],[-87.78504,41.98256],[-87.78562,41.98261],[-87.78628,41.98263],[-87.79056,41.98259],[-87.79182,41.98259],[-87.79605,41.98256],[-87.79823,41.98253],[-87.80179,41.98252],[-87.80383,41.9825],[-87.8066,41.98248],[-87.81216,41.98243],[-87.81269,41.98244],[-87.81313,41.98247],[-87.81394,41.98255],[-87.81475,41.98269],[-87.81527,41.9828],[-87.81717,41.98328],[-87.81782,41.98343],[-87.81927,41.98369],[-87.82463,41.98439],[-87.82632,41.98454]],[[-87.65306,41.89253],[-87.65327,41.89262],[-87.65374,41.89293],[-87.65479,41.89366],[-87.65564,41.89423],[-87.65584,41.89438],[-87.65698,41.89518],[-87.65767,41.89575],[-87.6584,41.89648],[-87.65868,41.89684],[-87.65907,41.89739],[-87.6594,41.89797],[-87.66066,41.90076],[-87.6609,41.9014],[-87.66105,41.90206],[-87.6611,41.9025],[-87.66113,41.90312],[-87.66112,41.90347],[-87.66096,41.90472],[-87.66095,41.90515],[-87.661,41.90558],[-87.6611,41.90603],[-87.66137,41.90665],[-87.66179,41.90728],[-87.66229,41.90782],[-87.66359,41.90898],[-87.66404,41.9094],[-87.66434,41.90974],[-87.66457,41.91004],[-87.6658,41.91194],[-87.66739,41.91458],[-87.6679,41.91537],[-87.66837,41.91597],[-87.66888,41.91654],[-87.66958,41.9172],[-87.67015,41.91765],[-87.67111,41.91833],[-87.67154,41.91859],[-87.67375,41.91985],[-87.67687,41.92161],[-87.67749,41.92197],[-87.68083,41.92387],[-87.68737,41.92758],[-87.6886,41.92827],[-87.68996,41.92905],[-87.69045,41.9293],[-87.69194,41.93003],[-87.6925,41.93033],[-87.69403,41.93121],[-87.69462,41.93157],[-87.69736,41.93318],[-87.6982,41.93368],[-87.70083,41.93522],[-87.70118,41.93544],[-87.70293,41.93647],[-87.70443,41.93731],[-87.70532,41.93779],[-87.7067,41.93855],[-87.70956,41.94017],[-87.71022,41.94052],[-87.71093,41.9408],[-87.71133,41.94091],[-87.71395,41.94156],[-87.71442,41.94173],[-87.71495,41.94196],[-87.71531,41.94215],[-87.71568,41.94239],[-87.71601,41.94265],[-87.71634,41.94295],[-87.71681,41.94349],[-87.717,41.94378],[-87.71742,41.94455],[-87.71837,41.94625],[-87.71856,41.94657],[-87.71896,41.94707],[-87.71919,41.94729],[-87.71959,41.94761],[-87.72007,41.94791],[-87.72035,41.94805],[-87.72088,41.94827],[-87.72166,41.94862],[-87.72246,41.94902],[-87.7236,41.94966],[-87.72728,41.95175],[-87.72786,41.95207],[-87.73105,41.95389],[-87.73337,41.9552],[-87.73449,41.95582],[-87.73613,41.95669],[-87.73718,41.95727],[-87.73861,41.95809],[-87.7405,41.95916],[-87.74164,41.95982],[-87.74213,41.96013],[-87.74278,41.96058],[-87.74345,41.9611],[-87.74402,41.96151],[-87.74497,41.96216],[-87.7454,41.9625],[-87.74584,41.96296]],[[-87.64526,41.87555],[-87.64538,41.87608],[-87.64553,41.87658],[-87.64565,41.87713],[-87.64572,41.87787],[-87.6457,41.87872],[-87.64563,41.8799],[-87.64559,41.88084],[-87.64558,41.88167],[-87.64562,41.8832],[-87.64563,41.88428],[-87.64568,41.88501],[-87.64587,41.88582],[-87.6462,41.88668],[-87.64646,41.88718],[-87.64709,41.8881],[-87.6474,41.88848],[-87.648,41.8891],[-87.64861,41.88961],[-87.64952,41.89025],[-87.6507,41.891],[-87.65169,41.8917],[-87.65312,41.89277],[-87.65451,41.89374],[-87.65598,41.89467],[-87.65645,41.89498],[-87.65702,41.8954],[-87.65738,41.8957],[-87.65809,41.89639],[-87.6584,41.89673],[-87.65889,41.89744],[-87.65927,41.89814],[-87.66005,41.89985],[-87.66026,41.90026],[-87.66062,41.90111],[-87.6608,41.90175],[-87.66092,41.90248],[-87.66094,41.90312],[-87.66086,41.90404],[-87.66076,41.90478],[-87.66075,41.90504],[-87.6608,41.90553],[-87.66087,41.90586],[-87.66106,41.90644],[-87.66125,41.9068],[-87.66154,41.90722],[-87.66201,41.90777],[-87.66256,41.90825],[-87.66365,41.90924],[-87.66408,41.90968],[-87.66444,41.91014],[-87.66496,41.91093],[-87.66582,41.9123],[-87.66599,41.9126],[-87.66655,41.91351],[-87.6673,41.91476],[-87.66758,41.91521],[-87.66788,41.91562],[-87.66826,41.9161],[-87.66882,41.91671],[-87.66923,41.9171],[-87.66991,41.91766],[-87.67057,41.91815],[-87.67158,41.91878],[-87.67413,41.92023],[-87.67656,41.92162],[-87.67808,41.92247],[-87.67886,41.92293],[-87.67942,41.92324],[-87.68294,41.92524],[-87.68639,41.92719],[-87.68737,41.92776],[-87.68815,41.92819],[-87.68942,41.92891],[-87.69077,41.92969],[-87.69108,41.92985],[-87.69252,41.93067],[-87.6946,41.93191],[-87.69737,41.93353],[-87.69949,41.93479],[-87.70062,41.93545],[-87.70349,41.93707],[-87.70411,41.9374],[-87.70578,41.93825],[-87.7074,41.93915],[-87.70966,41.94044],[-87.71037,41.94078],[-87.71079,41.94093],[-87.71128,41.94107],[-87.71332,41.94157],[-87.71398,41.94179],[-87.71427,41.94191],[-87.71486,41.94221],[-87.71529,41.94248],[-87.71583,41.9429],[-87.71627,41.94334],[-87.71645,41.94355],[-87.71685,41.94415],[-87.71813,41.94645],[-87.71847,41.94697],[-87.71865,41.94719],[-87.71901,41.94753],[-87.71942,41.94785],[-87.71975,41.94806],[-87.72014,41.94826],[-87.72055,41.94844],[-87.72112,41.94866],[-87.72223,41.94919],[-87.7227,41.94945],[-87.7242,41.95031],[-87.72551,41.95104],[-87.7273,41.95208],[-87.72787,41.9524],[-87.72956,41.95337],[-87.7305,41.95389],[-87.73281,41.95521],[-87.73388,41.95581],[-87.73502,41.95646],[-87.73802,41.95811],[-87.73912,41.95874],[-87.73968,41.95904],[-87.74062,41.95957],[-87.7413,41.96],[-87.74199,41.9605],[-87.74259,41.96097],[-87.74298,41.96122],[-87.74391,41.96194],[-87.74433,41.96222],[-87.74473,41.96246],[-87.74515,41.96267],[-87.74584,41.96296]]]},"properties":{"route":"90/94","name":"Kennedy Expressway (I-90/I-94)","kind":"provincial"}},
{"type":"Feature","geometry":{"type":"MultiLineString","coordinates":[[[-87.64566,41.87555],[-87.64565,41.87488],[-87.64569,41.87401],[-87.64567,41.87364],[-87.64559,41.87308],[-87.64549,41.87258],[-87.64528,41.87175],[-87.64518,41.8709],[-87.64511,41.87049],[-87.64498,41.86949],[-87.6449,41.86869],[-87.64475,41.86736],[-87.64461,41.86445],[-87.64456,41.86296],[-87.64451,41.86114],[-87.64443,41.85859],[-87.64436,41.85737],[-87.64436,41.85694],[-87.64442,41.8564],[-87.64452,41.85602],[-87.64491,41.85471],[-87.64522,41.8536],[-87.64532,41.85315],[-87.64539,41.85265],[-87.6454,41.8524],[-87.64534,41.85172],[-87.64525,41.85125],[-87.645,41.85061],[-87.64476,41.85016],[-87.64426,41.84934],[-87.644,41.84887],[-87.64365,41.84837],[-87.64336,41.84806],[-87.64301,41.84776],[-87.64258,41.84747],[-87.64243,41.84738],[-87.64226,41.84729],[-87.64219,41.84726],[-87.64212,41.84722],[-87.64193,41.84714],[-87.6418,41.84709],[-87.64168,41.84704],[-87.64087,41.8468],[-87.63802,41.84612],[-87.63737,41.84597],[-87.63469,41.84533]],[[-87.63435,41.8454],[-87.6398,41.8467],[-87.64076,41.84692],[-87.64137,41.84709],[-87.64146,41.84712],[-87.64158,41.84716],[-87.64164,41.84719],[-87.64172,41.84721],[-87.64178,41.84724],[-87.64189,41.84729],[-87.64196,41.84732],[-87.64204,41.84735],[-87.64257,41.84765],[-87.643,41.84797],[-87.64328,41.84822],[-87.64355,41.84854],[-87.64421,41.84959],[-87.64472,41.8505],[-87.64484,41.85076],[-87.64505,41.85132],[-87.64516,41.85189],[-87.64518,41.85215],[-87.64518,41.85275],[-87.64514,41.8531],[-87.64507,41.85341],[-87.64429,41.85609],[-87.64419,41.85647],[-87.64416,41.85702],[-87.64417,41.85775],[-87.64426,41.86015],[-87.64432,41.86253],[-87.64442,41.8658],[-87.64452,41.86784],[-87.64459,41.86869],[-87.64469,41.86943],[-87.6448,41.87057],[-87.64482,41.87112],[-87.64482,41.87245],[-87.64483,41.87319],[-87.64489,41.87396],[-87.64496,41.87437],[-87.64517,41.87511],[-87.64526,41.87555]],[[-87.63469,41.84533],[-87.63374,41.84496],[-87.63341,41.8448],[-87.633,41.84456],[-87.63248,41.84413],[-87.63212,41.84373],[-87.63197,41.84351],[-87.63169,41.84301],[-87.63156,41.84252],[-87.63151,41.8419],[-87.63149,41.84089],[-87.63133,41.8389],[-87.63121,41.83638],[-87.63118,41.83478],[-87.63116,41.83425],[-87.63107,41.83055],[-87.63092,41.82454],[-87.6308,41.82006],[-87.63079,41.81912],[-87.63072,41.81624],[-87.63071,41.81502],[-87.6307,41.81269],[-87.63078,41.81205],[-87.63097,41.81143],[-87.63165,41.81017],[-87.63193,41.80956],[-87.63209,41.8091],[-87.63223,41.80798],[-87.63223,41.80738],[-87.63217,41.80528],[-87.63214,41.80486],[-87.63196,41.80327],[-87.63182,41.80214],[-87.63178,41.80165],[-87.63172,41.80007],[-87.6317,41.79894],[-87.63161,41.79563],[-87.63152,41.79209],[-87.63151,41.79031],[-87.63153,41.78948],[-87.63163,41.78743],[-87.63163,41.7865],[-87.63141,41.77957],[-87.63135,41.7792],[-87.63119,41.77865],[-87.63116,41.77846],[-87.63103,41.77818],[-87.63069,41.77764],[-87.63041,41.77729],[-87.62982,41.77666],[-87.62753,41.77462],[-87.62729,41.77437],[-87.62684,41.77376],[-87.62669,41.77351],[-87.62653,41.77317],[-87.62641,41.77277],[-87.62627,41.77209],[-87.62623,41.77166],[-87.62612,41.76939],[-87.62604,41.76893]],[[-87.63469,41.84533],[-87.63444,41.8453],[-87.63365,41.84509],[-87.63315,41.8449],[-87.63269,41.84466],[-87.63206,41.84421],[-87.63185,41.84402],[-87.63147,41.84359],[-87.63116,41.84306],[-87.63102,41.84269],[-87.63091,41.84209],[-87.63092,41.84168],[-87.63098,41.84116],[-87.63104,41.84037],[-87.63104,41.83983],[-87.63107,41.8395],[-87.63098,41.83622],[-87.63081,41.82921],[-87.63071,41.82547],[-87.63066,41.82328],[-87.63052,41.81765],[-87.63045,41.81598],[-87.63037,41.81294],[-87.6304,41.81226],[-87.63046,41.81195],[-87.63068,41.81132],[-87.63085,41.81101],[-87.63145,41.81002],[-87.63163,41.80968],[-87.63178,41.80931],[-87.63189,41.80894],[-87.63198,41.80832],[-87.63198,41.808],[-87.6319,41.80696],[-87.63187,41.80627],[-87.63175,41.80472],[-87.63164,41.80316],[-87.63159,41.80202],[-87.63154,41.80122],[-87.6315,41.79984],[-87.63136,41.79437],[-87.63129,41.79178],[-87.63122,41.7896],[-87.63123,41.78887],[-87.63127,41.78774],[-87.63135,41.78631],[-87.63136,41.78501],[-87.63127,41.782],[-87.63123,41.78008],[-87.63121,41.77969],[-87.63107,41.77899],[-87.63094,41.77861],[-87.63077,41.77826],[-87.63055,41.77789],[-87.63021,41.77743],[-87.62961,41.77684],[-87.6282,41.77579],[-87.62767,41.77535],[-87.62736,41.77502],[-87.62705,41.77464],[-87.62668,41.77407],[-87.62635,41.77335],[-87.62624,41.77301],[-87.62611,41.77223],[-87.626,41.76939],[-87.62604,41.76893]],[[-87.62562,41.76863],[-87.62566,41.76892],[-87.62573,41.77215],[-87.62578,41.77259],[-87.62585,41.77297],[-87.62607,41.77363],[-87.6264,41.77429],[-87.62683,41.7749],[-87.62713,41.77525],[-87.62739,41.77551],[-87.62805,41.77605],[-87.62913,41.77686],[-87.62963,41.77731],[-87.62986,41.77755],[-87.63012,41.77788],[-87.63031,41.77817],[-87.63059,41.77878],[-87.63068,41.77911],[-87.63075,41.77949],[-87.63079,41.78042],[-87.63081,41.78199],[-87.63086,41.7846],[-87.63083,41.78736],[-87.63083,41.78826],[-87.63085,41.78932],[-87.63097,41.79406],[-87.63104,41.79647],[-87.63112,41.7986],[-87.63119,41.80138],[-87.63125,41.80233],[-87.63145,41.80519],[-87.63159,41.80693],[-87.63164,41.80781],[-87.63165,41.80822],[-87.63163,41.80856],[-87.63156,41.80887],[-87.63142,41.80932],[-87.63119,41.80981],[-87.63048,41.8109],[-87.63023,41.81142],[-87.63008,41.812],[-87.63003,41.81264],[-87.63009,41.81455],[-87.63011,41.81593],[-87.63027,41.82279],[-87.63037,41.82688],[-87.63067,41.83863],[-87.63072,41.83885],[-87.63079,41.84185],[-87.63081,41.84217],[-87.63089,41.84262],[-87.63096,41.84286],[-87.63118,41.84333],[-87.63157,41.84387],[-87.63193,41.84423],[-87.63238,41.84457],[-87.63267,41.84475],[-87.63343,41.8451],[-87.63435,41.8454]],[[-87.62562,41.76863],[-87.62555,41.76893],[-87.62557,41.76969],[-87.62557,41.77249],[-87.62556,41.77274],[-87.62563,41.77325],[-87.6257,41.77354],[-87.62583,41.77392],[-87.62601,41.77431],[-87.62625,41.77472],[-87.62649,41.77505],[-87.62686,41.77544],[-87.62715,41.77571],[-87.62747,41.77597],[-87.62847,41.77664],[-87.62915,41.77713],[-87.62937,41.77731],[-87.62982,41.77779],[-87.63001,41.77806],[-87.63028,41.77856],[-87.63042,41.77896],[-87.63053,41.77958],[-87.63055,41.78007],[-87.6306,41.78185],[-87.6306,41.78361],[-87.63057,41.78504],[-87.63055,41.78549],[-87.63055,41.78615],[-87.63063,41.78953],[-87.63076,41.7944],[-87.63089,41.79912],[-87.63093,41.801],[-87.63097,41.80196],[-87.63104,41.80316],[-87.63113,41.8051],[-87.63119,41.80599],[-87.63139,41.80787],[-87.63142,41.80799],[-87.63137,41.8086],[-87.63123,41.80916],[-87.63112,41.80945],[-87.63098,41.80972],[-87.63013,41.811],[-87.62996,41.81133],[-87.62984,41.81164],[-87.62975,41.81197],[-87.62966,41.81279],[-87.62969,41.81336],[-87.62977,41.81425],[-87.62987,41.81611],[-87.62989,41.81699],[-87.62997,41.81995],[-87.63006,41.82385],[-87.63015,41.82719],[-87.63023,41.83052],[-87.63032,41.83387],[-87.63034,41.83499],[-87.63038,41.83616],[-87.63039,41.83774],[-87.63036,41.83791],[-87.63028,41.84177],[-87.63032,41.84238],[-87.63045,41.84288],[-87.63058,41.84319],[-87.63085,41.84363],[-87.63115,41.84396],[-87.63156,41.84431],[-87.63181,41.84449],[-87.63254,41.84489],[-87.63283,41.84501],[-87.63346,41.84523],[-87.634,41.84536],[-87.63435,41.8454]],[[-87.62604,41.76893],[-87.62602,41.76818],[-87.626,41.76678],[-87.62595,41.76529],[-87.6259,41.76225],[-87.62584,41.75987],[-87.62581,41.75844],[-87.62577,41.75615],[-87.62575,41.75549],[-87.6257,41.75474],[-87.62557,41.75344],[-87.62545,41.75185],[-87.62536,41.74942],[-87.62532,41.74777],[-87.62527,41.74599],[-87.62524,41.74531],[-87.62518,41.74349],[-87.62499,41.7359],[-87.62496,41.73459],[-87.62492,41.73329],[-87.6248,41.72893],[-87.62477,41.72726],[-87.62464,41.72363],[-87.62461,41.72073],[-87.62468,41.72015]],[[-87.62412,41.72044],[-87.62423,41.72355],[-87.62434,41.72778],[-87.62437,41.72915],[-87.62444,41.73075],[-87.62444,41.73134],[-87.62448,41.73325],[-87.62455,41.73603],[-87.6247,41.74108],[-87.62478,41.74392],[-87.62478,41.74478],[-87.62491,41.74937],[-87.625,41.75204],[-87.62508,41.75308],[-87.62524,41.75472],[-87.62529,41.75549],[-87.62532,41.75617],[-87.62535,41.75743],[-87.62538,41.75931],[-87.62546,41.7631],[-87.62548,41.76481],[-87.62552,41.7661],[-87.62562,41.76863]]]},"properties":{"route":"90/94","name":"Dan Ryan Expressway (I-90/I-94)","kind":"provincial"}},
{"type":"Feature","geometry":{"type":"MultiLineString","coordinates":[[[-87.65375,41.98555],[-87.65339,41.9853],[-87.65321,41.9851],[-87.65311,41.98486],[-87.65309,41.9847],[-87.65307,41.98341],[-87.653,41.98255],[-87.65287,41.98185],[-87.65271,41.98123],[-87.65246,41.98059],[-87.65191,41.97935],[-87.64985,41.97493],[-87.64928,41.97361],[-87.64908,41.97301],[-87.64882,41.97213],[-87.64855,41.97096],[-87.64842,41.97044],[-87.64782,41.96784],[-87.64728,41.96554],[-87.64699,41.96421],[-87.64648,41.96205],[-87.64639,41.96138],[-87.64634,41.96073],[-87.64628,41.95962],[-87.64625,41.95933],[-87.64614,41.95881],[-87.64594,41.95805],[-87.64573,41.95743],[-87.64519,41.95611],[-87.64505,41.95573],[-87.64491,41.9552],[-87.64479,41.95456],[-87.64475,41.95375],[-87.64481,41.95213],[-87.64481,41.95183],[-87.64469,41.95119],[-87.64451,41.95076],[-87.64328,41.94873],[-87.64178,41.94615],[-87.64053,41.94382],[-87.6403,41.94338],[-87.63978,41.94245],[-87.63957,41.94204],[-87.63931,41.94159],[-87.63896,41.94107],[-87.63852,41.94051],[-87.63811,41.94003],[-87.63784,41.93975],[-87.63734,41.9393],[-87.63683,41.9389],[-87.63578,41.93814],[-87.63442,41.93714],[-87.634,41.93679],[-87.63351,41.93629],[-87.63325,41.93599],[-87.6329,41.93549],[-87.63264,41.93504],[-87.63245,41.93464],[-87.63227,41.93408],[-87.63215,41.93354],[-87.63211,41.93316],[-87.63211,41.93237],[-87.63213,41.93146],[-87.63216,41.92929],[-87.63212,41.92887],[-87.63198,41.92813],[-87.6314,41.92626],[-87.6313,41.92597],[-87.63077,41.92425],[-87.6306,41.92374],[-87.62982,41.92124],[-87.62958,41.92011],[-87.62919,41.91873],[-87.62885,41.91782],[-87.62818,41.9163],[-87.62752,41.91509],[-87.62693,41.9139],[-87.62634,41.91273],[-87.62614,41.9123],[-87.62605,41.912],[-87.62601,41.9117],[-87.62598,41.91055],[-87.62595,41.90985],[-87.62586,41.90907],[-87.6257,41.90835],[-87.62486,41.90491],[-87.6246,41.9039],[-87.62434,41.90306],[-87.62421,41.90273],[-87.62401,41.90243],[-87.62362,41.90203],[-87.62343,41.90189],[-87.62287,41.90158],[-87.62242,41.90142],[-87.62192,41.90131],[-87.62167,41.90128],[-87.6205,41.90122],[-87.62017,41.90118],[-87.61974,41.901],[-87.61962,41.9009],[-87.61942,41.90063],[-87.61878,41.89966],[-87.6175,41.89777],[-87.61689,41.89684],[-87.61611,41.89572],[-87.61547,41.89475],[-87.61454,41.89343],[-87.61437,41.89316],[-87.61426,41.89287],[-87.6142,41.89242],[-87.61425,41.89069],[-87.61424,41.89013],[-87.61415,41.88738],[-87.61409,41.8858],[-87.61408,41.88525],[-87.61418,41.88473],[-87.61427,41.88452],[-87.61446,41.88423],[-87.61492,41.88381],[-87.61527,41.8836],[-87.6164,41.88307],[-87.61669,41.88287],[-87.61714,41.88244],[-87.61732,41.88217],[-87.61742,41.88193],[-87.61748,41.88164],[-87.61751,41.88092],[-87.61748,41.88023],[-87.61745,41.87856],[-87.61744,41.87839],[-87.61739,41.87592],[-87.61738,41.87574],[-87.61733,41.87344],[-87.6173,41.87302],[-87.61725,41.87086],[-87.61724,41.87004],[-87.61726,41.86977],[-87.6174,41.86933],[-87.61756,41.86906],[-87.61794,41.86863],[-87.61902,41.86747],[-87.61923,41.86721],[-87.61938,41.86697],[-87.61955,41.86652],[-87.61959,41.86621],[-87.61956,41.86585],[-87.61941,41.86511],[-87.61914,41.86388],[-87.61879,41.86269],[-87.61865,41.86225],[-87.61831,41.86139],[-87.61741,41.85932],[-87.61682,41.85807],[-87.61623,41.85687],[-87.61507,41.85401],[-87.61481,41.8534],[-87.61426,41.85225],[-87.61376,41.85118],[-87.61325,41.8499],[-87.61289,41.84906],[-87.61249,41.84809],[-87.61169,41.84605],[-87.61113,41.8445],[-87.60976,41.84116],[-87.60883,41.83902],[-87.60842,41.83801],[-87.60826,41.83747],[-87.60817,41.8368],[-87.60809,41.83549],[-87.608,41.83464],[-87.60789,41.83414],[-87.60773,41.83364],[-87.60736,41.83285],[-87.60712,41.83247],[-87.60683,41.83206],[-87.60639,41.8315],[-87.606,41.83097],[-87.60514,41.82987],[-87.6048,41.82949],[-87.6041,41.82884],[-87.60317,41.8281],[-87.60203,41.82718],[-87.60157,41.82679],[-87.60124,41.82645],[-87.60084,41.82593],[-87.60064,41.82559],[-87.6003,41.82486],[-87.59885,41.8218],[-87.59852,41.82124],[-87.59834,41.82098],[-87.59636,41.81839],[-87.595,41.81662],[-87.59428,41.81567],[-87.59398,41.8153],[-87.59318,41.8145],[-87.59252,41.81397],[-87.59164,41.81334],[-87.59134,41.81311],[-87.59058,41.81239],[-87.59022,41.812],[-87.58947,41.81097],[-87.58912,41.81052],[-87.58844,41.80969],[-87.58752,41.80868],[-87.58669,41.80782],[-87.58593,41.80696],[-87.58537,41.80644],[-87.5848,41.80605],[-87.58325,41.80505],[-87.5828,41.80469],[-87.5823,41.80415],[-87.5821,41.80386],[-87.5819,41.80349],[-87.58175,41.80312],[-87.58161,41.80253],[-87.58157,41.80185],[-87.58154,41.80006],[-87.58144,41.79936],[-87.58135,41.79907],[-87.58118,41.79867],[-87.58079,41.79805],[-87.58046,41.79767],[-87.57984,41.79708],[-87.57956,41.79675],[-87.57927,41.7962],[-87.57919,41.79578],[-87.57922,41.79523],[-87.57929,41.795],[-87.57946,41.79463],[-87.57994,41.79391],[-87.58005,41.79371],[-87.58026,41.79318],[-87.58035,41.79276],[-87.58033,41.79208],[-87.58024,41.79166],[-87.58011,41.79138],[-87.57994,41.79112],[-87.5794,41.7904],[-87.57911,41.79009],[-87.57854,41.7896],[-87.57819,41.78918],[-87.57808,41.78893],[-87.57801,41.78867],[-87.57775,41.78672],[-87.57769,41.7864],[-87.57756,41.78596],[-87.57725,41.78506],[-87.57697,41.78444],[-87.57644,41.78342],[-87.57614,41.78289],[-87.57574,41.78229],[-87.57512,41.78144],[-87.57503,41.78129]],[[-87.57463,41.78071],[-87.57474,41.78112],[-87.57493,41.78146],[-87.57564,41.7824],[-87.57595,41.78284],[-87.57632,41.78345],[-87.57679,41.78435],[-87.57705,41.78492],[-87.57728,41.78549],[-87.57756,41.78639],[-87.57764,41.78675],[-87.57787,41.78872],[-87.57799,41.7891],[-87.57824,41.78949],[-87.57841,41.78967],[-87.579,41.79016],[-87.57935,41.79057],[-87.57982,41.79124],[-87.58,41.79154],[-87.58011,41.79186],[-87.58018,41.79264],[-87.58014,41.79303],[-87.58002,41.79348],[-87.57983,41.79388],[-87.57945,41.79444],[-87.57921,41.79483],[-87.57911,41.7951],[-87.57904,41.79555],[-87.57906,41.7959],[-87.57915,41.79624],[-87.57934,41.79664],[-87.57968,41.79708],[-87.58034,41.79772],[-87.58078,41.79825],[-87.58109,41.79878],[-87.58131,41.79944],[-87.58137,41.79973],[-87.58139,41.80002],[-87.58145,41.8024],[-87.58152,41.80291],[-87.58174,41.80354],[-87.58193,41.8039],[-87.58223,41.80432],[-87.58255,41.80466],[-87.5828,41.80489],[-87.58312,41.80514],[-87.58491,41.80631],[-87.58546,41.80676],[-87.58572,41.80702],[-87.58603,41.80741],[-87.58684,41.80856],[-87.58714,41.80894],[-87.58808,41.81006],[-87.58963,41.81193],[-87.58993,41.81226],[-87.59039,41.81272],[-87.59074,41.813],[-87.5926,41.81436],[-87.59292,41.81463],[-87.59345,41.81512],[-87.59392,41.81566],[-87.59469,41.81667],[-87.59553,41.81775],[-87.59648,41.81901],[-87.5971,41.81981],[-87.59816,41.82121],[-87.59849,41.82175],[-87.59873,41.8222],[-87.59963,41.82401],[-87.6003,41.82538],[-87.60071,41.82608],[-87.60095,41.8264],[-87.60152,41.827],[-87.60288,41.82814],[-87.60429,41.82937],[-87.60472,41.82981],[-87.60496,41.83009],[-87.60573,41.83108],[-87.60673,41.83239],[-87.6071,41.83297],[-87.60735,41.83348],[-87.60753,41.83398],[-87.60767,41.83449],[-87.60775,41.83502],[-87.60787,41.8368],[-87.60796,41.83752],[-87.60814,41.83814],[-87.60852,41.83906],[-87.60954,41.84146],[-87.60981,41.84204],[-87.61043,41.84351],[-87.61084,41.84456],[-87.61127,41.84569],[-87.6115,41.84632],[-87.61223,41.84861],[-87.61263,41.84984],[-87.61293,41.85081],[-87.61331,41.85199],[-87.61347,41.85244],[-87.61367,41.85292],[-87.61385,41.85324],[-87.61426,41.85387],[-87.61443,41.85418],[-87.61486,41.85478],[-87.61517,41.85531],[-87.61648,41.85794],[-87.61658,41.85813],[-87.61718,41.85938],[-87.61762,41.86034],[-87.61816,41.86165],[-87.61833,41.86213],[-87.61852,41.86277],[-87.61871,41.86352],[-87.619,41.86489],[-87.61922,41.86597],[-87.61924,41.86647],[-87.61915,41.86688],[-87.61898,41.86721],[-87.61753,41.86875],[-87.61726,41.8691],[-87.61709,41.86946],[-87.617,41.8698],[-87.61699,41.87004],[-87.61704,41.872],[-87.61707,41.87356],[-87.61712,41.87574],[-87.61715,41.87671],[-87.61724,41.88076],[-87.61724,41.88138],[-87.61717,41.88183],[-87.617,41.8822],[-87.61672,41.88256],[-87.61628,41.88288],[-87.61584,41.88307],[-87.61507,41.88334],[-87.6146,41.88356],[-87.61435,41.88373],[-87.61408,41.88398],[-87.6139,41.8842],[-87.61372,41.88451],[-87.61364,41.88476],[-87.6136,41.88507],[-87.61363,41.88548],[-87.61374,41.88611],[-87.61381,41.88666],[-87.61393,41.8874],[-87.61398,41.88795],[-87.61401,41.8891],[-87.614,41.88973],[-87.61391,41.89057],[-87.61392,41.89128],[-87.61394,41.89149],[-87.61395,41.89228],[-87.614,41.89273],[-87.61417,41.89319],[-87.61429,41.89339],[-87.61508,41.89446],[-87.61525,41.89472],[-87.61647,41.89651],[-87.61733,41.89779],[-87.61836,41.89929],[-87.61934,41.90079],[-87.61944,41.90092],[-87.61972,41.90115],[-87.62011,41.90131],[-87.62037,41.90136],[-87.62159,41.90144],[-87.62215,41.90152],[-87.62253,41.90163],[-87.62304,41.90186],[-87.62344,41.90213],[-87.62372,41.90239],[-87.62391,41.90264],[-87.62405,41.90289],[-87.6242,41.90333],[-87.62452,41.90448],[-87.62479,41.90557],[-87.62488,41.906],[-87.62519,41.90725],[-87.62538,41.90795],[-87.62563,41.90899],[-87.62571,41.90963],[-87.62578,41.91109],[-87.6258,41.91171],[-87.62589,41.91214],[-87.62599,41.91244],[-87.62638,41.91321],[-87.62726,41.915],[-87.62796,41.91632],[-87.62829,41.91699],[-87.62867,41.91785],[-87.62893,41.91856],[-87.6292,41.91941],[-87.62938,41.92014],[-87.62962,41.92122],[-87.63068,41.92461],[-87.63122,41.9263],[-87.63174,41.92797],[-87.63189,41.92858],[-87.63193,41.92892],[-87.63195,41.93033],[-87.6319,41.93286],[-87.63191,41.93317],[-87.632,41.93383],[-87.63215,41.93438],[-87.6324,41.93499],[-87.63261,41.93539],[-87.63316,41.93616],[-87.63344,41.93648],[-87.63391,41.93694],[-87.63418,41.93717],[-87.6353,41.938],[-87.63676,41.93907],[-87.63731,41.9395],[-87.63754,41.93971],[-87.63821,41.94042],[-87.63883,41.94122],[-87.6391,41.94161],[-87.64094,41.94499],[-87.64131,41.94569],[-87.64225,41.94736],[-87.64315,41.94889],[-87.64414,41.95052],[-87.64438,41.95093],[-87.6445,41.95125],[-87.6446,41.95184],[-87.6446,41.95204],[-87.64454,41.95379],[-87.64457,41.95457],[-87.6447,41.95527],[-87.6449,41.95597],[-87.64569,41.95795],[-87.64588,41.95865],[-87.64601,41.95923],[-87.64606,41.95967],[-87.64615,41.96125],[-87.64626,41.96208],[-87.64669,41.96402],[-87.64704,41.96557],[-87.64754,41.96772],[-87.64795,41.96952],[-87.64824,41.97091],[-87.64874,41.97305],[-87.64921,41.97438],[-87.64987,41.97583],[-87.65031,41.97676],[-87.65201,41.9804],[-87.65213,41.98069],[-87.65239,41.98144],[-87.65258,41.9823],[-87.65264,41.98274],[-87.65269,41.98337],[-87.65271,41.9846],[-87.65276,41.98487],[-87.65285,41.98503],[-87.65307,41.98527],[-87.65349,41.9855],[-87.65375,41.98555]]]},"properties":{"route":"LSD","name":"Lake Shore Drive","kind":"city"}},
{"type":"Feature","geometry":{"type":"MultiLineString","coordinates":[[[-87.63119,41.77865],[-87.63107,41.77847],[-87.6309,41.77811],[-87.63059,41.77764],[-87.63036,41.77736],[-87.62995,41.77693],[-87.62922,41.77631],[-87.62858,41.77579],[-87.6281,41.77549],[-87.6278,41.77535],[-87.6275,41.77523],[-87.62721,41.77514],[-87.6269,41.77506],[-87.62662,41.775],[-87.6263,41.77496],[-87.62599,41.77493],[-87.62546,41.77492],[-87.62277,41.77497],[-87.62233,41.77497],[-87.62187,41.77494],[-87.62116,41.77483],[-87.6204,41.77459],[-87.62008,41.77445],[-87.61971,41.77425],[-87.61913,41.77387],[-87.61783,41.77283],[-87.61624,41.7716],[-87.61527,41.77089],[-87.61438,41.77026],[-87.61195,41.76851],[-87.61026,41.7673],[-87.6057,41.76401],[-87.60342,41.76238],[-87.60075,41.76046],[-87.59846,41.75882],[-87.59739,41.75806],[-87.59668,41.75754],[-87.5949,41.75626],[-87.593,41.75488],[-87.59138,41.75372],[-87.59119,41.75357],[-87.58841,41.75158],[-87.58809,41.75136],[-87.58533,41.74936],[-87.58321,41.74784],[-87.58149,41.7466],[-87.58057,41.74595],[-87.57841,41.7444],[-87.57812,41.74421],[-87.57704,41.74346],[-87.57453,41.74165],[-87.57317,41.74064],[-87.57101,41.73902],[-87.56918,41.73769],[-87.56834,41.73699],[-87.56782,41.73649]],[[-87.62345,41.77505],[-87.62497,41.77508],[-87.62531,41.77512],[-87.62581,41.77523],[-87.62612,41.77532],[-87.6264,41.77544],[-87.6269,41.77571],[-87.62761,41.77619],[-87.62908,41.7772],[-87.62934,41.77742],[-87.62971,41.7778],[-87.63013,41.77842],[-87.63028,41.77856]],[[-87.62345,41.77505],[-87.62378,41.77502],[-87.62505,41.775],[-87.62547,41.77501],[-87.62612,41.77513],[-87.6267,41.77533],[-87.62697,41.77546],[-87.62754,41.77584],[-87.62808,41.77624],[-87.62886,41.77677],[-87.62931,41.77711],[-87.62963,41.77731]],[[-87.56522,41.73494],[-87.56595,41.73551],[-87.56717,41.73644],[-87.56997,41.73845],[-87.5706,41.73891],[-87.57293,41.74064],[-87.57443,41.74176],[-87.57691,41.74355],[-87.57912,41.74508],[-87.58137,41.74669],[-87.58308,41.74793],[-87.58325,41.74806],[-87.58534,41.74955],[-87.5861,41.75011],[-87.58784,41.75136],[-87.58816,41.75158],[-87.59107,41.75366],[-87.59126,41.75381],[-87.59288,41.75498],[-87.5948,41.75634],[-87.59657,41.75762],[-87.60028,41.76031],[-87.60277,41.76209],[-87.60536,41.76396],[-87.60785,41.76574],[-87.60812,41.76594],[-87.61027,41.76748],[-87.61061,41.76773],[-87.61383,41.77004],[-87.61438,41.77042],[-87.61626,41.77178],[-87.61697,41.77231],[-87.61839,41.77341],[-87.61904,41.77393],[-87.61934,41.77415],[-87.61965,41.77434],[-87.62023,41.77462],[-87.62056,41.77474],[-87.62106,41.77488],[-87.62177,41.77501],[-87.62216,41.77504],[-87.62345,41.77505]],[[-87.56509,41.73434],[-87.56414,41.73369],[-87.56389,41.73355],[-87.56271,41.73301],[-87.56204,41.73265],[-87.56124,41.7321],[-87.55928,41.73069],[-87.55718,41.72917],[-87.55565,41.72808],[-87.55357,41.72658],[-87.55168,41.72523],[-87.55065,41.72443],[-87.5501,41.72395],[-87.54963,41.72351],[-87.54909,41.72295],[-87.54833,41.72213],[-87.54788,41.72163],[-87.54741,41.72114],[-87.54682,41.72057],[-87.5463,41.72011],[-87.54578,41.71968],[-87.54524,41.71928],[-87.54436,41.71866],[-87.5415,41.71672],[-87.54066,41.71614],[-87.54016,41.71583],[-87.53963,41.71553],[-87.53924,41.71534],[-87.53714,41.71444],[-87.53672,41.71422],[-87.53602,41.71381],[-87.53541,41.71339],[-87.53482,41.71291],[-87.53377,41.71194],[-87.53309,41.7113],[-87.53085,41.70926],[-87.5296,41.70811],[-87.5281,41.70671],[-87.52711,41.7058],[-87.52641,41.7051],[-87.5256,41.70427],[-87.52476,41.70335],[-87.5244,41.70293]],[[-87.5244,41.70308],[-87.52508,41.70385],[-87.52552,41.70433],[-87.52649,41.70534],[-87.52745,41.70625],[-87.52879,41.70748],[-87.53096,41.70952],[-87.53469,41.71297],[-87.53501,41.71324],[-87.53559,41.71367],[-87.53623,41.71408],[-87.53664,41.71431],[-87.53744,41.7147],[-87.53916,41.71543],[-87.54007,41.71591],[-87.54057,41.71622],[-87.54105,41.71656],[-87.54424,41.71872],[-87.54514,41.71935],[-87.54567,41.71976],[-87.54645,41.7204],[-87.54729,41.7212],[-87.54776,41.72169],[-87.54863,41.72265],[-87.54953,41.72359],[-87.55026,41.72426],[-87.55083,41.72474],[-87.55158,41.72531],[-87.55369,41.72685],[-87.55541,41.72809],[-87.55574,41.72832],[-87.55813,41.73005],[-87.56167,41.73259]]]},"properties":{"route":"90","name":"Chicago Skyway (I-90)","kind":"provincial"}},
{"type":"Feature","geometry":{"type":"MultiLineString","coordinates":[[[-87.62468,41.72015],[-87.62498,41.71919],[-87.62514,41.71876],[-87.62552,41.71801],[-87.62566,41.71779],[-87.62609,41.71724],[-87.62634,41.71698],[-87.62696,41.71646],[-87.62738,41.71618],[-87.62788,41.7159],[-87.62827,41.71571],[-87.62871,41.71553],[-87.62922,41.71535],[-87.62971,41.71522],[-87.63045,41.71505],[-87.63105,41.71499],[-87.63156,41.71496],[-87.63588,41.71489],[-87.63619,41.71489],[-87.64048,41.71484],[-87.64324,41.71479],[-87.6453,41.71476],[-87.64729,41.71476],[-87.64824,41.71472],[-87.64865,41.71468],[-87.64905,41.71461],[-87.64961,41.71448],[-87.64999,41.71436],[-87.65078,41.71404],[-87.65112,41.71386],[-87.65181,41.71339],[-87.65227,41.71298],[-87.65253,41.71269],[-87.65291,41.71215],[-87.65318,41.71159],[-87.65336,41.71095],[-87.65339,41.71064],[-87.65339,41.71022],[-87.65336,41.70882],[-87.65319,41.70255],[-87.65319,41.70196],[-87.65322,41.70159],[-87.65338,41.70092],[-87.65367,41.70031],[-87.65388,41.69999],[-87.65436,41.69941],[-87.65491,41.69892],[-87.65557,41.69848],[-87.65678,41.69787],[-87.65754,41.69743],[-87.65795,41.69712],[-87.65837,41.69674],[-87.65894,41.69606],[-87.65921,41.69564],[-87.65946,41.69503],[-87.66077,41.69148],[-87.66148,41.68963],[-87.66178,41.68874],[-87.66202,41.68782],[-87.66221,41.68693],[-87.66226,41.68659],[-87.66235,41.68547],[-87.66232,41.68407],[-87.66222,41.68085],[-87.66216,41.67857],[-87.66215,41.67776],[-87.66213,41.67703]],[[-87.66176,41.67344],[-87.66171,41.67396],[-87.66169,41.67489],[-87.66177,41.67777],[-87.66185,41.68112],[-87.6619,41.68217],[-87.66193,41.68329],[-87.66196,41.68523],[-87.66194,41.68577],[-87.6619,41.6863],[-87.66182,41.68696],[-87.6617,41.6876],[-87.66155,41.68822],[-87.6613,41.68901],[-87.66075,41.69055],[-87.65993,41.69271],[-87.65901,41.69519],[-87.65869,41.6958],[-87.65828,41.69636],[-87.65787,41.69678],[-87.65742,41.69713],[-87.65698,41.69742],[-87.65667,41.69759],[-87.65562,41.69812],[-87.65499,41.69848],[-87.65479,41.69862],[-87.65425,41.69907],[-87.65381,41.69953],[-87.65338,41.70011],[-87.65308,41.70071],[-87.65289,41.70137],[-87.65281,41.70208],[-87.65292,41.70659],[-87.65301,41.71044],[-87.65299,41.71074],[-87.65289,41.71128],[-87.65282,41.71149],[-87.65244,41.71225],[-87.65199,41.71278],[-87.65161,41.71314],[-87.65113,41.71348],[-87.65078,41.71369],[-87.65008,41.71402],[-87.6497,41.71416],[-87.64895,41.71434],[-87.64861,41.7144],[-87.64781,41.71446],[-87.64725,41.71448],[-87.64008,41.71457],[-87.63728,41.71459],[-87.63181,41.71467],[-87.63064,41.7147],[-87.63013,41.71474],[-87.62958,41.71482],[-87.62899,41.71495],[-87.62823,41.71517],[-87.62762,41.71542],[-87.62703,41.71571],[-87.62646,41.71607],[-87.6259,41.71648],[-87.62556,41.7168],[-87.62515,41.71727],[-87.62482,41.71775],[-87.62464,41.71806],[-87.62442,41.71857],[-87.6243,41.71893],[-87.62418,41.71956],[-87.62417,41.7201],[-87.62412,41.72044]]]},"properties":{"route":"57","name":"Interstate 57 (I-57)","kind":"provincial"}},
{"type":"Feature","geometry":{"type":"MultiLineString","coordinates":[[[-87.75014,41.99745],[-87.75034,41.99696],[-87.75054,41.9964],[-87.75078,41.99549],[-87.75092,41.99466],[-87.75114,41.99241],[-87.75127,41.99103],[-87.75132,41.99033],[-87.75143,41.98916],[-87.75154,41.98785],[-87.75152,41.98722],[-87.75146,41.9868],[-87.75134,41.98636],[-87.75123,41.98606],[-87.75081,41.98526],[-87.75029,41.9846],[-87.74922,41.98343],[-87.74853,41.98269],[-87.74792,41.98201],[-87.74726,41.9812],[-87.74707,41.98087],[-87.74692,41.9805],[-87.74679,41.97994],[-87.74674,41.97936],[-87.74676,41.97906],[-87.74691,41.97843],[-87.74729,41.97742],[-87.74749,41.97679],[-87.74757,41.97625],[-87.7476,41.97582],[-87.74747,41.97135],[-87.74743,41.97074],[-87.74728,41.96921],[-87.74726,41.96887],[-87.74723,41.96781],[-87.74722,41.96613],[-87.74714,41.96471],[-87.7471,41.96433],[-87.74701,41.96391],[-87.74686,41.96353],[-87.74671,41.96326],[-87.74662,41.96316],[-87.74653,41.96303],[-87.74642,41.96289],[-87.74623,41.96266],[-87.74609,41.96248],[-87.7459,41.96226],[-87.74569,41.96208],[-87.74508,41.96168],[-87.74294,41.96037],[-87.74266,41.96029]],[[-87.74259,41.96097],[-87.74288,41.96128],[-87.74369,41.96193],[-87.74552,41.96336],[-87.74613,41.96395],[-87.74631,41.96419],[-87.74652,41.96454],[-87.74668,41.96486],[-87.74681,41.96526],[-87.7469,41.96581],[-87.74702,41.96725],[-87.74706,41.96862],[-87.74713,41.9696],[-87.74728,41.97117],[-87.74732,41.97202],[-87.74743,41.97572],[-87.7474,41.9762],[-87.74735,41.97658],[-87.74713,41.97732],[-87.74672,41.97849],[-87.74663,41.97883],[-87.74658,41.97915],[-87.74657,41.9796],[-87.74661,41.98004],[-87.7468,41.98064],[-87.74702,41.98112],[-87.74746,41.98172],[-87.74792,41.98225],[-87.75025,41.9848],[-87.75064,41.98532],[-87.75097,41.9859],[-87.75113,41.98627],[-87.75125,41.98663],[-87.75135,41.98722],[-87.75137,41.98759],[-87.75135,41.98805],[-87.75105,41.99137],[-87.75097,41.99214],[-87.7509,41.99297],[-87.75074,41.99467],[-87.75059,41.9955],[-87.75033,41.99641],[-87.75009,41.99709],[-87.74979,41.99779]]]},"properties":{"route":"94","name":"Edens Expressway (I-94)","kind":"provincial"}},
{"type":"Feature","geometry":{"type":"MultiLineString","coordinates":[[[-87.90219,42.00828],[-87.89977,42.00764],[-87.89889,42.00738],[-87.89756,42.00692],[-87.89714,42.00675],[-87.89599,42.00625],[-87.8938,42.00525]],[[-87.85702,41.98502],[-87.85589,41.98463],[-87.85546,41.9845],[-87.8546,41.9843],[-87.85271,41.98397],[-87.85177,41.98385],[-87.85043,41.98377]],[[-87.85697,41.98516],[-87.85628,41.98494],[-87.85476,41.9845],[-87.85389,41.98429],[-87.85314,41.98413],[-87.85237,41.98399],[-87.85119,41.98385],[-87.85043,41.98377]],[[-87.82632,41.98454],[-87.82666,41.98457],[-87.82823,41.98466],[-87.82982,41.9847],[-87.83062,41.9847],[-87.83345,41.98466],[-87.83703,41.98449],[-87.84128,41.98428],[-87.84196,41.98424],[-87.84314,41.98419],[-87.84684,41.98401],[-87.8481,41.98396],[-87.84923,41.98397],[-87.85007,41.98401],[-87.85147,41.98411],[-87.85192,41.98416],[-87.85326,41.98436],[-87.85394,41.98449],[-87.85456,41.98463],[-87.85535,41.98484],[-87.85622,41.98511],[-87.85691,41.98534]],[[-87.85043,41.98377],[-87.84964,41.98373],[-87.84903,41.98372],[-87.84776,41.98374],[-87.84413,41.9839],[-87.84362,41.98389]]]},"properties":{"route":"90","name":"Jane Addams Tollway (I-90)","kind":"provincial"}},
{"type":"Feature","geometry":{"type":"MultiLineString","coordinates":[[[-87.6502,41.87571],[-87.65145,41.87572],[-87.65259,41.87576],[-87.65349,41.87582],[-87.65426,41.87589],[-87.65559,41.87603],[-87.6567,41.87616],[-87.6576,41.8762],[-87.6589,41.87618],[-87.66024,41.87615],[-87.66101,41.87615],[-87.66458,41.87608],[-87.66601,41.87606],[-87.66939,41.876],[-87.6713,41.87593],[-87.67221,41.87591],[-87.67676,41.87585],[-87.681,41.87582],[-87.68152,41.87581],[-87.68598,41.87579],[-87.68875,41.87576],[-87.69069,41.87573],[-87.69108,41.87573],[-87.69339,41.8757],[-87.69723,41.87566],[-87.69859,41.8756],[-87.70004,41.87547],[-87.70076,41.87537],[-87.70322,41.87501],[-87.70725,41.87443],[-87.70805,41.87435],[-87.70915,41.87428],[-87.7102,41.87427],[-87.71547,41.8742],[-87.72304,41.87411],[-87.72407,41.87409],[-87.7305,41.87402],[-87.73205,41.874],[-87.73295,41.87397],[-87.73336,41.87393],[-87.73403,41.87383],[-87.73466,41.87369],[-87.73551,41.87343],[-87.7362,41.87315],[-87.73726,41.87263],[-87.7382,41.87227],[-87.73908,41.87204],[-87.73954,41.87195],[-87.74037,41.87187],[-87.74094,41.87185],[-87.74358,41.87182],[-87.74898,41.87175],[-87.75143,41.87173],[-87.75442,41.87168],[-87.7549,41.87168],[-87.75918,41.87163],[-87.76153,41.87158],[-87.76261,41.8715],[-87.76331,41.87143],[-87.76502,41.87124],[-87.76657,41.87106],[-87.76749,41.87101],[-87.76827,41.871],[-87.77197,41.87111],[-87.77406,41.87122],[-87.77484,41.87127]],[[-87.77481,41.87097],[-87.77101,41.87074],[-87.76906,41.87064],[-87.76851,41.87065],[-87.76761,41.8707],[-87.76683,41.87076],[-87.7661,41.87084],[-87.76497,41.87098],[-87.76348,41.87114],[-87.76281,41.8712],[-87.76148,41.87124],[-87.75944,41.87126],[-87.75458,41.87133],[-87.75106,41.87137],[-87.74914,41.8714],[-87.74541,41.87144],[-87.74365,41.87147],[-87.73997,41.87159],[-87.73911,41.8717],[-87.7383,41.87188],[-87.7375,41.87214],[-87.73659,41.87254],[-87.73613,41.87277],[-87.73541,41.87308],[-87.73498,41.87323],[-87.73442,41.87339],[-87.73369,41.87354],[-87.73334,41.87359],[-87.73268,41.87364],[-87.73186,41.87366],[-87.73049,41.87367],[-87.72471,41.87375],[-87.72088,41.87379],[-87.7164,41.87385],[-87.70971,41.87393],[-87.70848,41.87397],[-87.70733,41.87407],[-87.70544,41.87434],[-87.7034,41.87464],[-87.70169,41.87488],[-87.70082,41.87499],[-87.69965,41.8751],[-87.69832,41.87517],[-87.69759,41.87519],[-87.69644,41.8752],[-87.6938,41.87524],[-87.69061,41.87527],[-87.68653,41.87532],[-87.68359,41.87534],[-87.68127,41.87535],[-87.67679,41.87538],[-87.67375,41.87543],[-87.67118,41.87546],[-87.66991,41.87545],[-87.66888,41.87546],[-87.6664,41.8755],[-87.66304,41.87557],[-87.66172,41.87559],[-87.65984,41.87561],[-87.65854,41.87561],[-87.6556,41.87553],[-87.65335,41.87541],[-87.65236,41.87534],[-87.6519,41.87532],[-87.65117,41.87532]]]},"properties":{"route":"290","name":"Eisenhower Expressway (I-290)","kind":"provincial"}},
{"type":"Feature","geometry":{"type":"MultiLineString","coordinates":[[[-87.62468,41.72015],[-87.62471,41.71971],[-87.62483,41.71921],[-87.62492,41.71864],[-87.62491,41.71803],[-87.62487,41.71773],[-87.62481,41.71743],[-87.62471,41.71704],[-87.62457,41.71667],[-87.62414,41.7159],[-87.62373,41.71541],[-87.62337,41.71504],[-87.62296,41.7147],[-87.62229,41.71425],[-87.62164,41.71391],[-87.62106,41.71367],[-87.62056,41.7135],[-87.62005,41.71336],[-87.61925,41.71321],[-87.61838,41.71313],[-87.61771,41.71312],[-87.61466,41.71318],[-87.61108,41.71323],[-87.6081,41.71328],[-87.60715,41.7133],[-87.60255,41.71337],[-87.60198,41.71336],[-87.60144,41.71332],[-87.60034,41.71319],[-87.59961,41.71305],[-87.599,41.7129],[-87.59792,41.71257],[-87.59734,41.71234],[-87.59685,41.71211],[-87.59635,41.71185],[-87.59561,41.71141],[-87.59485,41.71083],[-87.5942,41.71025],[-87.59351,41.7095],[-87.59322,41.70911],[-87.59277,41.70835],[-87.59238,41.70745],[-87.59222,41.7069],[-87.59209,41.70621],[-87.59206,41.70569],[-87.59208,41.70493],[-87.59213,41.70453],[-87.59228,41.70388],[-87.59241,41.70348],[-87.5926,41.70299],[-87.59287,41.70247],[-87.59408,41.70021],[-87.59443,41.69958],[-87.59462,41.69918],[-87.59595,41.6967],[-87.5967,41.69533],[-87.59793,41.69305],[-87.59879,41.69142],[-87.5999,41.68937],[-87.60048,41.68828],[-87.60146,41.68646],[-87.60168,41.68592],[-87.6018,41.68551],[-87.60189,41.68507],[-87.60194,41.68453],[-87.60193,41.68389],[-87.60177,41.67855],[-87.60173,41.67693],[-87.60163,41.6761],[-87.60145,41.67538],[-87.60113,41.67457],[-87.60095,41.67422],[-87.6005,41.6735],[-87.60004,41.67292],[-87.59807,41.67064],[-87.59658,41.6689],[-87.59461,41.66661],[-87.59265,41.66435],[-87.59132,41.66278],[-87.58915,41.66027],[-87.5891,41.6602],[-87.58749,41.65836],[-87.58625,41.65691],[-87.58419,41.65451],[-87.58291,41.65303],[-87.58124,41.65108],[-87.58078,41.65052],[-87.58043,41.65005],[-87.58023,41.64975],[-87.57965,41.64874],[-87.57931,41.64802],[-87.5791,41.64748],[-87.57881,41.64648],[-87.57868,41.64582],[-87.57858,41.64498],[-87.57856,41.64434]],[[-87.57838,41.64424],[-87.57844,41.6454],[-87.57857,41.64621],[-87.57876,41.64697],[-87.57893,41.6475],[-87.57913,41.64804],[-87.57946,41.64874],[-87.57968,41.64917],[-87.58027,41.65012],[-87.58061,41.65058],[-87.58102,41.65108],[-87.58167,41.65184],[-87.58373,41.65422],[-87.58521,41.65595],[-87.58711,41.65818],[-87.58856,41.65984],[-87.59082,41.66248],[-87.59196,41.66379],[-87.59338,41.66545],[-87.59589,41.66836],[-87.59782,41.67059],[-87.59963,41.67269],[-87.60022,41.6734],[-87.60055,41.67388],[-87.60079,41.67427],[-87.60111,41.67494],[-87.60127,41.6754],[-87.6014,41.67589],[-87.6015,41.67641],[-87.60154,41.67694],[-87.60157,41.67764],[-87.60171,41.68276],[-87.60176,41.68422],[-87.60173,41.6849],[-87.60169,41.68519],[-87.60156,41.68573],[-87.60139,41.68621],[-87.60099,41.68699],[-87.60005,41.68873],[-87.59839,41.69183],[-87.59773,41.69304],[-87.59631,41.69569],[-87.59549,41.6972],[-87.59433,41.69908],[-87.59362,41.70016],[-87.59259,41.70177],[-87.59228,41.70229],[-87.59205,41.7028],[-87.5918,41.70349],[-87.5916,41.70432],[-87.59153,41.70483],[-87.59151,41.70544],[-87.59153,41.70586],[-87.59167,41.70671],[-87.59187,41.70745],[-87.59204,41.70789],[-87.59233,41.70846],[-87.5926,41.70891],[-87.59291,41.70935],[-87.59325,41.70979],[-87.59355,41.71013],[-87.59415,41.7107],[-87.59457,41.71105],[-87.59502,41.71139],[-87.59571,41.71182],[-87.59657,41.71227],[-87.59716,41.71254],[-87.59791,41.71283],[-87.59879,41.71312],[-87.59968,41.71332],[-87.60044,41.71346],[-87.60097,41.71352],[-87.60205,41.71361],[-87.60271,41.71363],[-87.60718,41.71356],[-87.60985,41.71353],[-87.6152,41.71344],[-87.61721,41.71342],[-87.61823,41.71348],[-87.61881,41.71357],[-87.6197,41.71379],[-87.62062,41.71414],[-87.6211,41.71437],[-87.62142,41.71455],[-87.62182,41.71481],[-87.62251,41.71536],[-87.62302,41.7159],[-87.62328,41.71626],[-87.62352,41.71665],[-87.62374,41.71713],[-87.62386,41.71746],[-87.62397,41.71793],[-87.62402,41.71857],[-87.62403,41.71938],[-87.62406,41.72009],[-87.62412,41.72044]]]},"properties":{"route":"94","name":"Bishop Ford Freeway (I-94)","kind":"provincial"}},
{"type":"Feature","geometry":{"type":"MultiLineString","coordinates":[[[-87.93816,41.97357],[-87.9382,41.97203],[-87.93825,41.97133],[-87.93826,41.97087],[-87.93823,41.96968],[-87.93817,41.96882],[-87.93805,41.96689],[-87.93797,41.96535],[-87.93789,41.96434]],[[-87.93765,41.96502],[-87.93783,41.96823],[-87.93794,41.97027],[-87.93796,41.97127],[-87.93786,41.97368]]]},"properties":{"route":"490","name":"Interstate 490 (I-490)","kind":"provincial"}}
]}