{"type":"FeatureCollection", "features": [
{"type":"Feature","geometry":{"type":"MultiPolygon","coordinates":[[[[-87.71507,41.82542],[-87.74466,41.81609],[-87.74465,41.81596],[-87.75308,41.81331],[-87.75293,41.80749],[-87.75274,41.80019],[-87.75728,41.80012],[-87.76223,41.80005],[-87.76428,41.80005],[-87.77208,41.79989],[-87.77365,41.79983],[-87.7794,41.79972],[-87.78203,41.79967],[-87.78192,41.79604],[-87.77948,41.79609],[-87.77934,41.79302],[-87.77818,41.79328],[-87.73803,41.79945],[-87.73786,41.79529],[-87.73616,41.79534],[-87.73549,41.7956],[-87.73549,41.79576],[-87.73306,41.79661],[-87.73184,41.79687],[-87.73184,41.79679],[-87.72817,41.79683],[-87.72821,41.79831],[-87.72337,41.80036],[-87.72337,41.80055],[-87.7221,41.80057],[-87.72204,41.79873],[-87.71658,41.79881],[-87.71653,41.79698],[-87.7135,41.79702],[-87.71332,41.78975],[-87.71313,41.787],[-87.713,41.78064],[-87.7129,41.77883],[-87.7127,41.77862],[-87.71255,41.77152],[-87.70538,41.77164],[-87.70551,41.7771],[-87.7031,41.77714],[-87.70312,41.77805],[-87.70553,41.77801],[-87.70556,41.77894],[-87.69339,41.77912],[-87.6935,41.78276],[-87.69106,41.7828],[-87.69111,41.78462],[-87.68745,41.78468],[-87.6876,41.79015],[-87.68394,41.79021],[-87.68404,41.79388],[-87.68348,41.79385],[-87.6836,41.79883],[-87.67961,41.79886],[-87.67964,41.80117],[-87.67329,41.80124],[-87.67347,41.80852],[-87.67226,41.80853],[-87.67245,41.81581],[-87.66416,41.81589],[-87.66271,41.81578],[-87.6613,41.8158],[-87.66023,41.81592],[-87.65533,41.81598],[-87.65541,41.81859],[-87.65583,41.81979],[-87.65587,41.8201],[-87.65578,41.82124],[-87.65552,41.82186],[-87.65553,41.82268],[-87.65598,41.82332],[-87.64106,41.82352],[-87.64124,41.83082],[-87.66674,41.83049],[-87.66672,41.83001],[-87.66611,41.83002],[-87.66603,41.82684],[-87.6661,41.82684],[-87.66609,41.82593],[-87.66598,41.82593],[-87.66599,41.82365],[-87.66779,41.82363],[-87.66778,41.82318],[-87.67509,41.82311],[-87.67544,41.83705],[-87.67839,41.83699],[-87.67961,41.83687],[-87.68098,41.83653],[-87.68457,41.83541],[-87.68456,41.83418],[-87.68481,41.83363],[-87.68469,41.8332],[-87.68464,41.83204],[-87.68447,41.83072],[-87.68407,41.8157],[-87.6859,41.81568],[-87.68581,41.81205],[-87.6852,41.81206],[-87.68525,41.81161],[-87.6851,41.80843],[-87.71387,41.80799],[-87.71432,41.82145],[-87.71431,41.82605],[-87.71542,41.8257],[-87.71507,41.82542]]],[[[-87.79616,41.79946],[-87.79567,41.79943],[-87.78215,41.79967],[-87.78311,41.79967],[-87.78794,41.79961],[-87.79052,41.79954],[-87.79616,41.79946]]]]},"properties":{"num":1,"senate":1,"lp":[-87.70012,41.79479]}},
{"type":"Feature","geometry":{"type":"Polygon","coordinates":[[[-87.79939,41.9381],[-87.80675,41.938],[-87.80663,41.93451],[-87.80634,41.92642],[-87.80631,41.92555],[-87.80627,41.92464],[-87.80627,41.92439],[-87.80626,41.92418],[-87.80626,41.92401],[-87.80321,41.92354],[-87.77936,41.92377],[-87.77935,41.92331],[-87.77752,41.92335],[-87.77748,41.92198],[-87.76592,41.92216],[-87.76581,41.91876],[-87.76087,41.91785],[-87.76095,41.92039],[-87.734,41.92074],[-87.73395,41.91891],[-87.72905,41.91897],[-87.72902,41.91759],[-87.72658,41.91762],[-87.72656,41.91717],[-87.72391,41.9172],[-87.72211,41.91365],[-87.71666,41.91369],[-87.71666,41.91355],[-87.70855,41.91363],[-87.70855,41.9137],[-87.70695,41.91371],[-87.70676,41.91071],[-87.70688,41.91015],[-87.69211,41.91022],[-87.69204,41.90662],[-87.68225,41.90675],[-87.68212,41.90217],[-87.67723,41.90226],[-87.67724,41.9027],[-87.67481,41.90273],[-87.67482,41.90323],[-87.67359,41.90325],[-87.67357,41.90234],[-87.67236,41.90236],[-87.67237,41.90276],[-87.66993,41.9028],[-87.66994,41.90331],[-87.66749,41.90335],[-87.66751,41.90402],[-87.67368,41.90796],[-87.67407,41.90762],[-87.67745,41.90976],[-87.67746,41.91047],[-87.68235,41.91039],[-87.68239,41.91265],[-87.68254,41.91265],[-87.6871,41.91561],[-87.68736,41.9157],[-87.68741,41.91757],[-87.7119,41.91734],[-87.7122,41.92832],[-87.73178,41.92805],[-87.73167,41.92443],[-87.76107,41.92405],[-87.7614,41.93316],[-87.76385,41.93313],[-87.76381,41.93176],[-87.76503,41.93175],[-87.76502,41.93129],[-87.77111,41.93121],[-87.77123,41.93486],[-87.77001,41.93488],[-87.77014,41.93853],[-87.7665,41.93857],[-87.76673,41.94496],[-87.76611,41.94497],[-87.76614,41.94588],[-87.76553,41.94589],[-87.76559,41.94772],[-87.76682,41.9477],[-87.76679,41.94679],[-87.7741,41.94671],[-87.77415,41.94808],[-87.77659,41.94805],[-87.77646,41.94486],[-87.7789,41.94483],[-87.77892,41.94529],[-87.78379,41.94524],[-87.78381,41.9457],[-87.79599,41.94548],[-87.79584,41.94181],[-87.79952,41.94172],[-87.79939,41.9381]]]},"properties":{"num":3,"senate":2,"lp":[-87.78744,41.93464]}},
{"type":"Feature","geometry":{"type":"Polygon","coordinates":[[[-87.77936,41.92377],[-87.79041,41.92364],[-87.79025,41.91896],[-87.78999,41.91816],[-87.78981,41.91789],[-87.78935,41.91748],[-87.7879,41.91694],[-87.78686,41.91667],[-87.78523,41.91645],[-87.76575,41.91662],[-87.76404,41.91658],[-87.75779,41.91595],[-87.74857,41.9148],[-87.74824,41.91445],[-87.7469,41.91426],[-87.74599,41.91392],[-87.7459,41.91084],[-87.74611,41.91007],[-87.74612,41.9092],[-87.74589,41.89869],[-87.73851,41.89882],[-87.73841,41.89514],[-87.72608,41.89537],[-87.72614,41.8972],[-87.72492,41.89721],[-87.72497,41.89903],[-87.72253,41.89905],[-87.72236,41.89357],[-87.7187,41.8936],[-87.71877,41.89591],[-87.71816,41.89592],[-87.71827,41.89909],[-87.71339,41.89913],[-87.71332,41.89731],[-87.71272,41.89732],[-87.71265,41.8955],[-87.69991,41.89563],[-87.68739,41.89063],[-87.6818,41.89074],[-87.68177,41.88964],[-87.67443,41.88977],[-87.67445,41.89047],[-87.67201,41.89053],[-87.67199,41.88981],[-87.66955,41.88985],[-87.66973,41.89603],[-87.66729,41.89607],[-87.66749,41.90335],[-87.66994,41.90331],[-87.66993,41.9028],[-87.67237,41.90276],[-87.67236,41.90236],[-87.67357,41.90234],[-87.67359,41.90325],[-87.67482,41.90323],[-87.67481,41.90273],[-87.67724,41.9027],[-87.67723,41.90226],[-87.68212,41.90217],[-87.68225,41.90675],[-87.69204,41.90662],[-87.69211,41.91022],[-87.70688,41.91015],[-87.70676,41.91071],[-87.70695,41.91371],[-87.70855,41.9137],[-87.70855,41.91363],[-87.71666,41.91355],[-87.71666,41.91369],[-87.72211,41.91365],[-87.72391,41.9172],[-87.72656,41.91717],[-87.72658,41.91762],[-87.72902,41.91759],[-87.72905,41.91897],[-87.73395,41.91891],[-87.734,41.92074],[-87.76095,41.92039],[-87.76087,41.91785],[-87.76581,41.91876],[-87.76592,41.92216],[-87.77748,41.92198],[-87.77752,41.92335],[-87.77935,41.92331],[-87.77936,41.92377]]]},"properties":{"num":4,"senate":2,"lp":[-87.73186,41.90731]}},
{"type":"Feature","geometry":{"type":"Polygon","coordinates":[[[-87.63709,41.89356],[-87.64146,41.8935],[-87.63858,41.88989],[-87.63813,41.88928],[-87.6381,41.88912],[-87.63696,41.88913],[-87.63695,41.8888],[-87.63681,41.88849],[-87.63581,41.88738],[-87.63477,41.88751],[-87.62954,41.88751],[-87.62936,41.88008],[-87.62772,41.88009],[-87.62734,41.86748],[-87.62711,41.85709],[-87.62717,41.85655],[-87.62715,41.85545],[-87.62639,41.85546],[-87.62632,41.85108],[-87.62637,41.84925],[-87.62621,41.84742],[-87.62626,41.8456],[-87.62621,41.84196],[-87.62608,41.83956],[-87.62661,41.83955],[-87.62644,41.83284],[-87.62648,41.83102],[-87.6315,41.83094],[-87.63134,41.82365],[-87.62862,41.82368],[-87.62847,41.81917],[-87.62919,41.81916],[-87.62892,41.80918],[-87.62896,41.80597],[-87.62883,41.80189],[-87.63318,41.80181],[-87.63309,41.79817],[-87.63431,41.79815],[-87.63421,41.7945],[-87.64033,41.79439],[-87.64032,41.79403],[-87.63968,41.79304],[-87.64023,41.79201],[-87.64002,41.77982],[-87.63505,41.77991],[-87.635,41.77808],[-87.63123,41.77812],[-87.63015,41.77682],[-87.63005,41.77694],[-87.62968,41.77655],[-87.62848,41.7757],[-87.62797,41.7754],[-87.62723,41.77512],[-87.62664,41.77499],[-87.62518,41.77492],[-87.62518,41.77477],[-87.62184,41.77486],[-87.62101,41.77473],[-87.62011,41.77446],[-87.61904,41.77379],[-87.61602,41.77143],[-87.61347,41.76958],[-87.61178,41.77091],[-87.61177,41.77122],[-87.61056,41.77124],[-87.61085,41.76996],[-87.61052,41.76941],[-87.60769,41.76947],[-87.60767,41.76896],[-87.60643,41.76899],[-87.60642,41.76849],[-87.60566,41.7685],[-87.60553,41.76398],[-87.60313,41.76226],[-87.60312,41.76216],[-87.59125,41.75365],[-87.59001,41.75469],[-87.59121,41.75555],[-87.59074,41.75594],[-87.59075,41.7569],[-87.58832,41.75693],[-87.58837,41.75875],[-87.5908,41.75872],[-87.59117,41.77328],[-87.59291,41.77327],[-87.59295,41.77508],[-87.59608,41.77505],[-87.5962,41.78052],[-87.59782,41.7805],[-87.59787,41.78232],[-87.59948,41.78231],[-87.59953,41.78413],[-87.60115,41.78411],[-87.60122,41.78718],[-87.60606,41.78713],[-87.60604,41.78587],[-87.61576,41.7857],[-87.61611,41.8021],[-87.61653,41.8021],[-87.61635,41.80294],[-87.61645,41.80392],[-87.61671,41.80392],[-87.61685,41.80938],[-87.61959,41.80934],[-87.61969,41.81296],[-87.61643,41.81301],[-87.61656,41.81754],[-87.61394,41.81758],[-87.6129,41.82268],[-87.61723,41.82266],[-87.61739,41.8304],[-87.61731,41.83123],[-87.61767,41.84572],[-87.61886,41.84571],[-87.61894,41.84677],[-87.61894,41.84753],[-87.61815,41.84772],[-87.61804,41.84788],[-87.61807,41.84817],[-87.61852,41.84844],[-87.61778,41.84845],[-87.61794,41.84881],[-87.61877,41.84968],[-87.61901,41.85021],[-87.61903,41.85074],[-87.61894,41.85086],[-87.61914,41.85682],[-87.61955,41.85779],[-87.61968,41.85789],[-87.61792,41.85796],[-87.61882,41.8601],[-87.61946,41.86235],[-87.61954,41.86363],[-87.61966,41.86417],[-87.61953,41.86419],[-87.62073,41.86717],[-87.62097,41.86759],[-87.62117,41.86758],[-87.62198,41.8695],[-87.62263,41.87133],[-87.62282,41.87447],[-87.62302,41.87558],[-87.62327,41.87559],[-87.62327,41.87588],[-87.62299,41.87591],[-87.62301,41.88084],[-87.6229,41.88085],[-87.62271,41.88213],[-87.62285,41.88428],[-87.62415,41.88438],[-87.62445,41.88447],[-87.62451,41.88575],[-87.62794,41.88575],[-87.62815,41.89488],[-87.63713,41.89475],[-87.63709,41.89356]]]},"properties":{"num":5,"senate":3,"lp":[-87.62634,41.78744]}},
{"type":"Feature","geometry":{"type":"Polygon","coordinates":[[[-87.67347,41.80852],[-87.67329,41.80124],[-87.67964,41.80117],[-87.67961,41.79886],[-87.6836,41.79883],[-87.68348,41.79385],[-87.68404,41.79388],[-87.68394,41.79021],[-87.6876,41.79015],[-87.68745,41.78468],[-87.69111,41.78462],[-87.69106,41.7828],[-87.6935,41.78276],[-87.69321,41.77182],[-87.68833,41.7719],[-87.68824,41.76826],[-87.67862,41.76838],[-87.67871,41.77201],[-87.65431,41.77233],[-87.6544,41.77597],[-87.64712,41.77608],[-87.64702,41.77244],[-87.62998,41.77271],[-87.62986,41.76908],[-87.61387,41.76937],[-87.61373,41.76938],[-87.61347,41.76958],[-87.61602,41.77143],[-87.61904,41.77379],[-87.62011,41.77446],[-87.62101,41.77473],[-87.62184,41.77486],[-87.62518,41.77477],[-87.62518,41.77492],[-87.62664,41.77499],[-87.62723,41.77512],[-87.62797,41.7754],[-87.62848,41.7757],[-87.62968,41.77655],[-87.63005,41.77694],[-87.63015,41.77682],[-87.63123,41.77812],[-87.635,41.77808],[-87.63505,41.77991],[-87.64002,41.77982],[-87.64023,41.79201],[-87.63968,41.79304],[-87.64032,41.79403],[-87.64033,41.79439],[-87.63421,41.7945],[-87.63431,41.79815],[-87.63309,41.79817],[-87.63318,41.80181],[-87.62883,41.80189],[-87.62896,41.80597],[-87.62892,41.80918],[-87.62919,41.81916],[-87.62847,41.81917],[-87.62862,41.82368],[-87.63134,41.82365],[-87.6315,41.83094],[-87.62648,41.83102],[-87.62644,41.83284],[-87.62661,41.83955],[-87.62608,41.83956],[-87.62621,41.84196],[-87.62626,41.8456],[-87.62621,41.84742],[-87.62637,41.84925],[-87.62632,41.85108],[-87.62639,41.85546],[-87.62715,41.85545],[-87.62717,41.85655],[-87.62711,41.85709],[-87.62734,41.86748],[-87.62772,41.88009],[-87.62936,41.88008],[-87.62954,41.88751],[-87.63477,41.88751],[-87.63581,41.88738],[-87.63681,41.88849],[-87.63695,41.8888],[-87.63696,41.88913],[-87.63997,41.88905],[-87.63974,41.88318],[-87.63705,41.8832],[-87.63702,41.88191],[-87.63531,41.88193],[-87.63508,41.87446],[-87.63603,41.87445],[-87.63544,41.8718],[-87.63484,41.86785],[-87.63456,41.86527],[-87.63458,41.86242],[-87.6345,41.85993],[-87.63265,41.86014],[-87.63189,41.86013],[-87.63127,41.86002],[-87.63026,41.86012],[-87.63016,41.85512],[-87.63064,41.85489],[-87.63057,41.85388],[-87.63017,41.85264],[-87.63011,41.85211],[-87.63013,41.84926],[-87.63004,41.84718],[-87.62994,41.84668],[-87.62996,41.84427],[-87.62978,41.83828],[-87.63614,41.83818],[-87.63612,41.83774],[-87.63598,41.83767],[-87.63589,41.83454],[-87.63614,41.83453],[-87.63613,41.83088],[-87.63625,41.83088],[-87.63638,41.82723],[-87.63635,41.82358],[-87.63615,41.82183],[-87.63857,41.82173],[-87.63854,41.82081],[-87.64099,41.82078],[-87.64098,41.82035],[-87.64584,41.82029],[-87.64554,41.80886],[-87.67347,41.80852]]]},"properties":{"num":6,"senate":3,"lp":[-87.65927,41.79199]}},
{"type":"Feature","geometry":{"type":"Polygon","coordinates":[[[-87.77428,41.86973],[-87.77426,41.86911],[-87.77414,41.86571],[-87.77414,41.86546],[-87.76399,41.86561],[-87.75975,41.86567],[-87.75172,41.86579],[-87.75062,41.86581],[-87.74508,41.86589],[-87.74317,41.86591],[-87.74007,41.86596],[-87.73993,41.86596],[-87.74026,41.87691],[-87.74515,41.87681],[-87.74585,41.89675],[-87.74612,41.9092],[-87.74611,41.91007],[-87.7459,41.91084],[-87.74599,41.91392],[-87.7469,41.91426],[-87.74824,41.91445],[-87.74857,41.9148],[-87.75779,41.91595],[-87.76308,41.91651],[-87.76575,41.91662],[-87.76574,41.91452],[-87.76553,41.91016],[-87.76589,41.90886],[-87.76585,41.90757],[-87.76212,41.90761],[-87.76206,41.9058],[-87.76106,41.90581],[-87.7605,41.89114],[-87.76435,41.8911],[-87.76428,41.8893],[-87.76518,41.88929],[-87.76511,41.8872],[-87.77,41.88714],[-87.77001,41.88748],[-87.77489,41.88741],[-87.77433,41.87127],[-87.77428,41.87073],[-87.77428,41.86973]]]},"properties":{"num":8,"senate":4,"lp":[-87.75731,41.87795]}},
{"type":"Feature","geometry":{"type":"Polygon","coordinates":[[[-87.6495,41.9109],[-87.65591,41.91079],[-87.65591,41.9104],[-87.6555,41.91043],[-87.6554,41.91007],[-87.65523,41.91006],[-87.65478,41.90964],[-87.65456,41.90936],[-87.6547,41.90914],[-87.65407,41.90847],[-87.65157,41.90545],[-87.6516,41.90523],[-87.65021,41.90362],[-87.64809,41.90364],[-87.64762,41.89289],[-87.6476,41.88866],[-87.64796,41.88904],[-87.6534,41.88898],[-87.65337,41.88775],[-87.65453,41.88773],[-87.65451,41.88711],[-87.65335,41.88712],[-87.65331,41.88556],[-87.65564,41.88552],[-87.65565,41.88593],[-87.65682,41.88591],[-87.65674,41.88424],[-87.6521,41.88433],[-87.65195,41.87914],[-87.65461,41.8791],[-87.65457,41.87783],[-87.65702,41.87779],[-87.657,41.87652],[-87.67224,41.87627],[-87.67267,41.8759],[-87.67651,41.87584],[-87.67655,41.87748],[-87.67881,41.87748],[-87.67899,41.87755],[-87.67902,41.8787],[-87.68636,41.87859],[-87.68626,41.87578],[-87.69136,41.87572],[-87.69137,41.87603],[-87.70597,41.87588],[-87.70593,41.87426],[-87.70822,41.87397],[-87.71079,41.8739],[-87.71069,41.8709],[-87.72534,41.87072],[-87.72527,41.86856],[-87.73996,41.86833],[-87.73988,41.86239],[-87.73977,41.85865],[-87.73964,41.85499],[-87.73935,41.85043],[-87.73922,41.84598],[-87.73439,41.8477],[-87.73436,41.84657],[-87.72226,41.84931],[-87.72223,41.84957],[-87.72228,41.85155],[-87.71242,41.85171],[-87.71114,41.85199],[-87.7112,41.85355],[-87.70367,41.85362],[-87.70288,41.8538],[-87.70289,41.85418],[-87.70006,41.85427],[-87.69918,41.85446],[-87.69921,41.85551],[-87.69494,41.85557],[-87.69313,41.85597],[-87.69313,41.85578],[-87.68727,41.85713],[-87.68584,41.85764],[-87.68583,41.85937],[-87.67858,41.85939],[-87.67796,41.85948],[-87.67605,41.85952],[-87.67606,41.85975],[-87.67366,41.85997],[-87.67116,41.85989],[-87.67114,41.85954],[-87.63901,41.86002],[-87.63686,41.85991],[-87.63565,41.86003],[-87.6345,41.85993],[-87.63458,41.86242],[-87.63456,41.86527],[-87.63484,41.86785],[-87.63544,41.8718],[-87.63603,41.87445],[-87.63508,41.87446],[-87.63531,41.88193],[-87.63702,41.88191],[-87.63705,41.8832],[-87.63974,41.88318],[-87.63997,41.88905],[-87.6381,41.88912],[-87.63813,41.88928],[-87.63858,41.88989],[-87.64146,41.8935],[-87.63709,41.89356],[-87.63744,41.9038],[-87.63702,41.90381],[-87.63719,41.90762],[-87.63752,41.90762],[-87.63762,41.91106],[-87.64343,41.91102],[-87.64352,41.9139],[-87.64958,41.91381],[-87.6495,41.9109]]]},"properties":{"num":9,"senate":5,"lp":[-87.64593,41.87057]}},
{"type":"Feature","geometry":{"type":"Polygon","coordinates":[[[-87.66729,41.89607],[-87.66973,41.89603],[-87.66955,41.88985],[-87.67199,41.88981],[-87.67201,41.89053],[-87.67445,41.89047],[-87.67443,41.88977],[-87.68177,41.88964],[-87.6818,41.89074],[-87.68739,41.89063],[-87.69991,41.89563],[-87.71265,41.8955],[-87.71272,41.89732],[-87.71332,41.89731],[-87.71339,41.89913],[-87.71827,41.89909],[-87.71816,41.89592],[-87.71877,41.89591],[-87.7187,41.8936],[-87.72236,41.89357],[-87.72253,41.89905],[-87.72497,41.89903],[-87.72492,41.89721],[-87.72614,41.8972],[-87.72608,41.89537],[-87.73841,41.89514],[-87.73851,41.89882],[-87.74589,41.89869],[-87.74515,41.87681],[-87.74026,41.87691],[-87.73996,41.86833],[-87.72527,41.86856],[-87.72534,41.87072],[-87.71069,41.8709],[-87.71079,41.8739],[-87.70822,41.87397],[-87.70593,41.87426],[-87.70597,41.87588],[-87.69137,41.87603],[-87.69136,41.87572],[-87.68626,41.87578],[-87.68636,41.87859],[-87.67902,41.8787],[-87.67899,41.87755],[-87.67881,41.87748],[-87.67655,41.87748],[-87.67651,41.87584],[-87.67267,41.8759],[-87.67224,41.87627],[-87.657,41.87652],[-87.65702,41.87779],[-87.65457,41.87783],[-87.65461,41.8791],[-87.65195,41.87914],[-87.6521,41.88433],[-87.65674,41.88424],[-87.65682,41.88591],[-87.65565,41.88593],[-87.65564,41.88552],[-87.65331,41.88556],[-87.65335,41.88712],[-87.65451,41.88711],[-87.65453,41.88773],[-87.65337,41.88775],[-87.6534,41.88898],[-87.64796,41.88904],[-87.6476,41.88866],[-87.64762,41.89289],[-87.64809,41.90364],[-87.65021,41.90362],[-87.6516,41.90523],[-87.65157,41.90545],[-87.65407,41.90847],[-87.6547,41.90914],[-87.65456,41.90936],[-87.65478,41.90964],[-87.65523,41.91006],[-87.6554,41.91007],[-87.6555,41.91043],[-87.65591,41.9104],[-87.65591,41.91079],[-87.6495,41.9109],[-87.64965,41.91601],[-87.64906,41.91601],[-87.64913,41.91817],[-87.64973,41.91816],[-87.64979,41.91998],[-87.651,41.91996],[-87.65118,41.92542],[-87.67167,41.92511],[-87.67032,41.92216],[-87.66923,41.92206],[-87.66858,41.92187],[-87.6686,41.92133],[-87.66825,41.91912],[-87.66796,41.91793],[-87.67075,41.91787],[-87.66955,41.91697],[-87.66873,41.9161],[-87.67758,41.91594],[-87.67759,41.91624],[-87.68472,41.91609],[-87.68676,41.9174],[-87.68692,41.91757],[-87.68741,41.91757],[-87.68736,41.9157],[-87.6871,41.91561],[-87.68254,41.91265],[-87.68239,41.91265],[-87.68235,41.91039],[-87.67746,41.91047],[-87.67745,41.90976],[-87.67407,41.90762],[-87.67368,41.90796],[-87.66751,41.90402],[-87.66729,41.89607]]]},"properties":{"num":10,"senate":5,"lp":[-87.7289,41.88277]}},
{"type":"Feature","geometry":{"type":"Polygon","coordinates":[[[-87.70109,41.96851],[-87.7036,41.96849],[-87.70336,41.96122],[-87.69479,41.96127],[-87.69476,41.96043],[-87.69466,41.96028],[-87.69436,41.95773],[-87.69433,41.95511],[-87.69445,41.95399],[-87.69088,41.95401],[-87.69074,41.95038],[-87.68836,41.95038],[-87.68815,41.9431],[-87.68573,41.94313],[-87.68571,41.94265],[-87.68511,41.94266],[-87.68506,41.9404],[-87.68322,41.94042],[-87.6832,41.93951],[-87.67836,41.93957],[-87.67824,41.93593],[-87.66612,41.93608],[-87.66577,41.92518],[-87.64634,41.92549],[-87.64655,41.9316],[-87.64897,41.93155],[-87.6492,41.93814],[-87.64991,41.93901],[-87.65333,41.93896],[-87.65336,41.93992],[-87.65411,41.93991],[-87.65416,41.94174],[-87.64446,41.94187],[-87.64448,41.94273],[-87.64531,41.94414],[-87.64129,41.94482],[-87.64178,41.94572],[-87.64158,41.94576],[-87.64221,41.94687],[-87.64206,41.94703],[-87.64153,41.9472],[-87.64189,41.94753],[-87.64213,41.94786],[-87.64187,41.948],[-87.64121,41.94767],[-87.64091,41.94745],[-87.64074,41.94762],[-87.63822,41.94821],[-87.63993,41.95177],[-87.64056,41.95328],[-87.64108,41.95485],[-87.64419,41.95466],[-87.64421,41.9549],[-87.64533,41.95709],[-87.64582,41.95849],[-87.64603,41.95946],[-87.64623,41.96199],[-87.64801,41.96188],[-87.65475,41.96178],[-87.65473,41.96113],[-87.65303,41.95845],[-87.64982,41.95849],[-87.64954,41.94911],[-87.66769,41.94883],[-87.66774,41.95066],[-87.66741,41.95066],[-87.66759,41.95614],[-87.6691,41.95613],[-87.66905,41.95429],[-87.67379,41.95423],[-87.67384,41.95607],[-87.67427,41.95605],[-87.67429,41.95696],[-87.67641,41.95693],[-87.67643,41.95784],[-87.68078,41.95778],[-87.68079,41.95803],[-87.68119,41.95868],[-87.68137,41.95885],[-87.68182,41.95959],[-87.68204,41.95958],[-87.68206,41.95983],[-87.68246,41.96049],[-87.68263,41.96067],[-87.68315,41.9614],[-87.68383,41.96138],[-87.685,41.96319],[-87.68752,41.96315],[-87.68758,41.96489],[-87.68818,41.96488],[-87.68823,41.96615],[-87.68842,41.96607],[-87.68883,41.96607],[-87.68882,41.96574],[-87.68943,41.96573],[-87.68945,41.96618],[-87.69128,41.96616],[-87.69128,41.96627],[-87.69871,41.9662],[-87.70109,41.96851]]]},"properties":{"num":11,"senate":6,"lp":[-87.6787,41.94774]}},
{"type":"Feature","geometry":{"type":"MultiPolygon","coordinates":[[[[-87.64153,41.9472],[-87.64206,41.94703],[-87.64221,41.94687],[-87.64158,41.94576],[-87.64178,41.94572],[-87.64129,41.94482],[-87.64531,41.94414],[-87.64448,41.94273],[-87.64446,41.94187],[-87.65416,41.94174],[-87.65411,41.93991],[-87.65336,41.93992],[-87.65333,41.93896],[-87.64991,41.93901],[-87.6492,41.93814],[-87.64897,41.93155],[-87.64655,41.9316],[-87.64634,41.92549],[-87.65118,41.92542],[-87.651,41.91996],[-87.64979,41.91998],[-87.64973,41.91816],[-87.64913,41.91817],[-87.64906,41.91601],[-87.64965,41.91601],[-87.64958,41.91381],[-87.64352,41.9139],[-87.64343,41.91102],[-87.63762,41.91106],[-87.63752,41.90762],[-87.63719,41.90762],[-87.63702,41.90381],[-87.63744,41.9038],[-87.63713,41.89475],[-87.62815,41.89488],[-87.62827,41.89914],[-87.62413,41.89921],[-87.6241,41.89839],[-87.62186,41.89842],[-87.62189,41.90004],[-87.61905,41.90009],[-87.6186,41.90018],[-87.61904,41.90086],[-87.6193,41.90116],[-87.61961,41.90139],[-87.61964,41.90141],[-87.61966,41.90143],[-87.62013,41.9016],[-87.6219,41.90173],[-87.62261,41.90186],[-87.62253,41.9024],[-87.62272,41.90291],[-87.62299,41.90322],[-87.62403,41.90403],[-87.62466,41.90656],[-87.62509,41.90909],[-87.62527,41.90959],[-87.62522,41.91],[-87.62499,41.91046],[-87.62469,41.91087],[-87.62466,41.91142],[-87.62329,41.91247],[-87.62263,41.91279],[-87.62209,41.9129],[-87.62159,41.91293],[-87.62105,41.91306],[-87.62072,41.91321],[-87.62049,41.91358],[-87.62059,41.91379],[-87.62109,41.9136],[-87.62173,41.91353],[-87.62243,41.91357],[-87.62327,41.91381],[-87.62402,41.91418],[-87.62501,41.91483],[-87.62534,41.91512],[-87.62601,41.91561],[-87.62621,41.9157],[-87.62681,41.91629],[-87.62671,41.91644],[-87.62758,41.91721],[-87.62791,41.9176],[-87.62747,41.91787],[-87.62851,41.91916],[-87.62806,41.9194],[-87.62896,41.92066],[-87.62893,41.92082],[-87.62855,41.921],[-87.62943,41.92229],[-87.62949,41.92244],[-87.629,41.92275],[-87.6299,41.92348],[-87.63008,41.92404],[-87.63019,41.92468],[-87.63027,41.92575],[-87.62988,41.92616],[-87.62961,41.92634],[-87.62961,41.92667],[-87.62986,41.92715],[-87.63052,41.92786],[-87.6307,41.92816],[-87.63109,41.9292],[-87.63115,41.93037],[-87.63076,41.93199],[-87.63109,41.93232],[-87.63128,41.93242],[-87.63182,41.93244],[-87.63182,41.93258],[-87.63144,41.93264],[-87.63138,41.93297],[-87.63105,41.93298],[-87.63057,41.93326],[-87.63053,41.93351],[-87.63124,41.93457],[-87.63172,41.93519],[-87.6321,41.93584],[-87.63229,41.93691],[-87.6324,41.93719],[-87.63344,41.93874],[-87.63376,41.93948],[-87.63401,41.94035],[-87.63395,41.94128],[-87.63419,41.94152],[-87.63445,41.94159],[-87.6347,41.94141],[-87.63478,41.94069],[-87.63499,41.94015],[-87.6355,41.93971],[-87.63584,41.93978],[-87.63682,41.93976],[-87.63673,41.94023],[-87.63695,41.94026],[-87.63712,41.93983],[-87.63754,41.94028],[-87.63826,41.94114],[-87.6384,41.94143],[-87.63843,41.94212],[-87.63851,41.94251],[-87.63885,41.94311],[-87.63933,41.94352],[-87.63959,41.9436],[-87.64046,41.94483],[-87.64041,41.94524],[-87.6402,41.94529],[-87.6402,41.94552],[-87.64003,41.94591],[-87.64064,41.94646],[-87.64153,41.9472]]],[[[-87.63822,41.94821],[-87.64074,41.94762],[-87.64091,41.94745],[-87.64027,41.9467],[-87.64026,41.94652],[-87.63964,41.94633],[-87.63889,41.94631],[-87.6387,41.9462],[-87.63742,41.94582],[-87.63731,41.94575],[-87.63682,41.94505],[-87.63696,41.9449],[-87.63618,41.94324],[-87.6359,41.94297],[-87.63548,41.9429],[-87.63469,41.94321],[-87.63427,41.94311],[-87.63406,41.94291],[-87.63388,41.94239],[-87.63365,41.94219],[-87.6333,41.94229],[-87.63345,41.94278],[-87.63375,41.94314],[-87.63521,41.94441],[-87.63683,41.9461],[-87.63774,41.9473],[-87.63822,41.94821]]]]},"properties":{"num":12,"senate":6,"lp":[-87.63853,41.92128]}},
{"type":"Feature","geometry":{"type":"Polygon","coordinates":[[[-87.70425,41.99042],[-87.70737,41.99039],[-87.70508,41.98902],[-87.70539,41.98863],[-87.69985,41.98533],[-87.69982,41.98494],[-87.69913,41.9849],[-87.69798,41.98426],[-87.69795,41.98313],[-87.69673,41.98313],[-87.69671,41.98268],[-87.69532,41.98267],[-87.69465,41.98223],[-87.69427,41.98223],[-87.69424,41.98132],[-87.69345,41.98132],[-87.69337,41.98041],[-87.69907,41.98038],[-87.69892,41.97582],[-87.70475,41.97578],[-87.70382,41.97245],[-87.70311,41.97089],[-87.70245,41.97003],[-87.70064,41.96802],[-87.69871,41.9662],[-87.69128,41.96627],[-87.69128,41.96616],[-87.68945,41.96618],[-87.68943,41.96573],[-87.68882,41.96574],[-87.68883,41.96607],[-87.68842,41.96607],[-87.68823,41.96615],[-87.68818,41.96488],[-87.68758,41.96489],[-87.68752,41.96315],[-87.685,41.96319],[-87.68383,41.96138],[-87.68315,41.9614],[-87.68263,41.96067],[-87.68246,41.96049],[-87.68206,41.95983],[-87.68204,41.95958],[-87.68182,41.95959],[-87.68137,41.95885],[-87.68119,41.95868],[-87.68079,41.95803],[-87.68078,41.95778],[-87.67643,41.95784],[-87.67641,41.95693],[-87.67429,41.95696],[-87.67427,41.95605],[-87.67384,41.95607],[-87.67379,41.95423],[-87.66905,41.95429],[-87.6691,41.95613],[-87.66759,41.95614],[-87.66741,41.95066],[-87.66774,41.95066],[-87.66769,41.94883],[-87.64954,41.94911],[-87.64982,41.95849],[-87.65303,41.95845],[-87.65473,41.96113],[-87.65475,41.96178],[-87.64801,41.96188],[-87.64623,41.96199],[-87.64603,41.95946],[-87.64582,41.95849],[-87.64533,41.95709],[-87.64421,41.9549],[-87.64419,41.95466],[-87.64108,41.95485],[-87.64139,41.95595],[-87.64164,41.95793],[-87.64175,41.95836],[-87.64167,41.95942],[-87.64154,41.96014],[-87.6416,41.96035],[-87.6422,41.96096],[-87.64232,41.9612],[-87.64223,41.96172],[-87.6418,41.96217],[-87.64141,41.96231],[-87.64043,41.96245],[-87.63957,41.96254],[-87.63685,41.96288],[-87.63592,41.96284],[-87.63551,41.96261],[-87.63533,41.96231],[-87.63535,41.96204],[-87.63583,41.96138],[-87.63639,41.96094],[-87.63677,41.96073],[-87.63764,41.9604],[-87.63847,41.96028],[-87.63882,41.96029],[-87.63932,41.9604],[-87.6398,41.96065],[-87.64039,41.96086],[-87.64068,41.96082],[-87.64086,41.96065],[-87.64093,41.96039],[-87.64076,41.96002],[-87.6403,41.9598],[-87.63852,41.95947],[-87.63753,41.95949],[-87.63618,41.9599],[-87.63559,41.96029],[-87.63442,41.96135],[-87.63183,41.96258],[-87.63147,41.96292],[-87.63139,41.96313],[-87.63175,41.96419],[-87.63199,41.96507],[-87.63262,41.96527],[-87.63497,41.96536],[-87.63644,41.96552],[-87.6392,41.96621],[-87.6405,41.96688],[-87.64173,41.96765],[-87.64256,41.96829],[-87.6428,41.96805],[-87.64297,41.96806],[-87.64327,41.96831],[-87.64301,41.96849],[-87.64316,41.96876],[-87.64424,41.96983],[-87.64503,41.9708],[-87.64557,41.97166],[-87.64601,41.9725],[-87.64618,41.97298],[-87.64631,41.97358],[-87.64631,41.97525],[-87.64643,41.97697],[-87.64665,41.97736],[-87.64733,41.97773],[-87.6496,41.97683],[-87.65107,41.97648],[-87.65879,41.97634],[-87.65876,41.97523],[-87.65984,41.97521],[-87.65987,41.97632],[-87.66842,41.97619],[-87.66827,41.97973],[-87.66844,41.98182],[-87.66876,41.98349],[-87.67302,41.98342],[-87.67305,41.98465],[-87.67465,41.98463],[-87.67461,41.98336],[-87.67472,41.98333],[-87.6794,41.98325],[-87.67952,41.98307],[-87.67954,41.98194],[-87.67986,41.98188],[-87.68441,41.97951],[-87.68845,41.97772],[-87.68922,41.97771],[-87.68955,41.98681],[-87.69563,41.98678],[-87.69569,41.9886],[-87.69934,41.98858],[-87.6994,41.99044],[-87.70304,41.99042],[-87.70302,41.98992],[-87.70424,41.98991],[-87.70425,41.99042]]]},"properties":{"num":13,"senate":7,"lp":[-87.67776,41.97104]}},
{"type":"Feature","geometry":{"type":"Polygon","coordinates":[[[-87.64733,41.97773],[-87.64754,41.97778],[-87.6486,41.97784],[-87.64877,41.97815],[-87.64988,41.97901],[-87.65019,41.97932],[-87.65048,41.97946],[-87.65023,41.97972],[-87.65059,41.98035],[-87.65068,41.98068],[-87.65074,41.98248],[-87.65072,41.98292],[-87.65048,41.98412],[-87.65012,41.98494],[-87.65082,41.98566],[-87.65106,41.98576],[-87.65159,41.98614],[-87.65226,41.98669],[-87.65368,41.9877],[-87.65431,41.98841],[-87.65423,41.98853],[-87.6542,41.98946],[-87.65423,41.98982],[-87.65438,41.9902],[-87.65438,41.99101],[-87.65425,41.99209],[-87.65424,41.99256],[-87.65437,41.99273],[-87.65475,41.99285],[-87.6548,41.99318],[-87.65459,41.99395],[-87.65443,41.99409],[-87.65448,41.99439],[-87.65474,41.99457],[-87.65478,41.99496],[-87.65468,41.99531],[-87.65484,41.99546],[-87.65472,41.99637],[-87.65446,41.99649],[-87.65451,41.99728],[-87.65472,41.99728],[-87.65473,41.99815],[-87.655,41.9983],[-87.65513,41.99873],[-87.65536,41.99902],[-87.65569,41.9992],[-87.65581,41.99939],[-87.65587,42.00003],[-87.65634,42.00104],[-87.65619,42.00127],[-87.6569,42.0026],[-87.65698,42.0032],[-87.65724,42.00371],[-87.65729,42.00421],[-87.65682,42.00423],[-87.65731,42.00507],[-87.65742,42.00562],[-87.65739,42.00628],[-87.65584,42.00631],[-87.65535,42.00669],[-87.65646,42.00742],[-87.65674,42.00768],[-87.65698,42.008],[-87.65752,42.00845],[-87.65812,42.00905],[-87.65866,42.00954],[-87.65922,42.01024],[-87.66012,42.01098],[-87.66015,42.01124],[-87.66079,42.01175],[-87.66103,42.01205],[-87.661,42.01219],[-87.66133,42.01295],[-87.66162,42.01332],[-87.66155,42.01354],[-87.66209,42.01459],[-87.66229,42.01522],[-87.66247,42.01543],[-87.66254,42.01578],[-87.66267,42.01582],[-87.66281,42.01662],[-87.66314,42.01692],[-87.66314,42.01772],[-87.66327,42.01776],[-87.66332,42.01851],[-87.66372,42.01874],[-87.66398,42.01908],[-87.66388,42.01952],[-87.66408,42.02016],[-87.66379,42.02038],[-87.66405,42.02131],[-87.66419,42.02125],[-87.66453,42.02149],[-87.66472,42.02173],[-87.66466,42.02194],[-87.6648,42.02223],[-87.66505,42.02236],[-87.66527,42.02262],[-87.66513,42.02295],[-87.67189,42.023],[-87.67188,42.02252],[-87.67424,42.02253],[-87.6742,42.02127],[-87.67398,42.02118],[-87.67308,42.02118],[-87.67311,42.01939],[-87.67708,42.01941],[-87.67726,42.01942],[-87.68024,42.01944],[-87.69017,42.01953],[-87.69024,42.01265],[-87.69019,42.00982],[-87.68812,42.00991],[-87.68812,42.01046],[-87.68605,42.01055],[-87.68604,42.01],[-87.68232,42.01016],[-87.68229,42.01006],[-87.68148,42.01007],[-87.68104,42.00886],[-87.68038,42.00887],[-87.68037,42.00827],[-87.68076,42.00826],[-87.67965,42.00585],[-87.67571,42.00592],[-87.67572,42.00652],[-87.67528,42.00653],[-87.6752,42.00437],[-87.67538,42.00433],[-87.67513,41.99435],[-87.6749,41.99435],[-87.67484,41.99208],[-87.67471,41.99076],[-87.67003,41.9908],[-87.66997,41.98946],[-87.6698,41.98805],[-87.66509,41.9881],[-87.66498,41.98453],[-87.66896,41.98445],[-87.66845,41.98185],[-87.66828,41.97984],[-87.66842,41.97619],[-87.65987,41.97632],[-87.65984,41.97521],[-87.65876,41.97523],[-87.65879,41.97634],[-87.65107,41.97648],[-87.6496,41.97683],[-87.64733,41.97773]]]},"properties":{"num":14,"senate":7,"lp":[-87.6657,41.9992]}},
{"type":"Feature","geometry":{"type":"MultiPolygon","coordinates":[[[[-87.76185,42.0037],[-87.76456,42.00497],[-87.76547,42.00374],[-87.76579,42.00333],[-87.7692,42.00491],[-87.76995,42.00638],[-87.77036,42.00619],[-87.77335,42.01196],[-87.77705,42.01198],[-87.77697,42.01539],[-87.7791,42.01544],[-87.77915,42.01357],[-87.77927,42.01199],[-87.78109,42.01201],[-87.78207,42.012],[-87.78503,42.012],[-87.78882,42.012],[-87.7876,42.01056],[-87.78752,42.01059],[-87.78329,42.00564],[-87.78277,42.00509],[-87.782,42.0045],[-87.78539,42.0029],[-87.79065,42.0004],[-87.79117,42.00098],[-87.79561,42.00095],[-87.79394,42.00096],[-87.79394,41.99732],[-87.79231,41.99732],[-87.79198,41.99552],[-87.7875,41.99555],[-87.78758,41.99132],[-87.78702,41.99132],[-87.78374,41.99301],[-87.7683,41.985],[-87.76821,41.98729],[-87.76675,41.98875],[-87.76046,41.98569],[-87.76046,41.9849],[-87.75935,41.9849],[-87.7595,41.98517],[-87.75912,41.98518],[-87.75632,41.97989],[-87.75575,41.98],[-87.75534,41.97995],[-87.75538,41.97941],[-87.74879,41.9795],[-87.74874,41.97793],[-87.75503,41.97785],[-87.75474,41.97729],[-87.75473,41.97709],[-87.7518,41.97528],[-87.74927,41.97531],[-87.74922,41.97369],[-87.74791,41.97288],[-87.74783,41.9694],[-87.74756,41.96853],[-87.74772,41.96803],[-87.74789,41.96803],[-87.74795,41.96764],[-87.74786,41.96436],[-87.74762,41.96437],[-87.74698,41.96299],[-87.74701,41.96279],[-87.74728,41.96238],[-87.74646,41.96074],[-87.73272,41.96089],[-87.73264,41.95907],[-87.731,41.95909],[-87.73105,41.96091],[-87.7306,41.96092],[-87.73238,41.96217],[-87.73115,41.96314],[-87.73281,41.9643],[-87.73041,41.96621],[-87.73041,41.96629],[-87.73162,41.96712],[-87.73171,41.96712],[-87.73172,41.96776],[-87.73045,41.96777],[-87.73048,41.96822],[-87.72803,41.96824],[-87.72813,41.97188],[-87.71644,41.97201],[-87.71605,41.97191],[-87.71493,41.9718],[-87.71281,41.97202],[-87.70858,41.97209],[-87.70868,41.97575],[-87.69892,41.97582],[-87.69907,41.98038],[-87.69337,41.98041],[-87.69345,41.98132],[-87.69424,41.98132],[-87.69427,41.98223],[-87.69465,41.98223],[-87.69535,41.98268],[-87.69671,41.98268],[-87.69673,41.98313],[-87.69795,41.98313],[-87.69798,41.98426],[-87.69913,41.9849],[-87.69982,41.98494],[-87.69985,41.98533],[-87.70539,41.98863],[-87.70508,41.98902],[-87.70737,41.99039],[-87.70425,41.99042],[-87.70424,41.98991],[-87.70302,41.98992],[-87.70304,41.99042],[-87.6994,41.99044],[-87.69934,41.98858],[-87.69691,41.98859],[-87.69695,41.98995],[-87.69573,41.98996],[-87.69586,41.99402],[-87.70924,41.99385],[-87.70934,41.99739],[-87.70945,41.99739],[-87.71437,41.99731],[-87.71915,41.99723],[-87.72704,41.99725],[-87.72903,41.99724],[-87.74094,41.99725],[-87.74604,41.99728],[-87.75168,41.9973],[-87.75291,41.9973],[-87.76218,42.00165],[-87.76227,42.00169],[-87.76196,42.00263],[-87.76194,42.00276],[-87.76186,42.00364],[-87.76185,42.0037]]],[[[-87.79967,42.00087],[-87.79948,41.99998],[-87.79713,42],[-87.79712,42.00094],[-87.79717,42.00089],[-87.79717,42.00004],[-87.79945,42.00003],[-87.79967,42.00087]]],[[[-87.80535,42.00151],[-87.80108,42.00152],[-87.80185,42.00156],[-87.80535,42.00151]]]]},"properties":{"num":15,"senate":8,"lp":[-87.7355,41.98346]}},
{"type":"Feature","geometry":{"type":"MultiPolygon","coordinates":[[[[-87.68812,42.01046],[-87.68802,42.00629],[-87.68386,42.00638],[-87.68382,42.00514],[-87.69007,42.00503],[-87.69002,42.00319],[-87.69491,42.0031],[-87.69498,42.01306],[-87.69734,42.01303],[-87.69729,42.01575],[-87.69493,42.01581],[-87.69488,42.01943],[-87.70901,42.01913],[-87.70919,42.01167],[-87.70932,42.01054],[-87.70948,42.00452],[-87.70948,42.00117],[-87.70945,41.99739],[-87.70934,41.99739],[-87.70924,41.99385],[-87.69586,41.99402],[-87.69573,41.98996],[-87.69695,41.98995],[-87.69691,41.98859],[-87.69569,41.9886],[-87.69563,41.98678],[-87.68955,41.98681],[-87.68922,41.97771],[-87.68845,41.97772],[-87.68441,41.97951],[-87.67986,41.98188],[-87.67954,41.98194],[-87.67952,41.98307],[-87.6794,41.98325],[-87.67461,41.98336],[-87.67465,41.98463],[-87.67305,41.98465],[-87.67302,41.98342],[-87.66876,41.98349],[-87.66896,41.98445],[-87.66498,41.98453],[-87.66509,41.9881],[-87.6698,41.98805],[-87.66997,41.98946],[-87.67003,41.9908],[-87.67471,41.99076],[-87.67484,41.99208],[-87.6749,41.99435],[-87.67513,41.99435],[-87.67538,42.00433],[-87.6752,42.00437],[-87.67528,42.00653],[-87.67572,42.00652],[-87.67571,42.00592],[-87.67965,42.00585],[-87.68076,42.00826],[-87.68037,42.00827],[-87.68038,42.00887],[-87.68104,42.00886],[-87.68148,42.01007],[-87.68229,42.01006],[-87.68232,42.01016],[-87.68604,42.01],[-87.68605,42.01055],[-87.68812,42.01046]]],[[[-87.72704,41.99725],[-87.71915,41.99723],[-87.71437,41.99731],[-87.71858,41.99728],[-87.72704,41.99725]]],[[[-87.76218,42.00165],[-87.75291,41.9973],[-87.75168,41.9973],[-87.7529,41.9973],[-87.75444,41.99804],[-87.76143,42.00132],[-87.76218,42.00165]]],[[[-87.76547,42.00374],[-87.76456,42.00497],[-87.76185,42.0037],[-87.76166,42.00827],[-87.76746,42.00832],[-87.76754,42.00471],[-87.76547,42.00374]]]]},"properties":{"num":16,"senate":8,"lp":[-87.68471,41.99518]}},
{"type":"Feature","geometry":{"type":"Polygon","coordinates":[[[-87.78775,41.98206],[-87.79382,41.98211],[-87.79394,41.9756],[-87.80241,41.97553],[-87.80256,41.9683],[-87.80252,41.96877],[-87.79758,41.9688],[-87.78801,41.96889],[-87.78801,41.96841],[-87.78677,41.96843],[-87.78674,41.96734],[-87.78678,41.96347],[-87.78705,41.9633],[-87.78689,41.96269],[-87.78681,41.96022],[-87.78815,41.96018],[-87.7918,41.96012],[-87.7942,41.96006],[-87.79473,41.95987],[-87.80013,41.95728],[-87.80012,41.95711],[-87.80728,41.95369],[-87.80713,41.9489],[-87.80345,41.94897],[-87.80303,41.93805],[-87.79939,41.9381],[-87.79952,41.94172],[-87.79584,41.94181],[-87.79599,41.94548],[-87.78381,41.9457],[-87.78379,41.94524],[-87.77892,41.94529],[-87.7789,41.94483],[-87.77646,41.94486],[-87.77659,41.94805],[-87.77415,41.94808],[-87.7741,41.94671],[-87.76679,41.94679],[-87.76682,41.9477],[-87.76559,41.94772],[-87.76553,41.94589],[-87.7643,41.94591],[-87.76431,41.94636],[-87.76369,41.94637],[-87.76374,41.94774],[-87.7619,41.94777],[-87.76193,41.94868],[-87.75947,41.94871],[-87.75945,41.94826],[-87.75699,41.94829],[-87.75709,41.95145],[-87.75464,41.95148],[-87.75466,41.95193],[-87.75219,41.95196],[-87.75216,41.95061],[-87.74466,41.9507],[-87.74464,41.94981],[-87.74243,41.94984],[-87.74236,41.94618],[-87.7372,41.94625],[-87.73722,41.94579],[-87.73597,41.94586],[-87.73538,41.94553],[-87.73476,41.94553],[-87.73477,41.94575],[-87.73216,41.94416],[-87.73219,41.94558],[-87.73126,41.94558],[-87.73123,41.94476],[-87.72918,41.94478],[-87.72922,41.94596],[-87.72798,41.94597],[-87.72797,41.94561],[-87.72738,41.94561],[-87.72734,41.94456],[-87.7249,41.94459],[-87.72495,41.94641],[-87.71756,41.9465],[-87.71767,41.94833],[-87.71828,41.94832],[-87.71837,41.95196],[-87.72143,41.95192],[-87.72155,41.95599],[-87.72217,41.95643],[-87.7223,41.96056],[-87.72659,41.96051],[-87.72666,41.96283],[-87.72788,41.96282],[-87.72803,41.96824],[-87.73048,41.96822],[-87.73045,41.96777],[-87.73172,41.96776],[-87.73171,41.96712],[-87.73162,41.96712],[-87.73041,41.96629],[-87.73041,41.96621],[-87.73281,41.9643],[-87.73115,41.96314],[-87.73238,41.96217],[-87.7306,41.96092],[-87.73105,41.96091],[-87.731,41.95909],[-87.73264,41.95907],[-87.73272,41.96089],[-87.74646,41.96074],[-87.74728,41.96238],[-87.74701,41.96279],[-87.74698,41.96299],[-87.74762,41.96437],[-87.74786,41.96436],[-87.74795,41.96764],[-87.74789,41.96803],[-87.74772,41.96803],[-87.74756,41.96853],[-87.74783,41.9694],[-87.74791,41.97288],[-87.74922,41.97369],[-87.74927,41.97531],[-87.7518,41.97528],[-87.75473,41.97709],[-87.75474,41.97729],[-87.75503,41.97785],[-87.74874,41.97793],[-87.74879,41.9795],[-87.75538,41.97941],[-87.75534,41.97995],[-87.75575,41.98],[-87.75632,41.97989],[-87.75912,41.98518],[-87.7595,41.98517],[-87.75935,41.9849],[-87.76046,41.9849],[-87.76046,41.98569],[-87.76675,41.98875],[-87.76821,41.98729],[-87.7683,41.985],[-87.78374,41.99301],[-87.78702,41.99132],[-87.78758,41.99132],[-87.78775,41.98206]]]},"properties":{"num":19,"senate":10,"lp":[-87.76864,41.96562]}},
{"type":"Feature","geometry":{"type":"MultiPolygon","coordinates":[[[[-87.88081,41.96042],[-87.88324,41.95853],[-87.8843,41.95753],[-87.88933,41.95797],[-87.88563,41.95749],[-87.88563,41.95754],[-87.88385,41.9573],[-87.88383,41.95736],[-87.88163,41.95711],[-87.88079,41.9572],[-87.88081,41.96042]]],[[[-87.87883,41.98596],[-87.87904,41.98104],[-87.87878,41.98115],[-87.87888,41.97926],[-87.87885,41.97796],[-87.87847,41.97582],[-87.87765,41.97306],[-87.88088,41.97308],[-87.88081,41.96749],[-87.88079,41.96918],[-87.88077,41.97285],[-87.86989,41.97312],[-87.86883,41.97317],[-87.86848,41.97316],[-87.8619,41.97332],[-87.8617,41.97299],[-87.86134,41.97261],[-87.86043,41.97193],[-87.85975,41.9716],[-87.85903,41.97143],[-87.85868,41.97147],[-87.85783,41.97197],[-87.85746,41.97215],[-87.85659,41.97246],[-87.85584,41.97259],[-87.85516,41.97246],[-87.8546,41.97204],[-87.85427,41.97162],[-87.85413,41.97117],[-87.85417,41.97078],[-87.85432,41.9703],[-87.85478,41.96943],[-87.85503,41.96871],[-87.85498,41.96793],[-87.85478,41.9672],[-87.85477,41.96691],[-87.85497,41.96595],[-87.8553,41.96512],[-87.85551,41.96446],[-87.85568,41.96284],[-87.85582,41.96241],[-87.8563,41.96159],[-87.85703,41.9602],[-87.85742,41.95956],[-87.85758,41.95919],[-87.85813,41.95834],[-87.85868,41.95761],[-87.85876,41.95742],[-87.85878,41.95693],[-87.85859,41.95614],[-87.85825,41.95558],[-87.85808,41.95544],[-87.8466,41.95569],[-87.84662,41.95179],[-87.84661,41.95164],[-87.85407,41.95145],[-87.85425,41.95092],[-87.85494,41.94948],[-87.85501,41.94894],[-87.855,41.9482],[-87.85487,41.9478],[-87.85408,41.94656],[-87.85382,41.94584],[-87.85358,41.94504],[-87.85326,41.94376],[-87.85301,41.94335],[-87.8531,41.94288],[-87.85308,41.9426],[-87.85253,41.94126],[-87.85227,41.94041],[-87.85211,41.93979],[-87.85181,41.93917],[-87.85141,41.9387],[-87.85066,41.93808],[-87.85019,41.93775],[-87.84962,41.93729],[-87.84445,41.9374],[-87.84261,41.93743],[-87.83606,41.93756],[-87.83326,41.93761],[-87.82657,41.93775],[-87.82594,41.93775],[-87.825,41.93777],[-87.81652,41.93794],[-87.81639,41.93431],[-87.80714,41.93451],[-87.80663,41.93451],[-87.80675,41.938],[-87.80303,41.93805],[-87.80345,41.94897],[-87.80713,41.9489],[-87.80728,41.95369],[-87.80727,41.95276],[-87.80757,41.95277],[-87.82171,41.95242],[-87.83179,41.95216],[-87.83183,41.95404],[-87.83182,41.95567],[-87.83209,41.95707],[-87.8326,41.95908],[-87.83268,41.95944],[-87.8367,41.95936],[-87.83668,41.9666],[-87.84428,41.96646],[-87.84657,41.96641],[-87.84654,41.9682],[-87.84656,41.96955],[-87.84654,41.97158],[-87.84651,41.97189],[-87.84158,41.97198],[-87.84159,41.97014],[-87.83665,41.97023],[-87.83665,41.97137],[-87.83795,41.97135],[-87.83793,41.97384],[-87.84155,41.97379],[-87.84649,41.97371],[-87.84642,41.98037],[-87.84653,41.98784],[-87.84671,41.98788],[-87.8507,41.98844],[-87.85413,41.98865],[-87.85483,41.98876],[-87.85584,41.98906],[-87.85568,41.98866],[-87.85554,41.98794],[-87.85558,41.98774],[-87.85587,41.98715],[-87.85636,41.98599],[-87.85647,41.98536],[-87.85664,41.98466],[-87.85664,41.98432],[-87.85623,41.98348],[-87.85597,41.9828],[-87.85578,41.98216],[-87.85578,41.9817],[-87.85588,41.9811],[-87.85627,41.98046],[-87.85846,41.97866],[-87.85938,41.97757],[-87.85996,41.97699],[-87.86067,41.97654],[-87.86124,41.976],[-87.86168,41.97535],[-87.86201,41.97431],[-87.86201,41.97386],[-87.86749,41.97373],[-87.86749,41.97399],[-87.86784,41.97398],[-87.86784,41.97382],[-87.86861,41.9738],[-87.8686,41.97405],[-87.87265,41.97396],[-87.87589,41.97388],[-87.87588,41.9766],[-87.87373,41.97666],[-87.87502,41.98024],[-87.87489,41.98025],[-87.87586,41.98294],[-87.87586,41.9857],[-87.87691,41.98567],[-87.88035,41.99523],[-87.88453,41.9951],[-87.88453,41.995],[-87.88461,41.99429],[-87.88446,41.99354],[-87.88413,41.99282],[-87.8837,41.9922],[-87.88306,41.99159],[-87.88089,41.99027],[-87.88014,41.98965],[-87.87959,41.98898],[-87.87911,41.98784],[-87.87883,41.98596]]],[[[-87.83663,41.97479],[-87.84146,41.97469],[-87.83681,41.97477],[-87.83663,41.97479]]],[[[-87.83658,41.98635],[-87.83662,41.98636],[-87.83655,41.98257],[-87.83662,41.97531],[-87.83363,41.97537],[-87.83363,41.97491],[-87.83341,41.97492],[-87.83342,41.97392],[-87.83172,41.97395],[-87.83173,41.97306],[-87.82674,41.97314],[-87.82674,41.97403],[-87.8194,41.97422],[-87.81943,41.97322],[-87.81897,41.97322],[-87.81899,41.97061],[-87.81695,41.97066],[-87.81692,41.97429],[-87.80729,41.97454],[-87.80707,41.97454],[-87.80706,41.9732],[-87.80712,41.9697],[-87.80716,41.96827],[-87.80256,41.9683],[-87.80241,41.97553],[-87.79394,41.9756],[-87.79382,41.98211],[-87.78775,41.98206],[-87.7875,41.99555],[-87.79198,41.99552],[-87.79231,41.99732],[-87.79394,41.99732],[-87.79394,42.00096],[-87.79561,42.00095],[-87.79712,42.00094],[-87.79713,42],[-87.79948,41.99998],[-87.79967,42.00087],[-87.80109,42.00087],[-87.80108,42.00152],[-87.80535,42.00151],[-87.80539,42.00086],[-87.80676,42.00084],[-87.80664,42.01148],[-87.80661,42.0133],[-87.80661,42.01359],[-87.80658,42.01651],[-87.80658,42.01659],[-87.80656,42.01841],[-87.80655,42.01896],[-87.81372,42.0188],[-87.8162,42.01875],[-87.82047,42.01866],[-87.8212,42.01864],[-87.82121,42.01864],[-87.82121,42.01855],[-87.82123,42.01554],[-87.82007,42.01557],[-87.8201,42.01193],[-87.81973,42.01193],[-87.81973,42.01139],[-87.82125,42.01136],[-87.82126,42.011],[-87.82132,42.00756],[-87.82132,42.00748],[-87.82131,42.00735],[-87.82112,42.00723],[-87.82131,42.00706],[-87.82132,42.00605],[-87.82134,42.00399],[-87.82137,42.00065],[-87.8214,41.99784],[-87.8214,41.99766],[-87.82141,41.9973],[-87.82141,41.99688],[-87.82141,41.99685],[-87.81669,41.99698],[-87.81683,41.98294],[-87.81927,41.98344],[-87.8234,41.98398],[-87.82335,41.98436],[-87.82811,41.98504],[-87.83503,41.98603],[-87.83503,41.98607],[-87.83638,41.98627],[-87.83658,41.98635]],[[-87.82411,41.97851],[-87.82443,41.97607],[-87.83362,41.97592],[-87.83362,41.97689],[-87.8296,41.97696],[-87.82961,41.97734],[-87.83004,41.97733],[-87.83005,41.97806],[-87.82971,41.97813],[-87.82972,41.97842],[-87.82864,41.97844],[-87.8287,41.97912],[-87.82808,41.97912],[-87.82808,41.97929],[-87.8287,41.97929],[-87.82869,41.98033],[-87.82886,41.9806],[-87.8351,41.9805],[-87.8351,41.98084],[-87.83436,41.98085],[-87.83435,41.98116],[-87.83509,41.98115],[-87.83507,41.98267],[-87.8336,41.98267],[-87.83358,41.98357],[-87.83321,41.98357],[-87.83303,41.9838],[-87.82811,41.98387],[-87.82814,41.98192],[-87.82527,41.98196],[-87.8253,41.983],[-87.82353,41.98303],[-87.82411,41.97851]]]]},"properties":{"num":20,"senate":10,"lp":[-87.83904,41.94661]}},
{"type":"Feature","geometry":{"type":"MultiPolygon","coordinates":[[[[-87.78215,41.79967],[-87.79567,41.79943],[-87.79616,41.79946],[-87.79704,41.79945],[-87.80163,41.798],[-87.80161,41.79576],[-87.80162,41.79481],[-87.80151,41.79145],[-87.78301,41.79185],[-87.78303,41.79232],[-87.78165,41.79236],[-87.77934,41.79302],[-87.77948,41.79609],[-87.78192,41.79604],[-87.78203,41.79967],[-87.78215,41.79967]]],[[[-87.80088,41.77708],[-87.80132,41.78701],[-87.80101,41.77968],[-87.80101,41.77913],[-87.80088,41.77708]]],[[[-87.80077,41.77378],[-87.8008,41.77551],[-87.80082,41.77558],[-87.80077,41.77378]]]]},"properties":{"num":21,"senate":11,"lp":[-87.79649,41.79547]}},
{"type":"Feature","geometry":{"type":"MultiPolygon","coordinates":[[[[-87.80082,41.77558],[-87.8008,41.77551],[-87.80077,41.77378],[-87.78112,41.77409],[-87.75661,41.77458],[-87.74716,41.77475],[-87.74704,41.77467],[-87.74446,41.77472],[-87.74217,41.77478],[-87.74215,41.77445],[-87.74203,41.7704],[-87.7419,41.7643],[-87.74184,41.76227],[-87.74178,41.76128],[-87.74179,41.76084],[-87.74169,41.75894],[-87.74153,41.7547],[-87.7415,41.75329],[-87.73912,41.75312],[-87.73519,41.75319],[-87.73519,41.75308],[-87.73261,41.75307],[-87.73221,41.75317],[-87.73233,41.7533],[-87.73237,41.75497],[-87.72218,41.75509],[-87.72219,41.75684],[-87.71232,41.75691],[-87.71272,41.77061],[-87.71272,41.77152],[-87.71255,41.77152],[-87.7127,41.77862],[-87.7129,41.77883],[-87.713,41.78064],[-87.71313,41.787],[-87.71332,41.78975],[-87.7135,41.79702],[-87.71653,41.79698],[-87.71658,41.79881],[-87.72204,41.79873],[-87.7221,41.80057],[-87.72337,41.80055],[-87.72337,41.80036],[-87.72821,41.79831],[-87.72817,41.79683],[-87.73184,41.79679],[-87.73184,41.79687],[-87.73306,41.79661],[-87.73549,41.79576],[-87.73549,41.7956],[-87.73616,41.79534],[-87.73786,41.79529],[-87.73803,41.79945],[-87.77836,41.79326],[-87.78165,41.79236],[-87.78303,41.79232],[-87.78301,41.79185],[-87.80151,41.79145],[-87.80144,41.78987],[-87.80141,41.78926],[-87.80139,41.78866],[-87.80137,41.78815],[-87.80132,41.78701],[-87.80088,41.77708],[-87.80082,41.77558]]],[[[-87.74136,41.74918],[-87.74149,41.75313],[-87.7415,41.75267],[-87.74136,41.74918]]]]},"properties":{"num":22,"senate":11,"lp":[-87.72843,41.78144]}},
{"type":"Feature","geometry":{"type":"MultiPolygon","coordinates":[[[[-87.73993,41.86596],[-87.74317,41.86591],[-87.74007,41.86596],[-87.73998,41.86596],[-87.73988,41.86245],[-87.73993,41.86596]]],[[[-87.7112,41.85355],[-87.71114,41.85199],[-87.71242,41.85171],[-87.72228,41.85155],[-87.72223,41.84957],[-87.72226,41.84931],[-87.73436,41.84657],[-87.73439,41.8477],[-87.73922,41.84598],[-87.73935,41.85043],[-87.73964,41.85499],[-87.7395,41.85114],[-87.73928,41.84414],[-87.73911,41.83855],[-87.73899,41.83855],[-87.73893,41.83672],[-87.73881,41.83673],[-87.73864,41.82943],[-87.73849,41.82212],[-87.73864,41.82212],[-87.73853,41.81803],[-87.72404,41.82254],[-87.71507,41.82542],[-87.71542,41.8257],[-87.71431,41.82605],[-87.71432,41.82145],[-87.71387,41.80799],[-87.6851,41.80843],[-87.68525,41.81161],[-87.6852,41.81206],[-87.68581,41.81205],[-87.6859,41.81568],[-87.68953,41.81562],[-87.68962,41.81857],[-87.69123,41.81856],[-87.6934,41.82074],[-87.69457,41.82002],[-87.69479,41.82909],[-87.69471,41.82988],[-87.69481,41.83247],[-87.69492,41.83351],[-87.69503,41.83741],[-87.69115,41.83749],[-87.68972,41.83792],[-87.68955,41.83815],[-87.68762,41.83819],[-87.68738,41.83838],[-87.68522,41.83907],[-87.68545,41.84484],[-87.69466,41.8447],[-87.69474,41.84755],[-87.69487,41.84778],[-87.69513,41.84788],[-87.69856,41.84784],[-87.69896,41.84807],[-87.69918,41.85446],[-87.70006,41.85427],[-87.70289,41.85418],[-87.70288,41.8538],[-87.70377,41.85361],[-87.7112,41.85355]]]]},"properties":{"num":23,"senate":12,"lp":[-87.70875,41.83852]}},
{"type":"Feature","geometry":{"type":"Polygon","coordinates":[[[-87.6345,41.85993],[-87.63565,41.86003],[-87.63686,41.85991],[-87.63901,41.86002],[-87.67114,41.85954],[-87.67116,41.85989],[-87.67366,41.85997],[-87.67606,41.85975],[-87.67605,41.85952],[-87.67796,41.85948],[-87.67858,41.85939],[-87.68583,41.85937],[-87.68584,41.85764],[-87.68727,41.85713],[-87.69313,41.85578],[-87.69313,41.85597],[-87.69494,41.85557],[-87.69921,41.85551],[-87.69896,41.84807],[-87.69856,41.84784],[-87.69513,41.84788],[-87.69487,41.84778],[-87.69474,41.84755],[-87.69466,41.8447],[-87.68545,41.84484],[-87.68522,41.83907],[-87.68738,41.83838],[-87.68762,41.83819],[-87.68955,41.83815],[-87.68972,41.83792],[-87.69115,41.83749],[-87.69503,41.83741],[-87.69492,41.83351],[-87.69481,41.83247],[-87.69471,41.82988],[-87.69479,41.82909],[-87.69457,41.82002],[-87.6934,41.82074],[-87.69123,41.81856],[-87.68962,41.81857],[-87.68953,41.81562],[-87.68407,41.8157],[-87.68447,41.83072],[-87.68464,41.83204],[-87.68469,41.8332],[-87.68481,41.83363],[-87.68456,41.83418],[-87.68457,41.83541],[-87.68098,41.83653],[-87.67961,41.83687],[-87.67839,41.83699],[-87.67544,41.83705],[-87.67509,41.82311],[-87.66778,41.82318],[-87.66779,41.82363],[-87.66599,41.82365],[-87.66598,41.82593],[-87.66609,41.82593],[-87.6661,41.82684],[-87.66603,41.82684],[-87.66611,41.83002],[-87.66672,41.83001],[-87.66674,41.83049],[-87.64124,41.83082],[-87.64106,41.82352],[-87.65598,41.82332],[-87.65553,41.82268],[-87.65552,41.82186],[-87.65578,41.82124],[-87.65587,41.8201],[-87.65583,41.81979],[-87.65541,41.81859],[-87.65533,41.81598],[-87.66023,41.81592],[-87.6613,41.8158],[-87.66271,41.81578],[-87.66416,41.81589],[-87.67245,41.81581],[-87.67226,41.80853],[-87.64554,41.80886],[-87.64584,41.82029],[-87.64098,41.82035],[-87.64099,41.82078],[-87.63854,41.82081],[-87.63857,41.82173],[-87.63615,41.82183],[-87.63635,41.82358],[-87.63638,41.82723],[-87.63625,41.83088],[-87.63613,41.83088],[-87.63614,41.83453],[-87.63589,41.83454],[-87.63598,41.83767],[-87.63612,41.83774],[-87.63614,41.83818],[-87.62978,41.83828],[-87.62996,41.84427],[-87.62994,41.84668],[-87.63004,41.84718],[-87.63013,41.84926],[-87.63011,41.85211],[-87.63017,41.85264],[-87.63057,41.85388],[-87.63064,41.85489],[-87.63016,41.85512],[-87.63026,41.86012],[-87.63127,41.86002],[-87.63189,41.86013],[-87.63265,41.86014],[-87.6345,41.85993]]]},"properties":{"num":24,"senate":12,"lp":[-87.6489,41.84532]}},
{"type":"Feature","geometry":{"type":"Polygon","coordinates":[[[-87.59216,41.81698],[-87.59643,41.81692],[-87.59665,41.81684],[-87.59728,41.81692],[-87.60063,41.81688],[-87.60066,41.81802],[-87.60418,41.81798],[-87.60405,41.8166],[-87.60382,41.80592],[-87.59677,41.806],[-87.59671,41.80237],[-87.60641,41.80225],[-87.60632,41.79861],[-87.60513,41.79863],[-87.60508,41.79681],[-87.60387,41.79683],[-87.60383,41.79548],[-87.60375,41.79499],[-87.60131,41.79502],[-87.60138,41.7947],[-87.6013,41.79139],[-87.59808,41.79143],[-87.59799,41.78779],[-87.59637,41.7878],[-87.59633,41.78601],[-87.58931,41.78612],[-87.59015,41.78237],[-87.5895,41.78223],[-87.589,41.78234],[-87.58897,41.78058],[-87.58646,41.78062],[-87.58627,41.77532],[-87.58635,41.77511],[-87.5863,41.77334],[-87.58386,41.77336],[-87.58377,41.76972],[-87.5764,41.7698],[-87.5763,41.76621],[-87.5714,41.76626],[-87.5713,41.76257],[-87.56645,41.76262],[-87.56624,41.75218],[-87.56503,41.7522],[-87.56502,41.75175],[-87.5626,41.75178],[-87.56261,41.75224],[-87.56139,41.75225],[-87.56139,41.75179],[-87.55163,41.75193],[-87.55162,41.75146],[-87.55153,41.75117],[-87.5515,41.75011],[-87.55163,41.75011],[-87.55159,41.74829],[-87.5515,41.74829],[-87.55142,41.74466],[-87.5515,41.74466],[-87.55148,41.74347],[-87.55173,41.74347],[-87.55154,41.74254],[-87.55143,41.73738],[-87.55629,41.73732],[-87.55632,41.73914],[-87.56605,41.73901],[-87.56603,41.73743],[-87.56589,41.73549],[-87.56595,41.735],[-87.56591,41.73354],[-87.57259,41.73345],[-87.5725,41.7298],[-87.57553,41.72976],[-87.57535,41.72247],[-87.54658,41.72276],[-87.53654,41.72294],[-87.53529,41.7214],[-87.53529,41.70639],[-87.53954,41.7064],[-87.53952,41.70458],[-87.54011,41.70458],[-87.54011,41.69186],[-87.54132,41.69186],[-87.54129,41.6828],[-87.53766,41.68277],[-87.53765,41.68094],[-87.53188,41.68093],[-87.53115,41.68205],[-87.53063,41.68325],[-87.53041,41.68465],[-87.53034,41.68639],[-87.53035,41.69183],[-87.52466,41.6918],[-87.52462,41.69724],[-87.52454,41.70033],[-87.52453,41.7026],[-87.52455,41.70795],[-87.52454,41.70848],[-87.52489,41.70867],[-87.52502,41.70892],[-87.52537,41.70883],[-87.52568,41.70909],[-87.52523,41.70937],[-87.52531,41.70946],[-87.52577,41.70916],[-87.52622,41.70954],[-87.52559,41.70994],[-87.52526,41.70971],[-87.52512,41.70974],[-87.52488,41.7094],[-87.52449,41.70925],[-87.52419,41.70943],[-87.52459,41.70959],[-87.52496,41.70989],[-87.52547,41.71013],[-87.52565,41.71036],[-87.526,41.71035],[-87.5259,41.71014],[-87.52624,41.70982],[-87.52669,41.70986],[-87.5272,41.71003],[-87.52841,41.7108],[-87.52643,41.71231],[-87.52742,41.71308],[-87.52777,41.71351],[-87.52813,41.71424],[-87.52848,41.71473],[-87.5287,41.71537],[-87.52857,41.71585],[-87.528,41.71638],[-87.5273,41.71682],[-87.5258,41.71732],[-87.52555,41.71737],[-87.52447,41.7174],[-87.5245,41.71799],[-87.52491,41.71805],[-87.52529,41.71849],[-87.52555,41.71899],[-87.52561,41.71955],[-87.52556,41.72037],[-87.52541,41.72092],[-87.525,41.72152],[-87.52447,41.7219],[-87.52447,41.7232],[-87.52454,41.72358],[-87.52469,41.73109],[-87.52495,41.73141],[-87.52526,41.73153],[-87.52895,41.73205],[-87.52949,41.73237],[-87.52899,41.7337],[-87.52915,41.7349],[-87.52912,41.73497],[-87.52928,41.73594],[-87.52949,41.73783],[-87.52955,41.73809],[-87.52986,41.74061],[-87.53141,41.74059],[-87.53887,41.7405],[-87.53983,41.7405],[-87.53986,41.74101],[-87.53176,41.7411],[-87.53069,41.74112],[-87.52989,41.74133],[-87.52446,41.74139],[-87.52448,41.74145],[-87.5295,41.7414],[-87.52985,41.74146],[-87.53004,41.74179],[-87.53008,41.7424],[-87.53071,41.74691],[-87.53095,41.74803],[-87.53138,41.74828],[-87.53208,41.74859],[-87.53274,41.74882],[-87.5339,41.74931],[-87.53438,41.74945],[-87.53549,41.74988],[-87.53601,41.75016],[-87.53689,41.7505],[-87.53735,41.75071],[-87.5385,41.75112],[-87.53891,41.75131],[-87.53992,41.75163],[-87.54049,41.75186],[-87.54114,41.75193],[-87.54294,41.75193],[-87.54319,41.75199],[-87.54351,41.75225],[-87.54372,41.75253],[-87.54415,41.75344],[-87.54441,41.75413],[-87.54415,41.75462],[-87.54418,41.7548],[-87.54393,41.75505],[-87.54395,41.75526],[-87.5425,41.75615],[-87.5418,41.75654],[-87.54061,41.75731],[-87.54112,41.75777],[-87.54165,41.75782],[-87.54263,41.75874],[-87.54253,41.75907],[-87.5432,41.7597],[-87.5437,41.76009],[-87.54401,41.75988],[-87.54458,41.75973],[-87.54495,41.75974],[-87.54551,41.75936],[-87.54659,41.75888],[-87.54725,41.75872],[-87.54797,41.75867],[-87.54871,41.75873],[-87.54955,41.75896],[-87.55225,41.75998],[-87.55411,41.76081],[-87.55435,41.76105],[-87.55488,41.76179],[-87.55527,41.76162],[-87.55559,41.76158],[-87.55608,41.76182],[-87.55672,41.76227],[-87.55687,41.76243],[-87.55764,41.76285],[-87.55759,41.76313],[-87.55848,41.764],[-87.55898,41.76375],[-87.55928,41.76404],[-87.55944,41.76408],[-87.55974,41.76439],[-87.55952,41.76453],[-87.55983,41.76495],[-87.56022,41.76504],[-87.56061,41.76564],[-87.56056,41.76614],[-87.56018,41.76644],[-87.55964,41.76655],[-87.55939,41.76678],[-87.55945,41.76806],[-87.55941,41.76852],[-87.55952,41.76894],[-87.55971,41.76904],[-87.55992,41.76851],[-87.56053,41.7684],[-87.56092,41.76844],[-87.56154,41.76863],[-87.56234,41.769],[-87.5629,41.76994],[-87.5632,41.77028],[-87.56346,41.77093],[-87.56342,41.77118],[-87.56364,41.77208],[-87.56398,41.77209],[-87.5649,41.77252],[-87.56565,41.77292],[-87.56629,41.77347],[-87.56643,41.77378],[-87.56681,41.77396],[-87.56782,41.77531],[-87.56813,41.7757],[-87.56881,41.7764],[-87.56919,41.77669],[-87.56969,41.77697],[-87.5699,41.777],[-87.57033,41.77742],[-87.57114,41.77805],[-87.57167,41.77854],[-87.57182,41.77858],[-87.57224,41.77923],[-87.57271,41.77932],[-87.57321,41.77919],[-87.57336,41.7789],[-87.57336,41.77831],[-87.57316,41.778],[-87.57279,41.77767],[-87.57265,41.77733],[-87.57245,41.77741],[-87.57216,41.77718],[-87.57175,41.7766],[-87.57184,41.77607],[-87.572,41.77582],[-87.57284,41.77561],[-87.57348,41.77551],[-87.57412,41.77553],[-87.57481,41.77577],[-87.5747,41.77599],[-87.57469,41.77628],[-87.57507,41.77678],[-87.5753,41.77741],[-87.57528,41.77787],[-87.57494,41.77881],[-87.57473,41.77911],[-87.57444,41.77937],[-87.57411,41.77953],[-87.57339,41.77971],[-87.57304,41.77991],[-87.57315,41.78027],[-87.57248,41.78045],[-87.57128,41.78084],[-87.56955,41.78125],[-87.5705,41.78137],[-87.57135,41.78156],[-87.57248,41.7819],[-87.57331,41.7822],[-87.57421,41.78263],[-87.5761,41.78365],[-87.57638,41.78422],[-87.57682,41.78521],[-87.5772,41.78631],[-87.57731,41.78681],[-87.57733,41.78802],[-87.57764,41.78815],[-87.57767,41.78836],[-87.57728,41.78846],[-87.57669,41.78853],[-87.57655,41.78868],[-87.57782,41.78955],[-87.57842,41.7901],[-87.57868,41.79067],[-87.57927,41.79143],[-87.57963,41.79204],[-87.5795,41.79234],[-87.5796,41.79284],[-87.5795,41.79345],[-87.57932,41.79381],[-87.57901,41.7942],[-87.5783,41.79473],[-87.57783,41.79492],[-87.57691,41.79511],[-87.57662,41.79505],[-87.57618,41.79508],[-87.57579,41.79534],[-87.57544,41.79545],[-87.57516,41.79624],[-87.57525,41.79656],[-87.57591,41.79698],[-87.57647,41.79705],[-87.57757,41.79681],[-87.57826,41.79702],[-87.57858,41.79719],[-87.57933,41.79778],[-87.57999,41.79842],[-87.58088,41.80043],[-87.58082,41.80177],[-87.58066,41.80255],[-87.58006,41.80354],[-87.5801,41.8039],[-87.58067,41.80421],[-87.58112,41.80421],[-87.58291,41.80558],[-87.58365,41.80603],[-87.5839,41.80624],[-87.58452,41.80662],[-87.58523,41.80729],[-87.58576,41.80816],[-87.58615,41.80872],[-87.58611,41.80884],[-87.58627,41.80919],[-87.58648,41.80931],[-87.58649,41.8095],[-87.58683,41.8099],[-87.58697,41.81021],[-87.58706,41.81142],[-87.58722,41.81152],[-87.58738,41.81187],[-87.58766,41.81197],[-87.5883,41.81204],[-87.58876,41.81228],[-87.58913,41.81282],[-87.58957,41.81306],[-87.59022,41.81375],[-87.59035,41.81438],[-87.59046,41.81465],[-87.59089,41.815],[-87.5912,41.81545],[-87.59142,41.81592],[-87.59171,41.81603],[-87.59199,41.81629],[-87.59216,41.81658],[-87.59216,41.81698]]]},"properties":{"num":25,"senate":13,"lp":[-87.58952,41.79593]}},
{"type":"Feature","geometry":{"type":"MultiPolygon","coordinates":[[[[-87.6186,41.90018],[-87.61905,41.90009],[-87.62189,41.90004],[-87.62186,41.89842],[-87.6241,41.89839],[-87.62413,41.89921],[-87.62827,41.89914],[-87.62794,41.88575],[-87.62451,41.88575],[-87.62445,41.88447],[-87.62415,41.88438],[-87.62285,41.88428],[-87.62271,41.88213],[-87.6229,41.88085],[-87.62301,41.88084],[-87.62299,41.87591],[-87.62327,41.87588],[-87.62327,41.87559],[-87.62302,41.87558],[-87.62282,41.87447],[-87.62263,41.87133],[-87.62198,41.8695],[-87.62117,41.86758],[-87.62097,41.86759],[-87.62073,41.86717],[-87.61953,41.86419],[-87.61966,41.86417],[-87.61954,41.86363],[-87.61946,41.86235],[-87.61882,41.8601],[-87.61792,41.85796],[-87.61968,41.85789],[-87.61955,41.85779],[-87.61914,41.85682],[-87.61894,41.85086],[-87.61903,41.85074],[-87.61901,41.85021],[-87.61877,41.84968],[-87.61794,41.84881],[-87.61778,41.84845],[-87.61852,41.84844],[-87.61807,41.84817],[-87.61804,41.84788],[-87.61815,41.84772],[-87.61894,41.84753],[-87.61894,41.84677],[-87.61886,41.84571],[-87.61767,41.84572],[-87.61731,41.83123],[-87.61739,41.8304],[-87.61723,41.82266],[-87.6129,41.82268],[-87.61394,41.81758],[-87.61656,41.81754],[-87.61643,41.81301],[-87.61969,41.81296],[-87.61959,41.80934],[-87.61685,41.80938],[-87.61671,41.80392],[-87.61645,41.80392],[-87.61635,41.80294],[-87.61653,41.8021],[-87.61611,41.8021],[-87.61576,41.7857],[-87.60604,41.78587],[-87.60606,41.78713],[-87.60122,41.78718],[-87.60115,41.78411],[-87.59953,41.78413],[-87.59948,41.78231],[-87.59787,41.78232],[-87.59782,41.7805],[-87.5962,41.78052],[-87.59608,41.77505],[-87.59295,41.77508],[-87.59291,41.77327],[-87.59117,41.77328],[-87.5908,41.75872],[-87.58574,41.75877],[-87.58573,41.75838],[-87.58164,41.75835],[-87.58103,41.75836],[-87.58104,41.75882],[-87.57125,41.75893],[-87.57108,41.74985],[-87.56742,41.7499],[-87.56734,41.74445],[-87.55641,41.74459],[-87.55635,41.74096],[-87.55756,41.74094],[-87.55753,41.73912],[-87.55632,41.73914],[-87.55629,41.73732],[-87.55143,41.73738],[-87.55154,41.74254],[-87.55173,41.74347],[-87.55148,41.74347],[-87.5515,41.74466],[-87.55142,41.74466],[-87.5515,41.74829],[-87.55159,41.74829],[-87.55163,41.75011],[-87.5515,41.75011],[-87.55153,41.75117],[-87.55162,41.75146],[-87.55163,41.75193],[-87.56139,41.75179],[-87.56139,41.75225],[-87.56261,41.75224],[-87.5626,41.75178],[-87.56502,41.75175],[-87.56503,41.7522],[-87.56624,41.75218],[-87.56645,41.76262],[-87.5713,41.76257],[-87.5714,41.76626],[-87.5763,41.76621],[-87.5764,41.7698],[-87.58377,41.76972],[-87.58386,41.77336],[-87.5863,41.77334],[-87.58635,41.77511],[-87.58627,41.77532],[-87.58646,41.78062],[-87.58897,41.78058],[-87.589,41.78234],[-87.5895,41.78223],[-87.59015,41.78237],[-87.58931,41.78612],[-87.59633,41.78601],[-87.59637,41.7878],[-87.59799,41.78779],[-87.59808,41.79143],[-87.6013,41.79139],[-87.60138,41.7947],[-87.60131,41.79502],[-87.60375,41.79499],[-87.60383,41.79548],[-87.60387,41.79683],[-87.60508,41.79681],[-87.60513,41.79863],[-87.60632,41.79861],[-87.60641,41.80225],[-87.59671,41.80237],[-87.59677,41.806],[-87.60382,41.80592],[-87.60405,41.8166],[-87.60418,41.81798],[-87.60066,41.81802],[-87.60063,41.81688],[-87.59728,41.81692],[-87.59665,41.81684],[-87.59643,41.81692],[-87.59216,41.81698],[-87.59219,41.81768],[-87.59262,41.81834],[-87.59296,41.81857],[-87.59349,41.81881],[-87.5937,41.81904],[-87.59444,41.81952],[-87.59469,41.81973],[-87.59512,41.81981],[-87.59573,41.82043],[-87.59569,41.82053],[-87.5962,41.82133],[-87.59684,41.82196],[-87.59702,41.82223],[-87.59725,41.8228],[-87.59734,41.82321],[-87.59763,41.82403],[-87.5977,41.82457],[-87.59748,41.8255],[-87.59758,41.82605],[-87.59775,41.82634],[-87.59826,41.8268],[-87.59921,41.82739],[-87.59997,41.82793],[-87.6003,41.82827],[-87.60172,41.83006],[-87.60239,41.83069],[-87.60271,41.83135],[-87.60276,41.83185],[-87.6027,41.83233],[-87.60301,41.83273],[-87.60349,41.83301],[-87.60392,41.83304],[-87.60435,41.8332],[-87.60455,41.83335],[-87.60487,41.8338],[-87.60503,41.83442],[-87.60473,41.83459],[-87.60454,41.83481],[-87.60456,41.83499],[-87.60531,41.83568],[-87.60585,41.83644],[-87.60607,41.83729],[-87.60608,41.83802],[-87.60614,41.83854],[-87.60626,41.8388],[-87.60709,41.83943],[-87.60757,41.84057],[-87.60813,41.84143],[-87.60812,41.84228],[-87.60866,41.84296],[-87.60912,41.84419],[-87.60917,41.84446],[-87.609,41.84501],[-87.60855,41.84559],[-87.60843,41.84588],[-87.60845,41.84636],[-87.60858,41.84664],[-87.6093,41.8476],[-87.60949,41.84807],[-87.60954,41.8487],[-87.6092,41.85045],[-87.60924,41.85099],[-87.60944,41.85135],[-87.61014,41.8522],[-87.61059,41.85284],[-87.61082,41.85333],[-87.61096,41.85384],[-87.61104,41.85458],[-87.61112,41.8548],[-87.61149,41.8552],[-87.61224,41.85566],[-87.61263,41.856],[-87.61285,41.85636],[-87.61304,41.85696],[-87.61304,41.85761],[-87.61284,41.85819],[-87.61254,41.85849],[-87.61227,41.85851],[-87.61217,41.85867],[-87.6122,41.85927],[-87.61244,41.85999],[-87.61215,41.86035],[-87.6122,41.86063],[-87.61255,41.86082],[-87.61265,41.86137],[-87.61295,41.8618],[-87.61326,41.86238],[-87.61343,41.86285],[-87.61342,41.86346],[-87.61329,41.864],[-87.61304,41.86466],[-87.61274,41.86529],[-87.61267,41.86584],[-87.61048,41.86586],[-87.61037,41.86532],[-87.60996,41.86463],[-87.60974,41.86409],[-87.60965,41.86351],[-87.60978,41.86249],[-87.61004,41.8618],[-87.61036,41.8614],[-87.61035,41.86085],[-87.61067,41.86065],[-87.61067,41.86021],[-87.61043,41.86008],[-87.61036,41.85975],[-87.61048,41.85931],[-87.61007,41.85895],[-87.60988,41.85859],[-87.60999,41.85803],[-87.60992,41.85766],[-87.60977,41.85738],[-87.60934,41.85687],[-87.60945,41.85641],[-87.60992,41.85398],[-87.60985,41.85366],[-87.60968,41.85347],[-87.60932,41.85326],[-87.60876,41.85317],[-87.6075,41.85327],[-87.6066,41.85341],[-87.60675,41.85563],[-87.60707,41.85996],[-87.60684,41.86006],[-87.60596,41.86008],[-87.60602,41.86201],[-87.60641,41.86207],[-87.60677,41.86221],[-87.60698,41.86241],[-87.60753,41.86385],[-87.60757,41.86436],[-87.6073,41.86487],[-87.60699,41.86513],[-87.60667,41.86523],[-87.60634,41.865],[-87.60629,41.86479],[-87.60605,41.86479],[-87.60605,41.86568],[-87.60584,41.86584],[-87.60564,41.86618],[-87.60565,41.86661],[-87.60584,41.86688],[-87.60628,41.86716],[-87.60684,41.86724],[-87.60724,41.86717],[-87.60775,41.86686],[-87.61058,41.86682],[-87.61066,41.86678],[-87.61269,41.86675],[-87.61269,41.86697],[-87.61249,41.86717],[-87.61234,41.86751],[-87.61242,41.86794],[-87.6126,41.86818],[-87.61306,41.86844],[-87.61362,41.86851],[-87.61467,41.86834],[-87.61478,41.86825],[-87.61536,41.86825],[-87.6157,41.86862],[-87.61626,41.8689],[-87.61634,41.87186],[-87.6162,41.87198],[-87.61624,41.87377],[-87.61618,41.87497],[-87.61619,41.87601],[-87.61624,41.87702],[-87.61634,41.87783],[-87.61637,41.87978],[-87.61646,41.87978],[-87.61648,41.88056],[-87.61572,41.88057],[-87.61575,41.88142],[-87.6165,41.88141],[-87.61643,41.88196],[-87.616,41.88236],[-87.61546,41.88249],[-87.61417,41.8826],[-87.61364,41.88279],[-87.6132,41.88307],[-87.61288,41.88339],[-87.61275,41.88373],[-87.61272,41.88793],[-87.61344,41.88789],[-87.61391,41.88808],[-87.61391,41.88832],[-87.61273,41.88831],[-87.61274,41.88904],[-87.6125,41.88913],[-87.61129,41.88923],[-87.60951,41.88924],[-87.60954,41.89101],[-87.60092,41.89115],[-87.60091,41.89138],[-87.60057,41.89142],[-87.59856,41.89145],[-87.59855,41.89219],[-87.60237,41.89215],[-87.60237,41.89234],[-87.6098,41.89222],[-87.60982,41.89315],[-87.60235,41.89326],[-87.60231,41.89467],[-87.60237,41.89634],[-87.60496,41.89633],[-87.60528,41.89624],[-87.60587,41.8963],[-87.60655,41.89628],[-87.6069,41.89622],[-87.60796,41.89619],[-87.60797,41.89627],[-87.60858,41.89627],[-87.6102,41.89619],[-87.61203,41.89333],[-87.61218,41.89334],[-87.61254,41.89312],[-87.61367,41.8931],[-87.61491,41.89467],[-87.61551,41.89558],[-87.61724,41.89807],[-87.61765,41.89876],[-87.6186,41.90018]]],[[[-87.62403,41.90403],[-87.62299,41.90322],[-87.62272,41.90291],[-87.62253,41.9024],[-87.62261,41.90186],[-87.6219,41.90173],[-87.62013,41.9016],[-87.61966,41.90143],[-87.61992,41.90156],[-87.62057,41.90175],[-87.62127,41.90188],[-87.62187,41.90205],[-87.62195,41.9024],[-87.6223,41.90285],[-87.62287,41.90348],[-87.62317,41.90372],[-87.62356,41.90392],[-87.62372,41.90451],[-87.62416,41.90458],[-87.62403,41.90403]]]]},"properties":{"num":26,"senate":13,"lp":[-87.61036,41.8294]}},
{"type":"Feature","geometry":{"type":"MultiPolygon","coordinates":[[[[-87.68828,41.68444],[-87.69563,41.68434],[-87.69314,41.68437],[-87.68828,41.68444]]],[[[-87.65821,41.73586],[-87.65699,41.73588],[-87.65678,41.7286],[-87.65738,41.72859],[-87.65722,41.72175],[-87.65783,41.72175],[-87.6577,41.72133],[-87.6575,41.71403],[-87.66029,41.714],[-87.65898,41.71134],[-87.66051,41.71132],[-87.65839,41.70614],[-87.65724,41.70354],[-87.65932,41.69784],[-87.66407,41.69105],[-87.66659,41.6867],[-87.67016,41.68784],[-87.67143,41.68792],[-87.67183,41.68463],[-87.67343,41.68463],[-87.67382,41.68362],[-87.67574,41.68427],[-87.67666,41.68418],[-87.67702,41.68432],[-87.67734,41.68416],[-87.67913,41.68444],[-87.67905,41.68191],[-87.6799,41.6818],[-87.68083,41.68151],[-87.68087,41.68273],[-87.6815,41.68272],[-87.68155,41.68453],[-87.68572,41.68447],[-87.68557,41.67962],[-87.68565,41.67867],[-87.68587,41.67797],[-87.68621,41.67721],[-87.68522,41.67722],[-87.68169,41.6773],[-87.67956,41.67723],[-87.6785,41.67723],[-87.67516,41.67729],[-87.67408,41.67731],[-87.67226,41.67734],[-87.67212,41.67734],[-87.67017,41.67738],[-87.66796,41.6774],[-87.66678,41.67742],[-87.66677,41.67744],[-87.66137,41.67754],[-87.66137,41.67751],[-87.64191,41.67781],[-87.64221,41.6869],[-87.63254,41.68702],[-87.63274,41.69164],[-87.63265,41.69247],[-87.6231,41.69258],[-87.62342,41.70352],[-87.61876,41.70353],[-87.61854,41.70356],[-87.61864,41.70724],[-87.62352,41.70717],[-87.62365,41.71385],[-87.62352,41.71442],[-87.62283,41.71586],[-87.62273,41.71654],[-87.62276,41.71692],[-87.62351,41.71898],[-87.62368,41.71981],[-87.62394,41.72924],[-87.62404,41.73002],[-87.62401,41.73167],[-87.62417,41.7363],[-87.62834,41.73625],[-87.62973,41.73605],[-87.63176,41.73599],[-87.63401,41.73594],[-87.6351,41.73605],[-87.63501,41.7326],[-87.64352,41.73255],[-87.64378,41.74153],[-87.64621,41.7415],[-87.64615,41.73967],[-87.64737,41.73965],[-87.64742,41.74148],[-87.64985,41.74145],[-87.64975,41.73781],[-87.65825,41.73768],[-87.65821,41.73586]]]]},"properties":{"num":27,"senate":14,"lp":[-87.64087,41.70924]}},
{"type":"Feature","geometry":{"type":"MultiPolygon","coordinates":[[[[-87.66678,41.67742],[-87.66796,41.6774],[-87.6684,41.67619],[-87.66732,41.67596],[-87.66678,41.67742]]],[[[-87.6231,41.69258],[-87.63265,41.69247],[-87.63274,41.69164],[-87.63254,41.68702],[-87.64221,41.6869],[-87.64191,41.67781],[-87.66137,41.67751],[-87.66138,41.67731],[-87.66115,41.67034],[-87.65936,41.67032],[-87.65865,41.67029],[-87.65775,41.6703],[-87.64167,41.67054],[-87.64142,41.66325],[-87.64722,41.66316],[-87.64699,41.65763],[-87.64591,41.65778],[-87.64475,41.65772],[-87.64366,41.65775],[-87.64142,41.65777],[-87.64143,41.65809],[-87.64106,41.6581],[-87.64105,41.65777],[-87.64042,41.65779],[-87.63914,41.65775],[-87.63856,41.65771],[-87.63629,41.65739],[-87.63574,41.65735],[-87.63501,41.65737],[-87.63392,41.65747],[-87.633,41.65753],[-87.63265,41.65773],[-87.63202,41.6579],[-87.63154,41.65792],[-87.63126,41.65782],[-87.63082,41.65796],[-87.63076,41.65827],[-87.62973,41.65901],[-87.62915,41.65932],[-87.62875,41.65964],[-87.62754,41.66076],[-87.62644,41.66149],[-87.62627,41.66166],[-87.62476,41.66209],[-87.62442,41.66226],[-87.62381,41.66227],[-87.62329,41.6624],[-87.62204,41.66241],[-87.62202,41.66213],[-87.62025,41.66137],[-87.61986,41.66114],[-87.61951,41.66079],[-87.61939,41.66006],[-87.61946,41.65954],[-87.61968,41.65906],[-87.61887,41.65908],[-87.61855,41.6597],[-87.61841,41.66053],[-87.61902,41.66259],[-87.62047,41.66328],[-87.62195,41.66326],[-87.62209,41.66345],[-87.62244,41.67073],[-87.62289,41.68532],[-87.6168,41.68538],[-87.61692,41.68904],[-87.61327,41.6891],[-87.61347,41.69638],[-87.62321,41.69623],[-87.6231,41.69258]]]]},"properties":{"num":28,"senate":14,"lp":[-87.63253,41.67451]}},
{"type":"Feature","geometry":{"type":"MultiPolygon","coordinates":[[[[-87.61723,41.64806],[-87.61722,41.64458],[-87.61336,41.64461],[-87.6121,41.6446],[-87.59783,41.64462],[-87.59789,41.64803],[-87.59761,41.64805],[-87.59667,41.6483],[-87.59467,41.64878],[-87.59367,41.64892],[-87.59233,41.64893],[-87.59209,41.64891],[-87.59114,41.6486],[-87.59047,41.64828],[-87.59011,41.64782],[-87.58986,41.64766],[-87.5892,41.64698],[-87.5888,41.64687],[-87.58816,41.64632],[-87.5873,41.64543],[-87.58693,41.64495],[-87.58684,41.64469],[-87.58567,41.6447],[-87.57858,41.6447],[-87.57725,41.64471],[-87.57487,41.64468],[-87.57078,41.64468],[-87.57996,41.64473],[-87.58083,41.64524],[-87.58301,41.64688],[-87.58413,41.64789],[-87.5946,41.65992],[-87.5977,41.65945],[-87.59757,41.6598],[-87.59546,41.66023],[-87.59528,41.66041],[-87.59533,41.66065],[-87.60071,41.66689],[-87.60375,41.6701],[-87.60642,41.67171],[-87.60916,41.67246],[-87.61062,41.67316],[-87.61161,41.67379],[-87.6124,41.67489],[-87.61257,41.67862],[-87.61287,41.67871],[-87.61316,41.67866],[-87.61333,41.67827],[-87.61378,41.67893],[-87.61465,41.67981],[-87.61553,41.68042],[-87.61666,41.68096],[-87.61668,41.68138],[-87.61701,41.68144],[-87.61728,41.68159],[-87.6173,41.68213],[-87.61794,41.68212],[-87.61794,41.68191],[-87.61894,41.6824],[-87.61897,41.68257],[-87.62066,41.68256],[-87.62067,41.68304],[-87.62285,41.68417],[-87.62244,41.67073],[-87.62209,41.66345],[-87.62195,41.66326],[-87.62047,41.66328],[-87.61902,41.66259],[-87.61841,41.66053],[-87.61855,41.6597],[-87.61887,41.65908],[-87.61771,41.6591],[-87.61848,41.65555],[-87.61875,41.65458],[-87.61907,41.65361],[-87.61945,41.65266],[-87.61982,41.65183],[-87.62032,41.65089],[-87.62021,41.65085],[-87.61803,41.65037],[-87.61723,41.65028],[-87.61723,41.64936],[-87.61723,41.64806]]],[[[-87.55999,41.64465],[-87.56052,41.64472],[-87.56238,41.64475],[-87.56367,41.64467],[-87.55999,41.64465]]]]},"properties":{"num":29,"senate":15,"lp":[-87.60749,41.65532]}},
{"type":"Feature","geometry":{"type":"Polygon","coordinates":[[[-87.62,41.76197],[-87.62483,41.76187],[-87.62479,41.75996],[-87.62586,41.75995],[-87.62641,41.75982],[-87.62657,41.76003],[-87.66206,41.75947],[-87.66207,41.75993],[-87.66303,41.75992],[-87.66301,41.75946],[-87.67339,41.75932],[-87.67334,41.75752],[-87.68024,41.75746],[-87.68377,41.75733],[-87.69045,41.75514],[-87.69434,41.7535],[-87.69847,41.75158],[-87.70192,41.74977],[-87.70239,41.74977],[-87.70234,41.74798],[-87.70295,41.74797],[-87.7029,41.74614],[-87.70351,41.74613],[-87.70346,41.74431],[-87.70712,41.74425],[-87.70709,41.74333],[-87.71168,41.7432],[-87.71167,41.74338],[-87.71241,41.74275],[-87.71214,41.74325],[-87.7144,41.74321],[-87.71434,41.7412],[-87.7147,41.74092],[-87.71676,41.74089],[-87.71675,41.74043],[-87.72162,41.74035],[-87.72144,41.73486],[-87.74107,41.73454],[-87.73861,41.73457],[-87.73826,41.73455],[-87.72716,41.73473],[-87.72596,41.73478],[-87.71399,41.73499],[-87.71198,41.73503],[-87.71151,41.73504],[-87.70793,41.7351],[-87.70194,41.7352],[-87.70125,41.73521],[-87.70123,41.73521],[-87.70079,41.73522],[-87.69711,41.73528],[-87.69717,41.73755],[-87.69468,41.73759],[-87.69468,41.7377],[-87.69231,41.73775],[-87.69237,41.7401],[-87.68978,41.74015],[-87.68984,41.7427],[-87.68268,41.74282],[-87.68229,41.72829],[-87.68229,41.72824],[-87.67139,41.72839],[-87.67135,41.72717],[-87.67092,41.72732],[-87.66935,41.72818],[-87.66847,41.7284],[-87.66789,41.72842],[-87.66795,41.72861],[-87.66773,41.7284],[-87.66744,41.72845],[-87.66822,41.73018],[-87.67309,41.73565],[-87.66307,41.73579],[-87.66316,41.73943],[-87.66154,41.73946],[-87.66159,41.74143],[-87.66045,41.74143],[-87.66007,41.74121],[-87.65955,41.74124],[-87.65881,41.74118],[-87.65865,41.74133],[-87.65835,41.74132],[-87.65825,41.73768],[-87.64975,41.73781],[-87.64985,41.74145],[-87.64742,41.74148],[-87.64737,41.73965],[-87.64615,41.73967],[-87.64621,41.7415],[-87.64378,41.74153],[-87.64352,41.73255],[-87.63501,41.7326],[-87.6351,41.73605],[-87.63405,41.73594],[-87.63425,41.73676],[-87.63376,41.73741],[-87.63378,41.73829],[-87.63397,41.73915],[-87.63402,41.74035],[-87.63421,41.74714],[-87.62557,41.7473],[-87.62529,41.74722],[-87.6254,41.75094],[-87.62455,41.75096],[-87.62476,41.75824],[-87.61993,41.75832],[-87.62,41.76197]]]},"properties":{"num":31,"senate":16,"lp":[-87.67174,41.7467]}},
{"type":"Feature","geometry":{"type":"Polygon","coordinates":[[[-87.74149,41.75313],[-87.74136,41.74918],[-87.74132,41.74872],[-87.7413,41.74765],[-87.7412,41.74433],[-87.74109,41.74164],[-87.74093,41.73687],[-87.74095,41.73556],[-87.74107,41.73454],[-87.72144,41.73486],[-87.72162,41.74035],[-87.71675,41.74043],[-87.71676,41.74089],[-87.7147,41.74092],[-87.71434,41.7412],[-87.7144,41.74321],[-87.71214,41.74325],[-87.71241,41.74275],[-87.71167,41.74338],[-87.71168,41.7432],[-87.70709,41.74333],[-87.70712,41.74425],[-87.70346,41.74431],[-87.70351,41.74613],[-87.7029,41.74614],[-87.70295,41.74797],[-87.70234,41.74798],[-87.70239,41.74977],[-87.70192,41.74977],[-87.69847,41.75158],[-87.69434,41.7535],[-87.69045,41.75514],[-87.68377,41.75733],[-87.68024,41.75746],[-87.67334,41.75752],[-87.67339,41.75932],[-87.66301,41.75946],[-87.66303,41.75992],[-87.66207,41.75993],[-87.66206,41.75947],[-87.62657,41.76003],[-87.62641,41.75982],[-87.62586,41.75995],[-87.62479,41.75996],[-87.62483,41.76187],[-87.62,41.76197],[-87.62004,41.76379],[-87.61683,41.76385],[-87.6167,41.75838],[-87.61026,41.75849],[-87.61008,41.7512],[-87.60521,41.75129],[-87.60519,41.74946],[-87.59812,41.74953],[-87.59787,41.74959],[-87.59792,41.75136],[-87.58813,41.75147],[-87.59925,41.75938],[-87.60553,41.76398],[-87.60566,41.7685],[-87.60642,41.76849],[-87.60643,41.76899],[-87.60767,41.76896],[-87.60769,41.76947],[-87.61052,41.76941],[-87.61085,41.76996],[-87.61056,41.77124],[-87.61177,41.77122],[-87.61178,41.77091],[-87.61373,41.76938],[-87.62986,41.76908],[-87.62998,41.77271],[-87.64702,41.77244],[-87.64712,41.77608],[-87.6544,41.77597],[-87.65431,41.77233],[-87.67871,41.77201],[-87.67862,41.76838],[-87.68824,41.76826],[-87.68833,41.7719],[-87.69321,41.77182],[-87.69339,41.77912],[-87.70556,41.77894],[-87.70553,41.77801],[-87.70312,41.77805],[-87.7031,41.77714],[-87.70551,41.7771],[-87.70538,41.77164],[-87.71272,41.77152],[-87.71263,41.76603],[-87.71232,41.75691],[-87.72219,41.75684],[-87.72218,41.75509],[-87.73237,41.75497],[-87.73233,41.7533],[-87.73221,41.75317],[-87.73261,41.75307],[-87.73519,41.75308],[-87.73519,41.75319],[-87.73912,41.75312],[-87.7415,41.75329],[-87.74149,41.75313]]]},"properties":{"num":32,"senate":16,"lp":[-87.69911,41.76297]}},
{"type":"Feature","geometry":{"type":"MultiPolygon","coordinates":[[[[-87.59792,41.75136],[-87.5979,41.74954],[-87.60519,41.74946],[-87.60448,41.72204],[-87.58513,41.72234],[-87.58516,41.7208],[-87.57179,41.70585],[-87.56577,41.69929],[-87.56291,41.69582],[-87.56012,41.69289],[-87.55947,41.69202],[-87.55923,41.66758],[-87.55891,41.66674],[-87.55887,41.66618],[-87.55888,41.6613],[-87.55924,41.66013],[-87.55929,41.658],[-87.55802,41.65746],[-87.55748,41.65711],[-87.54144,41.64456],[-87.53503,41.64456],[-87.52994,41.64457],[-87.52517,41.64454],[-87.52499,41.65906],[-87.52484,41.67365],[-87.52482,41.67494],[-87.52484,41.67544],[-87.52482,41.68095],[-87.52474,41.68173],[-87.52481,41.68694],[-87.52466,41.6918],[-87.53035,41.69183],[-87.53034,41.68639],[-87.53041,41.68465],[-87.53063,41.68325],[-87.53115,41.68205],[-87.53188,41.68093],[-87.53765,41.68094],[-87.53766,41.68277],[-87.54129,41.6828],[-87.54132,41.69186],[-87.54011,41.69186],[-87.54011,41.70458],[-87.53952,41.70458],[-87.53954,41.7064],[-87.53529,41.70639],[-87.53529,41.7214],[-87.53654,41.72294],[-87.54658,41.72276],[-87.57535,41.72247],[-87.57553,41.72976],[-87.5725,41.7298],[-87.57259,41.73345],[-87.56591,41.73354],[-87.56595,41.735],[-87.56589,41.73549],[-87.56603,41.73743],[-87.56605,41.73901],[-87.55753,41.73912],[-87.55756,41.74094],[-87.55635,41.74096],[-87.55641,41.74459],[-87.56734,41.74445],[-87.56742,41.7499],[-87.57108,41.74985],[-87.57125,41.75893],[-87.58104,41.75882],[-87.58103,41.75836],[-87.58164,41.75835],[-87.58573,41.75838],[-87.58574,41.75877],[-87.58837,41.75875],[-87.58832,41.75693],[-87.59075,41.7569],[-87.59074,41.75594],[-87.59121,41.75555],[-87.59001,41.75469],[-87.5912,41.75369],[-87.58813,41.75147],[-87.59792,41.75136]]],[[[-87.5427,41.64457],[-87.54282,41.64461],[-87.54466,41.64457],[-87.5427,41.64457]]]]},"properties":{"num":33,"senate":17,"lp":[-87.54113,41.66499]}},
{"type":"Feature","geometry":{"type":"Polygon","coordinates":[[[-87.56367,41.64467],[-87.56238,41.64475],[-87.56052,41.64472],[-87.55999,41.64465],[-87.5498,41.64457],[-87.54466,41.64457],[-87.54282,41.64461],[-87.5427,41.64457],[-87.54144,41.64456],[-87.55748,41.65711],[-87.55802,41.65746],[-87.55929,41.658],[-87.55924,41.66013],[-87.55888,41.6613],[-87.55887,41.66618],[-87.55891,41.66674],[-87.55923,41.66758],[-87.55947,41.69202],[-87.56012,41.69289],[-87.56291,41.69582],[-87.56577,41.69929],[-87.57179,41.70585],[-87.58516,41.7208],[-87.58513,41.72234],[-87.60448,41.72204],[-87.60521,41.75129],[-87.61008,41.7512],[-87.61026,41.75849],[-87.6167,41.75838],[-87.61683,41.76385],[-87.62004,41.76379],[-87.61993,41.75832],[-87.62476,41.75824],[-87.62455,41.75096],[-87.6254,41.75094],[-87.62529,41.74722],[-87.62557,41.7473],[-87.63421,41.74714],[-87.63397,41.73915],[-87.63376,41.73793],[-87.63376,41.73741],[-87.63425,41.73676],[-87.63405,41.73594],[-87.62973,41.73605],[-87.62826,41.73625],[-87.62417,41.7363],[-87.62401,41.73167],[-87.62404,41.73002],[-87.62394,41.72924],[-87.62368,41.71981],[-87.62351,41.71898],[-87.62276,41.71692],[-87.62273,41.71654],[-87.62283,41.71586],[-87.62352,41.71442],[-87.62365,41.71385],[-87.62352,41.70717],[-87.61864,41.70724],[-87.61854,41.70356],[-87.61876,41.70353],[-87.62342,41.70352],[-87.62321,41.69623],[-87.61347,41.69638],[-87.61327,41.6891],[-87.61692,41.68904],[-87.6168,41.68538],[-87.62289,41.68532],[-87.62285,41.68417],[-87.62067,41.68304],[-87.62066,41.68256],[-87.61897,41.68257],[-87.61894,41.6824],[-87.61794,41.68191],[-87.61794,41.68212],[-87.6173,41.68213],[-87.61728,41.68159],[-87.61701,41.68144],[-87.61668,41.68138],[-87.61666,41.68096],[-87.61553,41.68042],[-87.61465,41.67981],[-87.61378,41.67893],[-87.61333,41.67827],[-87.61316,41.67866],[-87.61287,41.67871],[-87.61257,41.67862],[-87.61241,41.67495],[-87.61167,41.67385],[-87.61089,41.67331],[-87.60916,41.67246],[-87.60642,41.67171],[-87.60448,41.67056],[-87.60351,41.6699],[-87.60071,41.66689],[-87.59533,41.66065],[-87.59528,41.66041],[-87.59546,41.66023],[-87.59757,41.6598],[-87.5977,41.65945],[-87.5946,41.65992],[-87.58413,41.64789],[-87.58301,41.64688],[-87.58083,41.64524],[-87.57996,41.64473],[-87.57078,41.64468],[-87.56367,41.64467]]]},"properties":{"num":34,"senate":17,"lp":[-87.58913,41.68918]}},
{"type":"Feature","geometry":{"type":"Polygon","coordinates":[[[-87.70134,41.70618],[-87.70108,41.69887],[-87.72064,41.69857],[-87.72053,41.69615],[-87.72037,41.69221],[-87.72032,41.69127],[-87.72518,41.69118],[-87.72517,41.69104],[-87.73974,41.69078],[-87.73966,41.68913],[-87.73949,41.68913],[-87.73927,41.68375],[-87.72489,41.684],[-87.72489,41.68398],[-87.72183,41.68403],[-87.72183,41.68394],[-87.71548,41.68404],[-87.71151,41.68409],[-87.71141,41.68184],[-87.7116,41.68183],[-87.71158,41.68127],[-87.71139,41.68127],[-87.71136,41.68054],[-87.70772,41.6806],[-87.70771,41.68051],[-87.70529,41.68055],[-87.70528,41.68069],[-87.70542,41.68419],[-87.70055,41.68426],[-87.70062,41.68614],[-87.6994,41.68615],[-87.69947,41.68793],[-87.69743,41.68796],[-87.69661,41.68798],[-87.69576,41.68808],[-87.69563,41.68434],[-87.68828,41.68444],[-87.68572,41.68447],[-87.68155,41.68453],[-87.6815,41.68272],[-87.68087,41.68273],[-87.68083,41.68151],[-87.6799,41.6818],[-87.67905,41.68191],[-87.67913,41.68444],[-87.67734,41.68416],[-87.67702,41.68432],[-87.67666,41.68418],[-87.67574,41.68427],[-87.67382,41.68362],[-87.67343,41.68463],[-87.67183,41.68463],[-87.67143,41.68792],[-87.67016,41.68784],[-87.66659,41.6867],[-87.66407,41.69105],[-87.65932,41.69784],[-87.65724,41.70354],[-87.65839,41.70614],[-87.66051,41.71132],[-87.65898,41.71134],[-87.66029,41.714],[-87.6575,41.71403],[-87.6577,41.72133],[-87.65783,41.72175],[-87.65722,41.72175],[-87.65738,41.72859],[-87.65678,41.7286],[-87.65699,41.73588],[-87.65821,41.73586],[-87.65835,41.74132],[-87.65865,41.74133],[-87.65881,41.74118],[-87.65955,41.74124],[-87.66007,41.74121],[-87.66045,41.74143],[-87.66159,41.74143],[-87.66154,41.73946],[-87.66316,41.73943],[-87.66307,41.73579],[-87.67309,41.73565],[-87.66822,41.73018],[-87.66744,41.72845],[-87.66698,41.72842],[-87.66422,41.72295],[-87.66441,41.72297],[-87.66348,41.72125],[-87.67235,41.72112],[-87.67226,41.71744],[-87.67348,41.71742],[-87.67342,41.7156],[-87.67402,41.7156],[-87.67397,41.71378],[-87.68184,41.71369],[-87.68272,41.71367],[-87.69173,41.71357],[-87.69173,41.71354],[-87.6917,41.71264],[-87.69158,41.7089],[-87.69152,41.7072],[-87.69631,41.70715],[-87.69668,41.70714],[-87.70078,41.70709],[-87.70121,41.70708],[-87.70137,41.70705],[-87.70136,41.70688],[-87.70134,41.70618]],[[-87.69209,41.69176],[-87.69576,41.69172],[-87.69602,41.69893],[-87.69124,41.69898],[-87.69101,41.69228],[-87.69171,41.69227],[-87.6921,41.6922],[-87.69209,41.69176]]]},"properties":{"num":35,"senate":18,"lp":[-87.67768,41.70011]}},
{"type":"Feature","geometry":{"type":"MultiPolygon","coordinates":[[[[-87.70194,41.7352],[-87.70793,41.7351],[-87.70215,41.73519],[-87.70194,41.7352]]],[[[-87.68229,41.72829],[-87.68268,41.74282],[-87.68984,41.7427],[-87.68978,41.74015],[-87.69237,41.7401],[-87.69231,41.73775],[-87.69468,41.7377],[-87.69468,41.73759],[-87.69717,41.73755],[-87.69711,41.73528],[-87.70079,41.73522],[-87.69547,41.7353],[-87.68251,41.73553],[-87.68229,41.72829]]],[[[-87.67092,41.72732],[-87.67135,41.72717],[-87.67139,41.72839],[-87.68229,41.72824],[-87.68184,41.71369],[-87.67397,41.71378],[-87.67402,41.7156],[-87.67342,41.7156],[-87.67348,41.71742],[-87.67226,41.71744],[-87.67235,41.72112],[-87.66348,41.72125],[-87.66441,41.72297],[-87.66422,41.72295],[-87.66698,41.72842],[-87.66744,41.72845],[-87.66769,41.72839],[-87.66795,41.72861],[-87.66789,41.72842],[-87.66871,41.72836],[-87.66946,41.72814],[-87.67092,41.72732]]],[[[-87.72064,41.69857],[-87.70108,41.69887],[-87.70134,41.70618],[-87.70261,41.70618],[-87.70792,41.7061],[-87.71112,41.70607],[-87.7113,41.71149],[-87.71252,41.71147],[-87.71258,41.7133],[-87.72113,41.71317],[-87.72107,41.71069],[-87.72088,41.70501],[-87.72084,41.70428],[-87.72068,41.70025],[-87.72064,41.69857]]]]},"properties":{"num":36,"senate":18,"lp":[-87.71572,41.70382]}},
{"type":"Feature","geometry":{"type":"Polygon","coordinates":[[[-87.76614,41.94588],[-87.76611,41.94497],[-87.76673,41.94496],[-87.7665,41.93857],[-87.77014,41.93853],[-87.77001,41.93488],[-87.77123,41.93486],[-87.77111,41.93121],[-87.76502,41.93129],[-87.76503,41.93175],[-87.76381,41.93176],[-87.76385,41.93313],[-87.7614,41.93316],[-87.76107,41.92405],[-87.73167,41.92443],[-87.73178,41.92805],[-87.7122,41.92832],[-87.7119,41.91734],[-87.68692,41.91757],[-87.68676,41.9174],[-87.68472,41.91609],[-87.67759,41.91624],[-87.67758,41.91594],[-87.66873,41.9161],[-87.66955,41.91697],[-87.67075,41.91787],[-87.6702,41.91789],[-87.67192,41.91901],[-87.68939,41.92891],[-87.69041,41.92942],[-87.69766,41.9337],[-87.69763,41.93255],[-87.70866,41.93247],[-87.70884,41.93932],[-87.71249,41.93928],[-87.71243,41.93746],[-87.71733,41.93739],[-87.71719,41.93191],[-87.72698,41.93179],[-87.72718,41.9391],[-87.73521,41.93899],[-87.73901,41.94622],[-87.74236,41.94618],[-87.74243,41.94984],[-87.74464,41.94981],[-87.74466,41.9507],[-87.75216,41.95061],[-87.75219,41.95196],[-87.75466,41.95193],[-87.75464,41.95148],[-87.75709,41.95145],[-87.75699,41.94829],[-87.75945,41.94826],[-87.75947,41.94871],[-87.76193,41.94868],[-87.7619,41.94777],[-87.76374,41.94774],[-87.76369,41.94637],[-87.76431,41.94636],[-87.7643,41.94591],[-87.76614,41.94588]]]},"properties":{"num":39,"senate":20,"lp":[-87.74961,41.93635]}},
{"type":"Feature","geometry":{"type":"Polygon","coordinates":[[[-87.7372,41.94625],[-87.73901,41.94622],[-87.73521,41.93899],[-87.72718,41.9391],[-87.72698,41.93179],[-87.71719,41.93191],[-87.71733,41.93739],[-87.71243,41.93746],[-87.71249,41.93928],[-87.70884,41.93932],[-87.70866,41.93247],[-87.69763,41.93255],[-87.69766,41.9337],[-87.69041,41.92942],[-87.68939,41.92891],[-87.67192,41.91901],[-87.6702,41.91789],[-87.66796,41.91793],[-87.66825,41.91912],[-87.6686,41.92133],[-87.66858,41.92187],[-87.66923,41.92206],[-87.67032,41.92216],[-87.67167,41.92511],[-87.66577,41.92518],[-87.66612,41.93608],[-87.67824,41.93593],[-87.67836,41.93957],[-87.6832,41.93951],[-87.68322,41.94042],[-87.68506,41.9404],[-87.68511,41.94266],[-87.68571,41.94265],[-87.68573,41.94313],[-87.68815,41.9431],[-87.68836,41.95038],[-87.69074,41.95038],[-87.69088,41.95401],[-87.69445,41.95399],[-87.69433,41.95511],[-87.69436,41.95773],[-87.69466,41.96028],[-87.69476,41.96043],[-87.69479,41.96127],[-87.70336,41.96122],[-87.7036,41.96849],[-87.70109,41.96851],[-87.70311,41.97089],[-87.70382,41.97245],[-87.70475,41.97578],[-87.70868,41.97575],[-87.70858,41.97209],[-87.71281,41.97202],[-87.71493,41.9718],[-87.71605,41.97191],[-87.71644,41.97201],[-87.72813,41.97188],[-87.72788,41.96282],[-87.72666,41.96283],[-87.72659,41.96051],[-87.7223,41.96056],[-87.72217,41.95643],[-87.72155,41.95599],[-87.72143,41.95192],[-87.71837,41.95196],[-87.71828,41.94832],[-87.71767,41.94833],[-87.71756,41.9465],[-87.72495,41.94641],[-87.7249,41.94459],[-87.72734,41.94456],[-87.72738,41.94561],[-87.72797,41.94561],[-87.72798,41.94597],[-87.72922,41.94596],[-87.72918,41.94478],[-87.73123,41.94476],[-87.73126,41.94558],[-87.73219,41.94558],[-87.73216,41.94416],[-87.73477,41.94575],[-87.73476,41.94553],[-87.73538,41.94553],[-87.73597,41.94586],[-87.73722,41.94579],[-87.7372,41.94625]]]},"properties":{"num":40,"senate":20,"lp":[-87.70532,41.95005]}},
{"type":"Feature","geometry":{"type":"MultiPolygon","coordinates":[[[[-87.82131,42.00706],[-87.82112,42.00723],[-87.82131,42.00735],[-87.82131,42.00706]]],[[[-87.82335,41.98436],[-87.8234,41.98398],[-87.81927,41.98344],[-87.81683,41.98294],[-87.81669,41.99698],[-87.82141,41.99685],[-87.82141,41.99688],[-87.82181,41.99522],[-87.82216,41.99311],[-87.82335,41.98436]]],[[[-87.83662,41.97531],[-87.83655,41.98257],[-87.83662,41.98636],[-87.83658,41.98635],[-87.83892,41.98671],[-87.84174,41.98712],[-87.84653,41.98784],[-87.84642,41.98037],[-87.84649,41.97371],[-87.84155,41.97379],[-87.84155,41.97469],[-87.84146,41.97469],[-87.83663,41.97479],[-87.83663,41.97492],[-87.83663,41.97497],[-87.83662,41.97531]]],[[[-87.85584,41.98906],[-87.85483,41.98876],[-87.85413,41.98865],[-87.8507,41.98844],[-87.84671,41.98788],[-87.84673,41.98798],[-87.84925,41.98835],[-87.85074,41.98853],[-87.85184,41.98861],[-87.85359,41.98868],[-87.85457,41.98881],[-87.85584,41.98906]]]]},"properties":{"num":55,"senate":28,"lp":[-87.8415,41.98147]}},
{"type":"Feature","geometry":{"type":"MultiPolygon","coordinates":[[[[-87.93514,42.00089],[-87.93639,42.00086],[-87.9401,42.00079],[-87.94002,41.99811],[-87.93708,41.99859],[-87.93633,41.9996],[-87.9359,42.0001],[-87.93514,42.00089]]],[[[-87.88453,41.995],[-87.88454,41.9951],[-87.88453,41.9982],[-87.88496,41.9983],[-87.88501,41.99847],[-87.88673,41.99886],[-87.8894,41.99939],[-87.89075,41.99961],[-87.89081,41.99957],[-87.89297,41.99991],[-87.89746,42.00053],[-87.89744,42.00155],[-87.89954,42.00148],[-87.90312,42.00342],[-87.90406,42.00356],[-87.90406,42.00397],[-87.9024,42.00403],[-87.90241,42.00361],[-87.89924,42.0019],[-87.89436,42.00206],[-87.89436,42.00217],[-87.89039,42.0023],[-87.89038,42.00285],[-87.89026,42.00285],[-87.89,42.00323],[-87.89189,42.00399],[-87.89326,42.00394],[-87.89323,42.00334],[-87.89358,42.00333],[-87.89355,42.00274],[-87.89435,42.00271],[-87.89429,42.0057],[-87.89531,42.00567],[-87.89576,42.00588],[-87.89598,42.00578],[-87.89718,42.00633],[-87.89835,42.00679],[-87.89916,42.00705],[-87.90238,42.00792],[-87.90238,42.00809],[-87.90566,42.00897],[-87.90768,42.0089],[-87.90767,42.00525],[-87.90827,42.00521],[-87.91133,42.0051],[-87.91303,42.00509],[-87.91303,42.00627],[-87.91331,42.00626],[-87.91331,42.00871],[-87.91377,42.00869],[-87.91377,42.00507],[-87.92061,42.00495],[-87.9206,42.00389],[-87.92086,42.00388],[-87.92256,42.00587],[-87.92545,42.00771],[-87.92925,42.005],[-87.93033,42.00516],[-87.93033,42.005],[-87.93348,42.00542],[-87.93351,42.00566],[-87.93356,42.00802],[-87.93358,42.00817],[-87.93529,42.00815],[-87.93517,42.00333],[-87.93509,42.00094],[-87.93514,42.00089],[-87.93466,42.0009],[-87.93541,42.00017],[-87.93591,41.9996],[-87.93653,41.99879],[-87.93708,41.99797],[-87.93762,41.99703],[-87.93817,41.99579],[-87.93839,41.99518],[-87.93865,41.99425],[-87.9388,41.99353],[-87.93993,41.99349],[-87.93988,41.99049],[-87.93986,41.99015],[-87.93982,41.9878],[-87.93983,41.98702],[-87.93975,41.98189],[-87.93971,41.97864],[-87.93972,41.96428],[-87.93936,41.96428],[-87.93938,41.95953],[-87.93928,41.95885],[-87.93912,41.95839],[-87.93947,41.95839],[-87.93947,41.95679],[-87.93723,41.95645],[-87.9342,41.95597],[-87.92634,41.95465],[-87.92556,41.95461],[-87.92215,41.95378],[-87.92215,41.95383],[-87.91594,41.95227],[-87.91596,41.95509],[-87.91633,41.95509],[-87.91585,41.95716],[-87.91523,41.95684],[-87.91504,41.95619],[-87.91484,41.95509],[-87.91477,41.95434],[-87.91475,41.95288],[-87.90378,41.95062],[-87.89288,41.95079],[-87.8929,41.95805],[-87.89027,41.9581],[-87.88933,41.95797],[-87.8843,41.95753],[-87.88324,41.95853],[-87.88081,41.96042],[-87.88084,41.9655],[-87.88081,41.96749],[-87.88088,41.97308],[-87.87765,41.97306],[-87.87847,41.97582],[-87.87885,41.97796],[-87.87888,41.97926],[-87.87878,41.98115],[-87.87904,41.98104],[-87.87883,41.98596],[-87.87918,41.9881],[-87.87959,41.98898],[-87.88032,41.98983],[-87.88117,41.99044],[-87.88283,41.99142],[-87.88354,41.99202],[-87.88413,41.99282],[-87.88452,41.99374],[-87.88461,41.99429],[-87.88453,41.995]]],[[[-87.83326,41.93761],[-87.83606,41.93756],[-87.83462,41.93757],[-87.83326,41.93761]]]]},"properties":{"num":77,"senate":39,"lp":[-87.91244,41.98101]}},
{"type":"Feature","geometry":{"type":"Polygon","coordinates":[[[-87.80321,41.92354],[-87.80626,41.92401],[-87.80625,41.92376],[-87.80624,41.92359],[-87.80623,41.92346],[-87.80622,41.92282],[-87.80611,41.91959],[-87.80589,41.91237],[-87.80575,41.90884],[-87.80257,41.90893],[-87.80011,41.90895],[-87.7899,41.90909],[-87.78305,41.90917],[-87.78194,41.90917],[-87.7756,41.90925],[-87.77498,41.89025],[-87.77463,41.87943],[-87.7745,41.87559],[-87.77442,41.873],[-87.77433,41.87127],[-87.77489,41.88741],[-87.77001,41.88748],[-87.77,41.88714],[-87.76511,41.8872],[-87.76518,41.88929],[-87.76428,41.8893],[-87.76435,41.8911],[-87.7605,41.89114],[-87.76106,41.90581],[-87.76206,41.9058],[-87.76212,41.90761],[-87.76585,41.90757],[-87.76589,41.90886],[-87.76553,41.91016],[-87.76574,41.91452],[-87.76575,41.91662],[-87.78523,41.91645],[-87.78636,41.91658],[-87.78742,41.9168],[-87.78935,41.91748],[-87.78981,41.91789],[-87.79013,41.91846],[-87.79025,41.91896],[-87.79041,41.92364],[-87.80321,41.92354]]]},"properties":{"num":78,"senate":39,"lp":[-87.79749,41.91629]}}
]}