{"type":"FeatureCollection","features":[{"type":"Feature","properties":{"name":"Adler University","cat":"university","sub":"Private nonprofit"},"geometry":{"type":"Point","coordinates":[-87.62916,41.88241]}},{"type":"Feature","properties":{"name":"School of the Art Institute of Chicago","cat":"university","sub":"Private nonprofit"},"geometry":{"type":"Point","coordinates":[-87.62576,41.88105]}},{"type":"Feature","properties":{"name":"The Chicago School","cat":"university","sub":"Private nonprofit"},"geometry":{"type":"Point","coordinates":[-87.63379,41.88829]}},{"type":"Feature","properties":{"name":"Chicago State University","cat":"university","sub":"Public"},"geometry":{"type":"Point","coordinates":[-87.60938,41.71845]}},{"type":"Feature","properties":{"name":"University of Chicago","cat":"university","sub":"Private nonprofit"},"geometry":{"type":"Point","coordinates":[-87.59954,41.78799]}},{"type":"Feature","properties":{"name":"Kennedy-King College","sub":"City Colleges of Chicago","cat":"college"},"geometry":{"type":"Point","coordinates":[-87.64342,41.78025]}},{"type":"Feature","properties":{"name":"Malcolm X College","sub":"City Colleges of Chicago","cat":"college"},"geometry":{"type":"Point","coordinates":[-87.67532,41.87809]}},{"type":"Feature","properties":{"name":"Olive-Harvey College","sub":"City Colleges of Chicago","cat":"college"},"geometry":{"type":"Point","coordinates":[-87.58925,41.71]}},{"type":"Feature","properties":{"name":"Truman College","sub":"City Colleges of Chicago","cat":"college"},"geometry":{"type":"Point","coordinates":[-87.65911,41.9645]}},{"type":"Feature","properties":{"name":"Daley College","sub":"City Colleges of Chicago","cat":"college"},"geometry":{"type":"Point","coordinates":[-87.72398,41.75596]}},{"type":"Feature","properties":{"name":"Harold Washington College","sub":"City Colleges of Chicago","cat":"college"},"geometry":{"type":"Point","coordinates":[-87.6266,41.88607]}},{"type":"Feature","properties":{"name":"Wright College","sub":"City Colleges of Chicago","cat":"college"},"geometry":{"type":"Point","coordinates":[-87.78787,41.95877]}},{"type":"Feature","properties":{"name":"Columbia College Chicago","cat":"university","sub":"Private nonprofit"},"geometry":{"type":"Point","coordinates":[-87.62467,41.87426]}},{"type":"Feature","properties":{"name":"DePaul University","cat":"university","sub":"Lincoln Park campus · Private nonprofit"},"geometry":{"type":"Point","coordinates":[-87.65394,41.92405]}},{"type":"Feature","properties":{"name":"University of Illinois Chicago","cat":"university","sub":"Public"},"geometry":{"type":"Point","coordinates":[-87.6505,41.87184]}},{"type":"Feature","properties":{"name":"Illinois Institute of Technology","cat":"university","sub":"Private nonprofit"},"geometry":{"type":"Point","coordinates":[-87.62732,41.8313]}},{"type":"Feature","properties":{"name":"Loyola University Chicago","cat":"university","sub":"Lake Shore campus · Private nonprofit"},"geometry":{"type":"Point","coordinates":[-87.65798,41.99922]}},{"type":"Feature","properties":{"name":"Moody Bible Institute","cat":"university","sub":"Private nonprofit"},"geometry":{"type":"Point","coordinates":[-87.63346,41.89782]}},{"type":"Feature","properties":{"name":"National Louis University","cat":"university","sub":"Private nonprofit"},"geometry":{"type":"Point","coordinates":[-87.6247,41.88009]}},{"type":"Feature","properties":{"name":"North Park University","cat":"university","sub":"Private nonprofit"},"geometry":{"type":"Point","coordinates":[-87.70995,41.97527]}},{"type":"Feature","properties":{"name":"Northeastern Illinois University","cat":"university","sub":"Public"},"geometry":{"type":"Point","coordinates":[-87.71898,41.9804]}},{"type":"Feature","properties":{"name":"Roosevelt University","cat":"university","sub":"Private nonprofit"},"geometry":{"type":"Point","coordinates":[-87.62495,41.87606]}},{"type":"Feature","properties":{"name":"Rush University","cat":"university","sub":"Private nonprofit"},"geometry":{"type":"Point","coordinates":[-87.66912,41.87457]}},{"type":"Feature","properties":{"name":"Saint Xavier University","cat":"university","sub":"Private nonprofit"},"geometry":{"type":"Point","coordinates":[-87.71475,41.7072]}},{"type":"Feature","properties":{"name":"DePaul University","sub":"Loop campus · Private nonprofit","cat":"university"},"geometry":{"type":"Point","coordinates":[-87.62642,41.87783]}},{"type":"Feature","properties":{"name":"Loyola University Chicago","sub":"Water Tower campus · Private nonprofit","cat":"university"},"geometry":{"type":"Point","coordinates":[-87.62653,41.89738]}},{"type":"Feature","properties":{"name":"Northwestern University","sub":"Chicago campus · Streeterville · Private nonprofit","cat":"university"},"geometry":{"type":"Point","coordinates":[-87.61949,41.89511]}},{"type":"Feature","properties":{"name":"Mount Sinai Hospital","cat":"hospital","ed":true,"sub":"Sinai Chicago"},"geometry":{"type":"Point","coordinates":[-87.6942,41.86181]}},{"type":"Feature","properties":{"name":"Jesse Brown VA Medical Center","cat":"hospital","ed":true,"sub":"Veterans Affairs"},"geometry":{"type":"Point","coordinates":[-87.67779,41.87028]}},{"type":"Feature","properties":{"name":"Advocate Trinity Hospital","cat":"hospital","ed":true,"sub":"Advocate Health"},"geometry":{"type":"Point","coordinates":[-87.56697,41.72631]}},{"type":"Feature","properties":{"name":"Roseland Community Hospital","cat":"hospital","ed":true},"geometry":{"type":"Point","coordinates":[-87.62555,41.69256]}},{"type":"Feature","properties":{"name":"Loretto Hospital","cat":"hospital","ed":true},"geometry":{"type":"Point","coordinates":[-87.76353,41.87213]}},{"type":"Feature","properties":{"name":"University of Chicago Medical Center","cat":"hospital","ed":true,"sub":"UChicago Medicine"},"geometry":{"type":"Point","coordinates":[-87.60369,41.79019]}},{"type":"Feature","properties":{"name":"Saint Anthony Hospital","cat":"hospital","ed":true},"geometry":{"type":"Point","coordinates":[-87.69738,41.85505]}},{"type":"Feature","properties":{"name":"St. Bernard Hospital","cat":"hospital","ed":true},"geometry":{"type":"Point","coordinates":[-87.63339,41.7786]}},{"type":"Feature","properties":{"name":"Swedish Hospital","cat":"hospital","ed":true,"sub":"Endeavor Health"},"geometry":{"type":"Point","coordinates":[-87.69941,41.97537]}},{"type":"Feature","properties":{"name":"Thorek Memorial Hospital","cat":"hospital","ed":true},"geometry":{"type":"Point","coordinates":[-87.65229,41.95456]}},{"type":"Feature","properties":{"name":"Rush University Medical Center","cat":"hospital","ed":true,"sub":"Rush"},"geometry":{"type":"Point","coordinates":[-87.66671,41.87342]}},{"type":"Feature","properties":{"name":"Stroger Hospital","cat":"hospital","ed":true,"sub":"Cook County Health"},"geometry":{"type":"Point","coordinates":[-87.67388,41.87329]}},{"type":"Feature","properties":{"name":"Holy Cross Hospital","cat":"hospital","ed":true,"sub":"Sinai Chicago"},"geometry":{"type":"Point","coordinates":[-87.69222,41.76912]}},{"type":"Feature","properties":{"name":"UI Health","cat":"hospital","ed":true,"sub":"University of Illinois Hospital"},"geometry":{"type":"Point","coordinates":[-87.67045,41.8697]}},{"type":"Feature","properties":{"name":"Insight Hospital and Medical Center","cat":"hospital","ed":true},"geometry":{"type":"Point","coordinates":[-87.62251,41.84658]}},{"type":"Feature","properties":{"name":"Jackson Park Hospital","cat":"hospital","ed":true},"geometry":{"type":"Point","coordinates":[-87.58481,41.75695]}},{"type":"Feature","properties":{"name":"South Shore Hospital","cat":"hospital","ed":true},"geometry":{"type":"Point","coordinates":[-87.56924,41.74898]}},{"type":"Feature","properties":{"name":"Advocate Illinois Masonic Medical Center","cat":"hospital","ed":true,"sub":"Advocate Health"},"geometry":{"type":"Point","coordinates":[-87.6516,41.93721]}},{"type":"Feature","properties":{"name":"Thorek Memorial Hospital Andersonville","cat":"hospital","ed":true,"sub":"Formerly Methodist Hospital"},"geometry":{"type":"Point","coordinates":[-87.67105,41.97314]}},{"type":"Feature","properties":{"name":"Humboldt Park Health","cat":"hospital","ed":true},"geometry":{"type":"Point","coordinates":[-87.69992,41.90133]}},{"type":"Feature","properties":{"name":"Ascension Saint Joseph","cat":"hospital","ed":true,"sub":"Lakeview"},"geometry":{"type":"Point","coordinates":[-87.63781,41.93451]}},{"type":"Feature","properties":{"name":"Northwestern Memorial Hospital","cat":"hospital","ed":true,"sub":"Northwestern Medicine"},"geometry":{"type":"Point","coordinates":[-87.62192,41.89508]}},{"type":"Feature","properties":{"name":"Provident Hospital","cat":"hospital","ed":true,"sub":"Cook County Health"},"geometry":{"type":"Point","coordinates":[-87.61377,41.80306]}},{"type":"Feature","properties":{"name":"Lurie Children's Hospital","cat":"hospital","ed":true,"sub":"Children's hospital"},"geometry":{"type":"Point","coordinates":[-87.62203,41.89626]}}]}