{"type":"FeatureCollection","features":[{"type":"Feature","properties":{"name":"Andersonville","kind":"enclave"},"geometry":{"type":"Point","coordinates":[-87.66788,41.97985]}},{"type":"Feature","properties":{"name":"Back of the Yards","kind":"district"},"geometry":{"type":"Point","coordinates":[-87.661,41.8075]}},{"type":"Feature","properties":{"name":"Bronzeville","kind":"district"},"geometry":{"type":"Point","coordinates":[-87.617,41.825]}},{"type":"Feature","properties":{"name":"Bucktown","kind":"district"},"geometry":{"type":"Point","coordinates":[-87.68066,41.92151]}},{"type":"Feature","properties":{"name":"Canaryville","kind":"district"},"geometry":{"type":"Point","coordinates":[-87.642,41.8155]}},{"type":"Feature","properties":{"name":"Chinatown","kind":"enclave"},"geometry":{"type":"Point","coordinates":[-87.63463,41.85187]}},{"type":"Feature","properties":{"name":"East Village","kind":"district"},"geometry":{"type":"Point","coordinates":[-87.67227,41.89963]}},{"type":"Feature","properties":{"name":"Fulton Market","kind":"district"},"geometry":{"type":"Point","coordinates":[-87.652,41.8865]}},{"type":"Feature","properties":{"name":"Galewood","kind":"district"},"geometry":{"type":"Point","coordinates":[-87.79969,41.91489]}},{"type":"Feature","properties":{"name":"Gold Coast","kind":"district"},"geometry":{"type":"Point","coordinates":[-87.62815,41.90739]}},{"type":"Feature","properties":{"name":"Greektown","kind":"enclave"},"geometry":{"type":"Point","coordinates":[-87.64714,41.87858]}},{"type":"Feature","properties":{"name":"Little Italy","kind":"enclave"},"geometry":{"type":"Point","coordinates":[-87.68098,41.8671]}},{"type":"Feature","properties":{"name":"Little Village","kind":"enclave"},"geometry":{"type":"Point","coordinates":[-87.71509,41.83895]}},{"type":"Feature","properties":{"name":"Magnificent Mile","kind":"district"},"geometry":{"type":"Point","coordinates":[-87.62422,41.89374]}},{"type":"Feature","properties":{"name":"Northalsted","kind":"village"},"geometry":{"type":"Point","coordinates":[-87.64692,41.94235]}},{"type":"Feature","properties":{"name":"Old Irving Park","kind":"district"},"geometry":{"type":"Point","coordinates":[-87.735,41.9545]}},{"type":"Feature","properties":{"name":"Old Town","kind":"district"},"geometry":{"type":"Point","coordinates":[-87.63977,41.91183]}},{"type":"Feature","properties":{"name":"Pilsen","kind":"enclave"},"geometry":{"type":"Point","coordinates":[-87.66,41.856]}},{"type":"Feature","properties":{"name":"Printers Row","kind":"district"},"geometry":{"type":"Point","coordinates":[-87.62904,41.87106]}},{"type":"Feature","properties":{"name":"Ravenswood","kind":"district"},"geometry":{"type":"Point","coordinates":[-87.6745,41.9645]}},{"type":"Feature","properties":{"name":"River North","kind":"district"},"geometry":{"type":"Point","coordinates":[-87.63783,41.89737]}},{"type":"Feature","properties":{"name":"River West","kind":"district"},"geometry":{"type":"Point","coordinates":[-87.653,41.8935]}},{"type":"Feature","properties":{"name":"Roscoe Village","kind":"district"},"geometry":{"type":"Point","coordinates":[-87.68,41.943]}},{"type":"Feature","properties":{"name":"Rush & Division","kind":"district"},"geometry":{"type":"Point","coordinates":[-87.62898,41.89823]}},{"type":"Feature","properties":{"name":"Sauganash","kind":"district"},"geometry":{"type":"Point","coordinates":[-87.75295,41.98959]}},{"type":"Feature","properties":{"name":"South Loop","kind":"district"},"geometry":{"type":"Point","coordinates":[-87.626,41.858]}},{"type":"Feature","properties":{"name":"Streeterville","kind":"district"},"geometry":{"type":"Point","coordinates":[-87.61923,41.89305]}},{"type":"Feature","properties":{"name":"Ukrainian Village","kind":"enclave"},"geometry":{"type":"Point","coordinates":[-87.68451,41.89942]}},{"type":"Feature","properties":{"name":"West Loop","kind":"district"},"geometry":{"type":"Point","coordinates":[-87.65562,41.88228]}},{"type":"Feature","properties":{"name":"Wicker Park","kind":"district"},"geometry":{"type":"Point","coordinates":[-87.67956,41.90875]}},{"type":"Feature","properties":{"name":"Wrigleyville","kind":"district"},"geometry":{"type":"Point","coordinates":[-87.66048,41.95073]}}]}