{"type":"FeatureCollection","features":[{"type":"Feature","geometry":{"type":"Point","coordinates":[-87.6553,41.9484]},"properties":{"name":"Wrigley Field","cat":"sports","catLabel":"Sports venue","tier":2,"aliases":["Cubs","Friendly Confines"]}},{"type":"Feature","geometry":{"type":"Point","coordinates":[-87.6338,41.8299]},"properties":{"name":"Rate Field","cat":"sports","catLabel":"Sports venue","tier":2,"aliases":["Guaranteed Rate Field","U.S. Cellular Field","Comiskey Park","White Sox","Sox Park"]}},{"type":"Feature","geometry":{"type":"Point","coordinates":[-87.6742,41.8807]},"properties":{"name":"United Center","cat":"sports","catLabel":"Sports venue","tier":2,"aliases":["Bulls","Blackhawks","UC"]}},{"type":"Feature","geometry":{"type":"Point","coordinates":[-87.6167,41.8623]},"properties":{"name":"Soldier Field","cat":"sports","catLabel":"Sports venue","tier":2,"aliases":["Bears"]}},{"type":"Feature","geometry":{"type":"Point","coordinates":[-87.6226,41.8826]},"properties":{"name":"Millennium Park","cat":"park","catLabel":"Park and lakefront","tier":2,"aliases":["The Bean","Cloud Gate","Pritzker Pavilion"]}},{"type":"Feature","geometry":{"type":"Point","coordinates":[-87.6198,41.8735]},"properties":{"name":"Grant Park","cat":"park","catLabel":"Park and lakefront","tier":1,"aliases":["Buckingham Fountain"]}},{"type":"Feature","geometry":{"type":"Point","coordinates":[-87.634,41.9211]},"properties":{"name":"Lincoln Park Zoo","cat":"park","catLabel":"Park and lakefront","tier":2,"aliases":[]}},{"type":"Feature","geometry":{"type":"Point","coordinates":[-87.6247,41.9145]},"properties":{"name":"North Avenue Beach","cat":"park","catLabel":"Park and lakefront","tier":2,"aliases":[]}},{"type":"Feature","geometry":{"type":"Point","coordinates":[-87.6378,41.9653]},"properties":{"name":"Montrose Beach","cat":"park","catLabel":"Park and lakefront","tier":2,"aliases":["Montrose Harbor","Magic Hedge"]}},{"type":"Feature","geometry":{"type":"Point","coordinates":[-87.68,41.9138]},"properties":{"name":"The 606","cat":"park","catLabel":"Park and lakefront","tier":2,"aliases":["Bloomingdale Trail"]}},{"type":"Feature","geometry":{"type":"Point","coordinates":[-87.7173,41.8863]},"properties":{"name":"Garfield Park Conservatory","cat":"park","catLabel":"Park and lakefront","tier":2,"aliases":[]}},{"type":"Feature","geometry":{"type":"Point","coordinates":[-87.5807,41.7816]},"properties":{"name":"Jackson Park","cat":"park","catLabel":"Park and lakefront","tier":1,"aliases":["Wooded Island","Garden of the Phoenix"]}},{"type":"Feature","geometry":{"type":"Point","coordinates":[-87.608,41.858]},"properties":{"name":"Northerly Island","cat":"park","catLabel":"Park and lakefront","tier":2,"aliases":[]}},{"type":"Feature","geometry":{"type":"Point","coordinates":[-87.6274,41.8855]},"properties":{"name":"Chicago Theatre","cat":"music","catLabel":"Music and theatre","tier":2,"aliases":[]}},{"type":"Feature","geometry":{"type":"Point","coordinates":[-87.6248,41.8794]},"properties":{"name":"Symphony Center","cat":"music","catLabel":"Music and theatre","tier":2,"aliases":["Orchestra Hall","CSO"]}},{"type":"Feature","geometry":{"type":"Point","coordinates":[-87.6375,41.8826]},"properties":{"name":"Lyric Opera House","cat":"music","catLabel":"Music and theatre","tier":2,"aliases":["Civic Opera House","Lyric Opera"]}},{"type":"Feature","geometry":{"type":"Point","coordinates":[-87.6253,41.8761]},"properties":{"name":"Auditorium Theatre","cat":"music","catLabel":"Music and theatre","tier":2,"aliases":[]}},{"type":"Feature","geometry":{"type":"Point","coordinates":[-87.6588,41.9496]},"properties":{"name":"Metro","cat":"music","catLabel":"Music and theatre","tier":2,"aliases":["Smart Bar","Metro Chicago"]}},{"type":"Feature","geometry":{"type":"Point","coordinates":[-87.6578,41.9692]},"properties":{"name":"Aragon Ballroom","cat":"music","catLabel":"Music and theatre","tier":2,"aliases":["Byline Bank Aragon Ballroom"]}},{"type":"Feature","geometry":{"type":"Point","coordinates":[-87.632,41.8836]},"properties":{"name":"City Hall","cat":"civic","catLabel":"Civic and transport","tier":2,"aliases":["Chicago City Hall","County Building"]}},{"type":"Feature","geometry":{"type":"Point","coordinates":[-87.6403,41.8786]},"properties":{"name":"Union Station","cat":"civic","catLabel":"Civic and transport","tier":2,"aliases":["Chicago Union Station","Amtrak"]}},{"type":"Feature","geometry":{"type":"Point","coordinates":[-87.6409,41.8829]},"properties":{"name":"Ogilvie Transportation Center","cat":"civic","catLabel":"Civic and transport","tier":2,"aliases":["Ogilvie","Northwestern Station"]}},{"type":"Feature","geometry":{"type":"Point","coordinates":[-87.6155,41.8517]},"properties":{"name":"McCormick Place","cat":"civic","catLabel":"Civic and transport","tier":2,"aliases":[]}},{"type":"Feature","geometry":{"type":"Point","coordinates":[-87.5987,41.7886]},"properties":{"name":"University of Chicago","cat":"campus","catLabel":"Campus","tier":1,"aliases":["UChicago","U of C"]}},{"type":"Feature","geometry":{"type":"Point","coordinates":[-87.6505,41.8708]},"properties":{"name":"University of Illinois Chicago","cat":"campus","catLabel":"Campus","tier":1,"aliases":["UIC"]}},{"type":"Feature","geometry":{"type":"Point","coordinates":[-87.6578,41.999]},"properties":{"name":"Loyola University","cat":"campus","catLabel":"Campus","tier":2,"aliases":["Loyola University Chicago","Loyola"]}},{"type":"Feature","geometry":{"type":"Point","coordinates":[-87.6553,41.9247]},"properties":{"name":"DePaul University","cat":"campus","catLabel":"Campus","tier":2,"aliases":["DePaul"]}},{"type":"Feature","geometry":{"type":"Point","coordinates":[-87.6185,41.896]},"properties":{"name":"Northwestern (Chicago campus)","cat":"campus","catLabel":"Campus","tier":2,"aliases":["Northwestern Memorial","Feinberg","Northwestern"]}},{"type":"Feature","geometry":{"type":"Point","coordinates":[-87.627,41.8349]},"properties":{"name":"Illinois Tech","cat":"campus","catLabel":"Campus","tier":2,"aliases":["IIT","Illinois Institute of Technology"]}},{"type":"Feature","geometry":{"type":"Point","coordinates":[-87.6237,41.8796]},"properties":{"name":"Art Institute","cat":"culture","catLabel":"Museum or sight","tier":2,"aliases":["Art Institute of Chicago","AIC"]}},{"type":"Feature","geometry":{"type":"Point","coordinates":[-87.617,41.8663]},"properties":{"name":"Field Museum","cat":"culture","catLabel":"Museum or sight","tier":2,"aliases":[]}},{"type":"Feature","geometry":{"type":"Point","coordinates":[-87.614,41.8676]},"properties":{"name":"Shedd Aquarium","cat":"culture","catLabel":"Museum or sight","tier":2,"aliases":["Shedd"]}},{"type":"Feature","geometry":{"type":"Point","coordinates":[-87.6068,41.8663]},"properties":{"name":"Adler Planetarium","cat":"culture","catLabel":"Museum or sight","tier":2,"aliases":["Adler"]}},{"type":"Feature","geometry":{"type":"Point","coordinates":[-87.5831,41.7906]},"properties":{"name":"Museum of Science and Industry","cat":"culture","catLabel":"Museum or sight","tier":2,"aliases":["MSI"]}},{"type":"Feature","geometry":{"type":"Point","coordinates":[-87.6086,41.8917]},"properties":{"name":"Navy Pier","cat":"culture","catLabel":"Museum or sight","tier":2,"aliases":[]}},{"type":"Feature","geometry":{"type":"Point","coordinates":[-87.6359,41.8789]},"properties":{"name":"Willis Tower","cat":"culture","catLabel":"Museum or sight","tier":2,"aliases":["Sears Tower","Skydeck"]}},{"type":"Feature","geometry":{"type":"Point","coordinates":[-87.6229,41.8988]},"properties":{"name":"875 North Michigan","cat":"culture","catLabel":"Museum or sight","tier":2,"aliases":["John Hancock Center","Hancock"]}},{"type":"Feature","geometry":{"type":"Point","coordinates":[-87.6354,41.8885]},"properties":{"name":"Merchandise Mart","cat":"culture","catLabel":"Museum or sight","tier":2,"aliases":["The Mart"]}},{"type":"Feature","geometry":{"type":"Point","coordinates":[-87.9048,41.9786]},"properties":{"name":"O'Hare Airport","cat":"airport","catLabel":"Airport","tier":1,"aliases":["O'Hare International Airport","ORD","OHare"]}},{"type":"Feature","geometry":{"type":"Point","coordinates":[-87.7522,41.7868]},"properties":{"name":"Midway Airport","cat":"airport","catLabel":"Airport","tier":1,"aliases":["Midway International Airport","MDW"]}}]}