{"type":"FeatureCollection", "features": [
{"type":"Feature","geometry":{"type":"LineString","coordinates":[[-87.63898,41.87879],[-87.63709,41.8668],[-87.63697,41.86552],[-87.63712,41.86161],[-87.63782,41.86074],[-87.63878,41.86038],[-87.64317,41.86041],[-87.65033,41.86031],[-87.6516,41.86039],[-87.66431,41.86006],[-87.67521,41.85985],[-87.68152,41.85886],[-87.68826,41.85693],[-87.71263,41.85149],[-87.73773,41.84581],[-87.74524,41.84423],[-87.75473,41.84325],[-87.75609,41.84304],[-87.76624,41.8407],[-87.77212,41.83856],[-87.77492,41.83765],[-87.78055,41.83619],[-87.80218,41.8314],[-87.82406,41.82643],[-87.83041,41.82504],[-87.83403,41.82416],[-87.83933,41.82301],[-87.87517,41.81495],[-87.89079,41.8114],[-87.90082,41.80915],[-87.94045,41.80016],[-87.9542,41.79708],[-87.95987,41.79591],[-87.96272,41.79561],[-87.97347,41.79555],[-87.99401,41.79551],[-88.00091,41.79554],[-88.01882,41.79552],[-88.03814,41.79544],[-88.04158,41.79556],[-88.06519,41.79835],[-88.06705,41.79841],[-88.07018,41.79822],[-88.0722,41.79783],[-88.10088,41.79296],[-88.10364,41.79224],[-88.1054,41.79149],[-88.12176,41.78306],[-88.12363,41.78221],[-88.12758,41.78094],[-88.13037,41.78038],[-88.13574,41.78],[-88.14546,41.77979],[-88.19978,41.77825],[-88.20848,41.77807],[-88.22366,41.77764],[-88.22757,41.77726],[-88.23233,41.77651],[-88.24954,41.7739],[-88.2535,41.77348],[-88.27452,41.77028],[-88.28876,41.76836],[-88.29464,41.76747],[-88.30016,41.76639],[-88.30209,41.76588],[-88.30597,41.76362],[-88.30658,41.76292],[-88.30809,41.76037],[-88.30906,41.75945]]},"properties":{"line":"BNSF","name":"BNSF","color":"#29C233","offset":0,"to":"Aurora"}},
{"type":"Feature","geometry":{"type":"LineString","coordinates":[[-87.63898,41.87879],[-87.63894,41.87574],[-87.63872,41.874],[-87.63788,41.87111],[-87.63771,41.86996],[-87.63742,41.86844],[-87.63717,41.86648],[-87.63705,41.86527],[-87.63697,41.86308],[-87.6369,41.86072],[-87.63699,41.85943],[-87.63699,41.85814],[-87.63701,41.8577],[-87.63696,41.85489],[-87.63749,41.85384],[-87.63901,41.85181],[-87.64099,41.84982],[-87.64326,41.84875],[-87.64597,41.84808],[-87.65034,41.84599],[-87.65446,41.84469],[-87.66171,41.84113],[-87.66621,41.8391],[-87.67182,41.83522],[-87.67546,41.8328],[-87.68359,41.82784],[-87.68484,41.82714],[-87.68649,41.82664],[-87.68781,41.82659],[-87.71142,41.82608],[-87.71502,41.82541],[-87.77186,41.80753],[-87.77696,41.80588],[-87.7965,41.79973],[-87.80515,41.79706],[-87.80967,41.79507],[-87.81239,41.79331],[-87.81577,41.7905],[-87.82374,41.78184],[-87.84099,41.76294],[-87.85097,41.75213],[-87.8529,41.75043],[-87.85595,41.7483],[-87.87516,41.73606],[-87.87689,41.73477],[-87.89007,41.72243],[-87.8916,41.72132],[-87.89341,41.72051],[-87.90918,41.71538],[-87.91469,41.71266],[-87.93299,41.70317],[-87.93568,41.70137],[-87.94391,41.69419],[-87.94573,41.69283],[-87.94776,41.69168],[-87.95079,41.69039],[-87.95674,41.68806],[-87.96756,41.68425],[-87.97872,41.68044],[-87.98056,41.67989],[-87.9947,41.67594],[-88.00017,41.6742],[-88.01385,41.672],[-88.01605,41.67133],[-88.03256,41.66394],[-88.04021,41.66048],[-88.04398,41.65842],[-88.04574,41.6568],[-88.04727,41.65455],[-88.04802,41.65158],[-88.05032,41.62586],[-88.05094,41.61811],[-88.052,41.60634],[-88.05256,41.60231],[-88.05333,41.60003],[-88.05996,41.58584],[-88.06245,41.58117],[-88.06694,41.57419],[-88.06897,41.56881],[-88.06974,41.56652],[-88.0727,41.55842],[-88.07461,41.55297],[-88.07837,41.5401],[-88.07905,41.53735],[-88.07908,41.53461],[-88.07884,41.52772],[-88.07926,41.52421]]},"properties":{"line":"HC","name":"Heritage Corridor","color":"#550E0C","offset":-1,"to":"Joliet"}},
{"type":"Feature","geometry":{"type":"LineString","coordinates":[[-87.63898,41.87879],[-87.63892,41.88542],[-87.63986,41.88737],[-87.64013,41.88768],[-87.64061,41.88795],[-87.64072,41.88797],[-87.64081,41.88798],[-87.64115,41.88798],[-87.6429,41.88801],[-87.64675,41.88793],[-87.65163,41.88847],[-87.65735,41.88843],[-87.66038,41.88857],[-87.6661,41.88866],[-87.68529,41.88842],[-87.68582,41.88847],[-87.68734,41.88866],[-87.68862,41.88913],[-87.70125,41.89412],[-87.70733,41.89722],[-87.71125,41.89988],[-87.71372,41.90189],[-87.71641,41.90461],[-87.71882,41.90773],[-87.72029,41.90997],[-87.72149,41.91222],[-87.72179,41.9131],[-87.72724,41.92353],[-87.74041,41.94887],[-87.74225,41.95258],[-87.74732,41.96238],[-87.74952,41.96645],[-87.75195,41.97135],[-87.75672,41.98048],[-87.76826,42.00267],[-87.77695,42.0195],[-87.78138,42.02797],[-87.78513,42.03529],[-87.79697,42.05795],[-87.80846,42.08011],[-87.81414,42.09359],[-87.81941,42.10659],[-87.82649,42.12372],[-87.83061,42.13378],[-87.83218,42.13742],[-87.84067,42.15125],[-87.84742,42.16214],[-87.84795,42.16311],[-87.84969,42.16779],[-87.85443,42.18129],[-87.86904,42.21217],[-87.87752,42.22981],[-87.88976,42.2554],[-87.89084,42.25864],[-87.89614,42.27732],[-87.89731,42.28114],[-87.89836,42.28239],[-87.89989,42.28344],[-87.90237,42.28429],[-87.90417,42.28442],[-87.93941,42.2866],[-87.94247,42.28736],[-87.9497,42.29034],[-87.95115,42.29064],[-87.95416,42.29065],[-87.95645,42.29111],[-87.97836,42.30019],[-87.98065,42.30096],[-87.98548,42.30173],[-87.98687,42.3021],[-87.9893,42.30311],[-87.99797,42.30809],[-88.00101,42.31024],[-88.00443,42.31415],[-88.00735,42.31636],[-88.02382,42.326],[-88.02554,42.32694],[-88.05532,42.33802],[-88.06797,42.3427],[-88.08983,42.35271],[-88.09837,42.35665],[-88.10345,42.36007],[-88.10545,42.36105],[-88.11227,42.36395],[-88.11384,42.36442],[-88.12791,42.36782],[-88.12951,42.36836],[-88.13799,42.37262],[-88.13986,42.37387],[-88.14946,42.38194],[-88.15111,42.38294],[-88.15324,42.3837],[-88.1608,42.38509],[-88.16333,42.38567],[-88.17055,42.38932],[-88.17359,42.39071],[-88.17776,42.39239],[-88.17901,42.39323],[-88.18054,42.39497],[-88.18181,42.3968],[-88.18237,42.39831]]},"properties":{"line":"MD-N","name":"Milwaukee District North","color":"#CC5500","offset":-1,"to":"Fox Lake"}},
{"type":"Feature","geometry":{"type":"LineString","coordinates":[[-87.63898,41.87879],[-87.63892,41.88542],[-87.63986,41.88737],[-87.64013,41.88768],[-87.64061,41.88795],[-87.64072,41.88797],[-87.64081,41.88798],[-87.64115,41.88798],[-87.6429,41.88801],[-87.64675,41.88793],[-87.65163,41.88847],[-87.65735,41.88843],[-87.66038,41.88857],[-87.6661,41.88866],[-87.68529,41.88842],[-87.68582,41.88847],[-87.68734,41.88866],[-87.68862,41.88913],[-87.70125,41.89412],[-87.70733,41.89722],[-87.71125,41.89988],[-87.71372,41.90189],[-87.71641,41.90461],[-87.71882,41.90773],[-87.72029,41.90997],[-87.72149,41.91222],[-87.72206,41.91303],[-87.72317,41.91351],[-87.72546,41.9136],[-87.73233,41.91349],[-87.73749,41.91348],[-87.74109,41.91382],[-87.74525,41.91436],[-87.76365,41.91662],[-87.76486,41.91669],[-87.77907,41.91649],[-87.78588,41.91644],[-87.78892,41.91722],[-87.80356,41.92259],[-87.80763,41.92364],[-87.8154,41.92496],[-87.82357,41.92745],[-87.8365,41.93096],[-87.83992,41.93195],[-87.84464,41.93304],[-87.85601,41.93377],[-87.85781,41.93393],[-87.8655,41.93623],[-87.87017,41.93752],[-87.88197,41.94103],[-87.88404,41.94173],[-87.88859,41.94374],[-87.89697,41.9472],[-87.90139,41.94852],[-87.9092,41.9505],[-87.92485,41.95437],[-87.93648,41.95623],[-87.96187,41.96004],[-87.97149,41.96152],[-87.97385,41.96207],[-87.98282,41.96506],[-87.99313,41.96858],[-87.99727,41.96955],[-88.00971,41.9709],[-88.02115,41.97273],[-88.03635,41.9753],[-88.05146,41.97837],[-88.07584,41.98323],[-88.09307,41.98675],[-88.10625,41.98933],[-88.10993,41.98955],[-88.12384,41.98904],[-88.14641,41.98815],[-88.15002,41.98813],[-88.15663,41.98887],[-88.17395,41.99104],[-88.18608,41.99249],[-88.19321,41.99341],[-88.1958,41.99405],[-88.20991,41.99898],[-88.21335,41.99972],[-88.22877,42.00177],[-88.23146,42.00246],[-88.23498,42.00378],[-88.24557,42.00795],[-88.25437,42.01131],[-88.25727,42.01233],[-88.25884,42.01256],[-88.26085,42.01245],[-88.26352,42.01187],[-88.26559,42.01165],[-88.26718,42.01175],[-88.26957,42.01242],[-88.27076,42.01301],[-88.27224,42.01417],[-88.27331,42.01579],[-88.27611,42.02147],[-88.27719,42.02341],[-88.2796,42.02836],[-88.28049,42.0298],[-88.28225,42.03183],[-88.28514,42.03473],[-88.28799,42.03829],[-88.29183,42.04329],[-88.29389,42.04749],[-88.29422,42.0489],[-88.29398,42.053],[-88.29515,42.05535],[-88.29697,42.05665],[-88.29897,42.05739],[-88.30153,42.05802],[-88.30378,42.05829],[-88.31924,42.0581],[-88.32198,42.05811],[-88.32826,42.05869]]},"properties":{"line":"MD-W","name":"Milwaukee District West","color":"#F1AD0E","offset":1,"to":"Elgin"}},
{"type":"Feature","geometry":{"type":"LineString","coordinates":[[-87.62318,41.88421],[-87.62296,41.8756],[-87.62266,41.87347],[-87.62264,41.87159],[-87.62165,41.86888],[-87.61942,41.86334],[-87.61789,41.85783],[-87.61613,41.8516],[-87.61474,41.84746],[-87.61352,41.84447],[-87.60937,41.83482],[-87.60849,41.83301],[-87.6065,41.83055],[-87.60421,41.82737],[-87.59871,41.8202],[-87.59285,41.81178],[-87.58918,41.80671],[-87.58827,41.80502],[-87.5875,41.80283],[-87.58684,41.79951],[-87.58674,41.79749],[-87.58713,41.79477],[-87.58867,41.788],[-87.59046,41.78046],[-87.59262,41.7709],[-87.5948,41.76129],[-87.59543,41.75887],[-87.60472,41.71784],[-87.60725,41.70706],[-87.61223,41.68546],[-87.6123,41.68461],[-87.61354,41.67898],[-87.61542,41.67127],[-87.61909,41.6553],[-87.62041,41.65194],[-87.62142,41.6502],[-87.62514,41.64299],[-87.63612,41.62262],[-87.64168,41.61217],[-87.64387,41.60819],[-87.65857,41.58081],[-87.6627,41.57267],[-87.66835,41.56224],[-87.67838,41.54348],[-87.69047,41.52064],[-87.69812,41.50624],[-87.70128,41.50061],[-87.7022,41.49865],[-87.70666,41.49043],[-87.70917,41.4856],[-87.71392,41.47685],[-87.71696,41.47101],[-87.72365,41.45878]]},"properties":{"line":"ME","name":"Metra Electric","color":"#EB5C00","offset":0,"to":"University Park"}},
{"type":"Feature","geometry":{"type":"LineString","coordinates":[[-87.62318,41.88421],[-87.62296,41.8756],[-87.62266,41.87347],[-87.62264,41.87159],[-87.62165,41.86888],[-87.61942,41.86334],[-87.61834,41.86086],[-87.61789,41.85783],[-87.61613,41.8516],[-87.61474,41.84746],[-87.61352,41.84447],[-87.60937,41.83482],[-87.60849,41.83301],[-87.6065,41.83055],[-87.60421,41.82737],[-87.59871,41.8202],[-87.59285,41.81178],[-87.58918,41.80671],[-87.58827,41.80502],[-87.5875,41.80283],[-87.58684,41.79951],[-87.58674,41.79749],[-87.58713,41.79477],[-87.58867,41.788],[-87.59046,41.78046],[-87.59262,41.7709],[-87.59244,41.76818],[-87.59195,41.76732],[-87.58974,41.76604],[-87.58495,41.76605],[-87.56722,41.76621],[-87.56625,41.76582],[-87.55949,41.75841],[-87.55241,41.75192],[-87.55166,41.75072],[-87.55153,41.7439],[-87.55131,41.74277],[-87.54926,41.74058],[-87.54848,41.73895],[-87.54804,41.73672],[-87.5477,41.72666]]},"properties":{"line":"ME","name":"Metra Electric","color":"#EB5C00","offset":0,"to":"South Chicago"}},
{"type":"Feature","geometry":{"type":"LineString","coordinates":[[-87.62318,41.88421],[-87.62296,41.8756],[-87.62266,41.87347],[-87.62264,41.87159],[-87.62165,41.86888],[-87.61942,41.86334],[-87.61836,41.8609],[-87.61789,41.85783],[-87.61613,41.8516],[-87.61474,41.84746],[-87.61352,41.84447],[-87.60937,41.83482],[-87.60849,41.83301],[-87.6065,41.83055],[-87.60421,41.82737],[-87.59871,41.8202],[-87.59285,41.81178],[-87.58918,41.80671],[-87.58827,41.80502],[-87.5875,41.80283],[-87.58684,41.79951],[-87.58674,41.79749],[-87.58713,41.79477],[-87.58867,41.788],[-87.59046,41.78046],[-87.59262,41.7709],[-87.5948,41.76129],[-87.59543,41.75887],[-87.60472,41.71784],[-87.60725,41.70706],[-87.61223,41.68546],[-87.6123,41.68461],[-87.61354,41.67898],[-87.61444,41.6761],[-87.61562,41.67488],[-87.61749,41.67446],[-87.65278,41.67406],[-87.65419,41.67391],[-87.65593,41.67328],[-87.65697,41.67253],[-87.67158,41.65993],[-87.6746,41.65727],[-87.67608,41.65574]]},"properties":{"line":"ME","name":"Metra Electric","color":"#EB5C00","offset":0,"to":"Blue Island"}},
{"type":"Feature","geometry":{"type":"LineString","coordinates":[[-87.63898,41.87879],[-87.63892,41.88542],[-87.63986,41.88737],[-87.64013,41.88768],[-87.64061,41.88795],[-87.64072,41.88797],[-87.64081,41.88798],[-87.64115,41.88798],[-87.6429,41.88801],[-87.64675,41.88793],[-87.65163,41.88847],[-87.65735,41.88843],[-87.66038,41.88857],[-87.6661,41.88866],[-87.68529,41.88842],[-87.68582,41.88847],[-87.68734,41.88866],[-87.68862,41.88913],[-87.70125,41.89412],[-87.70733,41.89722],[-87.71125,41.89988],[-87.71372,41.90189],[-87.71641,41.90461],[-87.71882,41.90773],[-87.72029,41.90997],[-87.72149,41.91222],[-87.72206,41.91303],[-87.72317,41.91351],[-87.72546,41.9136],[-87.73233,41.91349],[-87.73749,41.91348],[-87.74109,41.91382],[-87.74525,41.91436],[-87.76365,41.91662],[-87.76486,41.91669],[-87.77907,41.91649],[-87.78588,41.91644],[-87.78892,41.91722],[-87.80356,41.92259],[-87.80763,41.92364],[-87.8154,41.92496],[-87.82357,41.92745],[-87.8365,41.93096],[-87.83992,41.93195],[-87.84464,41.93304],[-87.85601,41.93377],[-87.85775,41.93419],[-87.85913,41.93538],[-87.86034,41.93854],[-87.86616,41.95459],[-87.8686,41.95846],[-87.86969,41.96051],[-87.87099,41.96716],[-87.87155,41.96875],[-87.87404,41.97717],[-87.87593,41.98206],[-87.87869,41.99017],[-87.88026,41.99455],[-87.88411,42.00561],[-87.88862,42.01827],[-87.89004,42.02201],[-87.89127,42.02651],[-87.89417,42.03672],[-87.89732,42.04562],[-87.90063,42.05507],[-87.90072,42.05594],[-87.90066,42.06725],[-87.90071,42.07518],[-87.90086,42.07622],[-87.90709,42.09063],[-87.92193,42.12456],[-87.92616,42.1341],[-87.92839,42.13932],[-87.94125,42.16862],[-87.94613,42.17958],[-87.95519,42.19716],[-87.97691,42.23887],[-87.98212,42.2459],[-87.98845,42.25427],[-87.99639,42.26503],[-88.00172,42.27214],[-88.00346,42.27555],[-88.00395,42.27896],[-88.00508,42.29983],[-88.0052,42.3015],[-88.00558,42.30269],[-88.00774,42.30584],[-88.01731,42.31792],[-88.02382,42.326],[-88.05083,42.36006],[-88.05829,42.36952],[-88.05934,42.37111],[-88.06454,42.38334],[-88.07336,42.4037],[-88.07926,42.41751],[-88.08436,42.42934],[-88.08943,42.44141],[-88.08981,42.44318],[-88.09022,42.45265],[-88.09116,42.47678],[-88.09223,42.48107]]},"properties":{"line":"NCS","name":"North Central Service","color":"#9785BC","offset":0,"to":"Antioch"}},
{"type":"Feature","geometry":{"type":"LineString","coordinates":[[-87.63216,41.87642],[-87.63206,41.87016],[-87.63161,41.8676],[-87.63064,41.86513],[-87.63053,41.8621],[-87.63081,41.8604],[-87.63085,41.86016],[-87.63059,41.85399],[-87.63004,41.8509],[-87.62944,41.82727],[-87.6289,41.80855],[-87.62818,41.78223],[-87.62825,41.77975],[-87.62835,41.77925],[-87.63012,41.77551],[-87.631,41.77303],[-87.63602,41.75977],[-87.63716,41.75646],[-87.63831,41.75363],[-87.63962,41.74987],[-87.64528,41.73491],[-87.65605,41.70573],[-87.66506,41.68139],[-87.66925,41.67018],[-87.67113,41.66487],[-87.67287,41.66042],[-87.67382,41.6588],[-87.67535,41.65685],[-87.67675,41.6554],[-87.67921,41.65334],[-87.68456,41.64892],[-87.6942,41.64111],[-87.70966,41.62833],[-87.73834,41.60454],[-87.74847,41.5962],[-87.75095,41.59408],[-87.7603,41.58637],[-87.76285,41.58471],[-87.76422,41.58401],[-87.77611,41.57884],[-87.80479,41.56648],[-87.8269,41.55688],[-87.84679,41.5483],[-87.87302,41.53695],[-87.87607,41.53561],[-87.91208,41.51999],[-87.91364,41.51936],[-87.91582,41.51885],[-87.92356,41.51813],[-87.93232,41.5174],[-87.93567,41.51731],[-87.94465,41.51735],[-87.94728,41.51726],[-87.95092,41.51677],[-87.95482,41.51613],[-87.95543,41.51602],[-87.96352,41.51468],[-87.96522,41.51452],[-87.9683,41.5146],[-87.97276,41.51559],[-87.98358,41.51902],[-87.98486,41.51929],[-87.9971,41.5213],[-88.00167,41.52274],[-88.00915,41.52577],[-88.01162,41.52661],[-88.01787,41.52794],[-88.02534,41.53017],[-88.02782,41.53083],[-88.03084,41.53105],[-88.03337,41.53078],[-88.0356,41.53011],[-88.0426,41.52755],[-88.04527,41.52665],[-88.04711,41.52623],[-88.0549,41.52563],[-88.065,41.52496],[-88.06753,41.52473],[-88.07282,41.52444],[-88.07926,41.52421]]},"properties":{"line":"RI","name":"Rock Island","color":"#E02400","offset":0,"to":"Joliet"}},
{"type":"Feature","geometry":{"type":"LineString","coordinates":[[-87.63216,41.87642],[-87.63206,41.87016],[-87.63161,41.8676],[-87.63064,41.86513],[-87.63053,41.8621],[-87.63081,41.8604],[-87.63085,41.86016],[-87.63059,41.85399],[-87.63004,41.8509],[-87.62944,41.82727],[-87.6289,41.80855],[-87.62818,41.78223],[-87.62825,41.77975],[-87.62835,41.77925],[-87.63012,41.77551],[-87.631,41.77303],[-87.63602,41.75977],[-87.63716,41.75646],[-87.63831,41.75363],[-87.63962,41.74987],[-87.64528,41.73491],[-87.64607,41.73328],[-87.64776,41.73226],[-87.65091,41.73232],[-87.66297,41.73212],[-87.66541,41.73121],[-87.66637,41.73032],[-87.66705,41.72896],[-87.66751,41.72105],[-87.66733,41.71415],[-87.66748,41.71217],[-87.66846,41.70958],[-87.67116,41.68717],[-87.67267,41.67506],[-87.67357,41.67052],[-87.67506,41.66217],[-87.67624,41.65671],[-87.67726,41.65538],[-87.6785,41.65436],[-87.67921,41.65334],[-87.68456,41.64892],[-87.6942,41.64111],[-87.70966,41.62833],[-87.73834,41.60454],[-87.74847,41.5962],[-87.75095,41.59408],[-87.7603,41.58637],[-87.76285,41.58471],[-87.76422,41.58401],[-87.77611,41.57884],[-87.80479,41.56648],[-87.8269,41.55688],[-87.84679,41.5483],[-87.87302,41.53695],[-87.87607,41.53561],[-87.91208,41.51999],[-87.91364,41.51936],[-87.91582,41.51885],[-87.92356,41.51813],[-87.93232,41.5174],[-87.93567,41.51731],[-87.94465,41.51735],[-87.94728,41.51726],[-87.95092,41.51677],[-87.95348,41.51634],[-87.95543,41.51602],[-87.96352,41.51468],[-87.96522,41.51452],[-87.9683,41.5146],[-87.97276,41.51559],[-87.98358,41.51902],[-87.98486,41.51929],[-87.9971,41.5213],[-88.00167,41.52274],[-88.00915,41.52577],[-88.01162,41.52661],[-88.01787,41.52794],[-88.02534,41.53017],[-88.02782,41.53083],[-88.03084,41.53105],[-88.03337,41.53078],[-88.0356,41.53011],[-88.0426,41.52755],[-88.04527,41.52665],[-88.04711,41.52623],[-88.0549,41.52563],[-88.065,41.52496],[-88.06753,41.52473],[-88.07282,41.52444],[-88.07926,41.52421]]},"properties":{"line":"RI","name":"Rock Island","color":"#E02400","offset":0,"to":"Joliet"}},
{"type":"Feature","geometry":{"type":"LineString","coordinates":[[-87.63898,41.87879],[-87.63893,41.87575],[-87.63869,41.87391],[-87.63763,41.86969],[-87.63729,41.86716],[-87.63711,41.86599],[-87.63702,41.86433],[-87.637,41.85842],[-87.63701,41.85685],[-87.63694,41.85503],[-87.63698,41.85434],[-87.63691,41.85065],[-87.63694,41.84849],[-87.63682,41.8416],[-87.636,41.81744],[-87.6361,41.81174],[-87.63717,41.80778],[-87.63849,41.80606],[-87.64033,41.80432],[-87.64049,41.80314],[-87.64024,41.79555],[-87.64018,41.79088],[-87.63994,41.78746],[-87.63954,41.77254],[-87.63934,41.76164],[-87.63969,41.75963],[-87.64082,41.75856],[-87.64216,41.75817],[-87.65689,41.75795],[-87.66267,41.75773],[-87.68356,41.75743],[-87.68723,41.75689],[-87.68888,41.75634],[-87.69723,41.7526],[-87.70407,41.74853],[-87.70778,41.7457],[-87.71212,41.74213],[-87.72054,41.73549],[-87.73005,41.72805],[-87.73258,41.72625],[-87.7352,41.72498],[-87.73959,41.72316],[-87.75049,41.7188],[-87.75639,41.71649],[-87.76963,41.71109],[-87.77213,41.70972],[-87.7795,41.70414],[-87.78557,41.69943],[-87.79002,41.69607],[-87.80264,41.68629],[-87.81513,41.67434],[-87.82426,41.66502],[-87.83889,41.65015],[-87.84748,41.64147],[-87.84911,41.6399],[-87.8617,41.62877],[-87.86446,41.62613],[-87.86732,41.62393],[-87.8699,41.62078],[-87.87047,41.61962],[-87.87244,41.61472],[-87.8728,41.61354],[-87.87393,41.60794],[-87.87461,41.60582],[-87.87713,41.59947],[-87.87823,41.5975],[-87.88119,41.59327],[-87.88251,41.59101],[-87.88305,41.58965],[-87.88445,41.58493],[-87.8887,41.57497],[-87.89029,41.57245],[-87.89141,41.5714],[-87.89915,41.56596],[-87.90189,41.56412],[-87.91312,41.55798],[-87.92515,41.55131],[-87.92752,41.54956],[-87.93182,41.54524],[-87.93484,41.53972],[-87.94147,41.52659],[-87.94534,41.52324],[-87.95216,41.51816],[-87.95947,41.51272],[-87.96097,41.51112],[-87.96259,41.50323],[-87.96254,41.50521],[-87.96052,41.49548],[-87.96031,41.48971],[-87.96003,41.48629],[-87.95986,41.47644],[-87.9667,41.45732],[-87.9696,41.4532],[-87.97541,41.44758],[-87.97775,41.44424],[-87.98908,41.41816]]},"properties":{"line":"SWS","name":"SouthWest Service","color":"#0042A8","offset":1,"to":"Manhattan"}},
{"type":"Feature","geometry":{"type":"LineString","coordinates":[[-87.64059,41.88224],[-87.64074,41.88585],[-87.64079,41.88627],[-87.64081,41.88711],[-87.6408,41.8878],[-87.6408,41.88798],[-87.6408,41.8881],[-87.64139,41.88919],[-87.64221,41.88979],[-87.64422,41.89037],[-87.64535,41.89103],[-87.65147,41.89717],[-87.65277,41.89797],[-87.65618,41.89892],[-87.6588,41.90047],[-87.65956,41.90135],[-87.66026,41.903],[-87.6604,41.90547],[-87.66142,41.9076],[-87.66393,41.9104],[-87.66769,41.91632],[-87.67054,41.92251],[-87.67239,41.92674],[-87.6733,41.92991],[-87.67395,41.9499],[-87.67403,41.95454],[-87.67455,41.97307],[-87.6749,41.98794],[-87.67566,42.01325],[-87.67637,42.01732],[-87.6804,42.0345],[-87.6824,42.04349],[-87.68318,42.0455],[-87.68533,42.0487],[-87.713,42.08171],[-87.71834,42.088],[-87.72992,42.10206],[-87.73634,42.1096],[-87.7419,42.11629],[-87.74953,42.12536],[-87.75804,42.13535],[-87.76387,42.14233],[-87.77284,42.15296],[-87.7791,42.16048],[-87.78322,42.16533],[-87.79529,42.17971],[-87.79941,42.18619],[-87.80937,42.20156],[-87.82102,42.21724],[-87.82219,42.21888],[-87.83295,42.23328],[-87.83437,42.23539],[-87.83538,42.23788],[-87.84186,42.25931],[-87.8439,42.26631],[-87.84666,42.27537],[-87.84681,42.27742],[-87.84676,42.29149],[-87.84656,42.31014],[-87.8455,42.31384],[-87.8404,42.32301],[-87.8343,42.33376],[-87.83055,42.3405],[-87.82983,42.34391],[-87.82915,42.35006],[-87.82888,42.35339],[-87.82785,42.36242],[-87.8259,42.37392],[-87.82518,42.37848],[-87.8225,42.39433],[-87.82097,42.41264],[-87.81808,42.44902],[-87.81801,42.4504],[-87.816,42.4757],[-87.81611,42.48066],[-87.8166,42.49141],[-87.8181,42.53006],[-87.81814,42.53172],[-87.81973,42.54091],[-87.82153,42.55736],[-87.82347,42.56495],[-87.82559,42.57262],[-87.82593,42.57739],[-87.82604,42.58224],[-87.82601,42.58582]]},"properties":{"line":"UP-N","name":"UP North","color":"#008000","offset":-1,"to":"Kenosha"}},
{"type":"Feature","geometry":{"type":"LineString","coordinates":[[-87.64059,41.88224],[-87.64074,41.88585],[-87.64079,41.88627],[-87.64081,41.88711],[-87.6408,41.8878],[-87.6408,41.88798],[-87.6408,41.8881],[-87.64139,41.88919],[-87.64221,41.88979],[-87.64422,41.89037],[-87.64535,41.89103],[-87.65147,41.89717],[-87.65277,41.89797],[-87.65618,41.89892],[-87.6588,41.90047],[-87.65956,41.90135],[-87.66026,41.903],[-87.6604,41.90547],[-87.66142,41.9076],[-87.66393,41.9104],[-87.66769,41.91632],[-87.66917,41.91784],[-87.67074,41.91888],[-87.68249,41.92557],[-87.6874,41.92841],[-87.71407,41.94353],[-87.73141,41.95333],[-87.73362,41.95455],[-87.7444,41.96075],[-87.74732,41.96238],[-87.76316,41.9713],[-87.77107,41.97586],[-87.77725,41.9793],[-87.80347,41.99416],[-87.81214,41.99905],[-87.81459,42.0005],[-87.83172,42.01014],[-87.84645,42.01851],[-87.86131,42.02681],[-87.86747,42.03034],[-87.88244,42.03871],[-87.88662,42.04086],[-87.89732,42.04562],[-87.90891,42.05083],[-87.91152,42.05191],[-87.91612,42.05406],[-87.91746,42.05458],[-87.93071,42.06054],[-87.93615,42.06289],[-87.93916,42.06431],[-87.9511,42.06962],[-87.96492,42.07572],[-87.97011,42.07809],[-87.99985,42.09132],[-88.00759,42.09469],[-88.01536,42.09819],[-88.04797,42.11274],[-88.09308,42.13277],[-88.11087,42.14188],[-88.13138,42.15248],[-88.13946,42.15663],[-88.14615,42.16008],[-88.16442,42.16952],[-88.17074,42.17273],[-88.18165,42.1784],[-88.18826,42.18175],[-88.19496,42.18525],[-88.24053,42.20862],[-88.25903,42.21815],[-88.26155,42.2192],[-88.28775,42.22915],[-88.29238,42.23112],[-88.31103,42.24098],[-88.33337,42.25286],[-88.3554,42.26447],[-88.36921,42.27181],[-88.3871,42.2812],[-88.40834,42.29246],[-88.43858,42.30835],[-88.44,42.30935],[-88.44309,42.31244],[-88.44872,42.31847],[-88.45085,42.32031],[-88.45485,42.32315],[-88.46267,42.32852],[-88.48548,42.34428],[-88.49288,42.34934],[-88.4953,42.35129],[-88.50538,42.36015],[-88.51751,42.37091],[-88.52948,42.38146],[-88.53695,42.38813],[-88.54898,42.39864],[-88.55181,42.40039],[-88.55464,42.40168],[-88.55638,42.40222],[-88.58513,42.40981],[-88.6114,42.41679],[-88.61332,42.41746],[-88.61588,42.41868],[-88.61763,42.41979]]},"properties":{"line":"UP-NW","name":"UP Northwest","color":"#FFE600","offset":0,"to":"Harvard"}},
{"type":"Feature","geometry":{"type":"LineString","coordinates":[[-87.64059,41.88224],[-87.64074,41.88585],[-87.64079,41.88627],[-87.64081,41.88711],[-87.6408,41.8878],[-87.6408,41.88798],[-87.6408,41.8881],[-87.64139,41.88919],[-87.64221,41.88979],[-87.64422,41.89037],[-87.64535,41.89103],[-87.65147,41.89717],[-87.65277,41.89797],[-87.65618,41.89892],[-87.6588,41.90047],[-87.65956,41.90135],[-87.66026,41.903],[-87.6604,41.90547],[-87.66142,41.9076],[-87.66393,41.9104],[-87.66769,41.91632],[-87.66917,41.91784],[-87.67074,41.91888],[-87.68249,41.92557],[-87.6874,41.92841],[-87.71407,41.94353],[-87.73141,41.95333],[-87.73362,41.95455],[-87.7444,41.96075],[-87.74732,41.96238],[-87.76316,41.9713],[-87.77107,41.97586],[-87.77725,41.9793],[-87.80347,41.99416],[-87.81214,41.99905],[-87.81459,42.0005],[-87.83172,42.01014],[-87.84645,42.01851],[-87.86131,42.02681],[-87.86747,42.03034],[-87.88244,42.03871],[-87.88662,42.04086],[-87.89732,42.04562],[-87.90891,42.05083],[-87.91152,42.05191],[-87.91612,42.05406],[-87.91746,42.05458],[-87.93071,42.06054],[-87.93615,42.06289],[-87.93916,42.06431],[-87.9511,42.06962],[-87.96492,42.07572],[-87.97011,42.07809],[-87.99985,42.09132],[-88.00759,42.09469],[-88.01536,42.09819],[-88.04797,42.11274],[-88.09308,42.13277],[-88.11087,42.14188],[-88.13138,42.15248],[-88.13946,42.15663],[-88.14615,42.16008],[-88.16442,42.16952],[-88.17074,42.17273],[-88.18165,42.1784],[-88.18826,42.18175],[-88.19496,42.18525],[-88.24053,42.20862],[-88.25903,42.21815],[-88.26155,42.2192],[-88.28775,42.22915],[-88.29238,42.23112],[-88.31103,42.24098],[-88.3121,42.24191],[-88.31276,42.24325],[-88.3122,42.24531],[-88.30164,42.25676],[-88.30023,42.2589],[-88.29964,42.26132],[-88.30027,42.26721],[-88.30203,42.28468],[-88.30197,42.2864],[-88.29798,42.30741],[-88.29716,42.31079],[-88.29561,42.3137],[-88.29183,42.31863],[-88.27914,42.3354],[-88.2767,42.33875],[-88.27602,42.34064],[-88.27614,42.34336]]},"properties":{"line":"UP-NW","name":"UP Northwest","color":"#FFE600","offset":0,"to":"McHenry"}},
{"type":"Feature","geometry":{"type":"LineString","coordinates":[[-87.64059,41.88224],[-87.64074,41.88585],[-87.64079,41.88627],[-87.64081,41.88711],[-87.6408,41.8878],[-87.6408,41.88798],[-87.6408,41.8881],[-87.64139,41.88919],[-87.6433,41.88989],[-87.65837,41.88974],[-87.66312,41.88878],[-87.67325,41.88868],[-87.68582,41.88847],[-87.70629,41.88831],[-87.72458,41.88797],[-87.74146,41.88777],[-87.77981,41.88737],[-87.78396,41.88726],[-87.79446,41.88713],[-87.80162,41.88698],[-87.80644,41.88696],[-87.82133,41.88673],[-87.82492,41.88686],[-87.83039,41.88739],[-87.84778,41.88934],[-87.85692,41.89033],[-87.86627,41.89143],[-87.86871,41.89152],[-87.8718,41.89129],[-87.87785,41.89133],[-87.88459,41.89149],[-87.90332,41.89338],[-87.90719,41.89395],[-87.90969,41.8945],[-87.91823,41.89692],[-87.92073,41.89739],[-87.92827,41.89832],[-87.94214,41.89979],[-87.94448,41.89987],[-87.94912,41.89955],[-87.96572,41.89765],[-87.97753,41.89639],[-87.98954,41.89501],[-87.99242,41.89442],[-87.99803,41.89274],[-88.02194,41.88545],[-88.02408,41.8851],[-88.03724,41.88366],[-88.03973,41.88309],[-88.06466,41.87639],[-88.06713,41.87598],[-88.06954,41.87596],[-88.07498,41.87652],[-88.07702,41.87634],[-88.08059,41.87519],[-88.08255,41.87396],[-88.08878,41.86909],[-88.0912,41.86789],[-88.09266,41.8674],[-88.09692,41.86651],[-88.10689,41.86463],[-88.11146,41.86432],[-88.11463,41.86471],[-88.11712,41.86549],[-88.12029,41.86685],[-88.12357,41.86843],[-88.12798,41.87007],[-88.13034,41.8705],[-88.133,41.87064],[-88.14808,41.86955],[-88.15161,41.86943],[-88.15428,41.86956],[-88.15786,41.87009],[-88.16093,41.8709],[-88.17362,41.87506],[-88.17562,41.87557],[-88.18656,41.87725],[-88.18894,41.87774],[-88.20423,41.88275],[-88.20709,41.88328],[-88.20961,41.88344],[-88.25223,41.8828],[-88.26883,41.88251],[-88.27916,41.88242],[-88.28966,41.88221],[-88.3078,41.88161],[-88.31054,41.88148],[-88.33239,41.88086],[-88.33672,41.88095],[-88.3411,41.88132],[-88.37477,41.8839],[-88.41235,41.88683],[-88.4242,41.88769],[-88.46396,41.89065]]},"properties":{"line":"UP-W","name":"UP West","color":"#FE8D81","offset":1,"to":"Elburn"}}
]}