{"type":"FeatureCollection", "features": [
{"type":"Feature","geometry":{"type":"LineString","coordinates":[[-87.63898,41.87879],[-87.63709,41.8668],[-87.63697,41.86552],[-87.63712,41.86161],[-87.63782,41.86074],[-87.63878,41.86038],[-87.64317,41.86041],[-87.65033,41.86031],[-87.6516,41.86039],[-87.66431,41.86006],[-87.67521,41.85985],[-87.68152,41.85886],[-87.68826,41.85693],[-87.71263,41.85149],[-87.73773,41.84581],[-87.74131,41.84509]]},"properties":{"line":"BNSF","name":"BNSF","color":"#29C233","offset":0,"to":"Aurora"}},
{"type":"Feature","geometry":{"type":"MultiLineString","coordinates":[[[-87.63898,41.87879],[-87.63894,41.87574],[-87.63872,41.874],[-87.63788,41.87111],[-87.63771,41.86996],[-87.63742,41.86844],[-87.63717,41.86648],[-87.63705,41.86527],[-87.63697,41.86308],[-87.6369,41.86072],[-87.63699,41.85943],[-87.63699,41.85814],[-87.63701,41.8577],[-87.63696,41.85489],[-87.63749,41.85384],[-87.63901,41.85181],[-87.64099,41.84982],[-87.64326,41.84875],[-87.64597,41.84808],[-87.65034,41.84599],[-87.65446,41.84469],[-87.66171,41.84113],[-87.66621,41.8391],[-87.67182,41.83522],[-87.67546,41.8328],[-87.68359,41.82784],[-87.68484,41.82714],[-87.68649,41.82664],[-87.68781,41.82659],[-87.71142,41.82608],[-87.71502,41.82541],[-87.73627,41.81873],[-87.74774,41.81509],[-87.75507,41.81281]],[[-87.79081,41.80154],[-87.80362,41.79753]]]},"properties":{"line":"HC","name":"Heritage Corridor","color":"#550E0C","offset":-1,"to":"Joliet"}},
{"type":"Feature","geometry":{"type":"MultiLineString","coordinates":[[[-87.63898,41.87879],[-87.63892,41.88542],[-87.63986,41.88737],[-87.64013,41.88768],[-87.64061,41.88795],[-87.64072,41.88797],[-87.64081,41.88798],[-87.64115,41.88798],[-87.6429,41.88801],[-87.64675,41.88793],[-87.65163,41.88847],[-87.65735,41.88843],[-87.66038,41.88857],[-87.6661,41.88866],[-87.68529,41.88842],[-87.68582,41.88847],[-87.68734,41.88866],[-87.68862,41.88913],[-87.70125,41.89412],[-87.70733,41.89722],[-87.71125,41.89988],[-87.71372,41.90189],[-87.71641,41.90461],[-87.71882,41.90773],[-87.72029,41.90997],[-87.72149,41.91222],[-87.72179,41.9131],[-87.72724,41.92353],[-87.74041,41.94887],[-87.74225,41.95258],[-87.74732,41.96238],[-87.74952,41.96645],[-87.75195,41.97135],[-87.75672,41.98048],[-87.76826,42.00267],[-87.77409,42.01396]],[[-87.775,42.01573],[-87.77555,42.01679]]]},"properties":{"line":"MD-N","name":"Milwaukee District North","color":"#CC5500","offset":-1,"to":"Fox Lake"}},
{"type":"Feature","geometry":{"type":"MultiLineString","coordinates":[[[-87.63898,41.87879],[-87.63892,41.88542],[-87.63986,41.88737],[-87.64013,41.88768],[-87.64061,41.88795],[-87.64072,41.88797],[-87.64081,41.88798],[-87.64115,41.88798],[-87.6429,41.88801],[-87.64675,41.88793],[-87.65163,41.88847],[-87.65735,41.88843],[-87.66038,41.88857],[-87.6661,41.88866],[-87.68529,41.88842],[-87.68582,41.88847],[-87.68734,41.88866],[-87.68862,41.88913],[-87.70125,41.89412],[-87.70733,41.89722],[-87.71125,41.89988],[-87.71372,41.90189],[-87.71641,41.90461],[-87.71882,41.90773],[-87.72029,41.90997],[-87.72149,41.91222],[-87.72206,41.91303],[-87.72317,41.91351],[-87.72546,41.9136],[-87.73233,41.91349],[-87.73749,41.91348],[-87.74109,41.91382],[-87.74525,41.91436],[-87.76365,41.91662],[-87.76486,41.91669],[-87.77907,41.91649],[-87.78588,41.91644],[-87.78892,41.91722],[-87.80356,41.92259],[-87.80825,41.92374]],[[-87.90189,41.94865],[-87.9092,41.9505],[-87.92485,41.95437],[-87.93648,41.95623],[-87.94147,41.95695]]]},"properties":{"line":"MD-W","name":"Milwaukee District West","color":"#F1AD0E","offset":1,"to":"Elgin"}},
{"type":"Feature","geometry":{"type":"LineString","coordinates":[[-87.62318,41.88421],[-87.62296,41.8756],[-87.62266,41.87347],[-87.62264,41.87159],[-87.62165,41.86888],[-87.61942,41.86334],[-87.61789,41.85783],[-87.61613,41.8516],[-87.61474,41.84746],[-87.61352,41.84447],[-87.60937,41.83482],[-87.60849,41.83301],[-87.6065,41.83055],[-87.60421,41.82737],[-87.59871,41.8202],[-87.59285,41.81178],[-87.58918,41.80671],[-87.58827,41.80502],[-87.5875,41.80283],[-87.58684,41.79951],[-87.58674,41.79749],[-87.58713,41.79477],[-87.58867,41.788],[-87.59046,41.78046],[-87.59262,41.7709],[-87.5948,41.76129],[-87.59543,41.75887],[-87.60472,41.71784],[-87.60725,41.70706],[-87.61223,41.68546],[-87.6123,41.68461],[-87.61354,41.67898],[-87.61542,41.67127],[-87.61909,41.6553],[-87.62041,41.65194],[-87.62177,41.64951]]},"properties":{"line":"ME","name":"Metra Electric","color":"#EB5C00","offset":0,"to":"University Park"}},
{"type":"Feature","geometry":{"type":"LineString","coordinates":[[-87.62318,41.88421],[-87.62296,41.8756],[-87.62266,41.87347],[-87.62264,41.87159],[-87.62165,41.86888],[-87.61942,41.86334],[-87.61834,41.86086],[-87.61789,41.85783],[-87.61613,41.8516],[-87.61474,41.84746],[-87.61352,41.84447],[-87.60937,41.83482],[-87.60849,41.83301],[-87.6065,41.83055],[-87.60421,41.82737],[-87.59871,41.8202],[-87.59285,41.81178],[-87.58918,41.80671],[-87.58827,41.80502],[-87.5875,41.80283],[-87.58684,41.79951],[-87.58674,41.79749],[-87.58713,41.79477],[-87.58867,41.788],[-87.59046,41.78046],[-87.59262,41.7709],[-87.59244,41.76818],[-87.59195,41.76732],[-87.58974,41.76604],[-87.58495,41.76605],[-87.56722,41.76621],[-87.56625,41.76582],[-87.55949,41.75841],[-87.55241,41.75192],[-87.55166,41.75072],[-87.55153,41.7439],[-87.55131,41.74277],[-87.54926,41.74058],[-87.54848,41.73895],[-87.54804,41.73672],[-87.5477,41.72666]]},"properties":{"line":"ME","name":"Metra Electric","color":"#EB5C00","offset":0,"to":"South Chicago"}},
{"type":"Feature","geometry":{"type":"LineString","coordinates":[[-87.62318,41.88421],[-87.62296,41.8756],[-87.62266,41.87347],[-87.62264,41.87159],[-87.62165,41.86888],[-87.61942,41.86334],[-87.61836,41.8609],[-87.61789,41.85783],[-87.61613,41.8516],[-87.61474,41.84746],[-87.61352,41.84447],[-87.60937,41.83482],[-87.60849,41.83301],[-87.6065,41.83055],[-87.60421,41.82737],[-87.59871,41.8202],[-87.59285,41.81178],[-87.58918,41.80671],[-87.58827,41.80502],[-87.5875,41.80283],[-87.58684,41.79951],[-87.58674,41.79749],[-87.58713,41.79477],[-87.58867,41.788],[-87.59046,41.78046],[-87.59262,41.7709],[-87.5948,41.76129],[-87.59543,41.75887],[-87.60472,41.71784],[-87.60725,41.70706],[-87.61223,41.68546],[-87.6123,41.68461],[-87.61354,41.67898],[-87.61444,41.6761],[-87.61562,41.67488],[-87.61749,41.67446],[-87.65278,41.67406],[-87.65419,41.67391],[-87.65593,41.67328],[-87.65697,41.67253],[-87.66173,41.66842]]},"properties":{"line":"ME","name":"Metra Electric","color":"#EB5C00","offset":0,"to":"Blue Island"}},
{"type":"Feature","geometry":{"type":"MultiLineString","coordinates":[[[-87.63898,41.87879],[-87.63892,41.88542],[-87.63986,41.88737],[-87.64013,41.88768],[-87.64061,41.88795],[-87.64072,41.88797],[-87.64081,41.88798],[-87.64115,41.88798],[-87.6429,41.88801],[-87.64675,41.88793],[-87.65163,41.88847],[-87.65735,41.88843],[-87.66038,41.88857],[-87.6661,41.88866],[-87.68529,41.88842],[-87.68582,41.88847],[-87.68734,41.88866],[-87.68862,41.88913],[-87.70125,41.89412],[-87.70733,41.89722],[-87.71125,41.89988],[-87.71372,41.90189],[-87.71641,41.90461],[-87.71882,41.90773],[-87.72029,41.90997],[-87.72149,41.91222],[-87.72206,41.91303],[-87.72317,41.91351],[-87.72546,41.9136],[-87.73233,41.91349],[-87.73749,41.91348],[-87.74109,41.91382],[-87.74525,41.91436],[-87.76365,41.91662],[-87.76486,41.91669],[-87.77907,41.91649],[-87.78588,41.91644],[-87.78892,41.91722],[-87.80356,41.92259],[-87.80825,41.92374]],[[-87.87225,41.97107],[-87.87404,41.97717],[-87.87593,41.98206],[-87.87869,41.99017],[-87.88118,41.9972]]]},"properties":{"line":"NCS","name":"North Central Service","color":"#9785BC","offset":0,"to":"Antioch"}},
{"type":"Feature","geometry":{"type":"LineString","coordinates":[[-87.63216,41.87642],[-87.63206,41.87016],[-87.63161,41.8676],[-87.63064,41.86513],[-87.63053,41.8621],[-87.63081,41.8604],[-87.63085,41.86016],[-87.63059,41.85399],[-87.63004,41.8509],[-87.62944,41.82727],[-87.6289,41.80855],[-87.62818,41.78223],[-87.62825,41.77975],[-87.62835,41.77925],[-87.63012,41.77551],[-87.631,41.77303],[-87.63602,41.75977],[-87.63716,41.75646],[-87.63831,41.75363],[-87.63962,41.74987],[-87.64528,41.73491],[-87.65605,41.70573],[-87.6678,41.67402]]},"properties":{"line":"RI","name":"Rock Island","color":"#E02400","offset":0,"to":"Joliet"}},
{"type":"Feature","geometry":{"type":"LineString","coordinates":[[-87.63216,41.87642],[-87.63206,41.87016],[-87.63161,41.8676],[-87.63064,41.86513],[-87.63053,41.8621],[-87.63081,41.8604],[-87.63085,41.86016],[-87.63059,41.85399],[-87.63004,41.8509],[-87.62944,41.82727],[-87.6289,41.80855],[-87.62818,41.78223],[-87.62825,41.77975],[-87.62835,41.77925],[-87.63012,41.77551],[-87.631,41.77303],[-87.63602,41.75977],[-87.63716,41.75646],[-87.63831,41.75363],[-87.63962,41.74987],[-87.64528,41.73491],[-87.64607,41.73328],[-87.64776,41.73226],[-87.65091,41.73232],[-87.66297,41.73212],[-87.66541,41.73121],[-87.66637,41.73032],[-87.66705,41.72896],[-87.66751,41.72105],[-87.66733,41.71415],[-87.66748,41.71217],[-87.66846,41.70958],[-87.67116,41.68717],[-87.67263,41.67533]]},"properties":{"line":"RI","name":"Rock Island","color":"#E02400","offset":0,"to":"Joliet"}},
{"type":"Feature","geometry":{"type":"LineString","coordinates":[[-87.63898,41.87879],[-87.63893,41.87575],[-87.63869,41.87391],[-87.63763,41.86969],[-87.63729,41.86716],[-87.63711,41.86599],[-87.63702,41.86433],[-87.637,41.85842],[-87.63701,41.85685],[-87.63694,41.85503],[-87.63698,41.85434],[-87.63691,41.85065],[-87.63694,41.84849],[-87.63682,41.8416],[-87.636,41.81744],[-87.6361,41.81174],[-87.63717,41.80778],[-87.63849,41.80606],[-87.64033,41.80432],[-87.64049,41.80314],[-87.64024,41.79555],[-87.64018,41.79088],[-87.63994,41.78746],[-87.63954,41.77254],[-87.63934,41.76164],[-87.63969,41.75963],[-87.64082,41.75856],[-87.64216,41.75817],[-87.65689,41.75795],[-87.66267,41.75773],[-87.68356,41.75743],[-87.68723,41.75689],[-87.68888,41.75634],[-87.69723,41.7526],[-87.70407,41.74853],[-87.70778,41.7457],[-87.71212,41.74213],[-87.72396,41.73281]]},"properties":{"line":"SWS","name":"SouthWest Service","color":"#0042A8","offset":1,"to":"Manhattan"}},
{"type":"Feature","geometry":{"type":"LineString","coordinates":[[-87.64059,41.88224],[-87.64074,41.88585],[-87.64079,41.88627],[-87.64081,41.88711],[-87.6408,41.8878],[-87.6408,41.88798],[-87.6408,41.8881],[-87.64139,41.88919],[-87.64221,41.88979],[-87.64422,41.89037],[-87.64535,41.89103],[-87.65147,41.89717],[-87.65277,41.89797],[-87.65618,41.89892],[-87.6588,41.90047],[-87.65956,41.90135],[-87.66026,41.903],[-87.6604,41.90547],[-87.66142,41.9076],[-87.66393,41.9104],[-87.66769,41.91632],[-87.67054,41.92251],[-87.67239,41.92674],[-87.6733,41.92991],[-87.67395,41.9499],[-87.67403,41.95454],[-87.67455,41.97307],[-87.6749,41.98794],[-87.67566,42.01325],[-87.6759,42.01513],[-87.67811,42.02474]]},"properties":{"line":"UP-N","name":"UP North","color":"#008000","offset":-1,"to":"Kenosha"}},
{"type":"Feature","geometry":{"type":"LineString","coordinates":[[-87.64059,41.88224],[-87.64074,41.88585],[-87.64079,41.88627],[-87.64081,41.88711],[-87.6408,41.8878],[-87.6408,41.88798],[-87.6408,41.8881],[-87.64139,41.88919],[-87.64221,41.88979],[-87.64422,41.89037],[-87.64535,41.89103],[-87.65147,41.89717],[-87.65277,41.89797],[-87.65618,41.89892],[-87.6588,41.90047],[-87.65956,41.90135],[-87.66026,41.903],[-87.6604,41.90547],[-87.66142,41.9076],[-87.66393,41.9104],[-87.66769,41.91632],[-87.66917,41.91784],[-87.67074,41.91888],[-87.68249,41.92557],[-87.6874,41.92841],[-87.71407,41.94353],[-87.73141,41.95333],[-87.73362,41.95455],[-87.7444,41.96075],[-87.74732,41.96238],[-87.76316,41.9713],[-87.77107,41.97586],[-87.77725,41.9793],[-87.80347,41.99416],[-87.81777,42.00219],[-87.82333,42.00541]]},"properties":{"line":"UP-NW","name":"UP Northwest","color":"#FFE600","offset":0,"to":"Harvard"}},
{"type":"Feature","geometry":{"type":"LineString","coordinates":[[-87.64059,41.88224],[-87.64074,41.88585],[-87.64079,41.88627],[-87.64081,41.88711],[-87.6408,41.8878],[-87.6408,41.88798],[-87.6408,41.8881],[-87.64139,41.88919],[-87.64221,41.88979],[-87.64422,41.89037],[-87.64535,41.89103],[-87.65147,41.89717],[-87.65277,41.89797],[-87.65618,41.89892],[-87.6588,41.90047],[-87.65956,41.90135],[-87.66026,41.903],[-87.6604,41.90547],[-87.66142,41.9076],[-87.66393,41.9104],[-87.66769,41.91632],[-87.66917,41.91784],[-87.67074,41.91888],[-87.68249,41.92557],[-87.6874,41.92841],[-87.71407,41.94353],[-87.73141,41.95333],[-87.73362,41.95455],[-87.7444,41.96075],[-87.74732,41.96238],[-87.76316,41.9713],[-87.77107,41.97586],[-87.77725,41.9793],[-87.80347,41.99416],[-87.81777,42.00219],[-87.82333,42.00541]]},"properties":{"line":"UP-NW","name":"UP Northwest","color":"#FFE600","offset":0,"to":"McHenry"}},
{"type":"Feature","geometry":{"type":"LineString","coordinates":[[-87.64059,41.88224],[-87.64074,41.88585],[-87.64079,41.88627],[-87.64081,41.88711],[-87.6408,41.8878],[-87.6408,41.88798],[-87.6408,41.8881],[-87.64139,41.88919],[-87.6433,41.88989],[-87.65837,41.88974],[-87.66312,41.88878],[-87.67325,41.88868],[-87.68582,41.88847],[-87.70629,41.88831],[-87.72458,41.88797],[-87.74146,41.88777],[-87.77689,41.8874]]},"properties":{"line":"UP-W","name":"UP West","color":"#FE8D81","offset":1,"to":"Elburn"}}
]}