{"type":"FeatureCollection","features":[{"type":"Feature","properties":{"name":"Geneva","lines":["UP West"]},"geometry":{"type":"Point","coordinates":[-88.31,41.88167]}},{"type":"Feature","properties":{"name":"West Chicago","lines":["UP West"]},"geometry":{"type":"Point","coordinates":[-88.19889,41.88111]}},{"type":"Feature","properties":{"name":"Winfield","lines":["UP West"]},"geometry":{"type":"Point","coordinates":[-88.15694,41.87]}},{"type":"Feature","properties":{"name":"Wheaton","lines":["UP West"]},"geometry":{"type":"Point","coordinates":[-88.11194,41.86444]}},{"type":"Feature","properties":{"name":"College Ave","lines":["UP West"]},"geometry":{"type":"Point","coordinates":[-88.09028,41.86833]}},{"type":"Feature","properties":{"name":"Glen Ellyn","lines":["UP West"]},"geometry":{"type":"Point","coordinates":[-88.06472,41.87667]}},{"type":"Feature","properties":{"name":"Lombard","lines":["UP West"]},"geometry":{"type":"Point","coordinates":[-88.01861,41.88667]}},{"type":"Feature","properties":{"name":"Villa Park","lines":["UP West"]},"geometry":{"type":"Point","coordinates":[-87.9775,41.89639]}},{"type":"Feature","properties":{"name":"Elmhurst","lines":["UP West"]},"geometry":{"type":"Point","coordinates":[-87.94083,41.89972]}},{"type":"Feature","properties":{"name":"Berkeley","lines":["UP West"]},"geometry":{"type":"Point","coordinates":[-87.91528,41.89611]}},{"type":"Feature","properties":{"name":"Bellwood","lines":["UP West"]},"geometry":{"type":"Point","coordinates":[-87.8825,41.89139]}},{"type":"Feature","properties":{"name":"Melrose Park","lines":["UP West"]},"geometry":{"type":"Point","coordinates":[-87.85556,41.89028]}},{"type":"Feature","properties":{"name":"Maywood","lines":["UP West"]},"geometry":{"type":"Point","coordinates":[-87.83861,41.88833]}},{"type":"Feature","properties":{"name":"River Forest","lines":["UP West"]},"geometry":{"type":"Point","coordinates":[-87.825,41.88694]}},{"type":"Feature","properties":{"name":"Oak Park","lines":["UP West"]},"geometry":{"type":"Point","coordinates":[-87.80111,41.88694]}},{"type":"Feature","properties":{"name":"Kedzie","lines":["UP West"]},"geometry":{"type":"Point","coordinates":[-87.70694,41.88833]}},{"type":"Feature","properties":{"name":"Aurora","lines":["BNSF"]},"geometry":{"type":"Point","coordinates":[-88.30833,41.76083]}},{"type":"Feature","properties":{"name":"Route 59","lines":["BNSF"]},"geometry":{"type":"Point","coordinates":[-88.20861,41.77778]}},{"type":"Feature","properties":{"name":"Naperville","lines":["BNSF"]},"geometry":{"type":"Point","coordinates":[-88.14556,41.77972]}},{"type":"Feature","properties":{"name":"Lisle","lines":["BNSF"]},"geometry":{"type":"Point","coordinates":[-88.07194,41.79778]}},{"type":"Feature","properties":{"name":"Belmont","lines":["BNSF"]},"geometry":{"type":"Point","coordinates":[-88.03806,41.79528]}},{"type":"Feature","properties":{"name":"Downers Grove","lines":["BNSF"]},"geometry":{"type":"Point","coordinates":[-88.00972,41.79528]}},{"type":"Feature","properties":{"name":"Fairview Ave.","lines":["BNSF"]},"geometry":{"type":"Point","coordinates":[-87.99361,41.79528]}},{"type":"Feature","properties":{"name":"Westmont","lines":["BNSF"]},"geometry":{"type":"Point","coordinates":[-87.97639,41.79556]}},{"type":"Feature","properties":{"name":"Clarendon Hills","lines":["BNSF"]},"geometry":{"type":"Point","coordinates":[-87.95361,41.79694]}},{"type":"Feature","properties":{"name":"West Hinsdale","lines":["BNSF"]},"geometry":{"type":"Point","coordinates":[-87.94528,41.79889]}},{"type":"Feature","properties":{"name":"Hinsdale","lines":["BNSF"]},"geometry":{"type":"Point","coordinates":[-87.92833,41.80278]}},{"type":"Feature","properties":{"name":"Highlands","lines":["BNSF"]},"geometry":{"type":"Point","coordinates":[-87.91833,41.805]}},{"type":"Feature","properties":{"name":"Western Springs","lines":["BNSF"]},"geometry":{"type":"Point","coordinates":[-87.90111,41.80889]}},{"type":"Feature","properties":{"name":"Stone Ave.","lines":["BNSF"]},"geometry":{"type":"Point","coordinates":[-87.87833,41.81417]}},{"type":"Feature","properties":{"name":"LaGrange Road","lines":["BNSF"]},"geometry":{"type":"Point","coordinates":[-87.87111,41.81583]}},{"type":"Feature","properties":{"name":"Congress Park","lines":["BNSF"]},"geometry":{"type":"Point","coordinates":[-87.8575,41.81889]}},{"type":"Feature","properties":{"name":"Brookfield","lines":["BNSF"]},"geometry":{"type":"Point","coordinates":[-87.84306,41.82194]}},{"type":"Feature","properties":{"name":"Hollywood","lines":["BNSF"]},"geometry":{"type":"Point","coordinates":[-87.83389,41.82444]}},{"type":"Feature","properties":{"name":"Riverside","lines":["BNSF"]},"geometry":{"type":"Point","coordinates":[-87.82,41.82722]}},{"type":"Feature","properties":{"name":"Harlem Ave.","lines":["BNSF"]},"geometry":{"type":"Point","coordinates":[-87.80194,41.83139]}},{"type":"Feature","properties":{"name":"Berwyn","lines":["BNSF"]},"geometry":{"type":"Point","coordinates":[-87.79361,41.83306]}},{"type":"Feature","properties":{"name":"Lavergne","lines":["BNSF"]},"geometry":{"type":"Point","coordinates":[-87.78333,41.83556]}},{"type":"Feature","properties":{"name":"Cicero","lines":["BNSF"]},"geometry":{"type":"Point","coordinates":[-87.74556,41.84417]}},{"type":"Feature","properties":{"name":"Western Avenue","lines":["BNSF"]},"geometry":{"type":"Point","coordinates":[-87.68528,41.85778]}},{"type":"Feature","properties":{"name":"Halsted Street","lines":["BNSF"]},"geometry":{"type":"Point","coordinates":[-87.64722,41.86028]}},{"type":"Feature","properties":{"name":"Joliet","lines":["Heritage Corridor","Rock Island"]},"geometry":{"type":"Point","coordinates":[-88.07972,41.52444]}},{"type":"Feature","properties":{"name":"Lockport","lines":["Heritage Corridor"]},"geometry":{"type":"Point","coordinates":[-88.06028,41.585]}},{"type":"Feature","properties":{"name":"Lemont","lines":["Heritage Corridor"]},"geometry":{"type":"Point","coordinates":[-88.0025,41.67361]}},{"type":"Feature","properties":{"name":"Willow Springs","lines":["Heritage Corridor"]},"geometry":{"type":"Point","coordinates":[-87.87833,41.73333]}},{"type":"Feature","properties":{"name":"Summit","lines":["Heritage Corridor"]},"geometry":{"type":"Point","coordinates":[-87.80972,41.795]}},{"type":"Feature","properties":{"name":"Orland Park 179th","lines":["SouthWest Service"]},"geometry":{"type":"Point","coordinates":[-87.9025,41.56389]}},{"type":"Feature","properties":{"name":"Orland Park 153rd","lines":["SouthWest Service"]},"geometry":{"type":"Point","coordinates":[-87.87333,41.60944]}},{"type":"Feature","properties":{"name":"Orland Park 143rd","lines":["SouthWest Service"]},"geometry":{"type":"Point","coordinates":[-87.85917,41.63056]}},{"type":"Feature","properties":{"name":"Palos Park","lines":["SouthWest Service"]},"geometry":{"type":"Point","coordinates":[-87.82028,41.66889]}},{"type":"Feature","properties":{"name":"Worth","lines":["SouthWest Service"]},"geometry":{"type":"Point","coordinates":[-87.79583,41.69139]}},{"type":"Feature","properties":{"name":"Chicago Ridge","lines":["SouthWest Service"]},"geometry":{"type":"Point","coordinates":[-87.78028,41.70333]}},{"type":"Feature","properties":{"name":"Oak Lawn Patriot","lines":["SouthWest Service"]},"geometry":{"type":"Point","coordinates":[-87.74861,41.71944]}},{"type":"Feature","properties":{"name":"Ashburn","lines":["SouthWest Service"]},"geometry":{"type":"Point","coordinates":[-87.7125,41.74167]}},{"type":"Feature","properties":{"name":"Wrightwood","lines":["SouthWest Service"]},"geometry":{"type":"Point","coordinates":[-87.70361,41.74889]}},{"type":"Feature","properties":{"name":"Clybourn","lines":["UP North","UP Northwest"]},"geometry":{"type":"Point","coordinates":[-87.66806,41.91694]}},{"type":"Feature","properties":{"name":"Ravenswood","lines":["UP North"]},"geometry":{"type":"Point","coordinates":[-87.67444,41.96833]}},{"type":"Feature","properties":{"name":"Rogers Park","lines":["UP North"]},"geometry":{"type":"Point","coordinates":[-87.67556,42.00944]}},{"type":"Feature","properties":{"name":"Main St.","lines":["UP North"]},"geometry":{"type":"Point","coordinates":[-87.68,42.03333]}},{"type":"Feature","properties":{"name":"Evanston (Davis St.)","lines":["UP North"]},"geometry":{"type":"Point","coordinates":[-87.68472,42.04806]}},{"type":"Feature","properties":{"name":"Central St.","lines":["UP North"]},"geometry":{"type":"Point","coordinates":[-87.69806,42.06417]}},{"type":"Feature","properties":{"name":"Wilmette","lines":["UP North"]},"geometry":{"type":"Point","coordinates":[-87.70917,42.07722]}},{"type":"Feature","properties":{"name":"Kenilworth","lines":["UP North"]},"geometry":{"type":"Point","coordinates":[-87.71667,42.08639]}},{"type":"Feature","properties":{"name":"Winnetka","lines":["UP North"]},"geometry":{"type":"Point","coordinates":[-87.73278,42.10528]}},{"type":"Feature","properties":{"name":"Hubbard Woods","lines":["UP North"]},"geometry":{"type":"Point","coordinates":[-87.74361,42.11806]}},{"type":"Feature","properties":{"name":"Glencoe","lines":["UP North"]},"geometry":{"type":"Point","coordinates":[-87.75806,42.13556]}},{"type":"Feature","properties":{"name":"Braeside","lines":["UP North"]},"geometry":{"type":"Point","coordinates":[-87.7725,42.15278]}},{"type":"Feature","properties":{"name":"Ravinia","lines":["UP North"]},"geometry":{"type":"Point","coordinates":[-87.78278,42.165]}},{"type":"Feature","properties":{"name":"Highland Park","lines":["UP North"]},"geometry":{"type":"Point","coordinates":[-87.7975,42.18333]}},{"type":"Feature","properties":{"name":"Highwood","lines":["UP North"]},"geometry":{"type":"Point","coordinates":[-87.81056,42.20333]}},{"type":"Feature","properties":{"name":"Fort Sheridan","lines":["UP North"]},"geometry":{"type":"Point","coordinates":[-87.82083,42.2175]}},{"type":"Feature","properties":{"name":"Lake Forest.","lines":["UP North"]},"geometry":{"type":"Point","coordinates":[-87.83972,42.2525]}},{"type":"Feature","properties":{"name":"Lake Bluff","lines":["UP North"]},"geometry":{"type":"Point","coordinates":[-87.84667,42.27972]}},{"type":"Feature","properties":{"name":"Great Lakes","lines":["UP North"]},"geometry":{"type":"Point","coordinates":[-87.84639,42.30694]}},{"type":"Feature","properties":{"name":"North Chicago","lines":["UP North"]},"geometry":{"type":"Point","coordinates":[-87.83694,42.32861]}},{"type":"Feature","properties":{"name":"Waukegan","lines":["UP North"]},"geometry":{"type":"Point","coordinates":[-87.82833,42.36056]}},{"type":"Feature","properties":{"name":"Zion","lines":["UP North"]},"geometry":{"type":"Point","coordinates":[-87.81806,42.44917]}},{"type":"Feature","properties":{"name":"Winthrop Harbor","lines":["UP North"]},"geometry":{"type":"Point","coordinates":[-87.81611,42.48278]}},{"type":"Feature","properties":{"name":"Fox Lake","lines":["Milwaukee District North"]},"geometry":{"type":"Point","coordinates":[-88.18222,42.39833]}},{"type":"Feature","properties":{"name":"Ingleside","lines":["Milwaukee District North"]},"geometry":{"type":"Point","coordinates":[-88.15361,42.38389]}},{"type":"Feature","properties":{"name":"Long Lake","lines":["Milwaukee District North"]},"geometry":{"type":"Point","coordinates":[-88.12806,42.36806]}},{"type":"Feature","properties":{"name":"Round Lake","lines":["Milwaukee District North"]},"geometry":{"type":"Point","coordinates":[-88.09417,42.35444]}},{"type":"Feature","properties":{"name":"Grayslake","lines":["Milwaukee District North"]},"geometry":{"type":"Point","coordinates":[-88.04333,42.33361]}},{"type":"Feature","properties":{"name":"Libertyville","lines":["Milwaukee District North"]},"geometry":{"type":"Point","coordinates":[-87.95639,42.29111]}},{"type":"Feature","properties":{"name":"Lake Forest","lines":["Milwaukee District North"]},"geometry":{"type":"Point","coordinates":[-87.87472,42.22361]}},{"type":"Feature","properties":{"name":"Deerfield","lines":["Milwaukee District North"]},"geometry":{"type":"Point","coordinates":[-87.85,42.16806]}},{"type":"Feature","properties":{"name":"Lake-Cook","lines":["Milwaukee District North"]},"geometry":{"type":"Point","coordinates":[-87.84139,42.15167]}},{"type":"Feature","properties":{"name":"Northbrook","lines":["Milwaukee District North"]},"geometry":{"type":"Point","coordinates":[-87.82778,42.12694]}},{"type":"Feature","properties":{"name":"Glen/N. Glenview","lines":["Milwaukee District North"]},"geometry":{"type":"Point","coordinates":[-87.81583,42.0975]}},{"type":"Feature","properties":{"name":"Glenview","lines":["Milwaukee District North"]},"geometry":{"type":"Point","coordinates":[-87.80556,42.075]}},{"type":"Feature","properties":{"name":"Golf","lines":["Milwaukee District North"]},"geometry":{"type":"Point","coordinates":[-87.79694,42.05833]}},{"type":"Feature","properties":{"name":"Morton Grove","lines":["Milwaukee District North"]},"geometry":{"type":"Point","coordinates":[-87.78528,42.035]}},{"type":"Feature","properties":{"name":"Edgebrook","lines":["Milwaukee District North"]},"geometry":{"type":"Point","coordinates":[-87.76556,41.99778]}},{"type":"Feature","properties":{"name":"Forest Glen","lines":["Milwaukee District North"]},"geometry":{"type":"Point","coordinates":[-87.75556,41.97806]}},{"type":"Feature","properties":{"name":"Mayfair","lines":["Milwaukee District North"]},"geometry":{"type":"Point","coordinates":[-87.74583,41.95972]}},{"type":"Feature","properties":{"name":"Grayland","lines":["Milwaukee District North"]},"geometry":{"type":"Point","coordinates":[-87.74028,41.94889]}},{"type":"Feature","properties":{"name":"Healy","lines":["Milwaukee District North"]},"geometry":{"type":"Point","coordinates":[-87.72778,41.92472]}},{"type":"Feature","properties":{"name":"Western Ave","lines":["Milwaukee District North","Milwaukee District West","North Central Service"]},"geometry":{"type":"Point","coordinates":[-87.68806,41.88917]}},{"type":"Feature","properties":{"name":"Indian Hill","lines":["UP North"]},"geometry":{"type":"Point","coordinates":[-87.72389,42.09444]}},{"type":"Feature","properties":{"name":"Kenosha","lines":["UP North"]},"geometry":{"type":"Point","coordinates":[-87.82583,42.58583]}},{"type":"Feature","properties":{"name":"Harvard","lines":["UP Northwest"]},"geometry":{"type":"Point","coordinates":[-88.6175,42.41972]}},{"type":"Feature","properties":{"name":"Woodstock","lines":["UP Northwest"]},"geometry":{"type":"Point","coordinates":[-88.4475,42.31694]}},{"type":"Feature","properties":{"name":"Crystal Lake","lines":["UP Northwest"]},"geometry":{"type":"Point","coordinates":[-88.31722,42.24417]}},{"type":"Feature","properties":{"name":"McHenry","lines":["UP Northwest"]},"geometry":{"type":"Point","coordinates":[-88.27611,42.34333]}},{"type":"Feature","properties":{"name":"Cary","lines":["UP Northwest"]},"geometry":{"type":"Point","coordinates":[-88.24139,42.20889]}},{"type":"Feature","properties":{"name":"Fox River Grove","lines":["UP Northwest"]},"geometry":{"type":"Point","coordinates":[-88.21944,42.19778]}},{"type":"Feature","properties":{"name":"Barrington","lines":["UP Northwest"]},"geometry":{"type":"Point","coordinates":[-88.13194,42.15278]}},{"type":"Feature","properties":{"name":"Palatine","lines":["UP Northwest"]},"geometry":{"type":"Point","coordinates":[-88.04833,42.11306]}},{"type":"Feature","properties":{"name":"Arlington Park","lines":["UP Northwest"]},"geometry":{"type":"Point","coordinates":[-88.00917,42.09528]}},{"type":"Feature","properties":{"name":"Arlington Heights","lines":["UP Northwest"]},"geometry":{"type":"Point","coordinates":[-87.98361,42.08417]}},{"type":"Feature","properties":{"name":"Mt. Prospect","lines":["UP Northwest"]},"geometry":{"type":"Point","coordinates":[-87.93611,42.06306]}},{"type":"Feature","properties":{"name":"Cumberland","lines":["UP Northwest"]},"geometry":{"type":"Point","coordinates":[-87.91222,42.0525]}},{"type":"Feature","properties":{"name":"Des Plaines","lines":["UP Northwest"]},"geometry":{"type":"Point","coordinates":[-87.88667,42.04083]}},{"type":"Feature","properties":{"name":"Dee Road","lines":["UP Northwest"]},"geometry":{"type":"Point","coordinates":[-87.85611,42.02417]}},{"type":"Feature","properties":{"name":"Park Ridge","lines":["UP Northwest"]},"geometry":{"type":"Point","coordinates":[-87.83167,42.01028]}},{"type":"Feature","properties":{"name":"Irving Park","lines":["UP Northwest"]},"geometry":{"type":"Point","coordinates":[-87.72972,41.9525]}},{"type":"Feature","properties":{"name":"Big Timber","lines":["Milwaukee District West"]},"geometry":{"type":"Point","coordinates":[-88.32778,42.05861]}},{"type":"Feature","properties":{"name":"Elgin","lines":["Milwaukee District West"]},"geometry":{"type":"Point","coordinates":[-88.28611,42.03611]}},{"type":"Feature","properties":{"name":"National St","lines":["Milwaukee District West"]},"geometry":{"type":"Point","coordinates":[-88.27889,42.02639]}},{"type":"Feature","properties":{"name":"Hanover Park","lines":["Milwaukee District West"]},"geometry":{"type":"Point","coordinates":[-88.14917,41.98806]}},{"type":"Feature","properties":{"name":"Schaumburg","lines":["Milwaukee District West"]},"geometry":{"type":"Point","coordinates":[-88.11806,41.98917]}},{"type":"Feature","properties":{"name":"Roselle","lines":["Milwaukee District West"]},"geometry":{"type":"Point","coordinates":[-88.06722,41.98139]}},{"type":"Feature","properties":{"name":"Medinah","lines":["Milwaukee District West"]},"geometry":{"type":"Point","coordinates":[-88.05083,41.97806]}},{"type":"Feature","properties":{"name":"Itasca","lines":["Milwaukee District West"]},"geometry":{"type":"Point","coordinates":[-88.01417,41.97139]}},{"type":"Feature","properties":{"name":"Wood Dale","lines":["Milwaukee District West"]},"geometry":{"type":"Point","coordinates":[-87.97528,41.9625]}},{"type":"Feature","properties":{"name":"Bensenville","lines":["Milwaukee District West"]},"geometry":{"type":"Point","coordinates":[-87.94194,41.95694]}},{"type":"Feature","properties":{"name":"Mannheim","lines":["Milwaukee District West"]},"geometry":{"type":"Point","coordinates":[-87.88333,41.94167]}},{"type":"Feature","properties":{"name":"Franklin Park","lines":["Milwaukee District West"]},"geometry":{"type":"Point","coordinates":[-87.86639,41.93667]}},{"type":"Feature","properties":{"name":"Mont Clare","lines":["Milwaukee District West"]},"geometry":{"type":"Point","coordinates":[-87.80167,41.92167]}},{"type":"Feature","properties":{"name":"Mars","lines":["Milwaukee District West"]},"geometry":{"type":"Point","coordinates":[-87.79444,41.91917]}},{"type":"Feature","properties":{"name":"Galewood","lines":["Milwaukee District West"]},"geometry":{"type":"Point","coordinates":[-87.78583,41.91639]}},{"type":"Feature","properties":{"name":"Hanson Park","lines":["Milwaukee District West"]},"geometry":{"type":"Point","coordinates":[-87.76694,41.91667]}},{"type":"Feature","properties":{"name":"Grand/Cicero","lines":["Milwaukee District West"]},"geometry":{"type":"Point","coordinates":[-87.74611,41.91444]}},{"type":"Feature","properties":{"name":"O'Hare Transfer","lines":["North Central Service"]},"geometry":{"type":"Point","coordinates":[-87.88056,41.995]}},{"type":"Feature","properties":{"name":"Prospect Hts","lines":["North Central Service"]},"geometry":{"type":"Point","coordinates":[-87.90806,42.09222]}},{"type":"Feature","properties":{"name":"Wheeling","lines":["North Central Service"]},"geometry":{"type":"Point","coordinates":[-87.92722,42.13639]}},{"type":"Feature","properties":{"name":"Buffalo Grove","lines":["North Central Service"]},"geometry":{"type":"Point","coordinates":[-87.94139,42.16861]}},{"type":"Feature","properties":{"name":"Prairie View","lines":["North Central Service"]},"geometry":{"type":"Point","coordinates":[-87.95583,42.19806]}},{"type":"Feature","properties":{"name":"Vernon Hills","lines":["North Central Service"]},"geometry":{"type":"Point","coordinates":[-87.96444,42.21556]}},{"type":"Feature","properties":{"name":"Mundelein","lines":["North Central Service"]},"geometry":{"type":"Point","coordinates":[-87.99806,42.26694]}},{"type":"Feature","properties":{"name":"Prairie Crossing.","lines":["North Central Service"]},"geometry":{"type":"Point","coordinates":[-88.01722,42.31806]}},{"type":"Feature","properties":{"name":"Round Lake Beach","lines":["North Central Service"]},"geometry":{"type":"Point","coordinates":[-88.06556,42.385]}},{"type":"Feature","properties":{"name":"Lake Villa","lines":["North Central Service"]},"geometry":{"type":"Point","coordinates":[-88.07944,42.4175]}},{"type":"Feature","properties":{"name":"Antioch","lines":["North Central Service"]},"geometry":{"type":"Point","coordinates":[-88.0925,42.48111]}},{"type":"Feature","properties":{"name":"New Lenox","lines":["Rock Island"]},"geometry":{"type":"Point","coordinates":[-87.96528,41.51444]}},{"type":"Feature","properties":{"name":"Mokena","lines":["Rock Island"]},"geometry":{"type":"Point","coordinates":[-87.88667,41.53083]}},{"type":"Feature","properties":{"name":"Hickory Creek","lines":["Rock Island"]},"geometry":{"type":"Point","coordinates":[-87.84556,41.54861]}},{"type":"Feature","properties":{"name":"Tinley-80th","lines":["Rock Island"]},"geometry":{"type":"Point","coordinates":[-87.80944,41.56444]}},{"type":"Feature","properties":{"name":"Tinley Park","lines":["Rock Island"]},"geometry":{"type":"Point","coordinates":[-87.78278,41.57583]}},{"type":"Feature","properties":{"name":"Oak Forest","lines":["Rock Island"]},"geometry":{"type":"Point","coordinates":[-87.73833,41.60444]}},{"type":"Feature","properties":{"name":"Midlothian","lines":["Rock Island"]},"geometry":{"type":"Point","coordinates":[-87.71167,41.62639]}},{"type":"Feature","properties":{"name":"Robbins","lines":["Rock Island"]},"geometry":{"type":"Point","coordinates":[-87.69444,41.64083]}},{"type":"Feature","properties":{"name":"Kensington","lines":["Metra Electric"]},"geometry":{"type":"Point","coordinates":[-87.61222,41.68583]}},{"type":"Feature","properties":{"name":"59th St. (U. of Chicago)","lines":["Metra Electric"]},"geometry":{"type":"Point","coordinates":[-87.58861,41.78806]}},{"type":"Feature","properties":{"name":"University Park","lines":["Metra Electric"]},"geometry":{"type":"Point","coordinates":[-87.72333,41.45944]}},{"type":"Feature","properties":{"name":"Richton Park","lines":["Metra Electric"]},"geometry":{"type":"Point","coordinates":[-87.70944,41.48556]}},{"type":"Feature","properties":{"name":"Matteson","lines":["Metra Electric"]},"geometry":{"type":"Point","coordinates":[-87.70222,41.49861]}},{"type":"Feature","properties":{"name":"211th St.","lines":["Metra Electric"]},"geometry":{"type":"Point","coordinates":[-87.69833,41.50611]}},{"type":"Feature","properties":{"name":"Olympia Fields","lines":["Metra Electric"]},"geometry":{"type":"Point","coordinates":[-87.69,41.52139]}},{"type":"Feature","properties":{"name":"Flossmoor","lines":["Metra Electric"]},"geometry":{"type":"Point","coordinates":[-87.67861,41.54306]}},{"type":"Feature","properties":{"name":"Homewood","lines":["Metra Electric"]},"geometry":{"type":"Point","coordinates":[-87.66861,41.56222]}},{"type":"Feature","properties":{"name":"Calumet","lines":["Metra Electric"]},"geometry":{"type":"Point","coordinates":[-87.6625,41.57361]}},{"type":"Feature","properties":{"name":"Edison Park","lines":["UP Northwest"]},"geometry":{"type":"Point","coordinates":[-87.8175,42.00222]}},{"type":"Feature","properties":{"name":"Norwood Park","lines":["UP Northwest"]},"geometry":{"type":"Point","coordinates":[-87.79889,41.99167]}},{"type":"Feature","properties":{"name":"Gladstone Park","lines":["UP Northwest"]},"geometry":{"type":"Point","coordinates":[-87.77806,41.97972]}},{"type":"Feature","properties":{"name":"Jefferson Park","lines":["UP Northwest"]},"geometry":{"type":"Point","coordinates":[-87.76333,41.97139]}},{"type":"Feature","properties":{"name":"Bartlett","lines":["Milwaukee District West"]},"geometry":{"type":"Point","coordinates":[-88.18389,41.99222]}},{"type":"Feature","properties":{"name":"47th St. (Kenwood)","lines":["Metra Electric"]},"geometry":{"type":"Point","coordinates":[-87.59139,41.80972]}},{"type":"Feature","properties":{"name":"51st/53rd St. (Hyde Park)","lines":["Metra Electric"]},"geometry":{"type":"Point","coordinates":[-87.58694,41.8]}},{"type":"Feature","properties":{"name":"55th - 56th - 57th St.","lines":["Metra Electric"]},"geometry":{"type":"Point","coordinates":[-87.5875,41.79333]}},{"type":"Feature","properties":{"name":"63rd St.","lines":["Metra Electric"]},"geometry":{"type":"Point","coordinates":[-87.59056,41.78028]}},{"type":"Feature","properties":{"name":"Prairie Crossing","lines":["Milwaukee District North"]},"geometry":{"type":"Point","coordinates":[-88.01528,42.32083]}},{"type":"Feature","properties":{"name":"River Grove","lines":["Milwaukee District West","North Central Service"]},"geometry":{"type":"Point","coordinates":[-87.83611,41.93111]}},{"type":"Feature","properties":{"name":"Elmwood Park","lines":["Milwaukee District West"]},"geometry":{"type":"Point","coordinates":[-87.81472,41.92472]}},{"type":"Feature","properties":{"name":"Riverdale","lines":["Metra Electric"]},"geometry":{"type":"Point","coordinates":[-87.62333,41.64667]}},{"type":"Feature","properties":{"name":"Ivanhoe","lines":["Metra Electric"]},"geometry":{"type":"Point","coordinates":[-87.63028,41.63333]}},{"type":"Feature","properties":{"name":"147th St.","lines":["Metra Electric"]},"geometry":{"type":"Point","coordinates":[-87.63611,41.62278]}},{"type":"Feature","properties":{"name":"Harvey","lines":["Metra Electric"]},"geometry":{"type":"Point","coordinates":[-87.64389,41.60833]}},{"type":"Feature","properties":{"name":"Hazel Crest","lines":["Metra Electric"]},"geometry":{"type":"Point","coordinates":[-87.65861,41.58083]}},{"type":"Feature","properties":{"name":"Millennium Station","lines":["Metra Electric"],"hub":true},"geometry":{"type":"Point","coordinates":[-87.62306,41.88417]}},{"type":"Feature","properties":{"name":"Van Buren St.","lines":["Metra Electric"]},"geometry":{"type":"Point","coordinates":[-87.62306,41.87694]}},{"type":"Feature","properties":{"name":"Museum Campus/11th St.","lines":["Metra Electric"]},"geometry":{"type":"Point","coordinates":[-87.62139,41.86861]}},{"type":"Feature","properties":{"name":"18th St.","lines":["Metra Electric"]},"geometry":{"type":"Point","coordinates":[-87.61806,41.85833]}},{"type":"Feature","properties":{"name":"McCormick Place","lines":["Metra Electric"]},"geometry":{"type":"Point","coordinates":[-87.61639,41.85139]}},{"type":"Feature","properties":{"name":"27th St.","lines":["Metra Electric"]},"geometry":{"type":"Point","coordinates":[-87.61333,41.84417]}},{"type":"Feature","properties":{"name":"75th St. (Grand Crossing)","lines":["Metra Electric"]},"geometry":{"type":"Point","coordinates":[-87.59528,41.75889]}},{"type":"Feature","properties":{"name":"79th St. (Chatham)","lines":["Metra Electric"]},"geometry":{"type":"Point","coordinates":[-87.59722,41.75083]}},{"type":"Feature","properties":{"name":"83rd St. (Avalon Park)","lines":["Metra Electric"]},"geometry":{"type":"Point","coordinates":[-87.59861,41.74417]}},{"type":"Feature","properties":{"name":"87th St. (Woodruff)","lines":["Metra Electric"]},"geometry":{"type":"Point","coordinates":[-87.60028,41.73694]}},{"type":"Feature","properties":{"name":"91st St.","lines":["Metra Electric"]},"geometry":{"type":"Point","coordinates":[-87.60194,41.72944]}},{"type":"Feature","properties":{"name":"103rd St. (Rosemoor)","lines":["Metra Electric"]},"geometry":{"type":"Point","coordinates":[-87.60722,41.70694]}},{"type":"Feature","properties":{"name":"107th St.","lines":["Metra Electric"]},"geometry":{"type":"Point","coordinates":[-87.60889,41.69972]}},{"type":"Feature","properties":{"name":"111th St. (Pullman)","lines":["Metra Electric"]},"geometry":{"type":"Point","coordinates":[-87.61056,41.69278]}},{"type":"Feature","properties":{"name":"Stony Island","lines":["Metra Electric"]},"geometry":{"type":"Point","coordinates":[-87.58694,41.76611]}},{"type":"Feature","properties":{"name":"Bryn Mawr","lines":["Metra Electric"]},"geometry":{"type":"Point","coordinates":[-87.57667,41.76611]}},{"type":"Feature","properties":{"name":"South Shore","lines":["Metra Electric"]},"geometry":{"type":"Point","coordinates":[-87.56583,41.76528]}},{"type":"Feature","properties":{"name":"Windsor Park","lines":["Metra Electric"]},"geometry":{"type":"Point","coordinates":[-87.55944,41.75861]}},{"type":"Feature","properties":{"name":"Cheltenham (79th St.)","lines":["Metra Electric"]},"geometry":{"type":"Point","coordinates":[-87.5525,41.75222]}},{"type":"Feature","properties":{"name":"83rd St.","lines":["Metra Electric"]},"geometry":{"type":"Point","coordinates":[-87.55167,41.745]}},{"type":"Feature","properties":{"name":"87th St.","lines":["Metra Electric"]},"geometry":{"type":"Point","coordinates":[-87.54833,41.73778]}},{"type":"Feature","properties":{"name":"South Chicago (93rd)","lines":["Metra Electric"]},"geometry":{"type":"Point","coordinates":[-87.54778,41.72667]}},{"type":"Feature","properties":{"name":"LaSalle Street","lines":["Rock Island"],"hub":true},"geometry":{"type":"Point","coordinates":[-87.63222,41.87639]}},{"type":"Feature","properties":{"name":"Gresham","lines":["Rock Island"]},"geometry":{"type":"Point","coordinates":[-87.64472,41.73639]}},{"type":"Feature","properties":{"name":"Blue Island-Vermont","lines":["Rock Island"]},"geometry":{"type":"Point","coordinates":[-87.67778,41.65472]}},{"type":"Feature","properties":{"name":"95th St.-Longwood","lines":["Rock Island"]},"geometry":{"type":"Point","coordinates":[-87.65028,41.72111]}},{"type":"Feature","properties":{"name":"103rd St.-Washington Hts.","lines":["Rock Island"]},"geometry":{"type":"Point","coordinates":[-87.65583,41.70556]}},{"type":"Feature","properties":{"name":"Brainerd","lines":["Rock Island"]},"geometry":{"type":"Point","coordinates":[-87.65889,41.73222]}},{"type":"Feature","properties":{"name":"91st St. - Beverly Hills","lines":["Rock Island"]},"geometry":{"type":"Point","coordinates":[-87.66722,41.72806]}},{"type":"Feature","properties":{"name":"Prairie St.","lines":["Rock Island"]},"geometry":{"type":"Point","coordinates":[-87.675,41.6625]}},{"type":"Feature","properties":{"name":"123rd St.","lines":["Rock Island"]},"geometry":{"type":"Point","coordinates":[-87.67361,41.67]}},{"type":"Feature","properties":{"name":"119th St.","lines":["Rock Island"]},"geometry":{"type":"Point","coordinates":[-87.6725,41.67639]}},{"type":"Feature","properties":{"name":"115th St. - Morgan Park","lines":["Rock Island"]},"geometry":{"type":"Point","coordinates":[-87.67167,41.685]}},{"type":"Feature","properties":{"name":"111th St. - Morgan Park","lines":["Rock Island"]},"geometry":{"type":"Point","coordinates":[-87.67056,41.69278]}},{"type":"Feature","properties":{"name":"107th St. - Beverly Hills","lines":["Rock Island"]},"geometry":{"type":"Point","coordinates":[-87.67,41.69889]}},{"type":"Feature","properties":{"name":"103rd St. - Beverly Hills","lines":["Rock Island"]},"geometry":{"type":"Point","coordinates":[-87.66889,41.70611]}},{"type":"Feature","properties":{"name":"99th St. - Beverly Hills","lines":["Rock Island"]},"geometry":{"type":"Point","coordinates":[-87.6675,41.71361]}},{"type":"Feature","properties":{"name":"95th St. - Beverly Hills","lines":["Rock Island"]},"geometry":{"type":"Point","coordinates":[-87.66722,41.72139]}},{"type":"Feature","properties":{"name":"Blue Island","lines":["Metra Electric"]},"geometry":{"type":"Point","coordinates":[-87.67583,41.65611]}},{"type":"Feature","properties":{"name":"Burr Oak","lines":["Metra Electric"]},"geometry":{"type":"Point","coordinates":[-87.66889,41.66222]}},{"type":"Feature","properties":{"name":"Ashland","lines":["Metra Electric"]},"geometry":{"type":"Point","coordinates":[-87.66056,41.66944]}},{"type":"Feature","properties":{"name":"Racine","lines":["Metra Electric"]},"geometry":{"type":"Point","coordinates":[-87.65194,41.67417]}},{"type":"Feature","properties":{"name":"West Pullman","lines":["Metra Electric"]},"geometry":{"type":"Point","coordinates":[-87.64222,41.67417]}},{"type":"Feature","properties":{"name":"Stewart Ridge","lines":["Metra Electric"]},"geometry":{"type":"Point","coordinates":[-87.63167,41.67444]}},{"type":"Feature","properties":{"name":"State St.","lines":["Metra Electric"]},"geometry":{"type":"Point","coordinates":[-87.62194,41.67444]}},{"type":"Feature","properties":{"name":"Schiller Park","lines":["North Central Service"]},"geometry":{"type":"Point","coordinates":[-87.87056,41.96278]}},{"type":"Feature","properties":{"name":"Palos Heights","lines":["SouthWest Service"]},"geometry":{"type":"Point","coordinates":[-87.80694,41.68194]}},{"type":"Feature","properties":{"name":"Pingree Road","lines":["UP Northwest"]},"geometry":{"type":"Point","coordinates":[-88.29806,42.23417]}},{"type":"Feature","properties":{"name":"Union Station","lines":["BNSF","Heritage Corridor","Milwaukee District North","Milwaukee District West","North Central Service","SouthWest Service"],"hub":true},"geometry":{"type":"Point","coordinates":[-87.63889,41.87889]}},{"type":"Feature","properties":{"name":"Ogilvie","lines":["UP North","UP Northwest","UP West"],"hub":true},"geometry":{"type":"Point","coordinates":[-87.64056,41.88222]}},{"type":"Feature","properties":{"name":"Laraway Road","lines":["SouthWest Service"]},"geometry":{"type":"Point","coordinates":[-87.95972,41.48472]}},{"type":"Feature","properties":{"name":"Manhattan","lines":["SouthWest Service"]},"geometry":{"type":"Point","coordinates":[-87.98917,41.41833]}},{"type":"Feature","properties":{"name":"Washington St (Grayslake)","lines":["North Central Service"]},"geometry":{"type":"Point","coordinates":[-88.05056,42.35917]}},{"type":"Feature","properties":{"name":"Rosemont","lines":["North Central Service"]},"geometry":{"type":"Point","coordinates":[-87.87389,41.97611]}},{"type":"Feature","properties":{"name":"Franklin Pk","lines":["North Central Service"]},"geometry":{"type":"Point","coordinates":[-87.86,41.93778]}},{"type":"Feature","properties":{"name":"La Fox","lines":["UP West"]},"geometry":{"type":"Point","coordinates":[-88.41222,41.88667]}},{"type":"Feature","properties":{"name":"Elburn","lines":["UP West"]},"geometry":{"type":"Point","coordinates":[-88.46389,41.89056]}},{"type":"Feature","properties":{"name":"35th St. - Lou Jones","lines":["Rock Island"]},"geometry":{"type":"Point","coordinates":[-87.62917,41.83139]}},{"type":"Feature","properties":{"name":"Romeoville","lines":["Heritage Corridor"]},"geometry":{"type":"Point","coordinates":[-88.04944,41.63722]}},{"type":"Feature","properties":{"name":"Peterson/Ridge","lines":["UP North"]},"geometry":{"type":"Point","coordinates":[-87.675,41.99111]}}]}