{"type":"FeatureCollection","features":[{"type":"Feature","properties":{"name":"DuPage County"},"geometry":{"type":"Point","coordinates":[-88.05401,41.85998]}},{"type":"Feature","properties":{"name":"Will County"},"geometry":{"type":"Point","coordinates":[-88.07065,41.46496]}},{"type":"Feature","properties":{"name":"Cook County"},"geometry":{"type":"Point","coordinates":[-87.40294,41.95599]}},{"type":"Feature","properties":{"name":"Kane County"},"geometry":{"type":"Point","coordinates":[-88.43236,41.89416]}},{"type":"Feature","properties":{"name":"Lake County"},"geometry":{"type":"Point","coordinates":[-87.24357,42.32209]}},{"type":"Feature","properties":{"name":"Kendall County"},"geometry":{"type":"Point","coordinates":[-88.46876,41.58987]}},{"type":"Feature","properties":{"name":"Lake County, Indiana"},"geometry":{"type":"Point","coordinates":[-87.37306,41.35605]}},{"type":"Feature","properties":{"name":"Porter County, Indiana"},"geometry":{"type":"Point","coordinates":[-87.07535,41.5294]}},{"type":"Feature","properties":{"name":"McHenry County"},"geometry":{"type":"Point","coordinates":[-88.53525,42.32421]}}]}