{"type":"FeatureCollection","features":[{"type":"Feature","properties":{"route":"55","toll":false},"geometry":{"type":"Point","coordinates":[-87.83197,41.78297]}},{"type":"Feature","properties":{"route":"55","toll":false},"geometry":{"type":"Point","coordinates":[-88.16899,41.58364]}},{"type":"Feature","properties":{"route":"80","toll":false},"geometry":{"type":"Point","coordinates":[-88.26856,41.46228]}},{"type":"Feature","properties":{"route":"80","toll":false},"geometry":{"type":"Point","coordinates":[-87.87468,41.55257]}},{"type":"Feature","properties":{"route":"80","toll":false},"geometry":{"type":"Point","coordinates":[-87.33058,41.56753]}},{"type":"Feature","properties":{"route":"80","toll":false},"geometry":{"type":"Point","coordinates":[-87.57768,41.57763]}},{"type":"Feature","properties":{"route":"80","toll":false},"geometry":{"type":"Point","coordinates":[-86.92776,41.58608]}},{"type":"Feature","properties":{"route":"88","toll":false},"geometry":{"type":"Point","coordinates":[-88.2612,41.79963]}},{"type":"Feature","properties":{"route":"94","toll":false},"geometry":{"type":"Point","coordinates":[-87.9489,42.39838]}},{"type":"Feature","properties":{"route":"94","toll":false},"geometry":{"type":"Point","coordinates":[-87.76023,42.08974]}},{"type":"Feature","properties":{"route":"94","toll":false},"geometry":{"type":"Point","coordinates":[-86.93702,41.6587]}},{"type":"Feature","properties":{"route":"90","toll":false},"geometry":{"type":"Point","coordinates":[-88.68139,42.19928]}},{"type":"Feature","properties":{"route":"90","toll":false},"geometry":{"type":"Point","coordinates":[-87.97254,42.0348]}},{"type":"Feature","properties":{"route":"90","toll":false},"geometry":{"type":"Point","coordinates":[-88.38225,42.10108]}},{"type":"Feature","properties":{"route":"90","toll":false},"geometry":{"type":"Point","coordinates":[-87.4758,41.61095]}},{"type":"Feature","properties":{"route":"65","toll":false},"geometry":{"type":"Point","coordinates":[-87.31987,41.51406]}},{"type":"Feature","properties":{"route":"65","toll":false},"geometry":{"type":"Point","coordinates":[-87.29534,41.22954]}},{"type":"Feature","properties":{"route":"294","toll":false},"geometry":{"type":"Point","coordinates":[-87.89265,41.76067]}},{"type":"Feature","properties":{"route":"294","toll":false},"geometry":{"type":"Point","coordinates":[-87.86688,42.07377]}},{"type":"Feature","properties":{"route":"290","toll":false},"geometry":{"type":"Point","coordinates":[-88.02678,41.96335]}},{"type":"Feature","properties":{"route":"355","toll":false},"geometry":{"type":"Point","coordinates":[-88.01279,41.61743]}},{"type":"Feature","properties":{"route":"355","toll":false},"geometry":{"type":"Point","coordinates":[-88.03339,41.88195]}},{"type":"Feature","properties":{"route":"57","toll":false},"geometry":{"type":"Point","coordinates":[-87.70621,41.60402]}}]}