{"type":"FeatureCollection","features":[{"type":"Feature","properties":{"region":"Will County","lp":[-88.07056,41.46487]},"geometry":{"type":"Polygon","coordinates":[[[-87.52673,41.29805],[-87.80094,41.29564],[-88.01392,41.29245],[-88.01181,41.20551],[-88.24414,41.20157],[-88.24982,41.39683],[-88.25941,41.64407],[-88.26128,41.72466],[-88.15325,41.72602],[-88.03035,41.72889],[-88.02769,41.64151],[-87.91193,41.64393],[-87.90938,41.55682],[-87.79279,41.55854],[-87.79213,41.53831],[-87.79037,41.53965],[-87.79032,41.5384],[-87.7903,41.46985],[-87.5257,41.47028],[-87.52673,41.29805]]]}},{"type":"Feature","properties":{"region":"Lake County","lp":[-88.01493,42.32395]},"geometry":{"type":"MultiPolygon","coordinates":[[[[-88.08107,42.49563],[-87.8032,42.49247],[-87.80249,42.48997],[-87.80009,42.48963],[-87.7985,42.48828],[-87.79983,42.48789],[-87.79865,42.48364],[-87.79917,42.48018],[-87.80008,42.47958],[-87.8001,42.47742],[-87.79745,42.4712],[-87.79782,42.47076],[-87.79718,42.46909],[-87.79734,42.46789],[-87.79874,42.46645],[-87.79892,42.4638],[-87.80038,42.46246],[-87.79955,42.45016],[-87.80072,42.44397],[-87.80241,42.44129],[-87.80448,42.43022],[-87.80416,42.42189],[-87.80297,42.41507],[-87.80262,42.39601],[-87.80168,42.39056],[-87.80326,42.38951],[-87.80487,42.38367],[-87.80667,42.38346],[-87.80714,42.38279],[-87.80708,42.37969],[-87.8118,42.37212],[-87.81301,42.36821],[-87.81301,42.36392],[-87.81485,42.36417],[-87.81638,42.36256],[-87.81651,42.36137],[-87.82012,42.36139],[-87.82208,42.36259],[-87.82208,42.36347],[-87.82082,42.36699],[-87.8192,42.36752],[-87.82125,42.36752],[-87.82264,42.36436],[-87.82525,42.3655],[-87.82358,42.3637],[-87.82429,42.36031],[-87.82418,42.35706],[-87.8206,42.35669],[-87.82452,42.35677],[-87.82577,42.35553],[-87.8264,42.34749],[-87.82701,42.34627],[-87.8268,42.33828],[-87.8287,42.33418],[-87.83142,42.33053],[-87.83197,42.32574],[-87.83049,42.32215],[-87.83114,42.3178],[-87.83048,42.31711],[-87.83106,42.31652],[-87.82837,42.31146],[-87.82617,42.30987],[-87.82688,42.3097],[-87.829,42.31097],[-87.83052,42.31084],[-87.83226,42.30937],[-87.83215,42.30889],[-87.83072,42.30877],[-87.83058,42.30824],[-87.83593,42.30932],[-87.832,42.30771],[-87.83318,42.30608],[-87.83237,42.30492],[-87.83355,42.30457],[-87.83437,42.30241],[-87.83298,42.296],[-87.83383,42.29386],[-87.83248,42.29046],[-87.83162,42.28462],[-87.82847,42.27735],[-87.82905,42.27688],[-87.82844,42.27612],[-87.82899,42.276],[-87.82902,42.27525],[-87.82852,42.27525],[-87.829,42.27368],[-87.82802,42.26855],[-87.82636,42.26634],[-87.82688,42.26554],[-87.82595,42.26459],[-87.82448,42.2606],[-87.82079,42.25533],[-87.8201,42.25539],[-87.81963,42.25489],[-87.81999,42.25433],[-87.81919,42.25428],[-87.81891,42.25373],[-87.81945,42.25332],[-87.81872,42.25303],[-87.81913,42.25212],[-87.81767,42.25073],[-87.81884,42.25095],[-87.81744,42.24872],[-87.81776,42.24778],[-87.81657,42.24541],[-87.81641,42.24293],[-87.81245,42.23361],[-87.81247,42.23246],[-87.8115,42.23125],[-87.81204,42.23115],[-87.81198,42.22967],[-87.80952,42.22564],[-87.80654,42.22285],[-87.80687,42.22228],[-87.80453,42.21781],[-87.80227,42.21103],[-87.79853,42.20686],[-87.79908,42.20652],[-87.7965,42.20377],[-87.79614,42.20179],[-87.79174,42.19562],[-87.78756,42.19166],[-87.78664,42.19015],[-87.78734,42.18981],[-87.78574,42.18723],[-87.78125,42.1822],[-87.77716,42.17635],[-87.76831,42.16683],[-87.7588,42.15225],[-88.19958,42.15426],[-88.19904,42.23604],[-88.19825,42.24156],[-88.19939,42.49513],[-88.08107,42.49563]]],[[[-87.80252,42.49242],[-87.80253,42.4924],[-87.80263,42.49243],[-87.80252,42.49242]]]]}},{"type":"Feature","properties":{"region":"Kane County","lp":[-88.43236,41.89416]},"geometry":{"type":"Polygon","coordinates":[[[-88.60193,41.71956],[-88.60257,41.80685],[-88.60129,41.98147],[-88.60196,42.06647],[-88.58833,42.06646],[-88.58866,42.15359],[-88.24784,42.15363],[-88.23845,42.15425],[-88.23819,42.06698],[-88.26364,42.06687],[-88.26195,41.72465],[-88.60193,41.71956]]]}},{"type":"Feature","properties":{"region":"Cook County","lp":[-87.76469,41.82866]},"geometry":{"type":"Polygon","coordinates":[[[-87.5257,41.47028],[-87.7903,41.46985],[-87.79032,41.5384],[-87.79037,41.53965],[-87.79213,41.53831],[-87.79279,41.55854],[-87.90938,41.55682],[-87.91193,41.64393],[-88.02769,41.64151],[-88.02897,41.68524],[-87.98215,41.68608],[-87.97917,41.68733],[-87.97526,41.68653],[-87.97163,41.68725],[-87.96667,41.68674],[-87.95567,41.69302],[-87.94737,41.69541],[-87.94231,41.69892],[-87.94178,41.70303],[-87.93676,41.70531],[-87.93423,41.70846],[-87.93029,41.71006],[-87.92724,41.71263],[-87.92492,41.713],[-87.92153,41.71624],[-87.91426,41.7166],[-87.91763,41.80474],[-87.91976,41.83961],[-87.9194,41.85404],[-87.92042,41.86413],[-87.92048,41.99389],[-88.03145,41.99253],[-88.14592,41.98822],[-88.26288,41.98638],[-88.26364,42.06687],[-88.23819,42.06698],[-88.23845,42.15425],[-87.7588,42.15225],[-87.75345,42.1439],[-87.74791,42.13781],[-87.74864,42.13748],[-87.74305,42.13102],[-87.74089,42.12701],[-87.73622,42.12079],[-87.73055,42.11638],[-87.72946,42.1162],[-87.73036,42.11572],[-87.72982,42.11503],[-87.73056,42.11468],[-87.72445,42.10749],[-87.71467,42.09838],[-87.70327,42.08992],[-87.69453,42.08438],[-87.68099,42.07794],[-87.68098,42.07739],[-87.68233,42.07686],[-87.68188,42.0768],[-87.6819,42.07476],[-87.67591,42.06658],[-87.67541,42.06486],[-87.67399,42.06404],[-87.67306,42.06135],[-87.67128,42.05973],[-87.66955,42.05972],[-87.67011,42.05593],[-87.66938,42.05216],[-87.6709,42.05254],[-87.67089,42.05422],[-87.67191,42.05539],[-87.67178,42.05593],[-87.67077,42.05599],[-87.67095,42.05668],[-87.67216,42.05664],[-87.67384,42.05474],[-87.67338,42.05415],[-87.67159,42.05398],[-87.67161,42.05266],[-87.67103,42.05263],[-87.67113,42.05054],[-87.67229,42.05045],[-87.67265,42.04908],[-87.67221,42.04823],[-87.67317,42.04794],[-87.67196,42.04379],[-87.66937,42.04127],[-87.66911,42.03955],[-87.67004,42.03693],[-87.66908,42.03551],[-87.66965,42.03547],[-87.66959,42.03431],[-87.66868,42.02898],[-87.66406,42.02135],[-87.66314,42.01692],[-87.661,42.01219],[-87.65528,42.00673],[-87.65729,42.00628],[-87.65679,42.00423],[-87.65729,42.00418],[-87.65581,41.99939],[-87.65451,41.99728],[-87.6548,41.99318],[-87.65424,41.99256],[-87.65412,41.98906],[-87.65012,41.98494],[-87.65072,41.98292],[-87.65037,41.9796],[-87.64649,41.97713],[-87.64612,41.97287],[-87.6446,41.9703],[-87.63536,41.97073],[-87.62775,41.96463],[-87.63405,41.95623],[-87.64108,41.95485],[-87.63774,41.9473],[-87.6333,41.94238],[-87.63402,41.94248],[-87.6344,41.94156],[-87.63053,41.93351],[-87.6314,41.93284],[-87.63076,41.93199],[-87.63109,41.9292],[-87.6296,41.92665],[-87.62955,41.9244],[-87.62868,41.92294],[-87.62936,41.92228],[-87.62775,41.9175],[-87.62648,41.91595],[-87.62307,41.91379],[-87.6202,41.91415],[-87.62087,41.91305],[-87.62362,41.91218],[-87.62524,41.90991],[-87.62403,41.90403],[-87.62272,41.90291],[-87.62261,41.90186],[-87.61916,41.90106],[-87.61367,41.8931],[-87.61204,41.89343],[-87.61025,41.89619],[-87.60237,41.89634],[-87.60235,41.89328],[-87.60979,41.89313],[-87.60979,41.89207],[-87.59851,41.89219],[-87.59857,41.89138],[-87.60093,41.89106],[-87.60952,41.89097],[-87.60951,41.88924],[-87.61129,41.88923],[-87.61155,41.89056],[-87.61423,41.89055],[-87.61267,41.89017],[-87.61275,41.88352],[-87.61648,41.88175],[-87.61577,41.88144],[-87.61572,41.88059],[-87.61648,41.88056],[-87.61626,41.8689],[-87.61536,41.86825],[-87.61264,41.86828],[-87.61241,41.8667],[-87.60691,41.86718],[-87.60563,41.8664],[-87.60608,41.86473],[-87.60704,41.86493],[-87.60746,41.86398],[-87.60697,41.8626],[-87.60599,41.86195],[-87.60597,41.86006],[-87.60709,41.85997],[-87.60643,41.85327],[-87.61069,41.85322],[-87.60926,41.85096],[-87.60938,41.84781],[-87.60851,41.84613],[-87.60912,41.84419],[-87.60721,41.83962],[-87.6062,41.83875],[-87.60597,41.83642],[-87.60463,41.8349],[-87.60504,41.83375],[-87.60282,41.83237],[-87.60176,41.82873],[-87.60051,41.8269],[-87.59903,41.82633],[-87.5984,41.82429],[-87.59549,41.8202],[-87.59282,41.81834],[-87.59029,41.81378],[-87.58715,41.81163],[-87.58693,41.81007],[-87.58523,41.80729],[-87.58003,41.80386],[-87.58088,41.80043],[-87.57999,41.79842],[-87.57826,41.79702],[-87.57524,41.79655],[-87.57552,41.79539],[-87.57905,41.79414],[-87.57952,41.79232],[-87.57833,41.79005],[-87.57655,41.78868],[-87.57792,41.78818],[-87.57713,41.78815],[-87.57725,41.7866],[-87.57595,41.78376],[-87.57308,41.78212],[-87.56951,41.78139],[-87.57433,41.77942],[-87.57228,41.77927],[-87.56845,41.77627],[-87.56602,41.7733],[-87.5634,41.77209],[-87.56346,41.77093],[-87.56229,41.76912],[-87.56004,41.76844],[-87.55944,41.76932],[-87.55934,41.76662],[-87.56048,41.76622],[-87.56052,41.76563],[-87.55635,41.76206],[-87.55451,41.76196],[-87.55266,41.76043],[-87.5487,41.75904],[-87.54708,41.75895],[-87.54364,41.76013],[-87.54049,41.75718],[-87.54404,41.75477],[-87.5442,41.75387],[-87.54306,41.7521],[-87.54024,41.75182],[-87.53087,41.74802],[-87.53,41.74191],[-87.52942,41.74132],[-87.53,41.74053],[-87.52888,41.73392],[-87.52944,41.73226],[-87.52464,41.73105],[-87.52442,41.7219],[-87.52538,41.72092],[-87.5256,41.71922],[-87.5245,41.71824],[-87.52445,41.7174],[-87.52687,41.71695],[-87.52845,41.71591],[-87.52768,41.71365],[-87.52665,41.71265],[-87.52514,41.7133],[-87.52819,41.71097],[-87.52425,41.70942],[-87.52618,41.70948],[-87.52426,41.70823],[-87.5257,41.47028]],[[-87.93029,41.69618],[-87.94083,41.69686],[-87.94143,41.69633],[-87.93064,41.69567],[-87.87506,41.68739],[-87.82895,41.68279],[-87.81616,41.68092],[-87.77692,41.67342],[-87.77075,41.67184],[-87.76507,41.66955],[-87.7397,41.65543],[-87.73128,41.65253],[-87.72393,41.65121],[-87.67366,41.65172],[-87.66067,41.65466],[-87.65146,41.65602],[-87.65202,41.65546],[-87.65156,41.65543],[-87.64685,41.65703],[-87.64676,41.65779],[-87.67429,41.65251],[-87.68901,41.65268],[-87.7189,41.6517],[-87.72584,41.65221],[-87.73195,41.65346],[-87.74017,41.65648],[-87.7646,41.67019],[-87.77487,41.67373],[-87.81726,41.68184],[-87.87517,41.68815],[-87.93029,41.69618]]]}},{"type":"Feature","properties":{"region":"McHenry County","lp":[-88.45283,42.32434]},"geometry":{"type":"Polygon","coordinates":[[[-88.70558,42.15354],[-88.70575,42.39631],[-88.70742,42.4936],[-88.629,42.49504],[-88.42224,42.4945],[-88.19939,42.49513],[-88.19825,42.24156],[-88.19904,42.23604],[-88.19958,42.15426],[-88.23707,42.15429],[-88.24784,42.15363],[-88.70558,42.15354]]]}},{"type":"Feature","properties":{"region":"Lake County, Indiana","lp":[-87.3733,41.34469]},"geometry":{"type":"MultiPolygon","coordinates":[[[[-87.34658,41.1823],[-87.36389,41.17677],[-87.38071,41.17265],[-87.3938,41.16281],[-87.41442,41.16225],[-87.44097,41.17292],[-87.44679,41.17435],[-87.45799,41.17059],[-87.48478,41.16989],[-87.52659,41.16609],[-87.52667,41.32691],[-87.52481,41.68694],[-87.52447,41.70836],[-87.52112,41.7101],[-87.51483,41.70445],[-87.51685,41.7031],[-87.51286,41.69877],[-87.51032,41.69723],[-87.51095,41.69668],[-87.50989,41.69531],[-87.50671,41.69368],[-87.50545,41.6947],[-87.50401,41.69389],[-87.50467,41.69286],[-87.50395,41.69246],[-87.50465,41.69182],[-87.5042,41.69142],[-87.49213,41.68503],[-87.48617,41.68314],[-87.48474,41.6835],[-87.48501,41.68314],[-87.4841,41.6827],[-87.48543,41.6812],[-87.48068,41.67871],[-87.47905,41.67988],[-87.4756,41.67697],[-87.47629,41.67554],[-87.47155,41.6737],[-87.46773,41.67312],[-87.46299,41.67821],[-87.44927,41.68442],[-87.42488,41.69007],[-87.41582,41.68818],[-87.40684,41.68065],[-87.41236,41.67496],[-87.41314,41.67335],[-87.40852,41.67033],[-87.40961,41.67022],[-87.41019,41.66959],[-87.40982,41.66916],[-87.42061,41.65941],[-87.43215,41.65629],[-87.43569,41.65857],[-87.43635,41.65806],[-87.43335,41.65597],[-87.43703,41.65498],[-87.43871,41.65348],[-87.43755,41.65285],[-87.43636,41.65387],[-87.43529,41.65356],[-87.43441,41.65135],[-87.43335,41.65158],[-87.4329,41.64952],[-87.43133,41.64774],[-87.42767,41.64474],[-87.42123,41.641],[-87.41897,41.64203],[-87.41685,41.6409],[-87.41137,41.64369],[-87.41032,41.64254],[-87.40597,41.64167],[-87.40103,41.639],[-87.37187,41.63064],[-87.35623,41.62737],[-87.32516,41.62457],[-87.32544,41.60929],[-87.3242,41.60885],[-87.32275,41.60929],[-87.3226,41.61057],[-87.32455,41.6118],[-87.32423,41.62454],[-87.31888,41.6239],[-87.31917,41.62133],[-87.31803,41.62091],[-87.31634,41.62078],[-87.31541,41.62197],[-87.31414,41.62084],[-87.31125,41.6205],[-87.31107,41.6219],[-87.30644,41.62225],[-87.30611,41.62291],[-87.30452,41.61953],[-87.29902,41.61909],[-87.29725,41.61938],[-87.29864,41.61991],[-87.29715,41.62022],[-87.29884,41.6206],[-87.29701,41.62058],[-87.29851,41.62104],[-87.29738,41.62121],[-87.2984,41.62162],[-87.29766,41.6232],[-87.29676,41.62352],[-87.2964,41.62303],[-87.29602,41.62369],[-87.29479,41.6238],[-87.29063,41.62284],[-87.29118,41.62088],[-87.2922,41.62071],[-87.29152,41.62028],[-87.29294,41.62008],[-87.29163,41.61977],[-87.29282,41.61931],[-87.28963,41.62016],[-87.28906,41.62263],[-87.28881,41.62073],[-87.28756,41.62045],[-87.27162,41.62017],[-87.25316,41.62121],[-87.22276,41.62416],[-87.21981,41.47628],[-87.21965,41.35337],[-87.22027,41.33333],[-87.21888,41.28197],[-87.21886,41.24203],[-87.22632,41.23551],[-87.28561,41.21526],[-87.32421,41.18641],[-87.33105,41.18311],[-87.34658,41.1823]]],[[[-87.52446,41.70925],[-87.52425,41.70944],[-87.52422,41.70925],[-87.52446,41.70925]]]]}},{"type":"Feature","properties":{"region":"Porter County, Indiana","lp":[-87.0751,41.50606]},"geometry":{"type":"MultiPolygon","coordinates":[[[[-86.93227,41.61727],[-86.93075,41.54637],[-86.92987,41.53606],[-86.92935,41.48493],[-86.93078,41.33968],[-86.92956,41.24908],[-86.93008,41.2368],[-86.93733,41.23044],[-86.95566,41.22491],[-86.96812,41.21966],[-86.97702,41.22155],[-86.98424,41.22785],[-87.01103,41.24091],[-87.05972,41.26952],[-87.12212,41.28636],[-87.13165,41.28616],[-87.19236,41.26529],[-87.21886,41.24203],[-87.21888,41.28197],[-87.22027,41.33333],[-87.21965,41.35337],[-87.21981,41.47628],[-87.22276,41.62416],[-87.1796,41.63096],[-87.17788,41.63342],[-87.17883,41.63142],[-87.17714,41.63143],[-87.17574,41.63283],[-87.17569,41.63434],[-87.17818,41.63447],[-87.17557,41.6347],[-87.17419,41.63407],[-87.16209,41.63539],[-87.16202,41.64516],[-87.1586,41.64528],[-87.14583,41.6489],[-87.14815,41.64775],[-87.15899,41.64507],[-87.16183,41.64505],[-87.16168,41.63103],[-87.1588,41.63099],[-87.15833,41.64176],[-87.15081,41.64168],[-87.15062,41.64122],[-87.15172,41.64088],[-87.15044,41.64074],[-87.15034,41.6358],[-87.14742,41.63574],[-87.14742,41.64638],[-87.14218,41.64554],[-87.14187,41.64695],[-87.13098,41.64967],[-87.12718,41.64481],[-87.12503,41.64593],[-87.1125,41.648],[-87.09905,41.65177],[-87.02936,41.67429],[-86.95298,41.70369],[-86.93295,41.71009],[-86.93227,41.61727]]],[[[-86.93311,41.73038],[-86.93337,41.75004],[-86.93333,41.76103],[-86.93336,41.75224],[-86.93311,41.73038]]],[[[-86.94396,41.761],[-86.93348,41.76103],[-87.00003,41.76074],[-86.94396,41.761]]]]}},{"type":"Feature","properties":{"region":"Kendall County","lp":[-88.45195,41.59021]},"geometry":{"type":"Polygon","coordinates":[[[-88.48168,41.4579],[-88.59596,41.45713],[-88.5993,41.55559],[-88.60063,41.5703],[-88.60021,41.57526],[-88.60224,41.63139],[-88.60362,41.71955],[-88.26128,41.72466],[-88.25939,41.64347],[-88.25223,41.46307],[-88.48168,41.4579]]]}},{"type":"Feature","properties":{"region":"DuPage County","lp":[-88.05453,41.85999]},"geometry":{"type":"Polygon","coordinates":[[[-87.92042,41.86413],[-87.9194,41.85404],[-87.91976,41.83961],[-87.91763,41.80474],[-87.91426,41.7166],[-87.92153,41.71624],[-87.92492,41.713],[-87.92724,41.71263],[-87.93029,41.71006],[-87.93423,41.70846],[-87.93676,41.70531],[-87.94178,41.70303],[-87.94231,41.69892],[-87.94737,41.69541],[-87.95567,41.69302],[-87.96667,41.68674],[-87.97163,41.68725],[-87.97526,41.68653],[-87.97917,41.68733],[-87.98215,41.68608],[-88.02897,41.68524],[-88.03035,41.72889],[-88.15325,41.72602],[-88.26195,41.72465],[-88.26282,41.81352],[-88.26288,41.98638],[-88.14592,41.98822],[-88.03145,41.99253],[-87.92048,41.99389],[-87.92042,41.86413]]]}}]}