{"type":"FeatureCollection", "features": [
{"type":"Feature","geometry":{"type":"MultiPolygon","coordinates":[[[[-87.72865,41.99014],[-87.71521,41.99032],[-87.71534,41.9947],[-87.71642,41.99537],[-87.71659,41.99554],[-87.72248,41.9955],[-87.7252,41.99549],[-87.72517,41.99372],[-87.72889,41.9937],[-87.7289,41.99534],[-87.73133,41.99535],[-87.73135,41.99682],[-87.73256,41.99682],[-87.73256,41.99724],[-87.74094,41.99725],[-87.74816,41.99729],[-87.7529,41.9973],[-87.75444,41.99804],[-87.76143,42.00132],[-87.76228,42.0017],[-87.76196,42.00267],[-87.76186,42.00355],[-87.76167,42.00827],[-87.76746,42.00832],[-87.76754,42.00471],[-87.76547,42.00374],[-87.76579,42.00333],[-87.76772,42.00423],[-87.76788,42.00427],[-87.7694,42.00496],[-87.77009,42.00631],[-87.77036,42.00619],[-87.77335,42.01196],[-87.77705,42.01198],[-87.77697,42.01539],[-87.7791,42.01544],[-87.77909,42.01506],[-87.77907,42.012],[-87.78503,42.012],[-87.78872,42.012],[-87.78321,42.00555],[-87.78256,42.0049],[-87.782,42.0045],[-87.78539,42.0029],[-87.79065,42.0004],[-87.79117,42.00098],[-87.79712,42.00094],[-87.79713,42.00001],[-87.79949,41.99999],[-87.79968,42.00087],[-87.80109,42.00087],[-87.80108,42.00155],[-87.80535,42.00149],[-87.80539,42.00086],[-87.80676,42.00084],[-87.80676,42.00151],[-87.80664,42.01172],[-87.80655,42.01896],[-87.82121,42.01864],[-87.82123,42.01554],[-87.82007,42.01557],[-87.82009,42.0126],[-87.82002,42.01194],[-87.81973,42.01193],[-87.81973,42.01139],[-87.82125,42.01136],[-87.82131,42.00708],[-87.82137,42.00083],[-87.82138,42.00055],[-87.8214,41.99692],[-87.82181,41.99522],[-87.82216,41.99311],[-87.82283,41.98822],[-87.82335,41.98436],[-87.82811,41.98504],[-87.83503,41.98603],[-87.83503,41.98607],[-87.83638,41.98627],[-87.83658,41.98637],[-87.83747,41.98648],[-87.83892,41.98671],[-87.84174,41.98712],[-87.84671,41.98787],[-87.84671,41.98789],[-87.84954,41.98831],[-87.85071,41.98845],[-87.85177,41.98853],[-87.85386,41.98862],[-87.85484,41.98877],[-87.85554,41.98896],[-87.85577,41.98893],[-87.85551,41.98814],[-87.85558,41.98774],[-87.85593,41.98701],[-87.85636,41.98599],[-87.85647,41.98536],[-87.85664,41.98466],[-87.85664,41.98432],[-87.85623,41.98348],[-87.85597,41.9828],[-87.85578,41.98216],[-87.85575,41.98148],[-87.85588,41.9811],[-87.85627,41.98046],[-87.85834,41.97876],[-87.85852,41.97859],[-87.85938,41.97757],[-87.85996,41.97699],[-87.86067,41.97654],[-87.86124,41.976],[-87.86168,41.97535],[-87.86201,41.97431],[-87.86201,41.97386],[-87.86749,41.97373],[-87.86784,41.97382],[-87.86861,41.9738],[-87.86861,41.97394],[-87.86959,41.97403],[-87.87589,41.97388],[-87.87588,41.9766],[-87.87577,41.97673],[-87.8738,41.97674],[-87.87512,41.98025],[-87.87597,41.98266],[-87.87587,41.98512],[-87.87599,41.98538],[-87.87634,41.98536],[-87.87648,41.98568],[-87.87691,41.98567],[-87.88035,41.99523],[-87.88454,41.9951],[-87.88453,41.9982],[-87.88502,41.99835],[-87.88908,41.99925],[-87.89123,41.99958],[-87.8923,41.99972],[-87.89287,41.99986],[-87.89598,42.00004],[-87.89597,42.00033],[-87.89746,42.00053],[-87.89744,42.00155],[-87.89954,42.00148],[-87.90308,42.0034],[-87.90372,42.0034],[-87.90406,42.00356],[-87.90406,42.00397],[-87.90374,42.00398],[-87.90374,42.00418],[-87.90215,42.0042],[-87.90215,42.00347],[-87.89924,42.0019],[-87.89604,42.002],[-87.89605,42.00228],[-87.89413,42.00224],[-87.89039,42.00232],[-87.89038,42.00285],[-87.89026,42.00285],[-87.89003,42.00324],[-87.89189,42.00399],[-87.89313,42.00395],[-87.89313,42.00329],[-87.89348,42.00328],[-87.89355,42.00274],[-87.89435,42.00271],[-87.89429,42.0057],[-87.89546,42.00567],[-87.89576,42.00582],[-87.89593,42.00565],[-87.89594,42.00536],[-87.89639,42.00537],[-87.89639,42.00577],[-87.89696,42.00614],[-87.89798,42.00665],[-87.89916,42.00705],[-87.90238,42.00792],[-87.90238,42.00809],[-87.90575,42.00899],[-87.90768,42.00892],[-87.90767,42.00525],[-87.90827,42.00521],[-87.91133,42.0051],[-87.91303,42.00509],[-87.91303,42.00627],[-87.91331,42.00626],[-87.91331,42.00872],[-87.91377,42.0087],[-87.91376,42.00814],[-87.91375,42.00512],[-87.91377,42.00507],[-87.92054,42.00495],[-87.92061,42.00466],[-87.9206,42.00389],[-87.92086,42.00388],[-87.92256,42.00587],[-87.92336,42.00638],[-87.92545,42.00728],[-87.92916,42.00504],[-87.92942,42.00486],[-87.92963,42.0049],[-87.93016,42.00484],[-87.93037,42.005],[-87.93348,42.00542],[-87.93351,42.00559],[-87.93356,42.00802],[-87.93358,42.00817],[-87.93522,42.00815],[-87.93526,42.00692],[-87.93517,42.00333],[-87.93509,42.00094],[-87.93514,42.00089],[-87.93466,42.0009],[-87.93541,42.00017],[-87.93591,41.9996],[-87.93653,41.99879],[-87.93708,41.99797],[-87.93743,41.99737],[-87.93742,41.99723],[-87.93799,41.99599],[-87.93834,41.99531],[-87.93865,41.99425],[-87.9388,41.99353],[-87.93993,41.99349],[-87.93988,41.99049],[-87.93986,41.99015],[-87.93982,41.9878],[-87.93983,41.98702],[-87.93975,41.98189],[-87.93971,41.97864],[-87.93971,41.97681],[-87.93969,41.97209],[-87.93964,41.96904],[-87.93959,41.96464],[-87.93926,41.96464],[-87.93923,41.95953],[-87.93918,41.95906],[-87.93901,41.95849],[-87.93912,41.95839],[-87.93947,41.95839],[-87.93947,41.95679],[-87.93723,41.95645],[-87.9342,41.95597],[-87.9281,41.95495],[-87.9263,41.95465],[-87.92556,41.95461],[-87.92215,41.95378],[-87.92215,41.95383],[-87.9202,41.95334],[-87.92018,41.95817],[-87.91812,41.95792],[-87.91681,41.95771],[-87.91596,41.95749],[-87.91493,41.95709],[-87.91446,41.95682],[-87.91446,41.95354],[-87.9118,41.95283],[-87.90827,41.95186],[-87.90636,41.9515],[-87.90469,41.95127],[-87.90346,41.95114],[-87.90135,41.95101],[-87.89795,41.95071],[-87.89288,41.95079],[-87.89288,41.95309],[-87.89325,41.95472],[-87.89309,41.95809],[-87.89197,41.95807],[-87.89027,41.9581],[-87.88945,41.95799],[-87.88686,41.95775],[-87.8843,41.95753],[-87.88359,41.95734],[-87.88246,41.95721],[-87.88124,41.95715],[-87.88079,41.9572],[-87.88084,41.9655],[-87.88082,41.9667],[-87.88087,41.97241],[-87.88088,41.97309],[-87.87822,41.97303],[-87.87723,41.9731],[-87.87638,41.97307],[-87.87225,41.97307],[-87.86992,41.97313],[-87.86885,41.97318],[-87.86657,41.97321],[-87.86228,41.97332],[-87.86186,41.97337],[-87.86166,41.973],[-87.8612,41.97254],[-87.86038,41.97199],[-87.85953,41.97158],[-87.85922,41.97149],[-87.85879,41.97147],[-87.85839,41.97161],[-87.85783,41.97197],[-87.85746,41.97215],[-87.85659,41.97246],[-87.85606,41.97258],[-87.85538,41.97254],[-87.8549,41.9723],[-87.85439,41.97183],[-87.85416,41.97144],[-87.85412,41.97098],[-87.85432,41.9703],[-87.85478,41.96943],[-87.85503,41.96871],[-87.85498,41.96793],[-87.85478,41.9672],[-87.85478,41.96649],[-87.85488,41.966],[-87.85518,41.96541],[-87.85551,41.96446],[-87.8557,41.96263],[-87.8563,41.96159],[-87.85703,41.9602],[-87.85742,41.95956],[-87.85758,41.95919],[-87.85813,41.95834],[-87.85872,41.95752],[-87.85878,41.95693],[-87.85859,41.95614],[-87.85845,41.95586],[-87.85808,41.95544],[-87.85473,41.95552],[-87.85276,41.95562],[-87.8474,41.95577],[-87.84741,41.95567],[-87.8466,41.95569],[-87.84662,41.95179],[-87.84661,41.95164],[-87.85029,41.95155],[-87.85411,41.95134],[-87.85425,41.95092],[-87.85494,41.94948],[-87.85501,41.94894],[-87.855,41.9482],[-87.85487,41.9478],[-87.85408,41.94656],[-87.85382,41.94584],[-87.85358,41.94504],[-87.85326,41.94376],[-87.85301,41.94335],[-87.85303,41.94309],[-87.85284,41.94258],[-87.85221,41.94112],[-87.85207,41.94053],[-87.85193,41.93954],[-87.85153,41.93885],[-87.85106,41.9384],[-87.84989,41.93765],[-87.84959,41.93729],[-87.84445,41.9374],[-87.84314,41.93742],[-87.83747,41.93754],[-87.83345,41.93761],[-87.83322,41.93762],[-87.82656,41.93776],[-87.82572,41.93776],[-87.81652,41.93795],[-87.81639,41.93432],[-87.80724,41.93451],[-87.80663,41.93452],[-87.80727,41.95276],[-87.80757,41.95277],[-87.82171,41.95242],[-87.83179,41.95216],[-87.83184,41.95518],[-87.83183,41.95571],[-87.83208,41.95699],[-87.83261,41.95908],[-87.83268,41.95944],[-87.8367,41.95937],[-87.8367,41.96277],[-87.83671,41.96581],[-87.83669,41.9666],[-87.84428,41.96646],[-87.84657,41.96641],[-87.84657,41.96951],[-87.84654,41.97194],[-87.84534,41.97191],[-87.84158,41.97198],[-87.84159,41.97015],[-87.83666,41.97024],[-87.83666,41.97134],[-87.83694,41.97137],[-87.83795,41.97135],[-87.83794,41.97258],[-87.83797,41.97384],[-87.84155,41.97379],[-87.84156,41.9747],[-87.83663,41.9748],[-87.83663,41.97531],[-87.83445,41.97535],[-87.83357,41.97541],[-87.83363,41.97494],[-87.83341,41.97492],[-87.83342,41.97393],[-87.83172,41.97395],[-87.83173,41.97306],[-87.82675,41.97315],[-87.82674,41.97404],[-87.81941,41.97423],[-87.81943,41.97323],[-87.81897,41.97322],[-87.81897,41.97062],[-87.81696,41.97067],[-87.81692,41.9743],[-87.80732,41.97455],[-87.80707,41.97455],[-87.80706,41.9732],[-87.80712,41.9697],[-87.80716,41.96828],[-87.80255,41.96831],[-87.80253,41.96876],[-87.8024,41.96878],[-87.79758,41.9688],[-87.78801,41.96889],[-87.78801,41.96842],[-87.78678,41.96844],[-87.78674,41.96734],[-87.78676,41.96466],[-87.78106,41.96473],[-87.77717,41.96479],[-87.77717,41.96492],[-87.7674,41.96505],[-87.76748,41.96779],[-87.76525,41.96782],[-87.76478,41.96781],[-87.76136,41.9676],[-87.76076,41.96789],[-87.75987,41.96789],[-87.75904,41.96691],[-87.75906,41.96682],[-87.75968,41.96664],[-87.75605,41.96245],[-87.74824,41.96255],[-87.74811,41.96254],[-87.74759,41.96224],[-87.74738,41.96244],[-87.74672,41.96203],[-87.74455,41.96076],[-87.73843,41.96084],[-87.73861,41.96631],[-87.73753,41.96632],[-87.73786,41.96655],[-87.73791,41.96814],[-87.74773,41.96804],[-87.74756,41.96854],[-87.74783,41.96941],[-87.74788,41.97031],[-87.74792,41.97246],[-87.74799,41.97502],[-87.74817,41.98052],[-87.74819,41.98167],[-87.74826,41.98339],[-87.74832,41.98574],[-87.74833,41.98994],[-87.74117,41.99005],[-87.73873,41.99007],[-87.73815,41.99002],[-87.72865,41.99014]],[[-87.83609,41.97976],[-87.83658,41.97977],[-87.83658,41.98044],[-87.83514,41.9805],[-87.83515,41.98088],[-87.83436,41.98085],[-87.83436,41.98116],[-87.83526,41.98115],[-87.83507,41.9825],[-87.83508,41.98268],[-87.8336,41.98268],[-87.83359,41.98358],[-87.83322,41.98358],[-87.83303,41.9838],[-87.82811,41.98387],[-87.82814,41.98193],[-87.82528,41.98197],[-87.82529,41.98308],[-87.82353,41.9831],[-87.82364,41.98214],[-87.82435,41.97669],[-87.82443,41.97605],[-87.82526,41.97606],[-87.83362,41.97592],[-87.83362,41.97622],[-87.83374,41.97641],[-87.83348,41.97704],[-87.83174,41.97714],[-87.8296,41.97706],[-87.82966,41.97734],[-87.83004,41.97733],[-87.83005,41.97806],[-87.82997,41.97813],[-87.82998,41.97853],[-87.82864,41.97856],[-87.8287,41.97912],[-87.82809,41.97914],[-87.82809,41.97929],[-87.8287,41.97929],[-87.82869,41.98026],[-87.82886,41.98033],[-87.82886,41.9806],[-87.83315,41.98053],[-87.83314,41.98021],[-87.83325,41.97981],[-87.83609,41.97976]]],[[[-87.93514,42.00089],[-87.93639,42.00086],[-87.9401,42.00079],[-87.94002,41.99814],[-87.93961,41.99817],[-87.93708,41.99859],[-87.93633,41.9996],[-87.9359,42.0001],[-87.93514,42.00089]]]]},"properties":{"board":"cps","num":"1a","lp":[-87.91239,41.98114]}},
{"type":"Feature","geometry":{"type":"Polygon","coordinates":[[[-87.78676,41.96466],[-87.78678,41.96347],[-87.78694,41.96337],[-87.78696,41.96312],[-87.78687,41.96256],[-87.78681,41.96022],[-87.78815,41.96018],[-87.7918,41.96012],[-87.7942,41.96006],[-87.79473,41.95987],[-87.80013,41.95728],[-87.80012,41.95711],[-87.8073,41.95368],[-87.80727,41.95276],[-87.80663,41.93452],[-87.80637,41.92714],[-87.79536,41.92725],[-87.79524,41.92361],[-87.78545,41.92369],[-87.77572,41.92383],[-87.77585,41.92749],[-87.77098,41.92757],[-87.77111,41.93122],[-87.76625,41.93129],[-87.76638,41.93494],[-87.76576,41.93494],[-87.76588,41.93813],[-87.76526,41.93814],[-87.76527,41.9386],[-87.7616,41.93865],[-87.76158,41.93819],[-87.75423,41.93828],[-87.75425,41.93874],[-87.7518,41.93877],[-87.752,41.94592],[-87.75203,41.94621],[-87.75211,41.94881],[-87.74974,41.94884],[-87.74977,41.94975],[-87.74658,41.94979],[-87.74657,41.94933],[-87.74463,41.94936],[-87.74454,41.94617],[-87.73963,41.94622],[-87.73563,41.94628],[-87.73216,41.94417],[-87.73218,41.94487],[-87.73124,41.94488],[-87.73124,41.94476],[-87.72736,41.94481],[-87.72735,41.94457],[-87.72393,41.94461],[-87.71955,41.94467],[-87.7183,41.94468],[-87.71817,41.94465],[-87.71761,41.94397],[-87.71753,41.94399],[-87.7175,41.94468],[-87.71756,41.94651],[-87.71763,41.94718],[-87.71777,41.95213],[-87.71797,41.95889],[-87.71805,41.96108],[-87.72293,41.96102],[-87.72292,41.96056],[-87.72415,41.96055],[-87.72416,41.961],[-87.72783,41.96096],[-87.72803,41.96825],[-87.72814,41.97189],[-87.72693,41.97191],[-87.72694,41.97236],[-87.72572,41.97237],[-87.72581,41.97557],[-87.72824,41.97554],[-87.7285,41.98492],[-87.7286,41.98915],[-87.72865,41.99014],[-87.73815,41.99002],[-87.73873,41.99007],[-87.74117,41.99005],[-87.74833,41.98994],[-87.74832,41.98574],[-87.74826,41.98339],[-87.74819,41.98167],[-87.74817,41.98052],[-87.74799,41.97502],[-87.74792,41.97246],[-87.74788,41.97031],[-87.74783,41.96941],[-87.74756,41.96854],[-87.74773,41.96804],[-87.73791,41.96814],[-87.73786,41.96655],[-87.73753,41.96632],[-87.73861,41.96631],[-87.73843,41.96084],[-87.74455,41.96076],[-87.74672,41.96203],[-87.74738,41.96244],[-87.74759,41.96224],[-87.74811,41.96254],[-87.74824,41.96255],[-87.75605,41.96245],[-87.75968,41.96664],[-87.75906,41.96682],[-87.75904,41.96691],[-87.75987,41.96789],[-87.76076,41.96789],[-87.76136,41.9676],[-87.76478,41.96781],[-87.76525,41.96782],[-87.76748,41.96779],[-87.7674,41.96505],[-87.77717,41.96492],[-87.77717,41.96479],[-87.78106,41.96473],[-87.78676,41.96466]]]},"properties":{"board":"cps","num":"1b","lp":[-87.78564,41.94241]}},
{"type":"Feature","geometry":{"type":"Polygon","coordinates":[[[-87.72581,41.97557],[-87.72036,41.97562],[-87.71599,41.97567],[-87.71599,41.97604],[-87.71616,41.9829],[-87.71618,41.98298],[-87.70933,41.98308],[-87.70402,41.98311],[-87.69674,41.98314],[-87.69672,41.98269],[-87.69532,41.98268],[-87.69465,41.98224],[-87.69428,41.98224],[-87.69442,41.98679],[-87.68955,41.98682],[-87.68968,41.99051],[-87.68819,41.99053],[-87.68052,41.99067],[-87.67505,41.99077],[-87.67514,41.99436],[-87.68239,41.99423],[-87.68258,41.99786],[-87.67684,41.99797],[-87.67977,42.00431],[-87.67892,42.00438],[-87.676,42.00443],[-87.67539,42.00434],[-87.6752,42.00438],[-87.67512,42.00165],[-87.67186,42.00171],[-87.67123,41.99994],[-87.67063,41.99808],[-87.66784,41.99812],[-87.65707,41.99824],[-87.65513,41.99824],[-87.655,41.9983],[-87.65513,41.99874],[-87.65536,41.99902],[-87.65569,41.9992],[-87.65582,41.9994],[-87.65589,42.00007],[-87.6561,42.00044],[-87.65635,42.00105],[-87.6562,42.00128],[-87.6569,42.0026],[-87.65698,42.0032],[-87.65724,42.00371],[-87.65729,42.00421],[-87.65682,42.00424],[-87.65697,42.00442],[-87.65731,42.00507],[-87.65742,42.00562],[-87.65739,42.00628],[-87.65584,42.00631],[-87.65535,42.00669],[-87.65646,42.00742],[-87.65674,42.00768],[-87.65698,42.008],[-87.65752,42.00845],[-87.65812,42.00905],[-87.65866,42.00954],[-87.65922,42.01024],[-87.66012,42.01098],[-87.66015,42.01124],[-87.66079,42.01175],[-87.66103,42.01205],[-87.661,42.01219],[-87.66133,42.01295],[-87.66162,42.01332],[-87.66156,42.01355],[-87.6621,42.0146],[-87.66254,42.01578],[-87.66268,42.01583],[-87.6628,42.01659],[-87.66315,42.01692],[-87.66314,42.01772],[-87.66327,42.01776],[-87.66332,42.01851],[-87.66372,42.01874],[-87.66398,42.01908],[-87.66388,42.01952],[-87.66408,42.02017],[-87.6638,42.02039],[-87.66405,42.02131],[-87.66419,42.02125],[-87.66453,42.02149],[-87.66472,42.02173],[-87.66467,42.02194],[-87.6648,42.02223],[-87.66505,42.02236],[-87.66527,42.02262],[-87.66513,42.02295],[-87.6707,42.02299],[-87.67265,42.023],[-87.67597,42.02298],[-87.677,42.02296],[-87.67624,42.02193],[-87.67312,42.01939],[-87.67708,42.01941],[-87.67728,42.01943],[-87.68024,42.01944],[-87.68485,42.01949],[-87.68629,42.01951],[-87.68999,42.01953],[-87.69209,42.01949],[-87.70213,42.01927],[-87.70414,42.01923],[-87.7045,42.01923],[-87.70867,42.01914],[-87.70878,42.01452],[-87.70903,42.01341],[-87.70909,42.01149],[-87.7092,42.01051],[-87.70937,42.0038],[-87.70937,42.00102],[-87.70935,41.9974],[-87.70945,41.99739],[-87.71395,41.99731],[-87.71909,41.99728],[-87.72903,41.99724],[-87.73256,41.99724],[-87.73256,41.99682],[-87.73135,41.99682],[-87.73133,41.99535],[-87.7289,41.99534],[-87.72889,41.9937],[-87.72517,41.99372],[-87.7252,41.99549],[-87.72248,41.9955],[-87.71659,41.99554],[-87.71642,41.99537],[-87.71534,41.9947],[-87.71521,41.99032],[-87.72865,41.99014],[-87.7286,41.98915],[-87.7285,41.98492],[-87.72824,41.97554],[-87.72581,41.97557]]]},"properties":{"board":"cps","num":"2a","lp":[-87.69492,42.0051]}},
{"type":"Feature","geometry":{"type":"Polygon","coordinates":[[[-87.65474,41.99461],[-87.65478,41.99497],[-87.65469,41.99531],[-87.65484,41.99546],[-87.65472,41.99638],[-87.65447,41.9965],[-87.65452,41.99728],[-87.65473,41.99729],[-87.65474,41.99815],[-87.65513,41.99824],[-87.65707,41.99824],[-87.66784,41.99812],[-87.67063,41.99808],[-87.67123,41.99994],[-87.67186,42.00171],[-87.67512,42.00165],[-87.6752,42.00438],[-87.67539,42.00434],[-87.676,42.00443],[-87.67892,42.00438],[-87.67977,42.00431],[-87.67684,41.99797],[-87.68258,41.99786],[-87.68239,41.99423],[-87.67514,41.99436],[-87.67505,41.99077],[-87.68052,41.99067],[-87.68819,41.99053],[-87.68968,41.99051],[-87.68955,41.98682],[-87.69442,41.98679],[-87.69428,41.98224],[-87.69465,41.98224],[-87.69532,41.98268],[-87.69672,41.98269],[-87.69674,41.98314],[-87.70402,41.98311],[-87.70933,41.98308],[-87.71618,41.98298],[-87.71616,41.9829],[-87.71599,41.97604],[-87.71599,41.97567],[-87.72036,41.97562],[-87.72581,41.97557],[-87.72572,41.97237],[-87.72694,41.97236],[-87.72693,41.97191],[-87.72814,41.97189],[-87.72803,41.96825],[-87.71337,41.96841],[-87.71326,41.96472],[-87.71289,41.96467],[-87.70836,41.96471],[-87.70813,41.95756],[-87.70369,41.95759],[-87.703,41.95758],[-87.69836,41.95761],[-87.69846,41.96119],[-87.69849,41.96126],[-87.69446,41.96128],[-87.68893,41.96132],[-87.68505,41.96137],[-87.68503,41.96092],[-87.68442,41.96093],[-87.6844,41.96001],[-87.68336,41.96002],[-87.68335,41.95957],[-87.68257,41.95958],[-87.68135,41.9596],[-87.68141,41.96143],[-87.67558,41.96151],[-87.66926,41.9616],[-87.66935,41.96524],[-87.65963,41.96538],[-87.65968,41.96842],[-87.65967,41.96889],[-87.65997,41.97998],[-87.65509,41.98006],[-87.65525,41.98561],[-87.65531,41.98737],[-87.65553,41.99461],[-87.65474,41.99461]]]},"properties":{"board":"cps","num":"2b","lp":[-87.6795,41.9761]}},
{"type":"Feature","geometry":{"type":"Polygon","coordinates":[[[-87.72803,41.96825],[-87.72783,41.96096],[-87.72416,41.961],[-87.72415,41.96055],[-87.72292,41.96056],[-87.72293,41.96102],[-87.71805,41.96108],[-87.71797,41.95889],[-87.71777,41.95213],[-87.71763,41.94718],[-87.71756,41.94651],[-87.7175,41.94468],[-87.71753,41.94399],[-87.71761,41.94397],[-87.71817,41.94465],[-87.7183,41.94468],[-87.71955,41.94467],[-87.72393,41.94461],[-87.72735,41.94457],[-87.72736,41.94481],[-87.73124,41.94476],[-87.73124,41.94488],[-87.73218,41.94487],[-87.73216,41.94417],[-87.73563,41.94628],[-87.73963,41.94622],[-87.74454,41.94617],[-87.74463,41.94936],[-87.74657,41.94933],[-87.74658,41.94979],[-87.74977,41.94975],[-87.74974,41.94884],[-87.75211,41.94881],[-87.75203,41.94621],[-87.752,41.94592],[-87.7518,41.93877],[-87.75425,41.93874],[-87.75423,41.93828],[-87.76158,41.93819],[-87.7616,41.93865],[-87.76527,41.9386],[-87.76526,41.93814],[-87.76588,41.93813],[-87.76576,41.93494],[-87.76638,41.93494],[-87.76625,41.93129],[-87.76624,41.93083],[-87.75886,41.93092],[-87.75875,41.92775],[-87.75568,41.9278],[-87.75558,41.92508],[-87.75372,41.9251],[-87.75369,41.92415],[-87.74411,41.92427],[-87.73821,41.92436],[-87.73682,41.92437],[-87.72898,41.92447],[-87.72585,41.9245],[-87.71333,41.92466],[-87.70618,41.92474],[-87.7006,41.92478],[-87.69376,41.92485],[-87.69376,41.92436],[-87.69277,41.9244],[-87.69202,41.92438],[-87.69202,41.92404],[-87.69148,41.92405],[-87.69149,41.92443],[-87.68994,41.92445],[-87.68993,41.92406],[-87.68762,41.92408],[-87.68765,41.92491],[-87.68279,41.92498],[-87.68337,41.92531],[-87.68279,41.92592],[-87.68093,41.92744],[-87.68725,41.93179],[-87.68791,41.93218],[-87.69038,41.93398],[-87.69125,41.93454],[-87.69525,41.93729],[-87.69529,41.93896],[-87.69528,41.93941],[-87.6929,41.93943],[-87.69367,41.94003],[-87.69503,41.94193],[-87.69547,41.94236],[-87.69562,41.94305],[-87.69649,41.9467],[-87.6959,41.94671],[-87.69613,41.9478],[-87.69633,41.94847],[-87.69647,41.94926],[-87.69652,41.94984],[-87.69649,41.95026],[-87.69635,41.9507],[-87.69556,41.95218],[-87.69431,41.95382],[-87.69421,41.954],[-87.6942,41.95489],[-87.69411,41.95606],[-87.6941,41.9569],[-87.69416,41.95782],[-87.69431,41.95908],[-87.69443,41.95985],[-87.69446,41.96128],[-87.69849,41.96126],[-87.69846,41.96119],[-87.69836,41.95761],[-87.703,41.95758],[-87.70369,41.95759],[-87.70813,41.95756],[-87.70836,41.96471],[-87.71289,41.96467],[-87.71326,41.96472],[-87.71337,41.96841],[-87.72803,41.96825]]]},"properties":{"board":"cps","num":"3a","lp":[-87.70738,41.9368]}},
{"type":"Feature","geometry":{"type":"Polygon","coordinates":[[[-87.76625,41.93129],[-87.77111,41.93122],[-87.77098,41.92757],[-87.77585,41.92749],[-87.77572,41.92383],[-87.77559,41.92007],[-87.77494,41.91995],[-87.77437,41.91995],[-87.77437,41.91985],[-87.77374,41.91972],[-87.77315,41.91973],[-87.77314,41.91962],[-87.7725,41.9195],[-87.77192,41.91951],[-87.77191,41.91939],[-87.77127,41.91927],[-87.77069,41.91928],[-87.77056,41.91915],[-87.767,41.9185],[-87.76695,41.91688],[-87.7668,41.91676],[-87.76508,41.91663],[-87.76404,41.91659],[-87.76308,41.91652],[-87.75943,41.91612],[-87.7578,41.91596],[-87.75286,41.91533],[-87.74937,41.91492],[-87.74858,41.91481],[-87.74565,41.91446],[-87.74,41.91376],[-87.7382,41.91358],[-87.73623,41.91353],[-87.73614,41.91065],[-87.7362,41.91004],[-87.7351,41.9096],[-87.7351,41.90909],[-87.73502,41.90616],[-87.73385,41.90617],[-87.73378,41.90602],[-87.73358,41.8989],[-87.72558,41.89904],[-87.72549,41.89586],[-87.72243,41.89589],[-87.72242,41.89541],[-87.70186,41.89561],[-87.70056,41.89563],[-87.6973,41.89566],[-87.69605,41.89566],[-87.69219,41.8957],[-87.69178,41.89571],[-87.69196,41.90298],[-87.68826,41.90301],[-87.68828,41.90377],[-87.68767,41.9038],[-87.68768,41.90454],[-87.6878,41.90849],[-87.68783,41.90982],[-87.68844,41.90982],[-87.68846,41.91081],[-87.68724,41.91083],[-87.68727,41.91214],[-87.68971,41.91212],[-87.68986,41.91756],[-87.68742,41.91758],[-87.68758,41.92263],[-87.68762,41.92408],[-87.68993,41.92406],[-87.68994,41.92445],[-87.69149,41.92443],[-87.69148,41.92405],[-87.69202,41.92404],[-87.69202,41.92438],[-87.69277,41.9244],[-87.69376,41.92436],[-87.69376,41.92485],[-87.7006,41.92478],[-87.70618,41.92474],[-87.71333,41.92466],[-87.72585,41.9245],[-87.72898,41.92447],[-87.73682,41.92437],[-87.73821,41.92436],[-87.74411,41.92427],[-87.75369,41.92415],[-87.75372,41.9251],[-87.75558,41.92508],[-87.75568,41.9278],[-87.75875,41.92775],[-87.75886,41.93092],[-87.76624,41.93083],[-87.76625,41.93129]]]},"properties":{"board":"cps","num":"3b","lp":[-87.71476,41.91006]}},
{"type":"Feature","geometry":{"type":"Polygon","coordinates":[[[-87.64108,41.95485],[-87.6414,41.95596],[-87.64156,41.9575],[-87.64175,41.95836],[-87.64168,41.95943],[-87.64154,41.96015],[-87.6416,41.96035],[-87.6422,41.96096],[-87.64233,41.96121],[-87.64223,41.96173],[-87.64181,41.96218],[-87.64142,41.96232],[-87.64043,41.96246],[-87.6395,41.96255],[-87.63685,41.96288],[-87.63592,41.96284],[-87.63551,41.96261],[-87.63533,41.96231],[-87.63535,41.96204],[-87.63583,41.96138],[-87.63639,41.96094],[-87.63677,41.96073],[-87.63764,41.9604],[-87.63847,41.96028],[-87.63882,41.96029],[-87.63932,41.9604],[-87.64008,41.96079],[-87.6404,41.96087],[-87.64074,41.96079],[-87.64094,41.96039],[-87.64076,41.96003],[-87.6403,41.95981],[-87.63903,41.95954],[-87.63852,41.95948],[-87.63753,41.9595],[-87.63653,41.95976],[-87.63591,41.96006],[-87.63559,41.96029],[-87.63443,41.96136],[-87.63405,41.96159],[-87.63289,41.9621],[-87.63237,41.96237],[-87.63184,41.96259],[-87.63147,41.96293],[-87.6314,41.96314],[-87.6315,41.96354],[-87.63176,41.9642],[-87.63199,41.96507],[-87.6328,41.96531],[-87.63497,41.96537],[-87.63644,41.96553],[-87.63722,41.9657],[-87.63921,41.96621],[-87.6405,41.96688],[-87.64168,41.96762],[-87.64258,41.96828],[-87.6428,41.96805],[-87.64297,41.96806],[-87.64327,41.96831],[-87.64299,41.96861],[-87.64367,41.96924],[-87.64424,41.96983],[-87.64503,41.9708],[-87.64557,41.97166],[-87.64601,41.9725],[-87.64618,41.97298],[-87.64632,41.97359],[-87.64632,41.97532],[-87.64649,41.97713],[-87.64678,41.97746],[-87.64722,41.9777],[-87.64754,41.97778],[-87.6486,41.97784],[-87.64877,41.97815],[-87.64988,41.97901],[-87.65019,41.97932],[-87.65048,41.97946],[-87.65023,41.97973],[-87.65063,41.98044],[-87.6507,41.98098],[-87.65075,41.98241],[-87.65069,41.98327],[-87.65048,41.98413],[-87.65013,41.98495],[-87.65083,41.98567],[-87.65106,41.98576],[-87.65159,41.98614],[-87.65226,41.98669],[-87.65368,41.9877],[-87.65431,41.98841],[-87.65423,41.98853],[-87.6542,41.98946],[-87.65424,41.98982],[-87.65438,41.99012],[-87.65439,41.99101],[-87.65425,41.99208],[-87.65425,41.99257],[-87.65437,41.99272],[-87.65475,41.99286],[-87.65479,41.99338],[-87.65459,41.99396],[-87.65444,41.9941],[-87.65448,41.99439],[-87.65474,41.99461],[-87.65553,41.99461],[-87.65531,41.98737],[-87.65525,41.98561],[-87.65509,41.98006],[-87.65997,41.97998],[-87.65967,41.96889],[-87.65968,41.96842],[-87.65963,41.96538],[-87.66935,41.96524],[-87.66926,41.9616],[-87.67558,41.96151],[-87.68141,41.96143],[-87.68135,41.9596],[-87.68257,41.95958],[-87.67876,41.95417],[-87.68119,41.95414],[-87.68088,41.9432],[-87.67391,41.94328],[-87.66877,41.94335],[-87.66874,41.94243],[-87.66581,41.94249],[-87.66148,41.94255],[-87.66145,41.94163],[-87.6566,41.94171],[-87.65654,41.93988],[-87.65533,41.9399],[-87.65527,41.93808],[-87.65405,41.9381],[-87.65386,41.93265],[-87.64998,41.93271],[-87.64135,41.93288],[-87.63933,41.93293],[-87.63935,41.93435],[-87.63938,41.93498],[-87.63951,41.9389],[-87.63955,41.93986],[-87.63958,41.94121],[-87.63947,41.94148],[-87.63971,41.94229],[-87.6403,41.94339],[-87.64482,41.94333],[-87.64575,41.94485],[-87.64404,41.94543],[-87.64443,41.94609],[-87.64238,41.94678],[-87.64335,41.94846],[-87.64471,41.9507],[-87.64499,41.95149],[-87.64504,41.95236],[-87.64785,41.95165],[-87.6479,41.95286],[-87.64656,41.95294],[-87.64664,41.95393],[-87.64665,41.95462],[-87.64419,41.95467],[-87.64108,41.95485]]]},"properties":{"board":"cps","num":"4a","lp":[-87.65952,41.95383]}},
{"type":"Feature","geometry":{"type":"Polygon","coordinates":[[[-87.68257,41.95958],[-87.68335,41.95957],[-87.68336,41.96002],[-87.6844,41.96001],[-87.68442,41.96093],[-87.68503,41.96092],[-87.68505,41.96137],[-87.68893,41.96132],[-87.69446,41.96128],[-87.69443,41.95985],[-87.69431,41.95908],[-87.69416,41.95782],[-87.6941,41.9569],[-87.69411,41.95606],[-87.6942,41.95489],[-87.69421,41.954],[-87.69431,41.95382],[-87.69556,41.95218],[-87.69635,41.9507],[-87.69649,41.95026],[-87.69652,41.94984],[-87.69647,41.94926],[-87.69633,41.94847],[-87.69613,41.9478],[-87.6959,41.94671],[-87.69649,41.9467],[-87.69562,41.94305],[-87.69547,41.94236],[-87.69503,41.94193],[-87.69367,41.94003],[-87.6929,41.93943],[-87.69528,41.93941],[-87.69529,41.93896],[-87.69525,41.93729],[-87.69125,41.93454],[-87.69038,41.93398],[-87.68791,41.93218],[-87.68725,41.93179],[-87.68093,41.92744],[-87.68279,41.92592],[-87.68337,41.92531],[-87.68279,41.92498],[-87.68765,41.92491],[-87.68762,41.92408],[-87.68758,41.92263],[-87.67984,41.92272],[-87.67908,41.92234],[-87.67902,41.92219],[-87.67899,41.92138],[-87.67776,41.92141],[-87.67761,41.91731],[-87.6775,41.91176],[-87.67747,41.91048],[-87.67686,41.9105],[-87.67258,41.91057],[-87.66251,41.91071],[-87.65938,41.91077],[-87.65583,41.9108],[-87.64852,41.91092],[-87.64499,41.91098],[-87.64362,41.91101],[-87.64307,41.91105],[-87.64258,41.91099],[-87.63813,41.91105],[-87.63667,41.91109],[-87.63471,41.91111],[-87.63472,41.91117],[-87.63198,41.91117],[-87.63139,41.91121],[-87.63021,41.91121],[-87.63016,41.90947],[-87.62884,41.90949],[-87.62879,41.90781],[-87.62774,41.90782],[-87.62754,41.90698],[-87.62748,41.9065],[-87.62709,41.90489],[-87.6251,41.90492],[-87.6253,41.90587],[-87.6245,41.90592],[-87.62467,41.90657],[-87.62509,41.9091],[-87.62528,41.9096],[-87.62522,41.91001],[-87.62504,41.91039],[-87.6248,41.91062],[-87.62469,41.91087],[-87.62466,41.91142],[-87.62329,41.91247],[-87.62263,41.91279],[-87.62209,41.9129],[-87.62159,41.91293],[-87.62105,41.91306],[-87.62072,41.91321],[-87.62049,41.91358],[-87.62059,41.91379],[-87.62109,41.9136],[-87.62173,41.91353],[-87.62243,41.91357],[-87.62327,41.91381],[-87.62402,41.91418],[-87.62482,41.9147],[-87.62525,41.91503],[-87.62629,41.91576],[-87.62681,41.91629],[-87.62672,41.91645],[-87.62758,41.91721],[-87.62791,41.9176],[-87.62748,41.91788],[-87.62779,41.91833],[-87.62852,41.91917],[-87.62807,41.91941],[-87.62896,41.92066],[-87.62897,41.92079],[-87.62856,41.92101],[-87.62943,41.92229],[-87.62949,41.92244],[-87.629,41.92275],[-87.6299,41.92348],[-87.63008,41.92404],[-87.63019,41.92468],[-87.63027,41.92575],[-87.62988,41.92616],[-87.62961,41.92634],[-87.62961,41.92667],[-87.62987,41.92716],[-87.63052,41.92786],[-87.63092,41.92866],[-87.63109,41.9292],[-87.63116,41.93038],[-87.63103,41.93102],[-87.63077,41.932],[-87.63109,41.93232],[-87.63128,41.93242],[-87.63182,41.93244],[-87.6314,41.93269],[-87.63138,41.93297],[-87.63112,41.93298],[-87.63075,41.93311],[-87.63058,41.93327],[-87.63058,41.93365],[-87.63172,41.93519],[-87.6321,41.93584],[-87.63229,41.93691],[-87.63241,41.93719],[-87.63277,41.93765],[-87.63344,41.93874],[-87.63377,41.93949],[-87.63402,41.94036],[-87.63395,41.94128],[-87.63419,41.94152],[-87.63445,41.94159],[-87.6347,41.94141],[-87.63478,41.94069],[-87.63499,41.94015],[-87.6355,41.93971],[-87.63584,41.93978],[-87.63682,41.93976],[-87.63673,41.94023],[-87.63695,41.94026],[-87.63712,41.93983],[-87.63754,41.94028],[-87.63826,41.94114],[-87.6384,41.94143],[-87.63843,41.94212],[-87.63851,41.94251],[-87.63885,41.94311],[-87.63933,41.94352],[-87.63959,41.9436],[-87.64046,41.94483],[-87.64041,41.94524],[-87.6402,41.94529],[-87.6402,41.94552],[-87.64003,41.94591],[-87.64064,41.94646],[-87.64136,41.94704],[-87.64189,41.94753],[-87.64213,41.94786],[-87.64187,41.948],[-87.64143,41.94781],[-87.64103,41.94755],[-87.64027,41.9467],[-87.64026,41.94652],[-87.63964,41.94633],[-87.63889,41.94631],[-87.6387,41.9462],[-87.63742,41.94582],[-87.63731,41.94575],[-87.63682,41.94505],[-87.63696,41.9449],[-87.63618,41.94324],[-87.6359,41.94297],[-87.63548,41.9429],[-87.63469,41.94321],[-87.63427,41.94311],[-87.63406,41.94291],[-87.63388,41.94239],[-87.63356,41.94217],[-87.6333,41.94239],[-87.63345,41.94278],[-87.63376,41.94315],[-87.63454,41.94378],[-87.63521,41.94442],[-87.63602,41.94523],[-87.63683,41.9461],[-87.63775,41.9473],[-87.63816,41.94808],[-87.63885,41.94948],[-87.63891,41.94967],[-87.63993,41.95177],[-87.64008,41.95224],[-87.64056,41.95328],[-87.64108,41.95485],[-87.64419,41.95467],[-87.64665,41.95462],[-87.64664,41.95393],[-87.64656,41.95294],[-87.6479,41.95286],[-87.64785,41.95165],[-87.64504,41.95236],[-87.64499,41.95149],[-87.64471,41.9507],[-87.64335,41.94846],[-87.64238,41.94678],[-87.64443,41.94609],[-87.64404,41.94543],[-87.64575,41.94485],[-87.64482,41.94333],[-87.6403,41.94339],[-87.63971,41.94229],[-87.63947,41.94148],[-87.63958,41.94121],[-87.63955,41.93986],[-87.63951,41.9389],[-87.63938,41.93498],[-87.63935,41.93435],[-87.63933,41.93293],[-87.64135,41.93288],[-87.64998,41.93271],[-87.65386,41.93265],[-87.65405,41.9381],[-87.65527,41.93808],[-87.65533,41.9399],[-87.65654,41.93988],[-87.6566,41.94171],[-87.66145,41.94163],[-87.66148,41.94255],[-87.66581,41.94249],[-87.66874,41.94243],[-87.66877,41.94335],[-87.67391,41.94328],[-87.68088,41.9432],[-87.68119,41.95414],[-87.67876,41.95417],[-87.68257,41.95958]]]},"properties":{"board":"cps","num":"4b","lp":[-87.66452,41.9243]}},
{"type":"Feature","geometry":{"type":"Polygon","coordinates":[[[-87.77572,41.92383],[-87.78545,41.92369],[-87.79524,41.92361],[-87.79536,41.92725],[-87.80637,41.92714],[-87.80627,41.92464],[-87.80589,41.91237],[-87.80575,41.90891],[-87.80395,41.90895],[-87.80274,41.90893],[-87.78967,41.9091],[-87.78242,41.90919],[-87.78194,41.90918],[-87.77561,41.90926],[-87.77542,41.90384],[-87.77516,41.89549],[-87.77498,41.89025],[-87.77463,41.87943],[-87.7745,41.87559],[-87.77442,41.873],[-87.77434,41.87136],[-87.77428,41.87073],[-87.77427,41.86925],[-87.77417,41.86673],[-87.77414,41.86547],[-87.76456,41.8656],[-87.764,41.86562],[-87.75184,41.8658],[-87.74476,41.86591],[-87.73994,41.86597],[-87.73996,41.86834],[-87.74006,41.87053],[-87.74009,41.872],[-87.74013,41.87326],[-87.7394,41.87327],[-87.73952,41.87692],[-87.74027,41.87691],[-87.74033,41.87942],[-87.74038,41.88056],[-87.74009,41.88057],[-87.74016,41.88201],[-87.74017,41.88254],[-87.74029,41.88611],[-87.7403,41.88737],[-87.7402,41.88762],[-87.73522,41.88768],[-87.72641,41.88779],[-87.72587,41.88778],[-87.72598,41.8917],[-87.72119,41.89175],[-87.72093,41.89174],[-87.71606,41.89181],[-87.71158,41.89185],[-87.70201,41.89195],[-87.70194,41.89077],[-87.70155,41.8898],[-87.70145,41.88928],[-87.70142,41.88824],[-87.69894,41.88826],[-87.69671,41.88832],[-87.69148,41.88838],[-87.6871,41.88842],[-87.68663,41.88842],[-87.68649,41.88863],[-87.686,41.88858],[-87.68419,41.88861],[-87.68424,41.8903],[-87.6818,41.89034],[-87.68195,41.89584],[-87.67951,41.89588],[-87.67953,41.8968],[-87.67708,41.89684],[-87.67711,41.89774],[-87.67467,41.89778],[-87.67464,41.89687],[-87.67221,41.89692],[-87.67222,41.89726],[-87.671,41.89728],[-87.67117,41.90329],[-87.67513,41.90323],[-87.68215,41.90312],[-87.68728,41.90302],[-87.68826,41.90301],[-87.69196,41.90298],[-87.69178,41.89571],[-87.69219,41.8957],[-87.69605,41.89566],[-87.6973,41.89566],[-87.70056,41.89563],[-87.70186,41.89561],[-87.72242,41.89541],[-87.72243,41.89589],[-87.72549,41.89586],[-87.72558,41.89904],[-87.73358,41.8989],[-87.73378,41.90602],[-87.73385,41.90617],[-87.73502,41.90616],[-87.7351,41.90909],[-87.7351,41.9096],[-87.7362,41.91004],[-87.73614,41.91065],[-87.73623,41.91353],[-87.7382,41.91358],[-87.74,41.91376],[-87.74565,41.91446],[-87.74858,41.91481],[-87.74937,41.91492],[-87.75286,41.91533],[-87.7578,41.91596],[-87.75943,41.91612],[-87.76308,41.91652],[-87.76404,41.91659],[-87.76508,41.91663],[-87.7668,41.91676],[-87.76695,41.91688],[-87.767,41.9185],[-87.77056,41.91915],[-87.77069,41.91928],[-87.77127,41.91927],[-87.77191,41.91939],[-87.77192,41.91951],[-87.7725,41.9195],[-87.77314,41.91962],[-87.77315,41.91973],[-87.77374,41.91972],[-87.77437,41.91985],[-87.77437,41.91995],[-87.77494,41.91995],[-87.77559,41.92007],[-87.77572,41.92383]]]},"properties":{"board":"cps","num":"5a","lp":[-87.75653,41.89675]}},
{"type":"Feature","geometry":{"type":"Polygon","coordinates":[[[-87.64148,41.8914],[-87.64308,41.89126],[-87.64719,41.89119],[-87.65082,41.89116],[-87.65225,41.89214],[-87.65421,41.89354],[-87.65517,41.89416],[-87.65702,41.89544],[-87.65735,41.8957],[-87.65752,41.89624],[-87.65789,41.89623],[-87.65842,41.89671],[-87.65871,41.8971],[-87.65898,41.89758],[-87.65938,41.8984],[-87.66008,41.89994],[-87.66048,41.8999],[-87.66057,41.89959],[-87.66374,41.9016],[-87.66745,41.90153],[-87.6675,41.90335],[-87.67117,41.90329],[-87.671,41.89728],[-87.67222,41.89726],[-87.67221,41.89692],[-87.67464,41.89687],[-87.67467,41.89778],[-87.67711,41.89774],[-87.67708,41.89684],[-87.67953,41.8968],[-87.67951,41.89588],[-87.68195,41.89584],[-87.6818,41.89034],[-87.68424,41.8903],[-87.68419,41.88861],[-87.686,41.88858],[-87.68649,41.88863],[-87.68663,41.88842],[-87.6871,41.88842],[-87.69148,41.88838],[-87.69671,41.88832],[-87.69894,41.88826],[-87.70142,41.88824],[-87.70145,41.88928],[-87.70155,41.8898],[-87.70194,41.89077],[-87.70201,41.89195],[-87.71158,41.89185],[-87.71606,41.89181],[-87.72093,41.89174],[-87.72119,41.89175],[-87.72598,41.8917],[-87.72587,41.88778],[-87.72641,41.88779],[-87.73522,41.88768],[-87.7402,41.88762],[-87.7403,41.88737],[-87.74029,41.88611],[-87.74017,41.88254],[-87.74016,41.88201],[-87.74009,41.88057],[-87.74038,41.88056],[-87.74033,41.87942],[-87.74027,41.87691],[-87.73952,41.87692],[-87.7394,41.87327],[-87.74013,41.87326],[-87.74009,41.872],[-87.74006,41.87053],[-87.73996,41.86834],[-87.73994,41.86597],[-87.73987,41.86413],[-87.73984,41.86235],[-87.73985,41.86143],[-87.73977,41.85865],[-87.73963,41.85482],[-87.73952,41.85318],[-87.73943,41.85136],[-87.73936,41.85044],[-87.73923,41.84599],[-87.7392,41.84548],[-87.73283,41.84692],[-87.73112,41.84732],[-87.72622,41.84841],[-87.72469,41.84878],[-87.72227,41.84932],[-87.72224,41.84958],[-87.72229,41.85155],[-87.72111,41.8516],[-87.71257,41.8517],[-87.71115,41.852],[-87.71121,41.85356],[-87.71111,41.85355],[-87.70653,41.85359],[-87.70519,41.85359],[-87.70367,41.85363],[-87.70288,41.85381],[-87.70293,41.85546],[-87.69575,41.85557],[-87.69557,41.85556],[-87.69556,41.85525],[-87.69313,41.85579],[-87.6907,41.85636],[-87.68727,41.85713],[-87.68584,41.85765],[-87.68581,41.85812],[-87.68585,41.85974],[-87.68604,41.86662],[-87.68045,41.8667],[-87.67626,41.86676],[-87.67632,41.86911],[-87.67597,41.86912],[-87.67604,41.87149],[-87.67639,41.87149],[-87.6765,41.87538],[-87.67341,41.87544],[-87.67325,41.87543],[-87.67267,41.87591],[-87.67095,41.87594],[-87.66975,41.876],[-87.66656,41.87605],[-87.66656,41.87579],[-87.66184,41.87586],[-87.66186,41.87645],[-87.65442,41.87657],[-87.64546,41.8767],[-87.64554,41.8776],[-87.64554,41.87807],[-87.64547,41.87925],[-87.64547,41.87998],[-87.64554,41.88181],[-87.6412,41.88187],[-87.64134,41.88682],[-87.6399,41.88683],[-87.63995,41.88745],[-87.63998,41.88906],[-87.63969,41.88906],[-87.63982,41.88936],[-87.64018,41.88964],[-87.64073,41.89019],[-87.64113,41.89076],[-87.64148,41.8914]]]},"properties":{"board":"cps","num":"5b","lp":[-87.71393,41.87255]}},
{"type":"Feature","geometry":{"type":"Polygon","coordinates":[[[-87.67117,41.90329],[-87.6675,41.90335],[-87.66745,41.90153],[-87.66374,41.9016],[-87.66057,41.89959],[-87.66048,41.8999],[-87.66008,41.89994],[-87.65938,41.8984],[-87.65898,41.89758],[-87.65871,41.8971],[-87.65842,41.89671],[-87.65789,41.89623],[-87.65752,41.89624],[-87.65735,41.8957],[-87.65702,41.89544],[-87.65517,41.89416],[-87.65421,41.89354],[-87.65225,41.89214],[-87.65082,41.89116],[-87.64719,41.89119],[-87.64308,41.89126],[-87.64148,41.8914],[-87.6396,41.89152],[-87.63558,41.89158],[-87.63556,41.89077],[-87.63405,41.89079],[-87.63403,41.88932],[-87.634,41.88901],[-87.63398,41.88752],[-87.62801,41.88751],[-87.62698,41.88799],[-87.62674,41.88781],[-87.62645,41.88719],[-87.62635,41.88684],[-87.62454,41.88682],[-87.62456,41.88778],[-87.62452,41.88821],[-87.62299,41.88819],[-87.62236,41.88812],[-87.62154,41.88795],[-87.62003,41.88773],[-87.61758,41.88756],[-87.61756,41.88586],[-87.6175,41.88551],[-87.61746,41.88454],[-87.61591,41.88456],[-87.6158,41.88448],[-87.61426,41.88454],[-87.61436,41.88439],[-87.61275,41.88439],[-87.61273,41.88793],[-87.61344,41.8879],[-87.61392,41.88809],[-87.61392,41.88884],[-87.61266,41.88907],[-87.6125,41.88914],[-87.61267,41.89017],[-87.61423,41.89022],[-87.61423,41.89055],[-87.61155,41.89056],[-87.61151,41.89002],[-87.61129,41.88923],[-87.60951,41.88925],[-87.60954,41.89101],[-87.60093,41.89115],[-87.60091,41.89138],[-87.60057,41.89142],[-87.59857,41.89145],[-87.59855,41.89219],[-87.60979,41.89207],[-87.60982,41.89315],[-87.60558,41.89321],[-87.60236,41.89329],[-87.60231,41.89392],[-87.60231,41.89467],[-87.60237,41.89634],[-87.60496,41.89633],[-87.60528,41.89624],[-87.60587,41.8963],[-87.60655,41.89628],[-87.6069,41.89622],[-87.60796,41.89619],[-87.60797,41.89627],[-87.60858,41.89627],[-87.6102,41.89619],[-87.61203,41.89333],[-87.61218,41.89334],[-87.61254,41.89312],[-87.61367,41.8931],[-87.61491,41.89467],[-87.61598,41.89628],[-87.61707,41.89787],[-87.61725,41.89808],[-87.61766,41.89877],[-87.61904,41.90086],[-87.6193,41.90116],[-87.61967,41.90143],[-87.62013,41.9016],[-87.6219,41.90173],[-87.62261,41.90186],[-87.62267,41.90193],[-87.62253,41.90241],[-87.62272,41.90291],[-87.62299,41.90322],[-87.62403,41.90403],[-87.62427,41.9049],[-87.6245,41.90592],[-87.6253,41.90587],[-87.6251,41.90492],[-87.62709,41.90489],[-87.62748,41.9065],[-87.62754,41.90698],[-87.62774,41.90782],[-87.62879,41.90781],[-87.62884,41.90949],[-87.63016,41.90947],[-87.63021,41.91121],[-87.63139,41.91121],[-87.63198,41.91117],[-87.63472,41.91117],[-87.63471,41.91111],[-87.63667,41.91109],[-87.63813,41.91105],[-87.64258,41.91099],[-87.64307,41.91105],[-87.64362,41.91101],[-87.64499,41.91098],[-87.64852,41.91092],[-87.65583,41.9108],[-87.65938,41.91077],[-87.66251,41.91071],[-87.67258,41.91057],[-87.67686,41.9105],[-87.67747,41.91048],[-87.6775,41.91176],[-87.67761,41.91731],[-87.67776,41.92141],[-87.67899,41.92138],[-87.67902,41.92219],[-87.67908,41.92234],[-87.67984,41.92272],[-87.68758,41.92263],[-87.68742,41.91758],[-87.68986,41.91756],[-87.68971,41.91212],[-87.68727,41.91214],[-87.68724,41.91083],[-87.68846,41.91081],[-87.68844,41.90982],[-87.68783,41.90982],[-87.6878,41.90849],[-87.68768,41.90454],[-87.68767,41.9038],[-87.68828,41.90377],[-87.68826,41.90301],[-87.68728,41.90302],[-87.68215,41.90312],[-87.67513,41.90323],[-87.67117,41.90329]]]},"properties":{"board":"cps","num":"6a","lp":[-87.64741,41.90106]}},
{"type":"Feature","geometry":{"type":"Polygon","coordinates":[[[-87.63857,41.8819],[-87.63059,41.88199],[-87.62808,41.88202],[-87.6276,41.88207],[-87.62622,41.88209],[-87.62609,41.87825],[-87.62606,41.87698],[-87.62422,41.87701],[-87.62421,41.87657],[-87.62436,41.87657],[-87.62432,41.87446],[-87.62417,41.87434],[-87.62414,41.87317],[-87.62428,41.87317],[-87.62423,41.8706],[-87.62407,41.8706],[-87.62406,41.87008],[-87.62421,41.87008],[-87.62416,41.86755],[-87.62553,41.8675],[-87.62734,41.86749],[-87.62733,41.86656],[-87.62724,41.86242],[-87.6265,41.86243],[-87.62648,41.8608],[-87.62568,41.86082],[-87.62567,41.86022],[-87.62645,41.86021],[-87.62645,41.85779],[-87.62642,41.85547],[-87.62633,41.85108],[-87.62637,41.84926],[-87.62621,41.84743],[-87.62621,41.84696],[-87.62627,41.84561],[-87.62622,41.84336],[-87.62622,41.84197],[-87.62608,41.83956],[-87.62661,41.83956],[-87.6265,41.83504],[-87.62651,41.83467],[-87.62669,41.83468],[-87.62665,41.83102],[-87.63151,41.83095],[-87.63147,41.82907],[-87.63267,41.82904],[-87.63263,41.82729],[-87.63638,41.82724],[-87.63636,41.82542],[-87.63636,41.82359],[-87.63616,41.82184],[-87.63606,41.81906],[-87.63598,41.8157],[-87.63599,41.81479],[-87.63594,41.81395],[-87.63595,41.81173],[-87.63584,41.80905],[-87.63563,41.80178],[-87.63556,41.79981],[-87.63536,41.79461],[-87.63536,41.79413],[-87.63786,41.79409],[-87.63767,41.78737],[-87.63757,41.78334],[-87.63749,41.78034],[-87.63752,41.77914],[-87.63691,41.77916],[-87.63684,41.77622],[-87.63736,41.77621],[-87.6369,41.77582],[-87.63683,41.77311],[-87.63691,41.77295],[-87.63733,41.77251],[-87.63734,41.77232],[-87.63725,41.76896],[-87.63846,41.76894],[-87.63837,41.76575],[-87.63832,41.76503],[-87.63828,41.76348],[-87.63492,41.76354],[-87.63449,41.76353],[-87.63444,41.76343],[-87.63462,41.763],[-87.63454,41.75991],[-87.63052,41.75997],[-87.62965,41.75989],[-87.62962,41.75823],[-87.62964,41.7581],[-87.6296,41.75634],[-87.62762,41.75637],[-87.62633,41.75636],[-87.62455,41.75646],[-87.62366,41.75644],[-87.61989,41.75651],[-87.61997,41.76015],[-87.61517,41.76024],[-87.60545,41.76041],[-87.60553,41.76361],[-87.60556,41.76542],[-87.60561,41.76618],[-87.60577,41.77315],[-87.59605,41.77324],[-87.59608,41.77506],[-87.59621,41.78053],[-87.60431,41.78044],[-87.60594,41.78042],[-87.60604,41.78525],[-87.60605,41.78642],[-87.60121,41.78648],[-87.60123,41.78776],[-87.59638,41.78781],[-87.59658,41.79655],[-87.59734,41.79654],[-87.5974,41.79946],[-87.59975,41.79943],[-87.59981,41.80234],[-87.60421,41.80229],[-87.60426,41.8041],[-87.60645,41.80409],[-87.60655,41.80845],[-87.60668,41.81464],[-87.60669,41.815],[-87.6128,41.8149],[-87.61286,41.81671],[-87.6141,41.81669],[-87.6141,41.81676],[-87.61342,41.82029],[-87.61263,41.8239],[-87.61437,41.82388],[-87.61445,41.82746],[-87.61442,41.82759],[-87.61449,41.83126],[-87.61697,41.83123],[-87.617,41.83305],[-87.61702,41.83362],[-87.61622,41.83364],[-87.61625,41.83466],[-87.61705,41.83466],[-87.61708,41.83661],[-87.61713,41.83843],[-87.61714,41.83944],[-87.6173,41.84568],[-87.6166,41.84565],[-87.61624,41.84521],[-87.61601,41.8451],[-87.61489,41.84512],[-87.61481,41.84509],[-87.61386,41.84517],[-87.6136,41.84515],[-87.6114,41.84525],[-87.6088,41.84526],[-87.60852,41.84581],[-87.60859,41.84641],[-87.60931,41.84755],[-87.60949,41.84807],[-87.60954,41.8487],[-87.6092,41.85042],[-87.60926,41.85096],[-87.61,41.85203],[-87.61059,41.85284],[-87.61082,41.85333],[-87.61096,41.85384],[-87.61104,41.85458],[-87.61112,41.8548],[-87.61149,41.8552],[-87.61224,41.85566],[-87.61263,41.856],[-87.61285,41.85636],[-87.61304,41.85696],[-87.61304,41.85761],[-87.61284,41.85819],[-87.61254,41.85849],[-87.61227,41.85851],[-87.61217,41.85867],[-87.6122,41.85927],[-87.61244,41.85999],[-87.61215,41.86035],[-87.6122,41.86063],[-87.61255,41.86082],[-87.61265,41.86137],[-87.61295,41.8618],[-87.61326,41.86238],[-87.61343,41.86285],[-87.61342,41.86346],[-87.61329,41.864],[-87.61304,41.86466],[-87.61274,41.86529],[-87.61267,41.86584],[-87.61048,41.86586],[-87.61037,41.86532],[-87.60996,41.86463],[-87.60974,41.86409],[-87.60965,41.86351],[-87.60978,41.86249],[-87.61004,41.8618],[-87.61036,41.8614],[-87.61035,41.86085],[-87.61067,41.86065],[-87.61067,41.86021],[-87.61043,41.86008],[-87.61036,41.85975],[-87.61048,41.85931],[-87.61007,41.85895],[-87.60988,41.85859],[-87.60999,41.85803],[-87.60992,41.85766],[-87.60977,41.85738],[-87.60934,41.85687],[-87.60945,41.85641],[-87.60992,41.85398],[-87.60985,41.85366],[-87.60968,41.85347],[-87.60932,41.85326],[-87.60876,41.85317],[-87.6075,41.85327],[-87.6066,41.85341],[-87.60674,41.85547],[-87.60709,41.85997],[-87.60684,41.86006],[-87.60597,41.86008],[-87.60602,41.86196],[-87.60634,41.8619],[-87.60698,41.86241],[-87.60753,41.86385],[-87.60757,41.86436],[-87.6073,41.86487],[-87.60699,41.86513],[-87.60667,41.86523],[-87.60608,41.86479],[-87.60608,41.86561],[-87.60573,41.86603],[-87.60563,41.8664],[-87.60585,41.86685],[-87.6064,41.86715],[-87.60691,41.86718],[-87.60739,41.86706],[-87.60776,41.86677],[-87.61241,41.8667],[-87.61269,41.86675],[-87.61269,41.86697],[-87.61249,41.86717],[-87.61234,41.86751],[-87.61242,41.86794],[-87.6126,41.86818],[-87.61296,41.86839],[-87.61367,41.86843],[-87.61402,41.86836],[-87.61467,41.86834],[-87.61478,41.86825],[-87.61536,41.86825],[-87.6157,41.86862],[-87.61626,41.86891],[-87.61635,41.87187],[-87.6162,41.87199],[-87.61624,41.87377],[-87.61618,41.87529],[-87.61626,41.87726],[-87.61634,41.87783],[-87.61637,41.87978],[-87.61646,41.87978],[-87.61648,41.88056],[-87.61572,41.88059],[-87.61577,41.88142],[-87.6165,41.88141],[-87.61643,41.88196],[-87.616,41.88236],[-87.61546,41.88249],[-87.61469,41.88251],[-87.61422,41.88259],[-87.61364,41.88279],[-87.61325,41.88302],[-87.61283,41.88348],[-87.61275,41.88372],[-87.61275,41.88439],[-87.61436,41.88439],[-87.61426,41.88454],[-87.6158,41.88448],[-87.61591,41.88456],[-87.61746,41.88454],[-87.6175,41.88551],[-87.61756,41.88586],[-87.61758,41.88756],[-87.62003,41.88773],[-87.62154,41.88795],[-87.62236,41.88812],[-87.62299,41.88819],[-87.62452,41.88821],[-87.62456,41.88778],[-87.62454,41.88682],[-87.62635,41.88684],[-87.62645,41.88719],[-87.62674,41.88781],[-87.62698,41.88799],[-87.62801,41.88751],[-87.63398,41.88752],[-87.634,41.88901],[-87.63403,41.88932],[-87.63405,41.89079],[-87.63556,41.89077],[-87.63558,41.89158],[-87.6396,41.89152],[-87.64148,41.8914],[-87.64113,41.89076],[-87.64073,41.89019],[-87.64018,41.88964],[-87.63982,41.88936],[-87.63969,41.88906],[-87.63998,41.88906],[-87.63995,41.88745],[-87.6399,41.88683],[-87.64134,41.88682],[-87.6412,41.88187],[-87.63857,41.8819]]]},"properties":{"board":"cps","num":"6b","lp":[-87.61942,41.79503]}},
{"type":"Feature","geometry":{"type":"Polygon","coordinates":[[[-87.63857,41.8819],[-87.6412,41.88187],[-87.64554,41.88181],[-87.64547,41.87998],[-87.64547,41.87925],[-87.64554,41.87807],[-87.64554,41.8776],[-87.64546,41.8767],[-87.65442,41.87657],[-87.66186,41.87645],[-87.66184,41.87586],[-87.66656,41.87579],[-87.66656,41.87605],[-87.66975,41.876],[-87.67095,41.87594],[-87.67267,41.87591],[-87.67325,41.87543],[-87.67341,41.87544],[-87.6765,41.87538],[-87.67639,41.87149],[-87.67604,41.87149],[-87.67597,41.86912],[-87.67632,41.86911],[-87.67626,41.86676],[-87.68045,41.8667],[-87.68604,41.86662],[-87.68585,41.85974],[-87.68581,41.85812],[-87.68584,41.85765],[-87.68727,41.85713],[-87.6907,41.85636],[-87.69313,41.85579],[-87.69556,41.85525],[-87.69557,41.85556],[-87.69575,41.85557],[-87.70293,41.85546],[-87.70288,41.85381],[-87.70367,41.85363],[-87.70519,41.85359],[-87.70653,41.85359],[-87.71111,41.85355],[-87.71121,41.85356],[-87.71115,41.852],[-87.71257,41.8517],[-87.72111,41.8516],[-87.72229,41.85155],[-87.72224,41.84958],[-87.72227,41.84932],[-87.72469,41.84878],[-87.72622,41.84841],[-87.73112,41.84732],[-87.73283,41.84692],[-87.7392,41.84548],[-87.73916,41.84405],[-87.73915,41.84243],[-87.7391,41.84043],[-87.73891,41.83715],[-87.73881,41.83673],[-87.73864,41.82943],[-87.73849,41.82212],[-87.74467,41.82203],[-87.74476,41.82199],[-87.74465,41.81596],[-87.75308,41.81331],[-87.75297,41.81298],[-87.75294,41.81123],[-87.753,41.81115],[-87.75291,41.80757],[-87.75293,41.80745],[-87.75279,41.80202],[-87.74296,41.80216],[-87.74299,41.80398],[-87.7394,41.80403],[-87.73949,41.80768],[-87.73239,41.80777],[-87.73251,41.81143],[-87.73122,41.81144],[-87.73138,41.81626],[-87.72953,41.81629],[-87.7239,41.81637],[-87.72397,41.81882],[-87.72402,41.8217],[-87.72408,41.82419],[-87.7221,41.82482],[-87.72099,41.82523],[-87.71803,41.8262],[-87.71532,41.82706],[-87.71436,41.82734],[-87.71316,41.82763],[-87.70527,41.83027],[-87.70464,41.83046],[-87.70466,41.83126],[-87.69912,41.83304],[-87.69516,41.83427],[-87.69464,41.83445],[-87.68868,41.83635],[-87.6879,41.83637],[-87.68752,41.83649],[-87.68761,41.83715],[-87.68762,41.83834],[-87.68759,41.84027],[-87.68745,41.84365],[-87.68752,41.84433],[-87.68762,41.8448],[-87.68551,41.84483],[-87.68515,41.84495],[-87.67624,41.84836],[-87.67041,41.8506],[-87.66732,41.8518],[-87.66652,41.85208],[-87.66603,41.85234],[-87.66451,41.85237],[-87.6575,41.85248],[-87.65628,41.85249],[-87.65469,41.85253],[-87.65474,41.85384],[-87.64654,41.85396],[-87.64671,41.85992],[-87.64465,41.85996],[-87.64336,41.85997],[-87.63902,41.86003],[-87.63894,41.85767],[-87.63777,41.85769],[-87.63764,41.85766],[-87.63598,41.8577],[-87.63516,41.85769],[-87.63562,41.85777],[-87.63542,41.85869],[-87.63487,41.85933],[-87.63488,41.85997],[-87.63565,41.86004],[-87.63534,41.86088],[-87.63511,41.86167],[-87.63504,41.86241],[-87.63513,41.86542],[-87.63517,41.86634],[-87.63532,41.86737],[-87.6351,41.86737],[-87.63546,41.86991],[-87.63549,41.86992],[-87.63578,41.87185],[-87.63637,41.87445],[-87.6366,41.87496],[-87.63744,41.87588],[-87.638,41.87697],[-87.63783,41.87703],[-87.63804,41.87735],[-87.63817,41.87823],[-87.63845,41.87922],[-87.63855,41.87994],[-87.63857,41.8819]]]},"properties":{"board":"cps","num":"7a","lp":[-87.72676,41.83596]}},
{"type":"Feature","geometry":{"type":"Polygon","coordinates":[[[-87.72051,41.78598],[-87.72055,41.78734],[-87.71341,41.78746],[-87.71343,41.78792],[-87.7132,41.78792],[-87.71314,41.787],[-87.71313,41.7861],[-87.70848,41.78618],[-87.70189,41.78628],[-87.69848,41.78634],[-87.69858,41.78997],[-87.69614,41.79002],[-87.69625,41.79366],[-87.68894,41.79379],[-87.68897,41.79516],[-87.68775,41.79518],[-87.68791,41.8011],[-87.69401,41.801],[-87.69421,41.80829],[-87.68933,41.80837],[-87.68943,41.812],[-87.68702,41.81204],[-87.68708,41.81412],[-87.6873,41.82294],[-87.69463,41.82279],[-87.69462,41.82298],[-87.6948,41.8291],[-87.69476,41.82919],[-87.69473,41.83009],[-87.69422,41.83011],[-87.68701,41.83025],[-87.68573,41.83028],[-87.66975,41.83046],[-87.6555,41.83063],[-87.64611,41.83076],[-87.6462,41.83441],[-87.63576,41.83454],[-87.6312,41.83461],[-87.63123,41.83623],[-87.6313,41.83829],[-87.6302,41.83832],[-87.62979,41.83829],[-87.6298,41.83951],[-87.62987,41.84192],[-87.62996,41.84428],[-87.62995,41.84669],[-87.63005,41.84719],[-87.63014,41.84927],[-87.63009,41.85034],[-87.63011,41.85212],[-87.63027,41.85295],[-87.63007,41.85295],[-87.63012,41.85352],[-87.63016,41.85513],[-87.63065,41.8549],[-87.63075,41.85658],[-87.63077,41.85762],[-87.6319,41.85762],[-87.63214,41.85772],[-87.63415,41.85769],[-87.63516,41.85769],[-87.63598,41.8577],[-87.63764,41.85766],[-87.63777,41.85769],[-87.63894,41.85767],[-87.63902,41.86003],[-87.64336,41.85997],[-87.64465,41.85996],[-87.64671,41.85992],[-87.64654,41.85396],[-87.65474,41.85384],[-87.65469,41.85253],[-87.65628,41.85249],[-87.6575,41.85248],[-87.66451,41.85237],[-87.66603,41.85234],[-87.66652,41.85208],[-87.66732,41.8518],[-87.67041,41.8506],[-87.67624,41.84836],[-87.68515,41.84495],[-87.68551,41.84483],[-87.68762,41.8448],[-87.68752,41.84433],[-87.68745,41.84365],[-87.68759,41.84027],[-87.68762,41.83834],[-87.68761,41.83715],[-87.68752,41.83649],[-87.6879,41.83637],[-87.68868,41.83635],[-87.69464,41.83445],[-87.69516,41.83427],[-87.69912,41.83304],[-87.70466,41.83126],[-87.70464,41.83046],[-87.70527,41.83027],[-87.71316,41.82763],[-87.71436,41.82734],[-87.71532,41.82706],[-87.71803,41.8262],[-87.72099,41.82523],[-87.7221,41.82482],[-87.72408,41.82419],[-87.72402,41.8217],[-87.72397,41.81882],[-87.7239,41.81637],[-87.72953,41.81629],[-87.73138,41.81626],[-87.73122,41.81144],[-87.73251,41.81143],[-87.73239,41.80777],[-87.73949,41.80768],[-87.7394,41.80403],[-87.74299,41.80398],[-87.74296,41.80216],[-87.75279,41.80202],[-87.75274,41.80019],[-87.7564,41.80013],[-87.7564,41.79977],[-87.75631,41.79666],[-87.75217,41.7973],[-87.74597,41.79824],[-87.74337,41.7986],[-87.74146,41.7989],[-87.73926,41.79927],[-87.73929,41.80038],[-87.73317,41.80045],[-87.73195,41.80048],[-87.73185,41.79691],[-87.73175,41.79313],[-87.72316,41.79321],[-87.72303,41.78849],[-87.72297,41.78595],[-87.72051,41.78598]]]},"properties":{"board":"cps","num":"7b","lp":[-87.71103,41.80506]}},
{"type":"Feature","geometry":{"type":"Polygon","coordinates":[[[-87.72051,41.78598],[-87.72297,41.78595],[-87.72303,41.78849],[-87.72316,41.79321],[-87.73175,41.79313],[-87.73185,41.79691],[-87.73195,41.80048],[-87.73317,41.80045],[-87.73929,41.80038],[-87.73926,41.79927],[-87.74146,41.7989],[-87.74337,41.7986],[-87.74597,41.79824],[-87.75217,41.7973],[-87.75631,41.79666],[-87.7564,41.79977],[-87.7564,41.80013],[-87.76223,41.80005],[-87.76428,41.80005],[-87.77208,41.79989],[-87.77365,41.79983],[-87.78179,41.79967],[-87.78311,41.79967],[-87.78794,41.79961],[-87.79277,41.79947],[-87.79446,41.79947],[-87.79605,41.79944],[-87.79704,41.79945],[-87.80163,41.798],[-87.80161,41.79576],[-87.80162,41.79481],[-87.80154,41.7922],[-87.80107,41.78119],[-87.80101,41.77968],[-87.80101,41.77913],[-87.80087,41.77695],[-87.80083,41.77538],[-87.80078,41.7742],[-87.80081,41.77378],[-87.78112,41.77409],[-87.75661,41.77458],[-87.74716,41.77475],[-87.74704,41.77468],[-87.74437,41.77473],[-87.74217,41.77479],[-87.74215,41.77445],[-87.74205,41.77107],[-87.74188,41.76932],[-87.7419,41.76846],[-87.7418,41.76701],[-87.7419,41.76439],[-87.74184,41.76227],[-87.74178,41.76128],[-87.74179,41.76084],[-87.74169,41.75894],[-87.7415,41.75373],[-87.7415,41.75267],[-87.74141,41.75067],[-87.74139,41.74952],[-87.74132,41.74872],[-87.7413,41.74765],[-87.7412,41.74433],[-87.74109,41.74164],[-87.74093,41.73687],[-87.74095,41.73556],[-87.74107,41.73453],[-87.74042,41.73456],[-87.73722,41.7346],[-87.7309,41.73471],[-87.72265,41.73485],[-87.71568,41.73496],[-87.70987,41.73508],[-87.70802,41.73511],[-87.70231,41.73521],[-87.70005,41.73524],[-87.69113,41.73539],[-87.68252,41.73553],[-87.67606,41.73562],[-87.67337,41.73566],[-87.67391,41.73638],[-87.6755,41.73827],[-87.67648,41.73948],[-87.67725,41.74051],[-87.67817,41.74288],[-87.68397,41.7428],[-87.7016,41.74251],[-87.70164,41.74434],[-87.70174,41.748],[-87.70235,41.74799],[-87.70253,41.75464],[-87.70262,41.75722],[-87.70138,41.75722],[-87.69626,41.75726],[-87.69185,41.75733],[-87.6887,41.75739],[-87.68796,41.7575],[-87.68669,41.75749],[-87.68672,41.75765],[-87.68677,41.75918],[-87.68346,41.75924],[-87.67933,41.75928],[-87.67947,41.76464],[-87.6795,41.76489],[-87.67961,41.76886],[-87.68205,41.76883],[-87.68213,41.77181],[-87.6821,41.77212],[-87.68214,41.77379],[-87.68328,41.77378],[-87.6837,41.7738],[-87.68816,41.77373],[-87.68852,41.77371],[-87.69204,41.77365],[-87.69344,41.77365],[-87.70302,41.77351],[-87.703,41.77262],[-87.71258,41.77246],[-87.71255,41.77153],[-87.71273,41.77153],[-87.71269,41.76971],[-87.71518,41.76968],[-87.71516,41.76877],[-87.7219,41.76866],[-87.72193,41.76957],[-87.72253,41.76956],[-87.72263,41.7732],[-87.72017,41.77324],[-87.72029,41.77796],[-87.72051,41.78598]]]},"properties":{"board":"cps","num":"8a","lp":[-87.72435,41.75185]}},
{"type":"Feature","geometry":{"type":"Polygon","coordinates":[[[-87.69204,41.77365],[-87.69213,41.77725],[-87.68969,41.77729],[-87.68974,41.77918],[-87.68391,41.77926],[-87.68322,41.77919],[-87.6785,41.77926],[-87.67858,41.78104],[-87.67872,41.78658],[-87.67879,41.78799],[-87.67882,41.79069],[-87.67887,41.79167],[-87.67881,41.79351],[-87.66944,41.79361],[-87.66955,41.79764],[-87.66651,41.79766],[-87.66656,41.79949],[-87.66609,41.79948],[-87.65623,41.79962],[-87.65628,41.80144],[-87.65506,41.80146],[-87.65516,41.80483],[-87.65524,41.80829],[-87.65039,41.80835],[-87.6504,41.8088],[-87.64554,41.80887],[-87.64567,41.81349],[-87.64581,41.81897],[-87.64593,41.82347],[-87.63636,41.82359],[-87.63636,41.82542],[-87.63638,41.82724],[-87.63263,41.82729],[-87.63267,41.82904],[-87.63147,41.82907],[-87.63151,41.83095],[-87.62665,41.83102],[-87.62669,41.83468],[-87.62651,41.83467],[-87.6265,41.83504],[-87.62661,41.83956],[-87.62608,41.83956],[-87.62622,41.84197],[-87.62622,41.84336],[-87.62627,41.84561],[-87.62621,41.84696],[-87.62621,41.84743],[-87.62637,41.84926],[-87.62633,41.85108],[-87.62642,41.85547],[-87.62645,41.85779],[-87.62645,41.86021],[-87.62567,41.86022],[-87.62568,41.86082],[-87.62648,41.8608],[-87.6265,41.86243],[-87.62724,41.86242],[-87.62733,41.86656],[-87.62734,41.86749],[-87.62553,41.8675],[-87.62416,41.86755],[-87.62421,41.87008],[-87.62406,41.87008],[-87.62407,41.8706],[-87.62423,41.8706],[-87.62428,41.87317],[-87.62414,41.87317],[-87.62417,41.87434],[-87.62432,41.87446],[-87.62436,41.87657],[-87.62421,41.87657],[-87.62422,41.87701],[-87.62606,41.87698],[-87.62609,41.87825],[-87.62622,41.88209],[-87.6276,41.88207],[-87.62808,41.88202],[-87.63059,41.88199],[-87.63857,41.8819],[-87.63855,41.87994],[-87.63845,41.87922],[-87.63817,41.87823],[-87.63804,41.87735],[-87.63783,41.87703],[-87.638,41.87697],[-87.63744,41.87588],[-87.6366,41.87496],[-87.63637,41.87445],[-87.63578,41.87185],[-87.63549,41.86992],[-87.63546,41.86991],[-87.6351,41.86737],[-87.63532,41.86737],[-87.63517,41.86634],[-87.63513,41.86542],[-87.63504,41.86241],[-87.63511,41.86167],[-87.63534,41.86088],[-87.63565,41.86004],[-87.63488,41.85997],[-87.63487,41.85933],[-87.63542,41.85869],[-87.63562,41.85777],[-87.63516,41.85769],[-87.63415,41.85769],[-87.63214,41.85772],[-87.6319,41.85762],[-87.63077,41.85762],[-87.63075,41.85658],[-87.63065,41.8549],[-87.63016,41.85513],[-87.63012,41.85352],[-87.63007,41.85295],[-87.63027,41.85295],[-87.63011,41.85212],[-87.63009,41.85034],[-87.63014,41.84927],[-87.63005,41.84719],[-87.62995,41.84669],[-87.62996,41.84428],[-87.62987,41.84192],[-87.6298,41.83951],[-87.62979,41.83829],[-87.6302,41.83832],[-87.6313,41.83829],[-87.63123,41.83623],[-87.6312,41.83461],[-87.63576,41.83454],[-87.6462,41.83441],[-87.64611,41.83076],[-87.6555,41.83063],[-87.66975,41.83046],[-87.68573,41.83028],[-87.68701,41.83025],[-87.69422,41.83011],[-87.69473,41.83009],[-87.69476,41.82919],[-87.6948,41.8291],[-87.69462,41.82298],[-87.69463,41.82279],[-87.6873,41.82294],[-87.68708,41.81412],[-87.68702,41.81204],[-87.68943,41.812],[-87.68933,41.80837],[-87.69421,41.80829],[-87.69401,41.801],[-87.68791,41.8011],[-87.68775,41.79518],[-87.68897,41.79516],[-87.68894,41.79379],[-87.69625,41.79366],[-87.69614,41.79002],[-87.69858,41.78997],[-87.69848,41.78634],[-87.70189,41.78628],[-87.70848,41.78618],[-87.71313,41.7861],[-87.71314,41.787],[-87.7132,41.78792],[-87.71343,41.78792],[-87.71341,41.78746],[-87.72055,41.78734],[-87.72051,41.78598],[-87.72029,41.77796],[-87.72017,41.77324],[-87.72263,41.7732],[-87.72253,41.76956],[-87.72193,41.76957],[-87.7219,41.76866],[-87.71516,41.76877],[-87.71518,41.76968],[-87.71269,41.76971],[-87.71273,41.77153],[-87.71255,41.77153],[-87.71258,41.77246],[-87.703,41.77262],[-87.70302,41.77351],[-87.69344,41.77365],[-87.69204,41.77365]]]},"properties":{"board":"cps","num":"8b","lp":[-87.67124,41.81463]}},
{"type":"Feature","geometry":{"type":"Polygon","coordinates":[[[-87.61972,41.74922],[-87.61978,41.75144],[-87.61989,41.75651],[-87.62366,41.75644],[-87.62455,41.75646],[-87.62633,41.75636],[-87.62762,41.75637],[-87.6296,41.75634],[-87.62964,41.7581],[-87.62962,41.75823],[-87.62965,41.75989],[-87.63052,41.75997],[-87.63454,41.75991],[-87.63462,41.763],[-87.63444,41.76343],[-87.63449,41.76353],[-87.63492,41.76354],[-87.63828,41.76348],[-87.63832,41.76503],[-87.63837,41.76575],[-87.63846,41.76894],[-87.63725,41.76896],[-87.63734,41.77232],[-87.63733,41.77251],[-87.63691,41.77295],[-87.63683,41.77311],[-87.6369,41.77582],[-87.63736,41.77621],[-87.63684,41.77622],[-87.63691,41.77916],[-87.63752,41.77914],[-87.63749,41.78034],[-87.63757,41.78334],[-87.63767,41.78737],[-87.63786,41.79409],[-87.63536,41.79413],[-87.63536,41.79461],[-87.63556,41.79981],[-87.63563,41.80178],[-87.63584,41.80905],[-87.63595,41.81173],[-87.63594,41.81395],[-87.63599,41.81479],[-87.63598,41.8157],[-87.63606,41.81906],[-87.63616,41.82184],[-87.63636,41.82359],[-87.64593,41.82347],[-87.64581,41.81897],[-87.64567,41.81349],[-87.64554,41.80887],[-87.6504,41.8088],[-87.65039,41.80835],[-87.65524,41.80829],[-87.65516,41.80483],[-87.65506,41.80146],[-87.65628,41.80144],[-87.65623,41.79962],[-87.66609,41.79948],[-87.66656,41.79949],[-87.66651,41.79766],[-87.66955,41.79764],[-87.66944,41.79361],[-87.67881,41.79351],[-87.67887,41.79167],[-87.67882,41.79069],[-87.67879,41.78799],[-87.67872,41.78658],[-87.67858,41.78104],[-87.6785,41.77926],[-87.68322,41.77919],[-87.68391,41.77926],[-87.68974,41.77918],[-87.68969,41.77729],[-87.69213,41.77725],[-87.69204,41.77365],[-87.68852,41.77371],[-87.68816,41.77373],[-87.6837,41.7738],[-87.68328,41.77378],[-87.68214,41.77379],[-87.6821,41.77212],[-87.68213,41.77181],[-87.68205,41.76883],[-87.67961,41.76886],[-87.6795,41.76489],[-87.67947,41.76464],[-87.67933,41.75928],[-87.68346,41.75924],[-87.68677,41.75918],[-87.68672,41.75765],[-87.68669,41.75749],[-87.68796,41.7575],[-87.6887,41.75739],[-87.69185,41.75733],[-87.69626,41.75726],[-87.70138,41.75722],[-87.70262,41.75722],[-87.70253,41.75464],[-87.70235,41.74799],[-87.70174,41.748],[-87.70164,41.74434],[-87.7016,41.74251],[-87.68397,41.7428],[-87.67817,41.74288],[-87.67725,41.74051],[-87.67648,41.73948],[-87.6755,41.73827],[-87.67391,41.73638],[-87.67337,41.73566],[-87.67279,41.73566],[-87.67263,41.73555],[-87.67136,41.73404],[-87.6708,41.73342],[-87.6693,41.73163],[-87.6688,41.73107],[-87.66816,41.73027],[-87.66822,41.73019],[-87.66744,41.72846],[-87.66715,41.72814],[-87.66651,41.72698],[-87.66572,41.72562],[-87.66441,41.72298],[-87.66348,41.72125],[-87.66174,41.72129],[-87.6599,41.72129],[-87.65705,41.72135],[-87.65539,41.72135],[-87.65271,41.72138],[-87.65063,41.72142],[-87.64796,41.72144],[-87.64686,41.72147],[-87.64505,41.72148],[-87.64322,41.72151],[-87.63958,41.72155],[-87.63968,41.72517],[-87.63486,41.72524],[-87.63495,41.72874],[-87.63499,41.72887],[-87.63364,41.72889],[-87.63271,41.72883],[-87.63233,41.72893],[-87.62794,41.72899],[-87.62563,41.72903],[-87.62609,41.7295],[-87.62657,41.7301],[-87.62686,41.73035],[-87.62814,41.73165],[-87.62871,41.73233],[-87.62916,41.73279],[-87.63089,41.73443],[-87.63171,41.73517],[-87.6321,41.73541],[-87.63273,41.73598],[-87.63406,41.73595],[-87.63426,41.73677],[-87.63376,41.73741],[-87.63379,41.7383],[-87.63397,41.73916],[-87.63403,41.74036],[-87.63411,41.74351],[-87.63437,41.74356],[-87.63595,41.74417],[-87.63629,41.74375],[-87.63765,41.74348],[-87.63903,41.74346],[-87.63908,41.74512],[-87.639,41.74544],[-87.63905,41.74594],[-87.63908,41.74706],[-87.63918,41.74815],[-87.6392,41.74888],[-87.63949,41.74887],[-87.63932,41.75072],[-87.63441,41.75078],[-87.62583,41.75093],[-87.623,41.75099],[-87.62286,41.74551],[-87.61962,41.74557],[-87.61972,41.74922]]]},"properties":{"board":"cps","num":"9a","lp":[-87.65852,41.75863]}},
{"type":"Feature","geometry":{"type":"Polygon","coordinates":[[[-87.67337,41.73566],[-87.67606,41.73562],[-87.68252,41.73553],[-87.68228,41.72786],[-87.68184,41.71366],[-87.68272,41.71367],[-87.69173,41.71357],[-87.69165,41.71104],[-87.69152,41.7072],[-87.69631,41.70715],[-87.69668,41.70714],[-87.7012,41.70708],[-87.70137,41.70705],[-87.70132,41.70618],[-87.70261,41.70618],[-87.70921,41.70609],[-87.71113,41.70609],[-87.7113,41.71149],[-87.71252,41.71147],[-87.71257,41.71152],[-87.71258,41.7133],[-87.72113,41.71317],[-87.72107,41.71069],[-87.7209,41.70534],[-87.72084,41.70428],[-87.72068,41.70025],[-87.72066,41.69928],[-87.72053,41.69615],[-87.72037,41.69221],[-87.72032,41.69127],[-87.72518,41.69118],[-87.72517,41.69104],[-87.73973,41.69078],[-87.73966,41.68913],[-87.73949,41.68913],[-87.73927,41.68375],[-87.72489,41.684],[-87.72489,41.68398],[-87.72183,41.68403],[-87.72183,41.68394],[-87.71516,41.68405],[-87.71151,41.68409],[-87.71144,41.68246],[-87.71136,41.68228],[-87.71133,41.68182],[-87.7116,41.68181],[-87.71158,41.68136],[-87.71139,41.68127],[-87.71136,41.68054],[-87.70772,41.6806],[-87.70715,41.68056],[-87.70529,41.68059],[-87.70528,41.68069],[-87.70542,41.6842],[-87.70056,41.68427],[-87.70063,41.68614],[-87.6994,41.68616],[-87.69948,41.68794],[-87.69799,41.68795],[-87.69661,41.68799],[-87.69572,41.68804],[-87.69563,41.68434],[-87.68928,41.68443],[-87.68587,41.68448],[-87.68572,41.68448],[-87.68557,41.67962],[-87.68565,41.67867],[-87.68587,41.67797],[-87.6862,41.67721],[-87.68291,41.67728],[-87.68169,41.67731],[-87.68039,41.67725],[-87.67876,41.67724],[-87.67231,41.67734],[-87.66786,41.67743],[-87.66814,41.6769],[-87.6684,41.67619],[-87.66732,41.67596],[-87.66677,41.67744],[-87.66658,41.67745],[-87.66137,41.67755],[-87.66138,41.67731],[-87.66115,41.67034],[-87.65939,41.67033],[-87.6588,41.67034],[-87.65866,41.67029],[-87.65239,41.67038],[-87.64532,41.67049],[-87.64167,41.67054],[-87.64142,41.66325],[-87.64721,41.66316],[-87.64718,41.66233],[-87.64699,41.65774],[-87.64677,41.65767],[-87.64591,41.65778],[-87.64475,41.65772],[-87.64366,41.65775],[-87.64142,41.65777],[-87.64143,41.65809],[-87.64106,41.6581],[-87.64105,41.65777],[-87.64042,41.65779],[-87.63914,41.65775],[-87.63856,41.65771],[-87.63662,41.65744],[-87.63514,41.65744],[-87.63396,41.65747],[-87.633,41.65753],[-87.63265,41.65773],[-87.63202,41.6579],[-87.63154,41.65792],[-87.63126,41.65782],[-87.63082,41.65796],[-87.63076,41.65827],[-87.62973,41.65901],[-87.62915,41.65932],[-87.62875,41.65964],[-87.62754,41.66076],[-87.62644,41.66149],[-87.62627,41.66166],[-87.62476,41.66209],[-87.62442,41.66226],[-87.62381,41.66227],[-87.62329,41.6624],[-87.62204,41.66241],[-87.62202,41.66213],[-87.62025,41.66137],[-87.61985,41.66113],[-87.61951,41.66079],[-87.61939,41.66006],[-87.61946,41.65956],[-87.61935,41.65914],[-87.61888,41.65909],[-87.61832,41.65911],[-87.61708,41.66431],[-87.616,41.66892],[-87.61568,41.67076],[-87.61547,41.67158],[-87.61517,41.67306],[-87.61456,41.67548],[-87.61416,41.67725],[-87.61392,41.67817],[-87.61378,41.67894],[-87.61321,41.68144],[-87.61287,41.68281],[-87.61265,41.684],[-87.61248,41.68464],[-87.61233,41.68544],[-87.6114,41.68545],[-87.61142,41.68594],[-87.61129,41.68648],[-87.60966,41.69363],[-87.60808,41.70056],[-87.60689,41.70578],[-87.60613,41.70922],[-87.60513,41.7136],[-87.61396,41.71345],[-87.61398,41.71542],[-87.61415,41.7219],[-87.6069,41.72202],[-87.60691,41.7233],[-87.6075,41.72356],[-87.60938,41.72449],[-87.60941,41.72498],[-87.60961,41.72511],[-87.61066,41.72559],[-87.61159,41.7256],[-87.61428,41.72694],[-87.61431,41.72788],[-87.61501,41.72819],[-87.61623,41.72867],[-87.61733,41.72905],[-87.6192,41.72953],[-87.61918,41.72913],[-87.62563,41.72903],[-87.62794,41.72899],[-87.63233,41.72893],[-87.63271,41.72883],[-87.63364,41.72889],[-87.63499,41.72887],[-87.63495,41.72874],[-87.63486,41.72524],[-87.63968,41.72517],[-87.63958,41.72155],[-87.64322,41.72151],[-87.64505,41.72148],[-87.64686,41.72147],[-87.64796,41.72144],[-87.65063,41.72142],[-87.65271,41.72138],[-87.65539,41.72135],[-87.65705,41.72135],[-87.6599,41.72129],[-87.66174,41.72129],[-87.66348,41.72125],[-87.66441,41.72298],[-87.66572,41.72562],[-87.66651,41.72698],[-87.66715,41.72814],[-87.66744,41.72846],[-87.66822,41.73019],[-87.66816,41.73027],[-87.6688,41.73107],[-87.6693,41.73163],[-87.6708,41.73342],[-87.67136,41.73404],[-87.67263,41.73555],[-87.67279,41.73566],[-87.67337,41.73566]],[[-87.69615,41.69861],[-87.69616,41.69897],[-87.69121,41.69899],[-87.69105,41.69431],[-87.69097,41.69229],[-87.69171,41.69227],[-87.6921,41.6922],[-87.69209,41.69168],[-87.6959,41.69163],[-87.69596,41.69255],[-87.69607,41.69532],[-87.69615,41.69861]]]},"properties":{"board":"cps","num":"9b","lp":[-87.63602,41.69589]}},
{"type":"Feature","geometry":{"type":"MultiPolygon","coordinates":[[[[-87.53006,41.74229],[-87.53076,41.74728],[-87.53091,41.74796],[-87.5311,41.74813],[-87.53208,41.74859],[-87.53274,41.74882],[-87.5339,41.74931],[-87.53438,41.74945],[-87.53549,41.74988],[-87.53601,41.75016],[-87.53765,41.75082],[-87.5385,41.75112],[-87.53887,41.75129],[-87.53992,41.75163],[-87.54039,41.75183],[-87.54228,41.75192],[-87.54294,41.75193],[-87.54319,41.75199],[-87.54351,41.75225],[-87.54372,41.75253],[-87.54415,41.75344],[-87.54441,41.75413],[-87.54415,41.75462],[-87.54418,41.7548],[-87.54393,41.75505],[-87.54395,41.75526],[-87.5425,41.75615],[-87.5418,41.75654],[-87.5406,41.75728],[-87.54112,41.75777],[-87.54165,41.75782],[-87.54263,41.75874],[-87.54253,41.75907],[-87.5432,41.7597],[-87.5437,41.76009],[-87.54401,41.75988],[-87.54458,41.75973],[-87.54495,41.75974],[-87.54551,41.75936],[-87.54659,41.75888],[-87.54725,41.75872],[-87.54797,41.75867],[-87.54871,41.75873],[-87.54955,41.75896],[-87.55225,41.75998],[-87.55411,41.76081],[-87.55435,41.76105],[-87.55488,41.76179],[-87.55527,41.76162],[-87.55559,41.76158],[-87.55608,41.76182],[-87.55672,41.76227],[-87.55687,41.76243],[-87.55764,41.76285],[-87.5576,41.76314],[-87.55848,41.764],[-87.55898,41.76375],[-87.55928,41.76404],[-87.55944,41.76408],[-87.55974,41.76439],[-87.55952,41.76453],[-87.55983,41.76495],[-87.56002,41.7649],[-87.56061,41.76564],[-87.56057,41.76615],[-87.56018,41.76644],[-87.55964,41.76655],[-87.55939,41.76678],[-87.55945,41.76806],[-87.55943,41.76872],[-87.55964,41.76913],[-87.55992,41.76851],[-87.56053,41.7684],[-87.56092,41.76844],[-87.56154,41.76863],[-87.56234,41.769],[-87.56261,41.76938],[-87.56294,41.76999],[-87.56324,41.77036],[-87.56347,41.77094],[-87.56342,41.77118],[-87.56364,41.77208],[-87.56398,41.77209],[-87.565,41.77253],[-87.56565,41.77292],[-87.56629,41.77347],[-87.56643,41.77378],[-87.56681,41.77396],[-87.56782,41.77531],[-87.56813,41.7757],[-87.56881,41.7764],[-87.56919,41.77669],[-87.56969,41.77697],[-87.5699,41.777],[-87.57033,41.77742],[-87.57114,41.77805],[-87.57167,41.77854],[-87.57182,41.77858],[-87.57224,41.77923],[-87.57275,41.77932],[-87.57321,41.77919],[-87.57336,41.7789],[-87.57336,41.77831],[-87.57316,41.778],[-87.57279,41.77767],[-87.57265,41.77733],[-87.57245,41.77741],[-87.57216,41.77718],[-87.57175,41.7766],[-87.57184,41.77607],[-87.572,41.77582],[-87.57284,41.77561],[-87.57348,41.77551],[-87.57412,41.77553],[-87.57481,41.77577],[-87.5747,41.77599],[-87.57469,41.77628],[-87.57507,41.77678],[-87.5753,41.77741],[-87.57528,41.77787],[-87.57494,41.77881],[-87.57473,41.77911],[-87.57444,41.77937],[-87.57411,41.77953],[-87.57308,41.77989],[-87.57315,41.78028],[-87.57236,41.78048],[-87.57128,41.78084],[-87.56954,41.78125],[-87.5705,41.78137],[-87.57135,41.78156],[-87.57213,41.78178],[-87.57331,41.78221],[-87.57421,41.78263],[-87.5761,41.78365],[-87.57638,41.78422],[-87.57682,41.78521],[-87.5772,41.78631],[-87.57731,41.78681],[-87.57734,41.78803],[-87.57792,41.78818],[-87.57782,41.78838],[-87.5767,41.78854],[-87.57655,41.78868],[-87.57782,41.78955],[-87.57842,41.7901],[-87.57866,41.79064],[-87.57927,41.79143],[-87.57963,41.79204],[-87.57952,41.79231],[-87.57961,41.79284],[-87.5795,41.79346],[-87.57933,41.79382],[-87.57894,41.79427],[-87.5783,41.79473],[-87.57783,41.79492],[-87.57691,41.79511],[-87.57662,41.79505],[-87.57621,41.79508],[-87.57579,41.79535],[-87.57545,41.79546],[-87.57516,41.79624],[-87.57525,41.79656],[-87.57591,41.79698],[-87.57647,41.79705],[-87.57757,41.79681],[-87.57826,41.79702],[-87.57858,41.79719],[-87.57933,41.79778],[-87.57999,41.79842],[-87.58089,41.80044],[-87.58082,41.80177],[-87.58066,41.80255],[-87.58042,41.80304],[-87.58006,41.80354],[-87.5801,41.8039],[-87.58067,41.80421],[-87.58112,41.80421],[-87.58154,41.80458],[-87.58225,41.80512],[-87.5839,41.80624],[-87.58452,41.80662],[-87.58524,41.8073],[-87.58576,41.80817],[-87.58615,41.80872],[-87.5861,41.80884],[-87.5863,41.80923],[-87.58694,41.81008],[-87.58704,41.81064],[-87.58706,41.81143],[-87.58733,41.81177],[-87.5877,41.81198],[-87.58825,41.81202],[-87.5885,41.8121],[-87.58883,41.81233],[-87.58913,41.81282],[-87.58957,41.81306],[-87.59029,41.81378],[-87.59044,41.81453],[-87.59079,41.81477],[-87.59094,41.81497],[-87.59154,41.81598],[-87.59171,41.81603],[-87.59225,41.81662],[-87.59237,41.81688],[-87.59232,41.81758],[-87.59282,41.81834],[-87.59356,41.81867],[-87.594,41.81915],[-87.59447,41.81915],[-87.59484,41.81976],[-87.59512,41.81981],[-87.59549,41.82016],[-87.59607,41.82115],[-87.59684,41.82196],[-87.59725,41.82262],[-87.59733,41.82303],[-87.59763,41.8236],[-87.5984,41.82429],[-87.5985,41.82447],[-87.59862,41.8257],[-87.59903,41.82633],[-87.59959,41.82666],[-87.60051,41.8269],[-87.60176,41.82873],[-87.60191,41.82953],[-87.60171,41.82983],[-87.60243,41.83044],[-87.60272,41.83086],[-87.6029,41.83146],[-87.60282,41.83237],[-87.60345,41.833],[-87.60407,41.83298],[-87.6044,41.8331],[-87.60477,41.83338],[-87.60504,41.83375],[-87.6051,41.83442],[-87.60463,41.8349],[-87.60557,41.83579],[-87.60597,41.83642],[-87.60611,41.83688],[-87.6062,41.8387],[-87.60626,41.83879],[-87.60701,41.83932],[-87.60721,41.83962],[-87.60757,41.84057],[-87.60802,41.84117],[-87.60813,41.84143],[-87.60812,41.84228],[-87.60866,41.84296],[-87.60912,41.84419],[-87.60917,41.84446],[-87.60911,41.8448],[-87.6088,41.84526],[-87.6114,41.84525],[-87.6136,41.84515],[-87.61386,41.84517],[-87.61481,41.84509],[-87.61489,41.84512],[-87.61601,41.8451],[-87.61624,41.84521],[-87.6166,41.84565],[-87.6173,41.84568],[-87.61714,41.83944],[-87.61713,41.83843],[-87.61708,41.83661],[-87.61705,41.83466],[-87.61625,41.83466],[-87.61622,41.83364],[-87.61702,41.83362],[-87.617,41.83305],[-87.61697,41.83123],[-87.61449,41.83126],[-87.61442,41.82759],[-87.61445,41.82746],[-87.61437,41.82388],[-87.61263,41.8239],[-87.61342,41.82029],[-87.6141,41.81676],[-87.6141,41.81669],[-87.61286,41.81671],[-87.6128,41.8149],[-87.60669,41.815],[-87.60668,41.81464],[-87.60655,41.80845],[-87.60645,41.80409],[-87.60426,41.8041],[-87.60421,41.80229],[-87.59981,41.80234],[-87.59975,41.79943],[-87.5974,41.79946],[-87.59734,41.79654],[-87.59658,41.79655],[-87.59638,41.78781],[-87.60123,41.78776],[-87.60121,41.78648],[-87.60605,41.78642],[-87.60604,41.78525],[-87.60594,41.78042],[-87.60431,41.78044],[-87.59621,41.78053],[-87.59608,41.77506],[-87.59605,41.77324],[-87.60577,41.77315],[-87.60561,41.76618],[-87.60556,41.76542],[-87.60553,41.76361],[-87.60545,41.76041],[-87.61517,41.76024],[-87.61997,41.76015],[-87.61989,41.75651],[-87.61978,41.75144],[-87.61972,41.74922],[-87.6165,41.74927],[-87.6164,41.74562],[-87.60509,41.74581],[-87.60524,41.75112],[-87.60521,41.75137],[-87.6053,41.75494],[-87.60285,41.75497],[-87.6029,41.75679],[-87.59927,41.75683],[-87.59931,41.75865],[-87.59801,41.75866],[-87.59662,41.7587],[-87.59448,41.7587],[-87.58632,41.75877],[-87.57247,41.75893],[-87.57248,41.75852],[-87.57237,41.75348],[-87.57115,41.75349],[-87.57108,41.74986],[-87.56864,41.74989],[-87.56856,41.74444],[-87.55412,41.74463],[-87.54851,41.74471],[-87.54645,41.74473],[-87.54246,41.74478],[-87.54184,41.74477],[-87.54041,41.74478],[-87.53041,41.74476],[-87.53006,41.74229]]],[[[-87.52996,41.74061],[-87.53001,41.74054],[-87.52939,41.73691],[-87.53,41.74053],[-87.52996,41.74061]]]]},"properties":{"board":"cps","num":"10a","lp":[-87.58511,41.77016]}},
{"type":"Feature","geometry":{"type":"Polygon","coordinates":[[[-87.61832,41.65911],[-87.61771,41.6591],[-87.61848,41.65555],[-87.61875,41.65458],[-87.61907,41.65361],[-87.61945,41.65266],[-87.61982,41.65183],[-87.62032,41.65089],[-87.62021,41.65085],[-87.61803,41.65037],[-87.61723,41.65028],[-87.61724,41.64763],[-87.61722,41.64459],[-87.6133,41.64462],[-87.60217,41.64462],[-87.59783,41.64461],[-87.59789,41.64803],[-87.59761,41.64805],[-87.59667,41.6483],[-87.59467,41.64878],[-87.59367,41.64892],[-87.59233,41.64893],[-87.59209,41.64891],[-87.59114,41.6486],[-87.59047,41.64828],[-87.59011,41.64782],[-87.58986,41.64766],[-87.5892,41.64698],[-87.5888,41.64687],[-87.58816,41.64632],[-87.5873,41.64543],[-87.58693,41.64495],[-87.58685,41.64471],[-87.58417,41.64474],[-87.57907,41.64474],[-87.57508,41.64472],[-87.56863,41.64467],[-87.56356,41.64467],[-87.56239,41.64476],[-87.56053,41.64473],[-87.55996,41.64465],[-87.5498,41.64457],[-87.54474,41.64457],[-87.54283,41.64462],[-87.54269,41.64457],[-87.53539,41.64456],[-87.5258,41.64462],[-87.52516,41.64464],[-87.52499,41.65906],[-87.52484,41.67365],[-87.52482,41.67467],[-87.52485,41.67544],[-87.52483,41.68096],[-87.52475,41.68174],[-87.52482,41.68695],[-87.52467,41.69181],[-87.52464,41.69529],[-87.52463,41.69725],[-87.52457,41.69904],[-87.52454,41.70107],[-87.52453,41.7026],[-87.52455,41.70795],[-87.52454,41.70839],[-87.52529,41.70883],[-87.52543,41.70885],[-87.52622,41.70954],[-87.52559,41.70994],[-87.52526,41.70971],[-87.52512,41.70974],[-87.52482,41.70937],[-87.52454,41.70951],[-87.52497,41.7099],[-87.52544,41.71002],[-87.52561,41.71031],[-87.526,41.71034],[-87.5259,41.71004],[-87.52624,41.70982],[-87.52669,41.70986],[-87.5272,41.71003],[-87.52841,41.7108],[-87.52643,41.71231],[-87.52742,41.71308],[-87.52777,41.71351],[-87.52813,41.71424],[-87.52848,41.71473],[-87.5287,41.71537],[-87.52857,41.71585],[-87.5281,41.71631],[-87.52766,41.71662],[-87.527,41.71695],[-87.52692,41.71693],[-87.5258,41.71732],[-87.52555,41.71737],[-87.52447,41.7174],[-87.5245,41.71799],[-87.52491,41.71805],[-87.52529,41.71849],[-87.52555,41.71899],[-87.52561,41.71955],[-87.52556,41.72037],[-87.52541,41.72092],[-87.525,41.72152],[-87.52447,41.7219],[-87.52448,41.7232],[-87.52454,41.72358],[-87.52469,41.73109],[-87.52483,41.73131],[-87.52515,41.7315],[-87.52575,41.7316],[-87.52895,41.73205],[-87.52949,41.73237],[-87.52899,41.7337],[-87.52915,41.7349],[-87.52912,41.73497],[-87.52928,41.73594],[-87.52939,41.73691],[-87.53001,41.74054],[-87.52996,41.74061],[-87.53141,41.74059],[-87.53887,41.7405],[-87.53983,41.7405],[-87.53986,41.74101],[-87.53176,41.7411],[-87.53069,41.74112],[-87.52989,41.74133],[-87.52945,41.74133],[-87.52965,41.74142],[-87.52998,41.7416],[-87.53002,41.74196],[-87.53002,41.74201],[-87.53005,41.74219],[-87.53005,41.74221],[-87.53006,41.74229],[-87.53041,41.74476],[-87.54041,41.74478],[-87.54184,41.74477],[-87.54246,41.74478],[-87.54645,41.74473],[-87.54851,41.74471],[-87.55412,41.74463],[-87.56856,41.74444],[-87.56864,41.74989],[-87.57108,41.74986],[-87.57115,41.75349],[-87.57237,41.75348],[-87.57248,41.75852],[-87.57247,41.75893],[-87.58632,41.75877],[-87.59448,41.7587],[-87.59662,41.7587],[-87.59801,41.75866],[-87.59931,41.75865],[-87.59927,41.75683],[-87.6029,41.75679],[-87.60285,41.75497],[-87.6053,41.75494],[-87.60521,41.75137],[-87.60524,41.75112],[-87.60509,41.74581],[-87.6164,41.74562],[-87.6165,41.74927],[-87.61972,41.74922],[-87.61962,41.74557],[-87.62286,41.74551],[-87.623,41.75099],[-87.62583,41.75093],[-87.63441,41.75078],[-87.63932,41.75072],[-87.63949,41.74887],[-87.6392,41.74888],[-87.63918,41.74815],[-87.63908,41.74706],[-87.63905,41.74594],[-87.639,41.74544],[-87.63908,41.74512],[-87.63903,41.74346],[-87.63765,41.74348],[-87.63629,41.74375],[-87.63595,41.74417],[-87.63437,41.74356],[-87.63411,41.74351],[-87.63403,41.74036],[-87.63397,41.73916],[-87.63379,41.7383],[-87.63376,41.73741],[-87.63426,41.73677],[-87.63406,41.73595],[-87.63273,41.73598],[-87.6321,41.73541],[-87.63171,41.73517],[-87.63089,41.73443],[-87.62916,41.73279],[-87.62871,41.73233],[-87.62814,41.73165],[-87.62686,41.73035],[-87.62657,41.7301],[-87.62609,41.7295],[-87.62563,41.72903],[-87.61918,41.72913],[-87.6192,41.72953],[-87.61733,41.72905],[-87.61623,41.72867],[-87.61501,41.72819],[-87.61431,41.72788],[-87.61428,41.72694],[-87.61159,41.7256],[-87.61066,41.72559],[-87.60961,41.72511],[-87.60941,41.72498],[-87.60938,41.72449],[-87.6075,41.72356],[-87.60691,41.7233],[-87.6069,41.72202],[-87.61415,41.7219],[-87.61398,41.71542],[-87.61396,41.71345],[-87.60513,41.7136],[-87.60613,41.70922],[-87.60689,41.70578],[-87.60808,41.70056],[-87.60966,41.69363],[-87.61129,41.68648],[-87.61142,41.68594],[-87.6114,41.68545],[-87.61233,41.68544],[-87.61248,41.68464],[-87.61265,41.684],[-87.61287,41.68281],[-87.61321,41.68144],[-87.61378,41.67894],[-87.61392,41.67817],[-87.61416,41.67725],[-87.61456,41.67548],[-87.61517,41.67306],[-87.61547,41.67158],[-87.61568,41.67076],[-87.616,41.66892],[-87.61708,41.66431],[-87.61832,41.65911]]]},"properties":{"board":"cps","num":"10b","lp":[-87.56745,41.68733]}}
]}