{"type":"FeatureCollection","source":"Wikipedia, \"List of tallest buildings in Chicago\" (revision 1376906461, fetched 2026-10-10), CC BY-SA 4.0","features":[{"type":"Feature","properties":{"name":"Willis Tower","h":442.0,"ft":1451,"floors":110,"year":1974,"use":"com","purpose":"Office","uc":false,"super":true,"rank":1,"facts":["Tallest building in the world for almost 25 years, 1974–1998","Still called the Sears Tower by many Chicagoans","Tallest building in Chicago since 1974"],"aka":"Sears Tower","wiki":"Willis Tower"},"geometry":{"type":"Point","coordinates":[-87.63583,41.87889]}},{"type":"Feature","properties":{"name":"Trump International Hotel and Tower","h":423.0,"ft":1388,"floors":98,"year":2009,"use":"mix","purpose":"Mixed-use","uc":false,"super":true,"rank":2,"facts":["2nd-tallest building in Chicago","Tallest building completed in Chicago in the 2000s","Tallest mixed-use tower in Chicago"],"wiki":"Trump International Hotel and Tower (Chicago)"},"geometry":{"type":"Point","coordinates":[-87.62639,41.88889]}},{"type":"Feature","properties":{"name":"St. Regis Chicago","h":363.0,"ft":1198,"floors":101,"year":2020,"use":"mix","purpose":"Mixed-use","uc":false,"super":true,"rank":3,"facts":["Tallest building in the world designed by a woman (Jeanne Gang)","3rd-tallest building in Chicago","Tallest building completed in Chicago in the 2020s so far"],"aka":"Vista Tower","wiki":"St. Regis Chicago"},"geometry":{"type":"Point","coordinates":[-87.61722,41.88722]}},{"type":"Feature","properties":{"name":"Aon Center","h":346.0,"ft":1136,"floors":83,"year":1973,"use":"com","purpose":"Office","uc":false,"super":true,"rank":4,"facts":["Tallest building in Chicago from 1973 to 1974","4th-tallest building in Chicago","2nd-tallest office tower in Chicago"],"aka":"Standard Oil Building","wiki":"Aon Center (Chicago)"},"geometry":{"type":"Point","coordinates":[-87.62139,41.88528]}},{"type":"Feature","properties":{"name":"875 North Michigan Avenue","h":344.0,"ft":1127,"floors":100,"year":1969,"use":"mix","purpose":"Mixed-use","uc":false,"super":true,"rank":5,"facts":["The first building outside New York to reach 1,000 ft","Tallest building completed anywhere in the world in the 1960s","Tallest building in Chicago from 1969 to 1973"],"aka":"John Hancock Center","wiki":"John Hancock Center"},"geometry":{"type":"Point","coordinates":[-87.62306,41.89875]}},{"type":"Feature","properties":{"name":"Franklin Center","h":307.0,"ft":1007,"floors":61,"year":1989,"use":"com","purpose":"Office","uc":false,"super":true,"rank":6,"facts":["6th-tallest building in Chicago","Tallest building completed in Chicago in the 1980s","3rd-tallest office tower in Chicago"],"aka":"AT&T Corporate Center","wiki":"Franklin Center (Chicago)"},"geometry":{"type":"Point","coordinates":[-87.63472,41.880417]}},{"type":"Feature","properties":{"name":"Two Prudential Plaza","h":303.0,"ft":995,"floors":64,"year":1990,"use":"com","purpose":"Office","uc":false,"super":true,"rank":7,"facts":["7th-tallest building in Chicago","Tallest building completed in Chicago in the 1990s"],"wiki":"Two Prudential Plaza"},"geometry":{"type":"Point","coordinates":[-87.62278,41.88556]}},{"type":"Feature","properties":{"name":"One Chicago East Tower","h":296.0,"ft":973,"floors":78,"year":2022,"use":"res","purpose":"Residential","uc":false,"super":false,"rank":8,"facts":["8th-tallest building in Chicago","Tallest residential tower in Chicago"],"wiki":"One Chicago (building)"},"geometry":{"type":"Point","coordinates":[-87.628645,41.896071]}},{"type":"Feature","properties":{"name":"311 South Wacker Drive","h":293.0,"ft":961,"floors":65,"year":1990,"use":"com","purpose":"Office","uc":false,"super":false,"rank":9,"facts":["9th-tallest building in Chicago"],"wiki":"311 South Wacker Drive"},"geometry":{"type":"Point","coordinates":[-87.63556,41.8775]}},{"type":"Feature","properties":{"name":"NEMA Chicago","h":273.0,"ft":896,"floors":76,"year":2019,"use":"res","purpose":"Residential","uc":false,"super":false,"rank":10,"facts":["10th-tallest building in Chicago","Tallest building completed in Chicago in the 2010s","2nd-tallest residential tower in Chicago"],"wiki":"NEMA Chicago"},"geometry":{"type":"Point","coordinates":[-87.62306,41.86694]}},{"type":"Feature","properties":{"name":"900 North Michigan","h":266.0,"ft":871,"floors":66,"year":1989,"use":"mix","purpose":"Mixed-use","uc":false,"super":false,"rank":11,"facts":["11th-tallest of the 138 skyscrapers in Chicago"],"wiki":"900 North Michigan"},"geometry":{"type":"Point","coordinates":[-87.625,41.89972]}},{"type":"Feature","properties":{"name":"Chase Tower","h":264.8,"ft":869,"floors":60,"year":1969,"use":"com","purpose":"Office","uc":false,"super":false,"rank":12,"facts":["Briefly the tallest building in Chicago, in 1969","12th-tallest of the 138 skyscrapers in Chicago"],"wiki":"Chase Tower (Chicago)"},"geometry":{"type":"Point","coordinates":[-87.63,41.881528]}},{"type":"Feature","properties":{"name":"Water Tower Place","h":261.9,"ft":859,"floors":74,"year":1976,"use":"mix","purpose":"Mixed-use","uc":false,"super":false,"rank":13,"facts":["13th-tallest of the 138 skyscrapers in Chicago"],"wiki":"Water Tower Place"},"geometry":{"type":"Point","coordinates":[-87.622361,41.897917]}},{"type":"Feature","properties":{"name":"Aqua","h":261.8,"ft":859,"floors":82,"year":2009,"use":"mix","purpose":"Mixed-use","uc":false,"super":false,"rank":14,"facts":["14th-tallest of the 138 skyscrapers in Chicago"],"wiki":"Aqua (Chicago)"},"geometry":{"type":"Point","coordinates":[-87.62,41.88639]}},{"type":"Feature","properties":{"name":"400 Lake Shore Drive North Tower","h":259.1,"ft":850,"floors":72,"year":2027,"use":"res","purpose":"Residential","uc":true,"super":false,"rank":15,"facts":["3rd-tallest residential tower in Chicago","15th-tallest of the 138 skyscrapers in Chicago"],"wiki":"400 Lake Shore"},"geometry":{"type":"Point","coordinates":[-87.614889,41.889869]}},{"type":"Feature","properties":{"name":"Park Tower","h":257.0,"ft":844,"floors":67,"year":2000,"use":"mix","purpose":"Mixed-use","uc":false,"super":false,"rank":16,"facts":["16th-tallest of the 138 skyscrapers in Chicago"],"wiki":"Park Tower (Chicago)"},"geometry":{"type":"Point","coordinates":[-87.625139,41.897083]}},{"type":"Feature","properties":{"name":"One Bennett Park","h":255.0,"ft":837,"floors":69,"year":2018,"use":"res","purpose":"Residential","uc":false,"super":false,"rank":17,"facts":["17th-tallest of the 138 skyscrapers in Chicago"],"wiki":"One Bennett Park"},"geometry":{"type":"Point","coordinates":[-87.615667,41.89167]}},{"type":"Feature","properties":{"name":"Salesforce Tower Chicago","h":255.0,"ft":835,"floors":60,"year":2023,"use":"com","purpose":"Office","uc":false,"super":false,"rank":17,"facts":["17th-tallest of the 138 skyscrapers in Chicago"],"wiki":"Salesforce Tower Chicago"},"geometry":{"type":"Point","coordinates":[-87.637694,41.887611]}},{"type":"Feature","properties":{"name":"The Legacy at Millennium Park","h":251.0,"ft":822,"floors":73,"year":2010,"use":"res","purpose":"Residential","uc":false,"super":false,"rank":19,"facts":["19th-tallest of the 138 skyscrapers in Chicago"],"wiki":"Legacy at Millennium Park"},"geometry":{"type":"Point","coordinates":[-87.62556,41.88139]}},{"type":"Feature","properties":{"name":"110 North Wacker","h":248.0,"ft":814,"floors":51,"year":2020,"use":"com","purpose":"Office","uc":false,"super":false,"rank":20,"facts":["20th-tallest of the 138 skyscrapers in Chicago"],"wiki":"110 North Wacker"},"geometry":{"type":"Point","coordinates":[-87.6375,41.88361]}},{"type":"Feature","properties":{"name":"1000M","h":245.0,"ft":805,"floors":73,"year":2024,"use":"res","purpose":"Residential","uc":false,"super":false,"rank":21,"facts":["21st-tallest of the 138 skyscrapers in Chicago"],"wiki":"1000M"},"geometry":{"type":"Point","coordinates":[-87.624583,41.869917]}},{"type":"Feature","properties":{"name":"300 North LaSalle","h":239.0,"ft":784,"floors":60,"year":2008,"use":"com","purpose":"Office","uc":false,"super":false,"rank":22,"facts":["22nd-tallest of the 138 skyscrapers in Chicago"],"wiki":"300 North LaSalle"},"geometry":{"type":"Point","coordinates":[-87.63306,41.888194]}},{"type":"Feature","properties":{"name":"Three First National Plaza","h":234.0,"ft":767,"floors":57,"year":1981,"use":"com","purpose":"Office","uc":false,"super":false,"rank":23,"facts":["23rd-tallest of the 138 skyscrapers in Chicago"],"wiki":"Three First National Plaza"},"geometry":{"type":"Point","coordinates":[-87.63056,41.88222]}},{"type":"Feature","properties":{"name":"Grant Thornton Tower","h":230.0,"ft":755,"floors":50,"year":1992,"use":"com","purpose":"Office","uc":false,"super":false,"rank":24,"facts":["24th-tallest of the 138 skyscrapers in Chicago"],"wiki":"Grant Thornton Tower"},"geometry":{"type":"Point","coordinates":[-87.63056,41.88472]}},{"type":"Feature","properties":{"name":"Blue Cross Blue Shield Tower","h":227.0,"ft":744,"floors":54,"year":2010,"use":"com","purpose":"Office","uc":false,"super":false,"rank":25,"facts":["25th-tallest of the 138 skyscrapers in Chicago"],"wiki":"Blue Cross Blue Shield Tower"},"geometry":{"type":"Point","coordinates":[-87.62,41.88472]}},{"type":"Feature","properties":{"name":"River Point","h":223.0,"ft":732,"floors":52,"year":2017,"use":"com","purpose":"Office","uc":false,"super":false,"rank":26,"facts":["26th-tallest of the 138 skyscrapers in Chicago"],"wiki":"River Point"},"geometry":{"type":"Point","coordinates":[-87.639389,41.885917]}},{"type":"Feature","properties":{"name":"Olympia Centre","h":223.0,"ft":731,"floors":63,"year":1986,"use":"mix","purpose":"Mixed-use","uc":false,"super":false,"rank":26,"facts":["26th-tallest of the 138 skyscrapers in Chicago"],"wiki":"Olympia Centre"},"geometry":{"type":"Point","coordinates":[-87.62333,41.89639]}},{"type":"Feature","properties":{"name":"BMO Tower","h":222.0,"ft":729,"floors":51,"year":2021,"use":"com","purpose":"Office","uc":false,"super":false,"rank":28,"facts":["28th-tallest of the 138 skyscrapers in Chicago"],"wiki":"BMO Tower (Chicago)"},"geometry":{"type":"Point","coordinates":[-87.64,41.87722]}},{"type":"Feature","properties":{"name":"One Museum Park","h":221.0,"ft":726,"floors":62,"year":2009,"use":"res","purpose":"Residential","uc":false,"super":false,"rank":29,"facts":["29th-tallest of the 138 skyscrapers in Chicago"],"wiki":"One Museum Park"},"geometry":{"type":"Point","coordinates":[-87.62139,41.867083]}},{"type":"Feature","properties":{"name":"150 North Riverside","h":221.0,"ft":724,"floors":54,"year":2017,"use":"com","purpose":"Office","uc":false,"super":false,"rank":29,"facts":["29th-tallest of the 138 skyscrapers in Chicago"],"wiki":"150 North Riverside"},"geometry":{"type":"Point","coordinates":[-87.638472,41.88528]}},{"type":"Feature","properties":{"name":"330 North Wabash","h":212.0,"ft":695,"floors":52,"year":1972,"use":"mix","purpose":"Mixed-use","uc":false,"super":false,"rank":31,"facts":["31st-tallest of the 138 skyscrapers in Chicago"],"wiki":"AMA Plaza"},"geometry":{"type":"Point","coordinates":[-87.6275,41.88861]}},{"type":"Feature","properties":{"name":"Waldorf Astoria Chicago","h":209.0,"ft":686,"floors":60,"year":2009,"use":"mix","purpose":"Mixed-use","uc":false,"super":false,"rank":32,"facts":["32nd-tallest of the 138 skyscrapers in Chicago"],"wiki":"Waldorf Astoria Chicago"},"geometry":{"type":"Point","coordinates":[-87.6275,41.89972]}},{"type":"Feature","properties":{"name":"111 South Wacker Drive","h":208.0,"ft":681,"floors":51,"year":2005,"use":"com","purpose":"Office","uc":false,"super":false,"rank":33,"facts":["33rd-tallest of the 138 skyscrapers in Chicago"],"wiki":"111 South Wacker Drive"},"geometry":{"type":"Point","coordinates":[-87.63625,41.88028]}},{"type":"Feature","properties":{"name":"181 West Madison Street","h":207.0,"ft":680,"floors":50,"year":1990,"use":"com","purpose":"Office","uc":false,"super":false,"rank":34,"facts":["34th-tallest of the 138 skyscrapers in Chicago"],"wiki":"181 West Madison Street"},"geometry":{"type":"Point","coordinates":[-87.63333,41.881528]}},{"type":"Feature","properties":{"name":"71 South Wacker","h":207.0,"ft":679,"floors":48,"year":2005,"use":"com","purpose":"Office","uc":false,"super":false,"rank":34,"facts":["34th-tallest of the 138 skyscrapers in Chicago"],"wiki":"71 South Wacker"},"geometry":{"type":"Point","coordinates":[-87.63611,41.88083]}},{"type":"Feature","properties":{"name":"One Magnificent Mile","h":205.0,"ft":673,"floors":57,"year":1983,"use":"mix","purpose":"Mixed-use","uc":false,"super":false,"rank":36,"facts":["36th-tallest of the 138 skyscrapers in Chicago"],"wiki":"One Magnificent Mile"},"geometry":{"type":"Point","coordinates":[-87.62472,41.90056]}},{"type":"Feature","properties":{"name":"340 on the Park","h":205.0,"ft":672,"floors":64,"year":2007,"use":"res","purpose":"Residential","uc":false,"super":false,"rank":36,"facts":["36th-tallest of the 138 skyscrapers in Chicago"],"wiki":"340 on the Park"},"geometry":{"type":"Point","coordinates":[-87.61889,41.884861]}},{"type":"Feature","properties":{"name":"77 West Wacker Drive","h":204.0,"ft":668,"floors":49,"year":1992,"use":"com","purpose":"Office","uc":false,"super":false,"rank":38,"facts":["38th-tallest of the 138 skyscrapers in Chicago"],"wiki":"77 West Wacker Drive"},"geometry":{"type":"Point","coordinates":[-87.63056,41.886528]}},{"type":"Feature","properties":{"name":"Wolf Point East Tower","h":204.0,"ft":668,"floors":60,"year":2020,"use":"res","purpose":"Residential","uc":false,"super":false,"rank":38,"facts":["38th-tallest of the 138 skyscrapers in Chicago"],"wiki":"Wolf Point East Tower"},"geometry":{"type":"Point","coordinates":[-87.636778,41.887806]}},{"type":"Feature","properties":{"name":"One North Wacker","h":199.0,"ft":652,"floors":50,"year":2001,"use":"com","purpose":"Office","uc":false,"super":false,"rank":40,"facts":["40th-tallest of the 138 skyscrapers in Chicago"],"wiki":"One North Wacker"},"geometry":{"type":"Point","coordinates":[-87.63611,41.88222]}},{"type":"Feature","properties":{"name":"Richard J. Daley Center","h":198.0,"ft":648,"floors":32,"year":1965,"use":"com","purpose":"Office","uc":false,"super":false,"rank":41,"facts":["Tallest building in Chicago from 1965 to 1969","41st-tallest of the 138 skyscrapers in Chicago"],"wiki":"Richard J. Daley Center"},"geometry":{"type":"Point","coordinates":[-87.63028,41.884028]}},{"type":"Feature","properties":{"name":"55 East Erie Street","h":197.0,"ft":647,"floors":56,"year":2004,"use":"res","purpose":"Residential","uc":false,"super":false,"rank":42,"facts":["42nd-tallest of the 138 skyscrapers in Chicago"],"wiki":"55 East Erie Street"},"geometry":{"type":"Point","coordinates":[-87.62583,41.89389]}},{"type":"Feature","properties":{"name":"Lake Point Tower","h":197.0,"ft":645,"floors":70,"year":1968,"use":"res","purpose":"Residential","uc":false,"super":false,"rank":42,"facts":["42nd-tallest of the 138 skyscrapers in Chicago"],"wiki":"Lake Point Tower"},"geometry":{"type":"Point","coordinates":[-87.61222,41.89167]}},{"type":"Feature","properties":{"name":"River East Center","h":196.0,"ft":644,"floors":58,"year":2001,"use":"res","purpose":"Residential","uc":false,"super":false,"rank":44,"facts":["44th-tallest of the 138 skyscrapers in Chicago"],"wiki":"River East Center"},"geometry":{"type":"Point","coordinates":[-87.618194,41.89139]}},{"type":"Feature","properties":{"name":"Grand Plaza I","h":195.0,"ft":641,"floors":57,"year":2003,"use":"res","purpose":"Residential","uc":false,"super":false,"rank":45,"facts":["45th-tallest of the 138 skyscrapers in Chicago"],"wiki":"Grand Plaza I"},"geometry":{"type":"Point","coordinates":[-87.62861,41.89194]}},{"type":"Feature","properties":{"name":"155 North Wacker","h":195.0,"ft":638,"floors":45,"year":2009,"use":"com","purpose":"Office","uc":false,"super":false,"rank":45,"facts":["45th-tallest of the 138 skyscrapers in Chicago"],"wiki":"155 North Wacker"},"geometry":{"type":"Point","coordinates":[-87.636528,41.88472]}},{"type":"Feature","properties":{"name":"Leo Burnett Building","h":194.0,"ft":635,"floors":50,"year":1989,"use":"com","purpose":"Office","uc":false,"super":false,"rank":47,"facts":["47th-tallest of the 138 skyscrapers in Chicago"],"wiki":"Leo Burnett Building"},"geometry":{"type":"Point","coordinates":[-87.62917,41.88639]}},{"type":"Feature","properties":{"name":"The Heritage at Millennium Park","h":192.0,"ft":631,"floors":57,"year":2005,"use":"res","purpose":"Residential","uc":false,"super":false,"rank":48,"facts":["48th-tallest of the 138 skyscrapers in Chicago"],"wiki":"The Heritage at Millennium Park"},"geometry":{"type":"Point","coordinates":[-87.62556,41.88417]}},{"type":"Feature","properties":{"name":"OneEleven","h":192.0,"ft":630,"floors":59,"year":2014,"use":"res","purpose":"Residential","uc":false,"super":false,"rank":48,"facts":["48th-tallest of the 138 skyscrapers in Chicago"],"wiki":"OneEleven"},"geometry":{"type":"Point","coordinates":[-87.63139,41.886528]}},{"type":"Feature","properties":{"name":"NBC Tower","h":191.0,"ft":627,"floors":37,"year":1989,"use":"com","purpose":"Office","uc":false,"super":false,"rank":50,"facts":["50th-tallest of the 138 skyscrapers in Chicago"],"wiki":"NBC Tower"},"geometry":{"type":"Point","coordinates":[-87.62111,41.89]}},{"type":"Feature","properties":{"name":"353 North Clark","h":190.0,"ft":624,"floors":44,"year":2009,"use":"com","purpose":"Office","uc":false,"super":false,"rank":51,"facts":["51st-tallest of the 138 skyscrapers in Chicago"],"wiki":"353 North Clark"},"geometry":{"type":"Point","coordinates":[-87.63,41.88889]}},{"type":"Feature","properties":{"name":"Essex on the Park","h":189.0,"ft":620,"floors":57,"year":2019,"use":"res","purpose":"Residential","uc":false,"super":false,"rank":52,"facts":["52nd-tallest of the 138 skyscrapers in Chicago"],"wiki":"Essex on the Park"},"geometry":{"type":"Point","coordinates":[-87.624694,41.8715]}},{"type":"Feature","properties":{"name":"Millennium Centre","h":186.0,"ft":610,"floors":58,"year":2003,"use":"res","purpose":"Residential","uc":false,"super":false,"rank":53,"facts":["53rd-tallest of the 138 skyscrapers in Chicago"],"wiki":"Millennium Centre (Chicago)"},"geometry":{"type":"Point","coordinates":[-87.62917,41.89306]}},{"type":"Feature","properties":{"name":"Chicago Place","h":185.0,"ft":608,"floors":49,"year":1991,"use":"mix","purpose":"Mixed-use","uc":false,"super":false,"rank":54,"facts":["54th-tallest of the 138 skyscrapers in Chicago"],"wiki":"Chicago Place"},"geometry":{"type":"Point","coordinates":[-87.625139,41.89528]}},{"type":"Feature","properties":{"name":"Chicago Board of Trade Building","h":184.0,"ft":605,"floors":44,"year":1930,"use":"com","purpose":"Office","uc":false,"super":false,"rank":55,"facts":["Tallest building in Chicago from 1930 to 1965","Tallest building completed in Chicago in the 1930s","55th-tallest of the 138 skyscrapers in Chicago"],"wiki":"Chicago Board of Trade Building"},"geometry":{"type":"Point","coordinates":[-87.63222,41.877639]}},{"type":"Feature","properties":{"name":"One Prudential Plaza","h":183.0,"ft":601,"floors":41,"year":1955,"use":"com","purpose":"Office","uc":false,"super":false,"rank":56,"facts":["Tallest building completed in Chicago in the 1950s","56th-tallest of the 138 skyscrapers in Chicago"],"wiki":"One Prudential Plaza"},"geometry":{"type":"Point","coordinates":[-87.62333,41.88472]}},{"type":"Feature","properties":{"name":"333 South Wabash","h":183.0,"ft":601,"floors":44,"year":1972,"use":"com","purpose":"Office","uc":false,"super":false,"rank":56,"facts":["56th-tallest of the 138 skyscrapers in Chicago"],"wiki":"333 South Wabash"},"geometry":{"type":"Point","coordinates":[-87.62556,41.87722]}},{"type":"Feature","properties":{"name":"Heller International Building","h":183.0,"ft":600,"floors":45,"year":1992,"use":"com","purpose":"Office","uc":false,"super":false,"rank":56,"facts":["56th-tallest of the 138 skyscrapers in Chicago"],"wiki":"500 West Monroe"},"geometry":{"type":"Point","coordinates":[-87.64028,41.88083]}},{"type":"Feature","properties":{"name":"200 West Madison","h":182.0,"ft":599,"floors":44,"year":1982,"use":"com","purpose":"Office","uc":false,"super":false,"rank":59,"facts":["59th-tallest of the 138 skyscrapers in Chicago"],"wiki":"200 West Madison"},"geometry":{"type":"Point","coordinates":[-87.63444,41.88222]}},{"type":"Feature","properties":{"name":"The Grant","h":181.0,"ft":595,"floors":54,"year":2010,"use":"res","purpose":"Residential","uc":false,"super":false,"rank":60,"facts":["60th-tallest of the 138 skyscrapers in Chicago"],"wiki":"The Grant"},"geometry":{"type":"Point","coordinates":[-87.62194,41.867083]}},{"type":"Feature","properties":{"name":"1000 Lake Shore Plaza","h":180.0,"ft":590,"floors":55,"year":1964,"use":"res","purpose":"Residential","uc":false,"super":false,"rank":61,"facts":["61st-tallest of the 138 skyscrapers in Chicago"],"wiki":"1000 Lake Shore Plaza"},"geometry":{"type":"Point","coordinates":[-87.62444,41.900972]}},{"type":"Feature","properties":{"name":"The Clare","h":179.0,"ft":589,"floors":52,"year":2009,"use":"res","purpose":"Residential","uc":false,"super":false,"rank":62,"facts":["62nd-tallest of the 138 skyscrapers in Chicago"],"wiki":"The Clare"},"geometry":{"type":"Point","coordinates":[-87.62611,41.89722]}},{"type":"Feature","properties":{"name":"Accenture Tower","h":179.0,"ft":588,"floors":42,"year":1987,"use":"com","purpose":"Office","uc":false,"super":false,"rank":62,"facts":["62nd-tallest of the 138 skyscrapers in Chicago"],"wiki":"Accenture Tower (Chicago)"},"geometry":{"type":"Point","coordinates":[-87.64056,41.88222]}},{"type":"Feature","properties":{"name":"Marina City I","h":179.0,"ft":588,"floors":61,"year":1964,"use":"res","purpose":"Residential","uc":false,"super":false,"rank":62,"facts":["62nd-tallest of the 138 skyscrapers in Chicago"],"wiki":"Marina City"},"geometry":{"type":"Point","coordinates":[-87.628472,41.888194]}},{"type":"Feature","properties":{"name":"Marina City II","h":179.0,"ft":588,"floors":61,"year":1964,"use":"res","purpose":"Residential","uc":false,"super":false,"rank":62,"facts":["62nd-tallest of the 138 skyscrapers in Chicago"],"wiki":"Marina City"},"geometry":{"type":"Point","coordinates":[-87.62917,41.887917]}},{"type":"Feature","properties":{"name":"Optima Signature","h":179.0,"ft":587,"floors":57,"year":2017,"use":"res","purpose":"Residential","uc":false,"super":false,"rank":62,"facts":["62nd-tallest of the 138 skyscrapers in Chicago"],"wiki":"Optima Signature"},"geometry":{"type":"Point","coordinates":[-87.62167,41.891528]}},{"type":"Feature","properties":{"name":"Mid-Continental Plaza","h":178.0,"ft":583,"floors":49,"year":1972,"use":"mix","purpose":"Mixed-use","uc":false,"super":false,"rank":67,"facts":["67th-tallest of the 138 skyscrapers in Chicago"],"wiki":"Mid-Continental Plaza"},"geometry":{"type":"Point","coordinates":[-87.625694,41.88028]}},{"type":"Feature","properties":{"name":"Crain Communications Building","h":177.0,"ft":582,"floors":41,"year":1983,"use":"com","purpose":"Office","uc":false,"super":false,"rank":68,"facts":["68th-tallest of the 138 skyscrapers in Chicago"],"wiki":"Crain Communications Building"},"geometry":{"type":"Point","coordinates":[-87.625,41.88472]}},{"type":"Feature","properties":{"name":"North Pier Apartments","h":177.0,"ft":581,"floors":61,"year":1990,"use":"res","purpose":"Residential","uc":false,"super":false,"rank":68,"facts":["68th-tallest of the 138 skyscrapers in Chicago"],"wiki":"474 North Lake Shore Drive"},"geometry":{"type":"Point","coordinates":[-87.614583,41.89083]}},{"type":"Feature","properties":{"name":"Citadel Center","h":177.0,"ft":580,"floors":39,"year":2003,"use":"com","purpose":"Office","uc":false,"super":false,"rank":68,"facts":["68th-tallest of the 138 skyscrapers in Chicago"],"wiki":"Citadel Center"},"geometry":{"type":"Point","coordinates":[-87.62861,41.87972]}},{"type":"Feature","properties":{"name":"The Fordham","h":175.0,"ft":574,"floors":52,"year":2003,"use":"res","purpose":"Residential","uc":false,"super":false,"rank":71,"facts":["71st-tallest of the 138 skyscrapers in Chicago"],"wiki":"The Fordham"},"geometry":{"type":"Point","coordinates":[-87.62722,41.895417]}},{"type":"Feature","properties":{"name":"190 South LaSalle Street","h":175.0,"ft":573,"floors":40,"year":1987,"use":"com","purpose":"Office","uc":false,"super":false,"rank":71,"facts":["71st-tallest of the 138 skyscrapers in Chicago"],"wiki":"U.S. Bank Building (Chicago)"},"geometry":{"type":"Point","coordinates":[-87.63278,41.87972]}},{"type":"Feature","properties":{"name":"One Chicago West Tower","h":174.0,"ft":574,"floors":49,"year":2021,"use":"res","purpose":"Residential","uc":false,"super":false,"rank":73,"facts":["73rd-tallest of the 138 skyscrapers in Chicago"],"wiki":"One Chicago (building)"},"geometry":{"type":"Point","coordinates":[-87.62933,41.896437]}},{"type":"Feature","properties":{"name":"One South Dearborn","h":174.0,"ft":571,"floors":39,"year":2005,"use":"com","purpose":"Office","uc":false,"super":false,"rank":73,"facts":["73rd-tallest of the 138 skyscrapers in Chicago"],"wiki":"One South Dearborn"},"geometry":{"type":"Point","coordinates":[-87.62861,41.88167]}},{"type":"Feature","properties":{"name":"Axis Apartments","h":174.0,"ft":570,"floors":60,"year":1986,"use":"res","purpose":"Residential","uc":false,"super":false,"rank":73,"facts":["73rd-tallest of the 138 skyscrapers in Chicago"],"wiki":"Axis Apartments"},"geometry":{"type":"Point","coordinates":[-87.61639,41.89389]}},{"type":"Feature","properties":{"name":"Loews Hotel Tower","h":174.0,"ft":569,"floors":52,"year":2015,"use":"mix","purpose":"Mixed-use","uc":false,"super":false,"rank":73,"facts":["73rd-tallest of the 138 skyscrapers in Chicago"],"wiki":"Loews Hotel Tower"},"geometry":{"type":"Point","coordinates":[-87.61889,41.889972]}},{"type":"Feature","properties":{"name":"Chicago Temple Building","h":173.0,"ft":568,"floors":21,"year":1924,"use":"mix","purpose":"Mixed-use","uc":false,"super":false,"rank":77,"facts":["Tallest building in Chicago from 1924 to 1930","Tallest building completed in Chicago in the 1920s","77th-tallest of the 138 skyscrapers in Chicago"],"wiki":"First United Methodist Church of Chicago"},"geometry":{"type":"Point","coordinates":[-87.63056,41.88306]}},{"type":"Feature","properties":{"name":"Palmolive Building","h":172.0,"ft":565,"floors":37,"year":1929,"use":"com","purpose":"Office","uc":false,"super":false,"rank":78,"facts":["78th-tallest of the 138 skyscrapers in Chicago"],"wiki":"Palmolive Building"},"geometry":{"type":"Point","coordinates":[-87.62361,41.89972]}},{"type":"Feature","properties":{"name":"Kluczynski Federal Building","h":171.0,"ft":562,"floors":42,"year":1974,"use":"com","purpose":"Office","uc":false,"super":false,"rank":79,"facts":["79th-tallest of the 138 skyscrapers in Chicago"],"wiki":"Kluczynski Federal Building"},"geometry":{"type":"Point","coordinates":[-87.629889,41.878389]}},{"type":"Feature","properties":{"name":"Cirrus","h":171.0,"ft":562,"floors":37,"year":2021,"use":"res","purpose":"Residential","uc":false,"super":false,"rank":79,"facts":["79th-tallest of the 138 skyscrapers in Chicago"]},"geometry":{"type":"Point","coordinates":[-87.61472,41.88639]}},{"type":"Feature","properties":{"name":"Huron Plaza","h":171.0,"ft":560,"floors":56,"year":1983,"use":"res","purpose":"Residential","uc":false,"super":false,"rank":79,"facts":["79th-tallest of the 138 skyscrapers in Chicago"],"wiki":"Huron Plaza"},"geometry":{"type":"Point","coordinates":[-87.62667,41.89528]}},{"type":"Feature","properties":{"name":"Boeing International Headquarters","h":171.0,"ft":560,"floors":36,"year":1990,"use":"com","purpose":"Office","uc":false,"super":false,"rank":79,"facts":["79th-tallest of the 138 skyscrapers in Chicago"],"wiki":"Boeing Building"},"geometry":{"type":"Point","coordinates":[-87.63861,41.884028]}},{"type":"Feature","properties":{"name":"Pittsfield Building","h":170.0,"ft":557,"floors":38,"year":1927,"use":"com","purpose":"Office","uc":false,"super":false,"rank":83,"facts":["83rd-tallest of the 138 skyscrapers in Chicago"],"wiki":"Pittsfield Building"},"geometry":{"type":"Point","coordinates":[-87.63125,41.88306]}},{"type":"Feature","properties":{"name":"The Parkshore","h":169.0,"ft":556,"floors":56,"year":1991,"use":"res","purpose":"Residential","uc":false,"super":false,"rank":84,"facts":["84th-tallest of the 138 skyscrapers in Chicago"],"wiki":"The Parkshore"},"geometry":{"type":"Point","coordinates":[-87.61472,41.885694]}},{"type":"Feature","properties":{"name":"North Harbor Tower","h":169.0,"ft":556,"floors":55,"year":1988,"use":"res","purpose":"Residential","uc":false,"super":false,"rank":84,"facts":["84th-tallest of the 138 skyscrapers in Chicago"],"wiki":"North Harbor Tower"},"geometry":{"type":"Point","coordinates":[-87.615417,41.885417]}},{"type":"Feature","properties":{"name":"Civic Opera House","h":169.0,"ft":555,"floors":45,"year":1929,"use":"mix","purpose":"Mixed-use","uc":false,"super":false,"rank":84,"facts":["84th-tallest of the 138 skyscrapers in Chicago"],"wiki":"Civic Opera House (Chicago)"},"geometry":{"type":"Point","coordinates":[-87.637361,41.8825]}},{"type":"Feature","properties":{"name":"Harbor Point","h":169.0,"ft":554,"floors":54,"year":1975,"use":"res","purpose":"Residential","uc":false,"super":false,"rank":84,"facts":["84th-tallest of the 138 skyscrapers in Chicago"],"wiki":"Harbor Point (Chicago)"},"geometry":{"type":"Point","coordinates":[-87.61472,41.885]}},{"type":"Feature","properties":{"name":"Atwater Apartments","h":169.0,"ft":554,"floors":55,"year":2009,"use":"res","purpose":"Residential","uc":false,"super":false,"rank":84,"facts":["84th-tallest of the 138 skyscrapers in Chicago"],"wiki":"Atwater Apartments"},"geometry":{"type":"Point","coordinates":[-87.61806,41.89222]}},{"type":"Feature","properties":{"name":"30 North LaSalle","h":169.0,"ft":553,"floors":44,"year":1975,"use":"com","purpose":"Office","uc":false,"super":false,"rank":84,"facts":["84th-tallest of the 138 skyscrapers in Chicago"],"wiki":"30 North LaSalle"},"geometry":{"type":"Point","coordinates":[-87.632917,41.88278]}},{"type":"Feature","properties":{"name":"Michigan Plaza South","h":169.0,"ft":553,"floors":46,"year":1985,"use":"com","purpose":"Office","uc":false,"super":false,"rank":84,"facts":["84th-tallest of the 138 skyscrapers in Chicago"],"wiki":"Michigan Plaza"},"geometry":{"type":"Point","coordinates":[-87.623543,41.885994]}},{"type":"Feature","properties":{"name":"Newberry Plaza","h":169.0,"ft":553,"floors":53,"year":1974,"use":"res","purpose":"Residential","uc":false,"super":false,"rank":84,"facts":["84th-tallest of the 138 skyscrapers in Chicago"],"wiki":"Newberry Plaza"},"geometry":{"type":"Point","coordinates":[-87.628853,41.90152]}},{"type":"Feature","properties":{"name":"One South Wacker","h":168.0,"ft":550,"floors":40,"year":1982,"use":"com","purpose":"Office","uc":false,"super":false,"rank":92,"facts":["92nd-tallest of the 138 skyscrapers in Chicago"],"wiki":"One South Wacker"},"geometry":{"type":"Point","coordinates":[-87.636078,41.881531]}},{"type":"Feature","properties":{"name":"Park Millennium","h":166.0,"ft":544,"floors":57,"year":2002,"use":"res","purpose":"Residential","uc":false,"super":false,"rank":93,"facts":["93rd-tallest of the 138 skyscrapers in Chicago"]},"geometry":{"type":"Point","coordinates":[-87.621498,41.886578]}},{"type":"Feature","properties":{"name":"AMLI River North","h":166.0,"ft":543,"floors":49,"year":2013,"use":"res","purpose":"Residential","uc":false,"super":false,"rank":93,"facts":["93rd-tallest of the 138 skyscrapers in Chicago"]},"geometry":{"type":"Point","coordinates":[-87.630707,41.889782]}},{"type":"Feature","properties":{"name":"The Franklin – South Tower","h":164.0,"ft":538,"floors":35,"year":1992,"use":"com","purpose":"Office","uc":false,"super":false,"rank":95,"facts":["95th-tallest of the 138 skyscrapers in Chicago"],"wiki":"Franklin Center (Chicago)"},"geometry":{"type":"Point","coordinates":[-87.63486,41.879766]}},{"type":"Feature","properties":{"name":"Field Building","h":163.0,"ft":535,"floors":45,"year":1934,"use":"mix","purpose":"Mixed-use","uc":false,"super":false,"rank":96,"facts":["96th-tallest of the 138 skyscrapers in Chicago"],"wiki":"Field Building (Chicago)"},"geometry":{"type":"Point","coordinates":[-87.631569,41.87973]}},{"type":"Feature","properties":{"name":"The Pinnacle","h":163.0,"ft":535,"floors":48,"year":2004,"use":"res","purpose":"Residential","uc":false,"super":false,"rank":96,"facts":["96th-tallest of the 138 skyscrapers in Chicago"],"wiki":"The Pinnacle (Chicago)"},"geometry":{"type":"Point","coordinates":[-87.62709,41.894505]}},{"type":"Feature","properties":{"name":"Park Place Tower","h":162.0,"ft":531,"floors":56,"year":1971,"use":"res","purpose":"Residential","uc":false,"super":false,"rank":98,"facts":["98th-tallest of the 138 skyscrapers in Chicago"],"wiki":"Park Place Tower"},"geometry":{"type":"Point","coordinates":[-87.647339,41.954414]}},{"type":"Feature","properties":{"name":"One North LaSalle","h":162.0,"ft":530,"floors":48,"year":1930,"use":"com","purpose":"Office","uc":false,"super":false,"rank":98,"facts":["98th-tallest of the 138 skyscrapers in Chicago"],"wiki":"One North LaSalle"},"geometry":{"type":"Point","coordinates":[-87.63205,41.882278]}},{"type":"Feature","properties":{"name":"Elysées Condominiums","h":161.0,"ft":529,"floors":56,"year":1973,"use":"res","purpose":"Residential","uc":false,"super":false,"rank":100,"facts":["100th-tallest of the 138 skyscrapers in Chicago"],"wiki":"Elysées Condominiums"},"geometry":{"type":"Point","coordinates":[-87.625221,41.897903]}},{"type":"Feature","properties":{"name":"465 North Park","h":160.0,"ft":525,"floors":48,"year":2018,"use":"res","purpose":"Residential","uc":false,"super":false,"rank":101,"facts":["101st-tallest of the 138 skyscrapers in Chicago"]},"geometry":{"type":"Point","coordinates":[-87.619263,41.890736]}},{"type":"Feature","properties":{"name":"River Plaza","h":160.0,"ft":524,"floors":56,"year":1977,"use":"res","purpose":"Residential","uc":false,"super":false,"rank":101,"facts":["101st-tallest of the 138 skyscrapers in Chicago"],"wiki":"River Plaza (skyscraper)"},"geometry":{"type":"Point","coordinates":[-87.625793,41.889866]}},{"type":"Feature","properties":{"name":"35 East Wacker","h":159.0,"ft":523,"floors":40,"year":1927,"use":"com","purpose":"Office","uc":false,"super":false,"rank":103,"facts":["103rd-tallest of the 138 skyscrapers in Chicago"],"wiki":"35 East Wacker"},"geometry":{"type":"Point","coordinates":[-87.626785,41.886501]}},{"type":"Feature","properties":{"name":"Arrive Michigan Avenue","h":159.0,"ft":523,"floors":48,"year":2019,"use":"res","purpose":"Residential","uc":false,"super":false,"rank":103,"facts":["103rd-tallest of the 138 skyscrapers in Chicago"]},"geometry":{"type":"Point","coordinates":[-87.624565,41.865044]}},{"type":"Feature","properties":{"name":"Kemper Building","h":159.0,"ft":522,"floors":41,"year":1962,"use":"com","purpose":"Office","uc":false,"super":false,"rank":103,"facts":["103rd-tallest of the 138 skyscrapers in Chicago"],"wiki":"Kemper Building (Chicago)"},"geometry":{"type":"Point","coordinates":[-87.627548,41.886501]}},{"type":"Feature","properties":{"name":"Mather Tower","h":159.0,"ft":521,"floors":38,"year":1928,"use":"com","purpose":"Hotel","uc":false,"super":false,"rank":103,"facts":["103rd-tallest of the 138 skyscrapers in Chicago"],"wiki":"Mather Tower"},"geometry":{"type":"Point","coordinates":[-87.625458,41.887596]}},{"type":"Feature","properties":{"name":"30 South Wacker","h":158.0,"ft":520,"floors":40,"year":1983,"use":"com","purpose":"Office","uc":false,"super":false,"rank":107,"facts":["107th-tallest of the 138 skyscrapers in Chicago"],"wiki":"Chicago Mercantile Exchange Center"},"geometry":{"type":"Point","coordinates":[-87.637527,41.880863]}},{"type":"Feature","properties":{"name":"10 South Wacker","h":158.0,"ft":520,"floors":40,"year":1987,"use":"com","purpose":"Office","uc":false,"super":false,"rank":107,"facts":["107th-tallest of the 138 skyscrapers in Chicago"],"wiki":"Chicago Mercantile Exchange"},"geometry":{"type":"Point","coordinates":[-87.637527,41.881584]}},{"type":"Feature","properties":{"name":"The Columbian","h":158.0,"ft":517,"floors":47,"year":2008,"use":"res","purpose":"Residential","uc":false,"super":false,"rank":107,"facts":["107th-tallest of the 138 skyscrapers in Chicago"],"wiki":"The Columbian (Chicago)"},"geometry":{"type":"Point","coordinates":[-87.62458,41.867695]}},{"type":"Feature","properties":{"name":"151 North Franklin","h":158.0,"ft":517,"floors":35,"year":2018,"use":"com","purpose":"Office","uc":false,"super":false,"rank":107,"facts":["107th-tallest of the 138 skyscrapers in Chicago"],"wiki":"151 North Franklin"},"geometry":{"type":"Point","coordinates":[-87.634933,41.884815]}},{"type":"Feature","properties":{"name":"191 North Wacker","h":157.0,"ft":516,"floors":37,"year":2002,"use":"com","purpose":"Office","uc":false,"super":false,"rank":111,"facts":["111th-tallest of the 138 skyscrapers in Chicago"],"wiki":"191 North Wacker"},"geometry":{"type":"Point","coordinates":[-87.636475,41.885338]}},{"type":"Feature","properties":{"name":"425 South Financial Place","h":157.0,"ft":515,"floors":39,"year":1985,"use":"com","purpose":"Office","uc":false,"super":false,"rank":111,"facts":["111th-tallest of the 138 skyscrapers in Chicago"],"wiki":"425 South Financial Place"},"geometry":{"type":"Point","coordinates":[-87.632172,41.875904]}},{"type":"Feature","properties":{"name":"401 East Ontario","h":157.0,"ft":515,"floors":51,"year":1990,"use":"res","purpose":"Residential","uc":false,"super":false,"rank":111,"facts":["111th-tallest of the 138 skyscrapers in Chicago"],"wiki":"401 East Ontario"},"geometry":{"type":"Point","coordinates":[-87.616898,41.893211]}},{"type":"Feature","properties":{"name":"Millie on Michigan","h":157.0,"ft":515,"floors":47,"year":2022,"use":"res","purpose":"Residential","uc":false,"super":false,"rank":111,"facts":["111th-tallest of the 138 skyscrapers in Chicago"]},"geometry":{"type":"Point","coordinates":[-87.625,41.88699]}},{"type":"Feature","properties":{"name":"The Streeter","h":157.0,"ft":514,"floors":50,"year":2007,"use":"res","purpose":"Residential","uc":false,"super":false,"rank":111,"facts":["111th-tallest of the 138 skyscrapers in Chicago"]},"geometry":{"type":"Point","coordinates":[-87.619034,41.892361]}},{"type":"Feature","properties":{"name":"Park Tower Condominiums","h":156.0,"ft":513,"floors":54,"year":1973,"use":"res","purpose":"Residential","uc":false,"super":false,"rank":116,"facts":["116th-tallest of the 138 skyscrapers in Chicago"],"wiki":"Park Tower and Mall"},"geometry":{"type":"Point","coordinates":[-87.654716,41.980114]}},{"type":"Feature","properties":{"name":"600 North Lake Shore Drive – South Tower","h":156.0,"ft":513,"floors":47,"year":2009,"use":"res","purpose":"Residential","uc":false,"super":false,"rank":116,"facts":["116th-tallest of the 138 skyscrapers in Chicago"]},"geometry":{"type":"Point","coordinates":[-87.614967,41.892876]}},{"type":"Feature","properties":{"name":"LaSalle-Wacker Building","h":156.0,"ft":512,"floors":41,"year":1930,"use":"com","purpose":"Office","uc":false,"super":false,"rank":116,"facts":["116th-tallest of the 138 skyscrapers in Chicago"],"wiki":"LaSalle–Wacker Building"},"geometry":{"type":"Point","coordinates":[-87.631973,41.886494]}},{"type":"Feature","properties":{"name":"Harris Bank Addition II","h":155.0,"ft":510,"floors":55,"year":1974,"use":"com","purpose":"Office","uc":false,"super":false,"rank":119,"facts":["119th-tallest of the 138 skyscrapers in Chicago"],"wiki":"Harris Bank Addition II"},"geometry":{"type":"Point","coordinates":[-87.631912,41.88028]}},{"type":"Feature","properties":{"name":"321 North Clark","h":155.0,"ft":510,"floors":38,"year":1987,"use":"com","purpose":"Office","uc":false,"super":false,"rank":119,"facts":["119th-tallest of the 138 skyscrapers in Chicago"],"wiki":"321 North Clark"},"geometry":{"type":"Point","coordinates":[-87.63063,41.888218]}},{"type":"Feature","properties":{"name":"215 West","h":155.0,"ft":509,"floors":50,"year":2010,"use":"res","purpose":"Residential","uc":false,"super":false,"rank":119,"facts":["119th-tallest of the 138 skyscrapers in Chicago"]},"geometry":{"type":"Point","coordinates":[-87.634438,41.882946]}},{"type":"Feature","properties":{"name":"Carbide & Carbon Building","h":153.0,"ft":503,"floors":37,"year":1929,"use":"com","purpose":"Hotel","uc":false,"super":false,"rank":122,"facts":["122nd-tallest of the 138 skyscrapers in Chicago"],"wiki":"Carbide & Carbon Building"},"geometry":{"type":"Point","coordinates":[-87.624886,41.886574]}},{"type":"Feature","properties":{"name":"400 East Ohio Street","h":153.0,"ft":503,"floors":50,"year":1982,"use":"res","purpose":"Residential","uc":false,"super":false,"rank":122,"facts":["122nd-tallest of the 138 skyscrapers in Chicago"],"wiki":"400 East Ohio Street"},"geometry":{"type":"Point","coordinates":[-87.617409,41.892807]}},{"type":"Feature","properties":{"name":"One Superior Place","h":153.0,"ft":502,"floors":52,"year":1999,"use":"res","purpose":"Residential","uc":false,"super":false,"rank":122,"facts":["122nd-tallest of the 138 skyscrapers in Chicago"],"wiki":"One Superior Place"},"geometry":{"type":"Point","coordinates":[-87.629028,41.895451]}},{"type":"Feature","properties":{"name":"10 South LaSalle","h":153.0,"ft":501,"floors":37,"year":1986,"use":"com","purpose":"Office","uc":false,"super":false,"rank":122,"facts":["122nd-tallest of the 138 skyscrapers in Chicago"],"wiki":"10 South LaSalle"},"geometry":{"type":"Point","coordinates":[-87.632706,41.881599]}},{"type":"Feature","properties":{"name":"120 North LaSalle","h":153.0,"ft":501,"floors":39,"year":1992,"use":"com","purpose":"Office","uc":false,"super":false,"rank":122,"facts":["122nd-tallest of the 138 skyscrapers in Chicago"],"wiki":"120 North LaSalle"},"geometry":{"type":"Point","coordinates":[-87.632896,41.883717]}},{"type":"Feature","properties":{"name":"Halsted Pointe Phase 1","h":153.0,"ft":502,"floors":46,"year":2028,"use":"res","purpose":"Residential","uc":true,"super":false,"rank":122,"facts":["Will be the 122nd-tallest building in Chicago when finished"],"address":"901 North Halsted Street"},"geometry":{"type":"Point","coordinates":[-87.64799,41.899132]}},{"type":"Feature","properties":{"name":"200 South Wacker Drive","h":152.0,"ft":500,"floors":41,"year":1981,"use":"com","purpose":"Office","uc":false,"super":false,"rank":127,"facts":["127th-tallest of the 138 skyscrapers in Chicago"],"wiki":"200 South Wacker Drive"},"geometry":{"type":"Point","coordinates":[-87.63739,41.879021]}},{"type":"Feature","properties":{"name":"The Tides at Lakeshore East","h":152.0,"ft":500,"floors":51,"year":2008,"use":"res","purpose":"Residential","uc":false,"super":false,"rank":127,"facts":["127th-tallest of the 138 skyscrapers in Chicago"]},"geometry":{"type":"Point","coordinates":[-87.618164,41.886677]}},{"type":"Feature","properties":{"name":"Parkview West","h":152.0,"ft":498,"floors":49,"year":2008,"use":"res","purpose":"Residential","uc":false,"super":false,"rank":127,"facts":["127th-tallest of the 138 skyscrapers in Chicago"]},"geometry":{"type":"Point","coordinates":[-87.617271,41.891247]}},{"type":"Feature","properties":{"name":"500 North Lake Shore Drive","h":151.0,"ft":497,"floors":47,"year":2013,"use":"res","purpose":"Residential","uc":false,"super":false,"rank":130,"facts":["130th-tallest of the 138 skyscrapers in Chicago"]},"geometry":{"type":"Point","coordinates":[-87.614777,41.891624]}},{"type":"Feature","properties":{"name":"727 West Madison","h":151.0,"ft":496,"floors":45,"year":2018,"use":"res","purpose":"Residential","uc":false,"super":false,"rank":130,"facts":["130th-tallest of the 138 skyscrapers in Chicago"]},"geometry":{"type":"Point","coordinates":[-87.646667,41.881454]}},{"type":"Feature","properties":{"name":"55 West Monroe","h":151.0,"ft":495,"floors":41,"year":1980,"use":"com","purpose":"Office","uc":false,"super":false,"rank":130,"facts":["130th-tallest of the 138 skyscrapers in Chicago"]},"geometry":{"type":"Point","coordinates":[-87.629814,41.880367]}},{"type":"Feature","properties":{"name":"Ontario Place","h":151.0,"ft":495,"floors":49,"year":1983,"use":"res","purpose":"Residential","uc":false,"super":false,"rank":130,"facts":["130th-tallest of the 138 skyscrapers in Chicago"]},"geometry":{"type":"Point","coordinates":[-87.627762,41.893562]}},{"type":"Feature","properties":{"name":"The Row","h":151.0,"ft":495,"floors":43,"year":2023,"use":"res","purpose":"Residential","uc":false,"super":false,"rank":130,"facts":["130th-tallest of the 138 skyscrapers in Chicago"]},"geometry":{"type":"Point","coordinates":[-87.650169,41.88496]}},{"type":"Feature","properties":{"name":"50 East Chestnut Street","h":151.0,"ft":495,"floors":40,"year":2008,"use":"res","purpose":"Residential","uc":false,"super":false,"rank":130,"facts":["130th-tallest of the 138 skyscrapers in Chicago"]},"geometry":{"type":"Point","coordinates":[-87.626198,41.898544]}},{"type":"Feature","properties":{"name":"The Ritz-Carlton Residences","h":151.0,"ft":495,"floors":40,"year":2012,"use":"res","purpose":"Residential","uc":false,"super":false,"rank":130,"facts":["130th-tallest of the 138 skyscrapers in Chicago"]},"geometry":{"type":"Point","coordinates":[-87.624634,41.894474]}},{"type":"Feature","properties":{"name":"PNC Center","h":151.0,"ft":494,"floors":36,"year":1992,"use":"com","purpose":"Office","uc":false,"super":false,"rank":130,"facts":["130th-tallest of the 138 skyscrapers in Chicago"]},"geometry":{"type":"Point","coordinates":[-87.634972,41.882256]}},{"type":"Feature","properties":{"name":"No. 9 Walton","h":151.0,"ft":494,"floors":38,"year":2018,"use":"res","purpose":"Residential","uc":false,"super":false,"rank":130,"facts":["130th-tallest of the 138 skyscrapers in Chicago"]},"geometry":{"type":"Point","coordinates":[-87.628761,41.899708]}}]}