{"type":"FeatureCollection", "features": [
{"type":"Feature","geometry":{"type":"Polygon","coordinates":[[[-79.49262,43.64744],[-79.48491,43.64908],[-79.485,43.64919],[-79.48872,43.65826],[-79.4883,43.65836],[-79.48842,43.65867],[-79.48288,43.65992],[-79.48257,43.65993],[-79.48081,43.66032],[-79.48122,43.66172],[-79.48267,43.6651],[-79.4823,43.66519],[-79.48223,43.66549],[-79.48405,43.66989],[-79.48008,43.67077],[-79.48078,43.67251],[-79.47857,43.673],[-79.47884,43.67364],[-79.47824,43.67379],[-79.47837,43.67408],[-79.47419,43.67498],[-79.4735,43.6752],[-79.47388,43.67568],[-79.47366,43.67629],[-79.47368,43.67672],[-79.4758,43.67837],[-79.476,43.67887],[-79.47383,43.67938],[-79.47345,43.67901],[-79.47264,43.67921],[-79.47178,43.67924],[-79.47057,43.67949],[-79.47048,43.67927],[-79.46533,43.68036],[-79.46548,43.68072],[-79.46111,43.68166],[-79.46114,43.68175],[-79.46044,43.6819],[-79.46021,43.68156],[-79.44495,43.68489],[-79.44245,43.67876],[-79.42629,43.68219],[-79.42619,43.68196],[-79.42458,43.68232],[-79.42466,43.6825],[-79.41841,43.68379],[-79.4183,43.68349],[-79.41341,43.68447],[-79.41347,43.68462],[-79.4119,43.68494],[-79.41316,43.68807],[-79.41322,43.68801],[-79.41288,43.68722],[-79.41941,43.68589],[-79.42556,43.70099],[-79.43925,43.69807],[-79.44069,43.70161],[-79.43883,43.70204],[-79.43969,43.70561],[-79.44011,43.70559],[-79.44228,43.70518],[-79.45226,43.70297],[-79.4671,43.69967],[-79.4746,43.69787],[-79.48546,43.69547],[-79.48774,43.69506],[-79.49764,43.69298],[-79.50415,43.69635],[-79.50219,43.69676],[-79.50238,43.69759],[-79.50535,43.69692],[-79.50825,43.69834],[-79.50289,43.69955],[-79.50384,43.70288],[-79.50441,43.70516],[-79.50511,43.70755],[-79.50579,43.7102],[-79.51734,43.70751],[-79.52029,43.70689],[-79.52084,43.70804],[-79.52224,43.70769],[-79.52234,43.70788],[-79.52372,43.70755],[-79.52311,43.70644],[-79.52546,43.70587],[-79.52772,43.70651],[-79.52883,43.70693],[-79.52947,43.70735],[-79.53004,43.70789],[-79.53055,43.70867],[-79.53081,43.70929],[-79.53154,43.70916],[-79.53086,43.71068],[-79.53235,43.71044],[-79.53255,43.70996],[-79.5323,43.70897],[-79.53584,43.70812],[-79.53566,43.70789],[-79.53556,43.70755],[-79.53544,43.70678],[-79.5356,43.70569],[-79.53572,43.70532],[-79.53595,43.70499],[-79.53596,43.70459],[-79.53544,43.70448],[-79.53502,43.70455],[-79.53413,43.70483],[-79.53317,43.70501],[-79.53219,43.70497],[-79.53116,43.70478],[-79.53074,43.70458],[-79.5301,43.70403],[-79.52972,43.70382],[-79.52917,43.70325],[-79.52903,43.7029],[-79.52878,43.70256],[-79.52857,43.70242],[-79.52718,43.70207],[-79.52558,43.70142],[-79.52333,43.70069],[-79.52181,43.70004],[-79.52118,43.69972],[-79.52069,43.69875],[-79.52032,43.69825],[-79.51949,43.69747],[-79.51882,43.69712],[-79.51719,43.69684],[-79.51634,43.6968],[-79.51354,43.69725],[-79.5131,43.69723],[-79.51225,43.69695],[-79.51196,43.69669],[-79.5119,43.69639],[-79.51203,43.69609],[-79.51265,43.69517],[-79.51282,43.69424],[-79.51329,43.69338],[-79.51327,43.69157],[-79.51311,43.69078],[-79.51255,43.68882],[-79.51238,43.68847],[-79.51186,43.68782],[-79.51144,43.68715],[-79.51111,43.68646],[-79.51065,43.68497],[-79.51028,43.68427],[-79.51001,43.68352],[-79.50954,43.68291],[-79.50925,43.68263],[-79.50889,43.68244],[-79.50845,43.68236],[-79.50745,43.68243],[-79.50692,43.6824],[-79.50597,43.68223],[-79.5057,43.68196],[-79.50547,43.68092],[-79.50553,43.68056],[-79.50576,43.68024],[-79.50694,43.6796],[-79.50724,43.67927],[-79.50789,43.67804],[-79.50828,43.67716],[-79.50852,43.67675],[-79.50883,43.67639],[-79.50924,43.67604],[-79.51122,43.67497],[-79.51205,43.67432],[-79.5123,43.67393],[-79.51244,43.67352],[-79.51235,43.67258],[-79.51197,43.67123],[-79.51174,43.66989],[-79.51127,43.66828],[-79.51146,43.6679],[-79.51179,43.66759],[-79.51253,43.66714],[-79.5128,43.66686],[-79.51299,43.66654],[-79.51308,43.66617],[-79.51305,43.66534],[-79.51258,43.66332],[-79.51221,43.66263],[-79.5113,43.66212],[-79.51025,43.66194],[-79.50929,43.66212],[-79.50709,43.66291],[-79.5066,43.66302],[-79.50617,43.66301],[-79.5054,43.66275],[-79.50486,43.66234],[-79.50409,43.66195],[-79.50308,43.66112],[-79.50148,43.66],[-79.50014,43.65934],[-79.49978,43.65904],[-79.49952,43.65869],[-79.49944,43.6583],[-79.49953,43.65791],[-79.49974,43.65753],[-79.50003,43.65717],[-79.50161,43.65608],[-79.50225,43.65547],[-79.50251,43.65514],[-79.50269,43.6548],[-79.50286,43.65405],[-79.50287,43.65363],[-79.50278,43.65321],[-79.50249,43.65288],[-79.50207,43.65258],[-79.50152,43.6524],[-79.50034,43.65217],[-79.49907,43.65212],[-79.49786,43.65199],[-79.49665,43.65198],[-79.49427,43.65229],[-79.49365,43.65231],[-79.49306,43.65226],[-79.49248,43.65212],[-79.49196,43.65191],[-79.4915,43.65163],[-79.49124,43.65126],[-79.49093,43.65045],[-79.49088,43.65005],[-79.49102,43.64968],[-79.49227,43.6481],[-79.49262,43.64744]]]},"properties":{"name":"York","info":"Former City of York (a township until 1967, a borough until 1983).","lp":[-79.49178,43.68064]}},
{"type":"Feature","geometry":{"type":"Polygon","coordinates":[[[-79.53584,43.70812],[-79.5323,43.70897],[-79.53255,43.70996],[-79.53235,43.71044],[-79.53086,43.71068],[-79.53154,43.70916],[-79.53081,43.70929],[-79.53055,43.70867],[-79.53004,43.70789],[-79.52947,43.70735],[-79.52883,43.70693],[-79.52772,43.70651],[-79.52546,43.70587],[-79.52311,43.70644],[-79.52372,43.70755],[-79.52234,43.70788],[-79.52224,43.70769],[-79.52084,43.70804],[-79.52029,43.70689],[-79.51734,43.70751],[-79.50579,43.7102],[-79.50511,43.70755],[-79.50441,43.70516],[-79.50384,43.70288],[-79.50289,43.69955],[-79.50825,43.69834],[-79.50535,43.69692],[-79.50238,43.69759],[-79.50219,43.69676],[-79.50415,43.69635],[-79.49764,43.69298],[-79.48774,43.69506],[-79.48546,43.69547],[-79.4746,43.69787],[-79.4671,43.69967],[-79.44228,43.70518],[-79.44011,43.70559],[-79.43969,43.70561],[-79.41933,43.70995],[-79.42112,43.7142],[-79.42222,43.71703],[-79.4135,43.71876],[-79.41456,43.72449],[-79.41588,43.72774],[-79.41615,43.72884],[-79.41698,43.73334],[-79.40493,43.73601],[-79.40455,43.73426],[-79.39241,43.73691],[-79.39016,43.7281],[-79.38826,43.71895],[-79.38735,43.71546],[-79.38571,43.71135],[-79.38149,43.71218],[-79.38151,43.71222],[-79.37898,43.71272],[-79.37749,43.71309],[-79.37809,43.71672],[-79.36575,43.71916],[-79.36213,43.72],[-79.35323,43.72171],[-79.35294,43.71999],[-79.35264,43.71742],[-79.3527,43.71729],[-79.35263,43.71623],[-79.35179,43.71648],[-79.35135,43.7157],[-79.35002,43.71586],[-79.34989,43.71603],[-79.34892,43.71631],[-79.34856,43.71629],[-79.34787,43.71612],[-79.3471,43.71609],[-79.3468,43.71594],[-79.34692,43.7154],[-79.34673,43.71517],[-79.34601,43.71504],[-79.3453,43.71522],[-79.34494,43.71522],[-79.34473,43.71478],[-79.34446,43.71455],[-79.34378,43.71428],[-79.34344,43.71408],[-79.3431,43.71356],[-79.34286,43.71335],[-79.34213,43.71313],[-79.34148,43.71278],[-79.34076,43.71269],[-79.34045,43.7128],[-79.34021,43.713],[-79.33985,43.71301],[-79.33953,43.71279],[-79.33949,43.71249],[-79.34029,43.7117],[-79.34028,43.71137],[-79.34005,43.71105],[-79.33944,43.71071],[-79.33939,43.71014],[-79.33859,43.7098],[-79.33826,43.70952],[-79.33801,43.70918],[-79.33782,43.70843],[-79.33781,43.70809],[-79.33791,43.7077],[-79.3199,43.71166],[-79.31944,43.71256],[-79.31929,43.71269],[-79.31934,43.7133],[-79.31953,43.71341],[-79.3195,43.71563],[-79.31199,43.71727],[-79.31119,43.71545],[-79.30481,43.71685],[-79.30494,43.71599],[-79.30515,43.71541],[-79.30534,43.7151],[-79.29916,43.71637],[-79.30166,43.72227],[-79.30935,43.74092],[-79.31003,43.74272],[-79.31484,43.75672],[-79.31562,43.75877],[-79.3186,43.76542],[-79.31938,43.76743],[-79.32007,43.76898],[-79.32098,43.77075],[-79.32423,43.77788],[-79.33183,43.79402],[-79.33841,43.80875],[-79.34132,43.81565],[-79.37176,43.80865],[-79.3819,43.8064],[-79.45303,43.79081],[-79.46319,43.78865],[-79.47009,43.78728],[-79.50434,43.77924],[-79.51701,43.77636],[-79.51875,43.77602],[-79.52057,43.77575],[-79.52345,43.77499],[-79.56478,43.76655],[-79.57487,43.76434],[-79.58064,43.76302],[-79.57978,43.76242],[-79.57938,43.76222],[-79.5789,43.76223],[-79.57794,43.76242],[-79.57758,43.76226],[-79.57753,43.76213],[-79.57876,43.76146],[-79.57933,43.76084],[-79.58062,43.76036],[-79.58074,43.7602],[-79.58078,43.75979],[-79.58057,43.75924],[-79.58077,43.75893],[-79.58151,43.75865],[-79.58241,43.75851],[-79.58271,43.75852],[-79.58355,43.75874],[-79.58382,43.7587],[-79.58409,43.75839],[-79.58407,43.7582],[-79.58382,43.75761],[-79.58402,43.75729],[-79.58499,43.7571],[-79.58512,43.75695],[-79.58521,43.7565],[-79.58512,43.75629],[-79.58428,43.75546],[-79.58416,43.75524],[-79.58429,43.75481],[-79.58413,43.7544],[-79.58394,43.7542],[-79.58334,43.75391],[-79.58313,43.75372],[-79.58315,43.75299],[-79.5831,43.75275],[-79.58285,43.75255],[-79.58223,43.75228],[-79.58,43.75157],[-79.57891,43.75079],[-79.5779,43.75036],[-79.57711,43.75019],[-79.57552,43.75003],[-79.57327,43.75036],[-79.57297,43.7502],[-79.57269,43.74971],[-79.57313,43.74865],[-79.57334,43.748],[-79.57338,43.74769],[-79.5733,43.74742],[-79.57285,43.74696],[-79.57247,43.74684],[-79.57127,43.7468],[-79.5694,43.74639],[-79.56522,43.74568],[-79.56398,43.74526],[-79.5634,43.7448],[-79.56235,43.74431],[-79.56217,43.74407],[-79.56224,43.74376],[-79.56245,43.74345],[-79.56246,43.74314],[-79.56229,43.74285],[-79.5619,43.7427],[-79.56098,43.74263],[-79.56115,43.7423],[-79.56137,43.74218],[-79.56271,43.74203],[-79.5633,43.74165],[-79.56337,43.74131],[-79.56335,43.74089],[-79.56294,43.74043],[-79.56253,43.74017],[-79.56174,43.73995],[-79.56105,43.73981],[-79.55989,43.73981],[-79.55927,43.73988],[-79.5589,43.74006],[-79.55867,43.74026],[-79.5587,43.74068],[-79.5593,43.74104],[-79.55973,43.74141],[-79.56038,43.74248],[-79.56036,43.7426],[-79.55976,43.7425],[-79.55943,43.74262],[-79.55928,43.74297],[-79.55876,43.74292],[-79.55807,43.7425],[-79.55785,43.74213],[-79.55796,43.74198],[-79.55834,43.74184],[-79.55838,43.74146],[-79.55817,43.74117],[-79.55783,43.74096],[-79.55764,43.74096],[-79.55679,43.74141],[-79.55698,43.74226],[-79.55674,43.74286],[-79.55646,43.7431],[-79.55603,43.74321],[-79.55437,43.74322],[-79.55295,43.74359],[-79.55156,43.74419],[-79.55121,43.74424],[-79.5508,43.7442],[-79.55037,43.74408],[-79.55001,43.74386],[-79.54984,43.74359],[-79.54983,43.74327],[-79.54994,43.74294],[-79.55041,43.74254],[-79.55039,43.74234],[-79.54999,43.74228],[-79.54949,43.74253],[-79.5492,43.74233],[-79.54935,43.74195],[-79.54913,43.74176],[-79.54878,43.7417],[-79.548,43.7418],[-79.54761,43.74173],[-79.5464,43.74095],[-79.54618,43.74069],[-79.5461,43.74036],[-79.54618,43.74005],[-79.54643,43.73979],[-79.54784,43.73906],[-79.54822,43.73898],[-79.54836,43.73877],[-79.54836,43.73849],[-79.54887,43.73802],[-79.54927,43.73792],[-79.54976,43.73799],[-79.54994,43.73791],[-79.55009,43.7375],[-79.55005,43.73719],[-79.55045,43.73669],[-79.55056,43.7364],[-79.55046,43.736],[-79.55029,43.73587],[-79.54958,43.73594],[-79.54916,43.73593],[-79.54908,43.73579],[-79.54964,43.73528],[-79.55056,43.73472],[-79.55044,43.73424],[-79.55049,43.73387],[-79.55036,43.73353],[-79.55001,43.7333],[-79.54919,43.7331],[-79.54887,43.73283],[-79.54781,43.73239],[-79.54756,43.73195],[-79.54677,43.73156],[-79.54632,43.73144],[-79.54586,43.73145],[-79.5455,43.73153],[-79.54512,43.73215],[-79.5448,43.73236],[-79.54441,43.73238],[-79.54408,43.73227],[-79.54388,43.73204],[-79.54384,43.73178],[-79.54401,43.73154],[-79.54486,43.73102],[-79.54483,43.7308],[-79.54424,43.73037],[-79.5436,43.73004],[-79.54322,43.72992],[-79.54155,43.72965],[-79.54082,43.72958],[-79.54015,43.72978],[-79.53995,43.72996],[-79.53928,43.73088],[-79.53924,43.73112],[-79.53949,43.73195],[-79.53924,43.73208],[-79.53892,43.73207],[-79.53863,43.73193],[-79.53842,43.73162],[-79.53856,43.73015],[-79.53862,43.72984],[-79.53886,43.72926],[-79.53831,43.72761],[-79.53823,43.72726],[-79.53828,43.72691],[-79.53848,43.72664],[-79.53881,43.72645],[-79.53961,43.72623],[-79.54047,43.72623],[-79.54087,43.72613],[-79.54114,43.72592],[-79.5413,43.72563],[-79.54134,43.72528],[-79.54113,43.72457],[-79.54076,43.72391],[-79.54071,43.72356],[-79.54072,43.72261],[-79.54079,43.72227],[-79.54096,43.72195],[-79.54123,43.72168],[-79.54227,43.72097],[-79.5428,43.72036],[-79.54304,43.71976],[-79.54404,43.71803],[-79.54408,43.7177],[-79.54365,43.71715],[-79.54326,43.71694],[-79.54244,43.71677],[-79.5413,43.71686],[-79.54092,43.71674],[-79.54069,43.71654],[-79.54062,43.71619],[-79.54077,43.71563],[-79.54074,43.71536],[-79.54026,43.71506],[-79.53903,43.71485],[-79.53821,43.71458],[-79.53801,43.71431],[-79.53785,43.71371],[-79.53786,43.71271],[-79.53812,43.71209],[-79.5384,43.71182],[-79.53913,43.71138],[-79.5394,43.71107],[-79.5396,43.71071],[-79.53957,43.71034],[-79.53933,43.70966],[-79.5389,43.709],[-79.53813,43.70849],[-79.53741,43.70826],[-79.53629,43.70834],[-79.53591,43.7082],[-79.53584,43.70812]]]},"properties":{"name":"North York","info":"Former City of North York, incorporated as a city in 1979.","lp":[-79.46188,43.74496]}},
{"type":"Feature","geometry":{"type":"Polygon","coordinates":[[[-79.28776,43.68978],[-79.29077,43.69723],[-79.29222,43.70011],[-79.29599,43.70878],[-79.29916,43.71637],[-79.30534,43.7151],[-79.30515,43.71541],[-79.30494,43.71599],[-79.30481,43.71685],[-79.31119,43.71545],[-79.31199,43.71727],[-79.3195,43.71563],[-79.31953,43.71341],[-79.31934,43.7133],[-79.31929,43.71269],[-79.31944,43.71256],[-79.3199,43.71166],[-79.33791,43.7077],[-79.33781,43.70809],[-79.33782,43.70843],[-79.33801,43.70918],[-79.33826,43.70952],[-79.33859,43.7098],[-79.33939,43.71014],[-79.33944,43.71071],[-79.34005,43.71105],[-79.34028,43.71137],[-79.34029,43.7117],[-79.33949,43.71249],[-79.33953,43.71279],[-79.33985,43.71301],[-79.34021,43.713],[-79.34045,43.7128],[-79.34076,43.71269],[-79.34148,43.71278],[-79.34213,43.71313],[-79.34286,43.71335],[-79.3431,43.71356],[-79.34344,43.71408],[-79.34378,43.71428],[-79.34446,43.71455],[-79.34473,43.71478],[-79.34494,43.71522],[-79.3453,43.71522],[-79.34601,43.71504],[-79.34673,43.71517],[-79.34692,43.7154],[-79.3468,43.71594],[-79.3471,43.71609],[-79.34787,43.71612],[-79.34856,43.71629],[-79.34892,43.71631],[-79.34989,43.71603],[-79.35002,43.71586],[-79.35135,43.7157],[-79.35179,43.71648],[-79.35263,43.71623],[-79.3527,43.71729],[-79.35264,43.71742],[-79.35294,43.71999],[-79.35323,43.72171],[-79.36213,43.72],[-79.36575,43.71916],[-79.37809,43.71672],[-79.37716,43.71104],[-79.37695,43.7103],[-79.37174,43.69675],[-79.37322,43.6965],[-79.38008,43.69503],[-79.37996,43.69473],[-79.37729,43.69355],[-79.37673,43.69335],[-79.37639,43.69339],[-79.37445,43.6928],[-79.37378,43.69254],[-79.37082,43.69094],[-79.37059,43.69071],[-79.3695,43.69032],[-79.36858,43.68989],[-79.36802,43.68954],[-79.36772,43.68924],[-79.36741,43.68875],[-79.36728,43.68821],[-79.36755,43.68656],[-79.36647,43.68406],[-79.36785,43.68149],[-79.36793,43.68093],[-79.36752,43.67958],[-79.36726,43.67913],[-79.36677,43.67851],[-79.36444,43.67902],[-79.36426,43.67919],[-79.36169,43.6797],[-79.36234,43.68126],[-79.36238,43.68169],[-79.36177,43.68174],[-79.36129,43.68167],[-79.35744,43.68171],[-79.35722,43.68244],[-79.34875,43.68408],[-79.34804,43.68239],[-79.33885,43.68415],[-79.3388,43.68403],[-79.31484,43.68918],[-79.31357,43.68629],[-79.30814,43.68755],[-79.30888,43.68928],[-79.30415,43.6904],[-79.30352,43.6905],[-79.30341,43.69028],[-79.29426,43.69238],[-79.29269,43.68871],[-79.28776,43.68978]]]},"properties":{"name":"East York","info":"Former Borough of East York, the only borough until amalgamation.","lp":[-79.35493,43.69966]}},
{"type":"Feature","geometry":{"type":"Polygon","coordinates":[[[-79.28776,43.68978],[-79.28119,43.67386],[-79.28106,43.6739],[-79.28002,43.67138],[-79.28013,43.67135],[-79.28005,43.67116],[-79.27973,43.67107],[-79.27833,43.67218],[-79.27765,43.67209],[-79.27739,43.67262],[-79.27644,43.67391],[-79.27602,43.67417],[-79.27545,43.67506],[-79.27511,43.67538],[-79.27491,43.67571],[-79.27389,43.67686],[-79.27344,43.67721],[-79.27337,43.67741],[-79.27306,43.67775],[-79.27302,43.678],[-79.27264,43.67852],[-79.27212,43.67878],[-79.27193,43.67913],[-79.27142,43.67963],[-79.27108,43.67983],[-79.27072,43.68037],[-79.27032,43.68055],[-79.27036,43.68072],[-79.27008,43.68086],[-79.26995,43.68115],[-79.26965,43.68139],[-79.26889,43.68213],[-79.26832,43.68261],[-79.26829,43.68283],[-79.26811,43.68308],[-79.26769,43.6833],[-79.2674,43.6838],[-79.26697,43.68398],[-79.26664,43.68447],[-79.26638,43.68461],[-79.26514,43.68571],[-79.26374,43.68672],[-79.26347,43.68702],[-79.26368,43.68715],[-79.26351,43.68752],[-79.2632,43.68792],[-79.26291,43.68814],[-79.26249,43.68804],[-79.26198,43.68867],[-79.2617,43.68887],[-79.26087,43.68974],[-79.26064,43.68982],[-79.26058,43.69003],[-79.26026,43.69039],[-79.25997,43.69051],[-79.25981,43.69088],[-79.25945,43.69118],[-79.2593,43.69166],[-79.25891,43.69192],[-79.25855,43.69254],[-79.25814,43.69279],[-79.25804,43.69308],[-79.25783,43.69335],[-79.2573,43.69354],[-79.25691,43.69404],[-79.25658,43.6942],[-79.25642,43.69441],[-79.25567,43.69502],[-79.25352,43.69598],[-79.25336,43.69618],[-79.25255,43.69654],[-79.25228,43.69654],[-79.25202,43.6967],[-79.25125,43.69697],[-79.25098,43.69719],[-79.24941,43.69808],[-79.24732,43.69872],[-79.24672,43.69905],[-79.24619,43.69943],[-79.24633,43.69969],[-79.24571,43.69999],[-79.24523,43.70041],[-79.24462,43.70064],[-79.24406,43.70119],[-79.24346,43.70157],[-79.24192,43.70226],[-79.24101,43.70295],[-79.24013,43.70349],[-79.23938,43.70348],[-79.23887,43.70333],[-79.23904,43.70361],[-79.23963,43.70364],[-79.23973,43.70375],[-79.23932,43.70406],[-79.23861,43.70426],[-79.23786,43.70415],[-79.23767,43.70435],[-79.23833,43.70433],[-79.2386,43.7046],[-79.23779,43.70488],[-79.23752,43.70504],[-79.23728,43.70504],[-79.23673,43.70472],[-79.23667,43.70455],[-79.23679,43.70416],[-79.23755,43.70358],[-79.23765,43.70304],[-79.23779,43.70284],[-79.2385,43.70246],[-79.23882,43.70253],[-79.23921,43.70232],[-79.23915,43.70205],[-79.23861,43.7019],[-79.23818,43.70222],[-79.23734,43.7022],[-79.23707,43.70208],[-79.23666,43.70169],[-79.2366,43.70147],[-79.23612,43.7012],[-79.23564,43.70125],[-79.23543,43.70167],[-79.23556,43.7019],[-79.23604,43.70205],[-79.2364,43.70241],[-79.23657,43.70284],[-79.23654,43.70328],[-79.23631,43.70376],[-79.23578,43.70449],[-79.23503,43.70497],[-79.23412,43.70543],[-79.2336,43.70582],[-79.23438,43.70635],[-79.23398,43.7064],[-79.23377,43.70673],[-79.23307,43.70688],[-79.23267,43.70669],[-79.23272,43.70632],[-79.23311,43.70587],[-79.233,43.70563],[-79.23332,43.70541],[-79.23322,43.70525],[-79.23275,43.70533],[-79.2324,43.70518],[-79.23234,43.7049],[-79.23187,43.70494],[-79.23154,43.70528],[-79.23112,43.70533],[-79.23014,43.70513],[-79.22921,43.70468],[-79.2289,43.7049],[-79.22917,43.70539],[-79.22852,43.70667],[-79.22821,43.707],[-79.22767,43.70712],[-79.22759,43.70739],[-79.22818,43.70731],[-79.22851,43.70744],[-79.22878,43.70689],[-79.22965,43.70587],[-79.23107,43.70641],[-79.2311,43.70663],[-79.23153,43.70663],[-79.23187,43.70673],[-79.23347,43.7076],[-79.23321,43.70812],[-79.23332,43.70836],[-79.23318,43.7088],[-79.23305,43.70896],[-79.23305,43.70931],[-79.23234,43.70999],[-79.23131,43.71057],[-79.23098,43.71059],[-79.23065,43.71049],[-79.2302,43.71024],[-79.23012,43.71006],[-79.2303,43.7099],[-79.23102,43.70969],[-79.23137,43.70951],[-79.23167,43.70906],[-79.23182,43.70847],[-79.23132,43.70847],[-79.23103,43.70878],[-79.22992,43.70847],[-79.22982,43.7083],[-79.22985,43.70792],[-79.2297,43.70772],[-79.22949,43.7077],[-79.22946,43.70818],[-79.22914,43.70852],[-79.22849,43.70885],[-79.22852,43.70909],[-79.22916,43.70879],[-79.22967,43.70915],[-79.22958,43.70936],[-79.22905,43.70964],[-79.22823,43.70928],[-79.22799,43.7093],[-79.22782,43.70965],[-79.22829,43.70997],[-79.22805,43.71048],[-79.22806,43.71104],[-79.22728,43.71124],[-79.22725,43.71159],[-79.22808,43.71176],[-79.22912,43.71174],[-79.22924,43.71161],[-79.22915,43.71055],[-79.22932,43.71034],[-79.22989,43.71036],[-79.23014,43.71048],[-79.23046,43.71084],[-79.2306,43.71126],[-79.23052,43.71153],[-79.22999,43.71219],[-79.22941,43.71258],[-79.22861,43.71266],[-79.22791,43.71263],[-79.22661,43.71239],[-79.22647,43.71229],[-79.22645,43.7117],[-79.2263,43.71126],[-79.22675,43.70974],[-79.2271,43.70888],[-79.22748,43.7086],[-79.22797,43.70843],[-79.2281,43.70831],[-79.22782,43.70807],[-79.22724,43.70813],[-79.22652,43.70805],[-79.22643,43.70793],[-79.22632,43.70736],[-79.22609,43.70728],[-79.22594,43.70751],[-79.22583,43.70811],[-79.22605,43.70835],[-79.22633,43.70849],[-79.22648,43.7089],[-79.22606,43.70966],[-79.22569,43.71055],[-79.22545,43.71075],[-79.22514,43.71082],[-79.22502,43.71107],[-79.22578,43.7117],[-79.22563,43.71212],[-79.22522,43.71227],[-79.22544,43.71258],[-79.22568,43.71253],[-79.22664,43.71296],[-79.22665,43.71339],[-79.22644,43.71409],[-79.22621,43.71451],[-79.226,43.71472],[-79.2257,43.71548],[-79.22464,43.71699],[-79.22419,43.71779],[-79.22358,43.7185],[-79.22292,43.71913],[-79.22217,43.71977],[-79.22148,43.72016],[-79.22056,43.72092],[-79.21935,43.7218],[-79.21864,43.722],[-79.21853,43.72208],[-79.21778,43.72306],[-79.21742,43.72331],[-79.21746,43.72342],[-79.21651,43.72468],[-79.2154,43.72576],[-79.21539,43.72584],[-79.21486,43.72638],[-79.21457,43.72661],[-79.21383,43.72679],[-79.21337,43.72726],[-79.21342,43.72737],[-79.21331,43.72788],[-79.2129,43.72853],[-79.2121,43.72941],[-79.21112,43.73065],[-79.20924,43.73258],[-79.20878,43.73291],[-79.2087,43.73316],[-79.20748,43.73416],[-79.20617,43.73502],[-79.20548,43.73533],[-79.20498,43.73528],[-79.20503,43.73508],[-79.20475,43.735],[-79.20238,43.73573],[-79.19754,43.73914],[-79.19615,43.74093],[-79.19577,43.74125],[-79.19558,43.74117],[-79.19521,43.74142],[-79.19484,43.74214],[-79.19452,43.74251],[-79.1941,43.7428],[-79.19374,43.7428],[-79.19352,43.7429],[-79.19159,43.74438],[-79.19046,43.74539],[-79.18986,43.74571],[-79.18965,43.7461],[-79.18916,43.74641],[-79.18894,43.74664],[-79.18756,43.74743],[-79.18621,43.74776],[-79.18579,43.7482],[-79.18311,43.74952],[-79.18302,43.74984],[-79.18267,43.75018],[-79.18122,43.75112],[-79.18024,43.75143],[-79.17951,43.752],[-79.17702,43.75311],[-79.17564,43.75382],[-79.17353,43.75467],[-79.17275,43.75487],[-79.17012,43.75586],[-79.16846,43.75633],[-79.16728,43.75683],[-79.16617,43.757],[-79.16403,43.75746],[-79.16335,43.75753],[-79.16175,43.758],[-79.16044,43.75826],[-79.15961,43.75855],[-79.15771,43.75881],[-79.15564,43.75898],[-79.15342,43.75899],[-79.15301,43.75909],[-79.15256,43.75935],[-79.15234,43.75958],[-79.15152,43.76015],[-79.15072,43.76108],[-79.14986,43.76229],[-79.14819,43.76397],[-79.14662,43.76541],[-79.14601,43.76587],[-79.14362,43.76729],[-79.14286,43.7679],[-79.14251,43.7683],[-79.14174,43.76897],[-79.14136,43.76939],[-79.13987,43.77042],[-79.13918,43.77081],[-79.1385,43.77135],[-79.1369,43.77285],[-79.13654,43.77312],[-79.13633,43.77343],[-79.13473,43.77511],[-79.13305,43.77639],[-79.13179,43.77769],[-79.13048,43.77886],[-79.1302,43.77926],[-79.12974,43.77973],[-79.12857,43.78072],[-79.12836,43.78073],[-79.12787,43.78141],[-79.12728,43.78204],[-79.12682,43.78227],[-79.12689,43.78245],[-79.12652,43.78306],[-79.12477,43.78506],[-79.1239,43.78642],[-79.12248,43.78804],[-79.12222,43.78848],[-79.12078,43.79034],[-79.12018,43.79121],[-79.11837,43.79286],[-79.11701,43.79365],[-79.11664,43.79396],[-79.11545,43.79456],[-79.11579,43.79477],[-79.11602,43.79479],[-79.11714,43.79437],[-79.11774,43.79435],[-79.11841,43.79448],[-79.11932,43.7948],[-79.11999,43.79482],[-79.121,43.79474],[-79.12121,43.79495],[-79.12111,43.79533],[-79.12027,43.79562],[-79.12018,43.79586],[-79.12031,43.79615],[-79.12117,43.79702],[-79.12151,43.79725],[-79.12193,43.7974],[-79.12234,43.79743],[-79.12347,43.79718],[-79.12423,43.79743],[-79.12436,43.79773],[-79.1242,43.79835],[-79.12423,43.79901],[-79.1246,43.79964],[-79.12487,43.79993],[-79.12518,43.80013],[-79.12557,43.80022],[-79.12679,43.80015],[-79.12768,43.80029],[-79.12846,43.80063],[-79.12986,43.80145],[-79.13023,43.80161],[-79.13103,43.80178],[-79.13179,43.80173],[-79.13216,43.80163],[-79.13427,43.80087],[-79.13526,43.80067],[-79.13543,43.80083],[-79.13541,43.80108],[-79.13521,43.80132],[-79.13466,43.80174],[-79.13418,43.80222],[-79.13377,43.80272],[-79.13367,43.80296],[-79.13369,43.80327],[-79.13418,43.80392],[-79.13439,43.80443],[-79.1343,43.80522],[-79.13405,43.80569],[-79.13391,43.80621],[-79.1341,43.80686],[-79.13531,43.80775],[-79.13589,43.80804],[-79.13626,43.80807],[-79.13705,43.80771],[-79.13761,43.80786],[-79.13788,43.8075],[-79.13816,43.80749],[-79.13841,43.80796],[-79.13895,43.80799],[-79.13898,43.80811],[-79.13958,43.80844],[-79.1401,43.80834],[-79.14064,43.80845],[-79.1407,43.80878],[-79.14124,43.80891],[-79.14184,43.80944],[-79.14197,43.80964],[-79.14246,43.80945],[-79.14291,43.80948],[-79.14315,43.80963],[-79.14311,43.80989],[-79.14288,43.81008],[-79.14314,43.81072],[-79.14343,43.81062],[-79.14346,43.81025],[-79.14364,43.81006],[-79.14528,43.80999],[-79.1461,43.81007],[-79.14633,43.81026],[-79.1464,43.81048],[-79.14613,43.81059],[-79.14613,43.81084],[-79.14667,43.81134],[-79.14773,43.81195],[-79.14823,43.81232],[-79.14947,43.81248],[-79.15076,43.81344],[-79.15123,43.81388],[-79.15174,43.81398],[-79.15216,43.81469],[-79.1528,43.81672],[-79.1555,43.82258],[-79.16591,43.84591],[-79.17029,43.85546],[-79.18002,43.85317],[-79.19503,43.84949],[-79.2045,43.84725],[-79.22974,43.84165],[-79.25119,43.8366],[-79.30549,43.82407],[-79.32669,43.81909],[-79.33579,43.81702],[-79.34132,43.81565],[-79.33841,43.80875],[-79.33183,43.79402],[-79.32423,43.77788],[-79.32098,43.77075],[-79.32007,43.76898],[-79.31938,43.76743],[-79.3186,43.76542],[-79.31562,43.75877],[-79.31484,43.75672],[-79.31003,43.74272],[-79.30935,43.74092],[-79.30166,43.72227],[-79.29599,43.70878],[-79.29222,43.70011],[-79.29077,43.69723],[-79.28776,43.68978]]]},"properties":{"name":"Scarborough","info":"Former City of Scarborough, incorporated as a city in 1983.","lp":[-79.25552,43.77274]}},
{"type":"Feature","geometry":{"type":"Polygon","coordinates":[[[-79.58064,43.76302],[-79.59607,43.7595],[-79.63172,43.75151],[-79.63314,43.75131],[-79.63525,43.75123],[-79.63645,43.75106],[-79.63737,43.75076],[-79.63926,43.74987],[-79.63761,43.7483],[-79.63691,43.74714],[-79.6369,43.74683],[-79.63664,43.74648],[-79.63566,43.74462],[-79.63149,43.73753],[-79.63135,43.73703],[-79.63035,43.73547],[-79.62926,43.73464],[-79.62897,43.73381],[-79.62882,43.73365],[-79.62818,43.73353],[-79.62779,43.73318],[-79.62695,43.73142],[-79.6265,43.72957],[-79.62594,43.72819],[-79.61915,43.71625],[-79.61556,43.71017],[-79.61322,43.70627],[-79.60725,43.69692],[-79.60588,43.69468],[-79.60439,43.69202],[-79.60219,43.6878],[-79.60132,43.68648],[-79.6005,43.68545],[-79.60015,43.68511],[-79.59995,43.68373],[-79.59475,43.67502],[-79.59475,43.67475],[-79.59455,43.67421],[-79.59143,43.66917],[-79.59049,43.66751],[-79.58996,43.66682],[-79.58878,43.66462],[-79.60873,43.64645],[-79.60829,43.64604],[-79.60781,43.64505],[-79.60754,43.64485],[-79.60716,43.6447],[-79.6067,43.64469],[-79.60561,43.64483],[-79.60501,43.64447],[-79.60478,43.64443],[-79.60397,43.64451],[-79.60334,43.64471],[-79.60293,43.64469],[-79.60248,43.64453],[-79.60199,43.64413],[-79.60073,43.64392],[-79.59983,43.64384],[-79.59922,43.64369],[-79.59893,43.64353],[-79.59861,43.6432],[-79.59838,43.6431],[-79.59673,43.64304],[-79.59606,43.6431],[-79.59542,43.64329],[-79.59331,43.64451],[-79.5929,43.64465],[-79.59245,43.64472],[-79.59181,43.6446],[-79.59038,43.644],[-79.59007,43.64381],[-79.58931,43.64315],[-79.58856,43.64273],[-79.58824,43.64233],[-79.58808,43.64195],[-79.58824,43.6417],[-79.58822,43.64146],[-79.58738,43.64065],[-79.58702,43.63992],[-79.58694,43.63949],[-79.58629,43.6385],[-79.58562,43.6378],[-79.58529,43.63723],[-79.58534,43.6367],[-79.58594,43.63568],[-79.58606,43.63532],[-79.58599,43.63494],[-79.58553,43.63442],[-79.58554,43.63419],[-79.58583,43.63364],[-79.5857,43.63334],[-79.58535,43.6329],[-79.58507,43.63178],[-79.58514,43.63122],[-79.58594,43.62988],[-79.586,43.62941],[-79.58559,43.62892],[-79.58539,43.62882],[-79.5826,43.62799],[-79.58223,43.62793],[-79.58166,43.62795],[-79.58111,43.6278],[-79.58046,43.62753],[-79.57971,43.62692],[-79.5769,43.62619],[-79.57573,43.62561],[-79.57506,43.62544],[-79.57451,43.62553],[-79.57369,43.62598],[-79.57246,43.62615],[-79.57022,43.62696],[-79.56979,43.62698],[-79.56915,43.62688],[-79.5688,43.62675],[-79.56837,43.6268],[-79.568,43.62703],[-79.5677,43.62732],[-79.56753,43.62761],[-79.56744,43.62801],[-79.56697,43.6282],[-79.566,43.62824],[-79.56479,43.62816],[-79.56411,43.62799],[-79.56395,43.62789],[-79.56378,43.62707],[-79.56344,43.62631],[-79.5636,43.62564],[-79.5636,43.62489],[-79.56394,43.6245],[-79.56426,43.62439],[-79.56488,43.62458],[-79.56509,43.62458],[-79.56543,43.62437],[-79.56561,43.62404],[-79.5659,43.62252],[-79.56558,43.62192],[-79.56558,43.62162],[-79.56581,43.62136],[-79.56665,43.62099],[-79.56682,43.62087],[-79.56693,43.62055],[-79.56675,43.61993],[-79.56672,43.61949],[-79.56682,43.61886],[-79.56651,43.61795],[-79.5667,43.61754],[-79.56697,43.61729],[-79.56755,43.61704],[-79.56785,43.61678],[-79.56786,43.61601],[-79.56818,43.6151],[-79.56835,43.61437],[-79.56829,43.61422],[-79.56789,43.61389],[-79.56726,43.61363],[-79.56631,43.61339],[-79.56512,43.61342],[-79.56438,43.61324],[-79.56409,43.61298],[-79.56395,43.61253],[-79.56422,43.61224],[-79.56528,43.61176],[-79.56615,43.61107],[-79.56717,43.61066],[-79.56733,43.61022],[-79.56718,43.60928],[-79.567,43.60895],[-79.56664,43.60868],[-79.5662,43.60859],[-79.56566,43.60867],[-79.5648,43.60838],[-79.56461,43.60795],[-79.56491,43.60735],[-79.56471,43.60711],[-79.56252,43.60667],[-79.56227,43.6065],[-79.56187,43.60604],[-79.56046,43.60546],[-79.55926,43.60475],[-79.55866,43.60422],[-79.55834,43.60377],[-79.55802,43.60349],[-79.55689,43.60296],[-79.55631,43.60257],[-79.55613,43.60204],[-79.55625,43.60141],[-79.55606,43.60104],[-79.55583,43.59999],[-79.55569,43.59967],[-79.55538,43.59942],[-79.55429,43.59912],[-79.55408,43.59899],[-79.55379,43.59866],[-79.55359,43.59829],[-79.55348,43.5979],[-79.55395,43.59633],[-79.55371,43.59576],[-79.55324,43.5955],[-79.55238,43.59532],[-79.55094,43.59532],[-79.54942,43.59521],[-79.54903,43.59513],[-79.54873,43.59485],[-79.54866,43.59442],[-79.54871,43.59382],[-79.54949,43.59226],[-79.5496,43.5915],[-79.54955,43.59062],[-79.54935,43.59034],[-79.54848,43.59017],[-79.54641,43.58893],[-79.54816,43.587],[-79.54465,43.58528],[-79.54388,43.58139],[-79.54341,43.581],[-79.54279,43.58257],[-79.54222,43.58366],[-79.54157,43.58423],[-79.54137,43.58454],[-79.5411,43.58464],[-79.54102,43.58489],[-79.53989,43.58615],[-79.53967,43.58623],[-79.53936,43.5866],[-79.53856,43.58717],[-79.53822,43.58731],[-79.53711,43.58803],[-79.53683,43.5881],[-79.53601,43.58817],[-79.53542,43.58812],[-79.53459,43.58795],[-79.53426,43.58797],[-79.534,43.58779],[-79.53349,43.58811],[-79.53084,43.58859],[-79.53058,43.58853],[-79.53061,43.58819],[-79.53088,43.58816],[-79.53074,43.58789],[-79.52971,43.58791],[-79.52925,43.58824],[-79.52853,43.5891],[-79.52755,43.58957],[-79.5264,43.58964],[-79.52607,43.58975],[-79.52535,43.58975],[-79.52496,43.58984],[-79.52478,43.58975],[-79.52448,43.58985],[-79.52403,43.58988],[-79.52349,43.59003],[-79.52268,43.59003],[-79.51984,43.59021],[-79.51908,43.59046],[-79.51904,43.59061],[-79.5185,43.59069],[-79.5182,43.59039],[-79.51723,43.59056],[-79.51673,43.59028],[-79.5164,43.5899],[-79.51624,43.58954],[-79.51652,43.58897],[-79.51617,43.58912],[-79.51548,43.58891],[-79.51491,43.58897],[-79.51506,43.5894],[-79.51558,43.58938],[-79.51568,43.58945],[-79.51569,43.59006],[-79.5158,43.59013],[-79.51591,43.59053],[-79.51585,43.59071],[-79.5155,43.59082],[-79.51542,43.59013],[-79.51495,43.59011],[-79.51503,43.59046],[-79.51531,43.59057],[-79.51514,43.5908],[-79.51466,43.59045],[-79.51302,43.59085],[-79.51177,43.59052],[-79.51156,43.5904],[-79.51153,43.59013],[-79.51108,43.58909],[-79.51123,43.58867],[-79.5117,43.58844],[-79.51226,43.58827],[-79.5122,43.58794],[-79.51314,43.58771],[-79.51333,43.58796],[-79.51353,43.588],[-79.5141,43.58787],[-79.51463,43.58762],[-79.51506,43.58778],[-79.51531,43.58803],[-79.51583,43.58813],[-79.51609,43.58826],[-79.51727,43.58853],[-79.51699,43.58826],[-79.51593,43.58798],[-79.51445,43.58727],[-79.51403,43.58713],[-79.51325,43.5871],[-79.51123,43.58738],[-79.51066,43.58736],[-79.50998,43.58721],[-79.50961,43.58721],[-79.50928,43.58731],[-79.50927,43.58756],[-79.51015,43.58783],[-79.51043,43.58809],[-79.5105,43.58841],[-79.51042,43.58902],[-79.51018,43.58945],[-79.50954,43.59008],[-79.50879,43.59021],[-79.50869,43.59039],[-79.50885,43.59054],[-79.5101,43.59076],[-79.51087,43.59104],[-79.51094,43.59141],[-79.51083,43.59173],[-79.51059,43.5921],[-79.51026,43.59239],[-79.50983,43.59252],[-79.51068,43.5926],[-79.51046,43.59288],[-79.5107,43.59304],[-79.51084,43.59331],[-79.51072,43.59365],[-79.50991,43.59381],[-79.50968,43.59375],[-79.50902,43.59392],[-79.50863,43.59374],[-79.50826,43.59388],[-79.50683,43.59417],[-79.50641,43.59412],[-79.50631,43.59364],[-79.50619,43.59348],[-79.50579,43.59345],[-79.50547,43.59374],[-79.50506,43.59396],[-79.50496,43.59422],[-79.50438,43.59426],[-79.50373,43.59422],[-79.50251,43.59443],[-79.50092,43.59499],[-79.50039,43.5954],[-79.50048,43.59576],[-79.50031,43.59625],[-79.49956,43.59753],[-79.49931,43.59775],[-79.49887,43.59782],[-79.49836,43.59805],[-79.49812,43.59836],[-79.49786,43.59851],[-79.49798,43.5992],[-79.49819,43.5995],[-79.49818,43.59965],[-79.49792,43.60021],[-79.49748,43.60071],[-79.49697,43.60109],[-79.49629,43.60176],[-79.49595,43.60195],[-79.49476,43.60222],[-79.49426,43.60209],[-79.49346,43.60212],[-79.49307,43.60201],[-79.49259,43.60214],[-79.4925,43.60266],[-79.49225,43.60282],[-79.49208,43.60306],[-79.49138,43.60361],[-79.4912,43.60387],[-79.49058,43.60446],[-79.49019,43.60496],[-79.48988,43.60515],[-79.48931,43.60576],[-79.48936,43.60589],[-79.48921,43.60622],[-79.48892,43.60663],[-79.48842,43.6068],[-79.48819,43.60721],[-79.48799,43.60739],[-79.48775,43.60799],[-79.48756,43.60821],[-79.4872,43.60846],[-79.48697,43.60933],[-79.48654,43.60969],[-79.48651,43.61012],[-79.48668,43.61035],[-79.48681,43.61077],[-79.48677,43.61093],[-79.48693,43.61129],[-79.48692,43.61162],[-79.48739,43.61198],[-79.4872,43.61257],[-79.48768,43.613],[-79.48751,43.6134],[-79.48715,43.61374],[-79.48652,43.61375],[-79.48626,43.61396],[-79.48608,43.61454],[-79.48583,43.61481],[-79.48584,43.61501],[-79.48563,43.61526],[-79.48541,43.6157],[-79.48543,43.61629],[-79.48496,43.61733],[-79.48463,43.61769],[-79.48426,43.61796],[-79.48372,43.61801],[-79.48316,43.61838],[-79.48241,43.61845],[-79.48165,43.61872],[-79.48136,43.61864],[-79.48126,43.61838],[-79.48165,43.61809],[-79.48131,43.61783],[-79.48118,43.61804],[-79.48056,43.61838],[-79.47885,43.61709],[-79.48006,43.61617],[-79.48043,43.61619],[-79.48053,43.6156],[-79.48013,43.61546],[-79.48012,43.61514],[-79.48042,43.61411],[-79.48084,43.61403],[-79.48193,43.6141],[-79.48217,43.61397],[-79.4827,43.61396],[-79.48283,43.61418],[-79.48306,43.61425],[-79.4831,43.6147],[-79.48338,43.61464],[-79.48348,43.61427],[-79.48373,43.6138],[-79.48418,43.61321],[-79.48403,43.61306],[-79.48343,43.61282],[-79.4832,43.61246],[-79.48292,43.61233],[-79.4827,43.61252],[-79.48271,43.61292],[-79.48244,43.61315],[-79.48179,43.61337],[-79.4808,43.61342],[-79.48058,43.61336],[-79.48029,43.61306],[-79.47996,43.61229],[-79.47944,43.61192],[-79.47906,43.61197],[-79.47893,43.61209],[-79.47891,43.61239],[-79.47928,43.61303],[-79.47874,43.61407],[-79.47849,43.61436],[-79.47828,43.61444],[-79.47728,43.61419],[-79.47692,43.61445],[-79.47751,43.61496],[-79.47715,43.61569],[-79.47677,43.61627],[-79.47614,43.61695],[-79.47573,43.61751],[-79.47497,43.6178],[-79.47515,43.61799],[-79.47595,43.61814],[-79.47605,43.61795],[-79.47673,43.61746],[-79.47727,43.61735],[-79.47834,43.61792],[-79.47866,43.61818],[-79.47884,43.6186],[-79.47844,43.6189],[-79.47832,43.61911],[-79.47795,43.61882],[-79.47768,43.61841],[-79.47727,43.61831],[-79.47686,43.61844],[-79.47653,43.61871],[-79.47651,43.61908],[-79.47663,43.61925],[-79.47713,43.61961],[-79.47808,43.61977],[-79.47898,43.62016],[-79.47968,43.62059],[-79.47994,43.62087],[-79.48033,43.62107],[-79.48054,43.62107],[-79.48099,43.6207],[-79.48145,43.62072],[-79.48163,43.62084],[-79.48143,43.62155],[-79.48158,43.62182],[-79.48083,43.62164],[-79.48049,43.62169],[-79.47935,43.62166],[-79.47856,43.6215],[-79.47778,43.6216],[-79.47754,43.62158],[-79.47706,43.62093],[-79.47716,43.62073],[-79.47722,43.62024],[-79.47706,43.62011],[-79.47637,43.61985],[-79.47577,43.61977],[-79.47562,43.61964],[-79.47531,43.61893],[-79.4749,43.61871],[-79.4744,43.61885],[-79.47435,43.61925],[-79.47474,43.6198],[-79.47482,43.62018],[-79.47403,43.62124],[-79.47324,43.62206],[-79.47278,43.62233],[-79.47253,43.6224],[-79.47047,43.62256],[-79.46962,43.62238],[-79.4692,43.62256],[-79.46923,43.62295],[-79.46962,43.62329],[-79.46991,43.62372],[-79.47007,43.62416],[-79.47021,43.62485],[-79.47045,43.62524],[-79.47067,43.62533],[-79.47135,43.6251],[-79.47203,43.62535],[-79.47198,43.62497],[-79.47168,43.62466],[-79.47156,43.62434],[-79.4724,43.62349],[-79.47282,43.6234],[-79.47302,43.6235],[-79.47317,43.62326],[-79.47361,43.62288],[-79.47381,43.62256],[-79.474,43.62248],[-79.47452,43.62254],[-79.4748,43.62282],[-79.47525,43.62301],[-79.47553,43.62341],[-79.47573,43.62347],[-79.47686,43.62301],[-79.47765,43.62229],[-79.47851,43.622],[-79.47873,43.62202],[-79.47884,43.62226],[-79.47846,43.62256],[-79.47823,43.62298],[-79.4778,43.62352],[-79.47733,43.62361],[-79.47649,43.62348],[-79.47681,43.62386],[-79.47659,43.62415],[-79.47593,43.624],[-79.47589,43.62409],[-79.4762,43.62446],[-79.47607,43.62493],[-79.4766,43.62472],[-79.47639,43.62535],[-79.47593,43.62535],[-79.47594,43.62578],[-79.47624,43.62575],[-79.47612,43.62627],[-79.47579,43.62699],[-79.47545,43.62704],[-79.4756,43.62732],[-79.47534,43.62804],[-79.47516,43.62826],[-79.47486,43.62821],[-79.4747,43.62836],[-79.47492,43.62852],[-79.47465,43.62895],[-79.47447,43.62909],[-79.47416,43.62898],[-79.474,43.62912],[-79.47411,43.6293],[-79.47356,43.6297],[-79.47316,43.6296],[-79.47276,43.62958],[-79.47257,43.6297],[-79.47226,43.63048],[-79.47182,43.63066],[-79.47099,43.6306],[-79.47084,43.63067],[-79.4707,43.63126],[-79.47202,43.63237],[-79.4728,43.63282],[-79.47326,43.63301],[-79.47484,43.63217],[-79.47501,43.63228],[-79.4746,43.63256],[-79.47408,43.6331],[-79.47396,43.63329],[-79.47513,43.63385],[-79.4755,43.63411],[-79.47683,43.63644],[-79.47687,43.63675],[-79.47709,43.63721],[-79.4775,43.63773],[-79.47812,43.63799],[-79.47885,43.63812],[-79.48086,43.63809],[-79.48233,43.63797],[-79.48385,43.63805],[-79.48425,43.63815],[-79.48483,43.63848],[-79.48504,43.63882],[-79.4851,43.63911],[-79.48511,43.64027],[-79.48499,43.64174],[-79.48522,43.64203],[-79.48571,43.64211],[-79.48666,43.64203],[-79.4875,43.64181],[-79.4891,43.64121],[-79.48944,43.64123],[-79.4899,43.64155],[-79.49022,43.64205],[-79.49059,43.64308],[-79.4912,43.6442],[-79.49174,43.64495],[-79.49252,43.64562],[-79.49279,43.64621],[-79.49282,43.64673],[-79.49277,43.64712],[-79.49242,43.64786],[-79.49102,43.64968],[-79.49088,43.65005],[-79.49093,43.65045],[-79.49124,43.65126],[-79.4915,43.65163],[-79.49196,43.65191],[-79.49248,43.65212],[-79.49306,43.65226],[-79.49365,43.65231],[-79.49427,43.65229],[-79.49665,43.65198],[-79.49786,43.65199],[-79.49907,43.65212],[-79.50034,43.65217],[-79.50152,43.6524],[-79.50207,43.65258],[-79.50249,43.65288],[-79.50278,43.65321],[-79.50287,43.65363],[-79.50279,43.65445],[-79.50251,43.65514],[-79.50225,43.65547],[-79.50161,43.65608],[-79.50003,43.65717],[-79.49974,43.65753],[-79.49953,43.65791],[-79.49944,43.6583],[-79.49952,43.65869],[-79.49978,43.65904],[-79.50014,43.65934],[-79.50148,43.66],[-79.50308,43.66112],[-79.50409,43.66195],[-79.50486,43.66234],[-79.5054,43.66275],[-79.50617,43.66301],[-79.5066,43.66302],[-79.50709,43.66291],[-79.50929,43.66212],[-79.51025,43.66194],[-79.5113,43.66212],[-79.51221,43.66263],[-79.51258,43.66332],[-79.5128,43.66411],[-79.51305,43.66534],[-79.51308,43.66617],[-79.51299,43.66654],[-79.5128,43.66686],[-79.51253,43.66714],[-79.51179,43.66759],[-79.51146,43.6679],[-79.51127,43.66828],[-79.51174,43.66989],[-79.51197,43.67123],[-79.51235,43.67258],[-79.51244,43.67352],[-79.5123,43.67393],[-79.51205,43.67432],[-79.51122,43.67497],[-79.50924,43.67604],[-79.50883,43.67639],[-79.50852,43.67675],[-79.50828,43.67716],[-79.50789,43.67804],[-79.50724,43.67927],[-79.50694,43.6796],[-79.50576,43.68024],[-79.50553,43.68056],[-79.50547,43.68092],[-79.5057,43.68196],[-79.50597,43.68223],[-79.50692,43.6824],[-79.50745,43.68243],[-79.50845,43.68236],[-79.50889,43.68244],[-79.50925,43.68263],[-79.50954,43.68291],[-79.51001,43.68352],[-79.51028,43.68427],[-79.51065,43.68497],[-79.51111,43.68646],[-79.51144,43.68715],[-79.51186,43.68782],[-79.51238,43.68847],[-79.51255,43.68882],[-79.51311,43.69078],[-79.51327,43.69157],[-79.51329,43.69338],[-79.51282,43.69424],[-79.51265,43.69517],[-79.51203,43.69609],[-79.5119,43.69639],[-79.51196,43.69669],[-79.51225,43.69695],[-79.5131,43.69723],[-79.51354,43.69725],[-79.51634,43.6968],[-79.51719,43.69684],[-79.51882,43.69712],[-79.51949,43.69747],[-79.52032,43.69825],[-79.52069,43.69875],[-79.52118,43.69972],[-79.52181,43.70004],[-79.52333,43.70069],[-79.52558,43.70142],[-79.52718,43.70207],[-79.52857,43.70242],[-79.52878,43.70256],[-79.52903,43.7029],[-79.52917,43.70325],[-79.52972,43.70382],[-79.5301,43.70403],[-79.53074,43.70458],[-79.53116,43.70478],[-79.53219,43.70497],[-79.53317,43.70501],[-79.53413,43.70483],[-79.53502,43.70455],[-79.53544,43.70448],[-79.53596,43.70459],[-79.53595,43.70499],[-79.53572,43.70532],[-79.5356,43.70569],[-79.53544,43.70678],[-79.53547,43.70715],[-79.53566,43.70789],[-79.53591,43.7082],[-79.53629,43.70834],[-79.53741,43.70826],[-79.53813,43.70849],[-79.5389,43.709],[-79.53933,43.70966],[-79.53957,43.71034],[-79.5396,43.71071],[-79.5394,43.71107],[-79.53913,43.71138],[-79.5384,43.71182],[-79.53812,43.71209],[-79.53786,43.71271],[-79.53783,43.71351],[-79.53801,43.71431],[-79.53821,43.71458],[-79.53903,43.71485],[-79.54026,43.71506],[-79.54074,43.71536],[-79.54077,43.71563],[-79.54062,43.71619],[-79.54069,43.71654],[-79.54092,43.71674],[-79.5413,43.71686],[-79.54244,43.71677],[-79.54326,43.71694],[-79.54365,43.71715],[-79.54408,43.7177],[-79.54404,43.71803],[-79.54304,43.71976],[-79.5428,43.72036],[-79.54227,43.72097],[-79.54123,43.72168],[-79.54096,43.72195],[-79.54079,43.72227],[-79.54072,43.72261],[-79.54071,43.72356],[-79.54076,43.72391],[-79.54113,43.72457],[-79.54134,43.72528],[-79.5413,43.72563],[-79.54114,43.72592],[-79.54087,43.72613],[-79.54047,43.72623],[-79.53961,43.72623],[-79.53881,43.72645],[-79.53848,43.72664],[-79.53828,43.72691],[-79.53823,43.72726],[-79.53831,43.72761],[-79.53886,43.72926],[-79.53862,43.72984],[-79.53856,43.73015],[-79.53842,43.73162],[-79.53863,43.73193],[-79.53892,43.73207],[-79.53924,43.73208],[-79.53949,43.73195],[-79.53924,43.73112],[-79.53928,43.73088],[-79.53995,43.72996],[-79.54015,43.72978],[-79.54082,43.72958],[-79.54279,43.72984],[-79.5436,43.73004],[-79.54424,43.73037],[-79.54483,43.7308],[-79.54486,43.73102],[-79.54401,43.73154],[-79.54384,43.73178],[-79.54388,43.73204],[-79.54408,43.73227],[-79.54441,43.73238],[-79.5448,43.73236],[-79.54512,43.73215],[-79.5455,43.73153],[-79.54586,43.73145],[-79.54632,43.73144],[-79.54677,43.73156],[-79.54756,43.73195],[-79.54781,43.73239],[-79.54887,43.73283],[-79.54919,43.7331],[-79.55001,43.7333],[-79.55036,43.73353],[-79.55046,43.73373],[-79.5505,43.73395],[-79.55044,43.73424],[-79.55056,43.73472],[-79.54964,43.73528],[-79.54908,43.73579],[-79.54916,43.73593],[-79.54958,43.73594],[-79.55029,43.73587],[-79.55046,43.736],[-79.55056,43.7364],[-79.55045,43.73669],[-79.55005,43.73719],[-79.55009,43.7375],[-79.54994,43.73791],[-79.54976,43.73799],[-79.54927,43.73792],[-79.54887,43.73802],[-79.54836,43.73849],[-79.54836,43.73877],[-79.54822,43.73898],[-79.54784,43.73906],[-79.54643,43.73979],[-79.54618,43.74005],[-79.5461,43.74036],[-79.54618,43.74069],[-79.5464,43.74095],[-79.54761,43.74173],[-79.548,43.7418],[-79.54878,43.7417],[-79.54913,43.74176],[-79.54935,43.74195],[-79.5492,43.74233],[-79.54949,43.74253],[-79.54999,43.74228],[-79.55039,43.74234],[-79.55041,43.74254],[-79.54994,43.74294],[-79.54983,43.74327],[-79.54984,43.74359],[-79.55001,43.74386],[-79.55037,43.74408],[-79.5508,43.7442],[-79.55121,43.74424],[-79.55194,43.74406],[-79.55225,43.74387],[-79.55295,43.74359],[-79.55437,43.74322],[-79.55603,43.74321],[-79.55646,43.7431],[-79.55674,43.74286],[-79.55698,43.74226],[-79.55679,43.74141],[-79.55764,43.74096],[-79.55783,43.74096],[-79.55817,43.74117],[-79.55838,43.74146],[-79.55834,43.74184],[-79.55796,43.74198],[-79.55785,43.74213],[-79.55807,43.7425],[-79.55876,43.74292],[-79.55928,43.74297],[-79.55943,43.74262],[-79.55976,43.7425],[-79.56036,43.7426],[-79.56038,43.74248],[-79.55973,43.74141],[-79.5593,43.74104],[-79.5587,43.74068],[-79.55867,43.74026],[-79.5589,43.74006],[-79.55927,43.73988],[-79.56025,43.73979],[-79.56105,43.73981],[-79.56253,43.74017],[-79.56294,43.74043],[-79.56335,43.74089],[-79.56337,43.74131],[-79.5633,43.74165],[-79.56271,43.74203],[-79.56137,43.74218],[-79.56115,43.7423],[-79.56098,43.74263],[-79.5619,43.7427],[-79.56229,43.74285],[-79.56246,43.74314],[-79.56245,43.74345],[-79.56224,43.74376],[-79.56217,43.74407],[-79.56235,43.74431],[-79.5634,43.7448],[-79.56398,43.74526],[-79.56522,43.74568],[-79.5694,43.74639],[-79.57127,43.7468],[-79.57247,43.74684],[-79.57285,43.74696],[-79.5733,43.74742],[-79.57338,43.74769],[-79.57334,43.748],[-79.57313,43.74865],[-79.57269,43.74971],[-79.57297,43.7502],[-79.57327,43.75036],[-79.57552,43.75003],[-79.57711,43.75019],[-79.5779,43.75036],[-79.57891,43.75079],[-79.58,43.75157],[-79.58223,43.75228],[-79.58285,43.75255],[-79.5831,43.75275],[-79.58315,43.75299],[-79.58313,43.75372],[-79.58334,43.75391],[-79.58394,43.7542],[-79.58413,43.7544],[-79.58429,43.75481],[-79.58416,43.75524],[-79.58428,43.75546],[-79.58512,43.75629],[-79.58521,43.7565],[-79.58512,43.75695],[-79.58499,43.7571],[-79.58402,43.75729],[-79.58382,43.75761],[-79.58407,43.7582],[-79.58409,43.75839],[-79.58382,43.7587],[-79.58355,43.75874],[-79.58271,43.75852],[-79.58241,43.75851],[-79.58151,43.75865],[-79.58077,43.75893],[-79.58057,43.75924],[-79.58078,43.75979],[-79.58074,43.7602],[-79.58062,43.76036],[-79.57933,43.76084],[-79.57876,43.76146],[-79.57753,43.76213],[-79.57758,43.76226],[-79.57794,43.76242],[-79.5789,43.76223],[-79.57938,43.76222],[-79.57978,43.76242],[-79.58064,43.76302]]]},"properties":{"name":"Etobicoke","info":"Former City of Etobicoke, incorporated as a city in 1983.","lp":[-79.551,43.66952]}},
{"type":"Feature","geometry":{"type":"Polygon","coordinates":[[[-79.4707,43.63126],[-79.47081,43.63192],[-79.47057,43.63209],[-79.46932,43.63265],[-79.46858,43.63332],[-79.46836,43.63374],[-79.46813,43.6339],[-79.46708,43.63434],[-79.46599,43.63459],[-79.46529,43.6349],[-79.46501,43.63519],[-79.46427,43.63554],[-79.46345,43.63573],[-79.46256,43.63577],[-79.46216,43.63603],[-79.46156,43.63631],[-79.4613,43.63633],[-79.46057,43.63661],[-79.46002,43.63674],[-79.45894,43.63677],[-79.45869,43.6367],[-79.45799,43.63705],[-79.4577,43.63714],[-79.455,43.63741],[-79.45367,43.63721],[-79.45296,43.63686],[-79.4524,43.63671],[-79.45089,43.6365],[-79.44976,43.63651],[-79.44911,43.63619],[-79.44886,43.63619],[-79.44838,43.63636],[-79.44769,43.63648],[-79.44615,43.63609],[-79.44398,43.63515],[-79.44386,43.63495],[-79.44311,43.63469],[-79.44291,43.63469],[-79.44198,43.63496],[-79.44111,43.63481],[-79.44057,43.63459],[-79.43998,43.63419],[-79.44003,43.63396],[-79.43929,43.63355],[-79.43932,43.63318],[-79.43916,43.63309],[-79.43757,43.63247],[-79.4363,43.6319],[-79.43588,43.63183],[-79.43506,43.63136],[-79.43338,43.63078],[-79.43183,43.63043],[-79.42852,43.62986],[-79.42716,43.62968],[-79.42608,43.62963],[-79.42011,43.6301],[-79.41868,43.62948],[-79.41841,43.62947],[-79.41803,43.62823],[-79.4184,43.62816],[-79.41867,43.62796],[-79.41903,43.62787],[-79.41932,43.62798],[-79.41935,43.62815],[-79.41915,43.62849],[-79.41935,43.62869],[-79.41971,43.62875],[-79.41933,43.62899],[-79.4194,43.62919],[-79.41963,43.62932],[-79.42247,43.62906],[-79.42217,43.62868],[-79.42205,43.62839],[-79.42212,43.62813],[-79.42254,43.62773],[-79.42248,43.62754],[-79.42221,43.62741],[-79.42138,43.62754],[-79.42096,43.62743],[-79.42036,43.62717],[-79.42024,43.62693],[-79.42001,43.62676],[-79.4197,43.62676],[-79.41946,43.62689],[-79.41822,43.62649],[-79.41659,43.62626],[-79.41502,43.6264],[-79.41508,43.62655],[-79.41652,43.6264],[-79.41833,43.6266],[-79.41863,43.62675],[-79.41838,43.62703],[-79.41812,43.62707],[-79.41775,43.62691],[-79.41783,43.62734],[-79.41733,43.62792],[-79.4162,43.6281],[-79.4161,43.62786],[-79.41563,43.62764],[-79.41539,43.62708],[-79.41454,43.62717],[-79.41418,43.62715],[-79.41349,43.62697],[-79.41331,43.62702],[-79.41297,43.62731],[-79.41226,43.62739],[-79.41124,43.62731],[-79.41038,43.6278],[-79.41013,43.62806],[-79.41003,43.62833],[-79.41024,43.62914],[-79.40988,43.62939],[-79.40915,43.62952],[-79.40905,43.62978],[-79.40928,43.63021],[-79.40945,43.6307],[-79.40946,43.63102],[-79.40999,43.63094],[-79.41002,43.63114],[-79.40958,43.63122],[-79.40879,43.63168],[-79.40861,43.63304],[-79.40664,43.6328],[-79.40506,43.63307],[-79.40296,43.63148],[-79.403,43.63127],[-79.40232,43.631],[-79.39757,43.63353],[-79.39685,43.63392],[-79.39877,43.63155],[-79.4028,43.62934],[-79.4049,43.62784],[-79.40427,43.6264],[-79.40273,43.62677],[-79.40222,43.62654],[-79.40134,43.62603],[-79.39986,43.62498],[-79.39899,43.62423],[-79.39821,43.62369],[-79.39749,43.62297],[-79.39685,43.62247],[-79.39652,43.62232],[-79.39516,43.62126],[-79.39387,43.62006],[-79.39274,43.61867],[-79.39243,43.6181],[-79.39185,43.61646],[-79.39182,43.61585],[-79.39198,43.61528],[-79.39183,43.61489],[-79.39214,43.61437],[-79.39178,43.61361],[-79.39144,43.61323],[-79.38948,43.6121],[-79.38929,43.61188],[-79.38841,43.61176],[-79.38816,43.61199],[-79.38779,43.61194],[-79.38761,43.61202],[-79.38533,43.61185],[-79.38402,43.61188],[-79.38245,43.61207],[-79.38209,43.61215],[-79.3822,43.61242],[-79.38058,43.61317],[-79.37849,43.61385],[-79.37745,43.6143],[-79.377,43.61441],[-79.37598,43.6144],[-79.37515,43.61501],[-79.37365,43.61583],[-79.37253,43.61634],[-79.37197,43.61633],[-79.37161,43.61647],[-79.3715,43.61674],[-79.37127,43.617],[-79.37055,43.61752],[-79.36989,43.61769],[-79.36957,43.61793],[-79.36903,43.61822],[-79.36645,43.61934],[-79.36332,43.62159],[-79.36136,43.6229],[-79.35782,43.62545],[-79.35678,43.62641],[-79.35607,43.62715],[-79.35538,43.6281],[-79.35455,43.62958],[-79.35362,43.62975],[-79.35231,43.62984],[-79.35015,43.62972],[-79.34973,43.62958],[-79.34963,43.63042],[-79.34953,43.63091],[-79.34939,43.63102],[-79.35252,43.63371],[-79.34711,43.63311],[-79.34701,43.63404],[-79.34686,43.63433],[-79.34598,43.63469],[-79.34558,43.63493],[-79.34513,43.63541],[-79.34417,43.63616],[-79.3435,43.63685],[-79.34293,43.6373],[-79.34226,43.63769],[-79.34172,43.63785],[-79.34155,43.638],[-79.3415,43.63833],[-79.34088,43.63892],[-79.34066,43.63904],[-79.33904,43.63937],[-79.338,43.63931],[-79.33765,43.63939],[-79.33649,43.63914],[-79.33649,43.63923],[-79.33586,43.63934],[-79.33516,43.63973],[-79.33499,43.63987],[-79.33518,43.64001],[-79.33543,43.63991],[-79.33619,43.63942],[-79.33644,43.63941],[-79.33689,43.63961],[-79.33745,43.64007],[-79.33737,43.64034],[-79.33671,43.64098],[-79.33633,43.64123],[-79.33622,43.64147],[-79.33596,43.64156],[-79.33575,43.6419],[-79.33532,43.64203],[-79.33526,43.64229],[-79.33386,43.64356],[-79.33353,43.64395],[-79.33322,43.64416],[-79.33234,43.64496],[-79.33096,43.64588],[-79.33045,43.64659],[-79.32836,43.64761],[-79.32806,43.64756],[-79.32732,43.64725],[-79.32743,43.64704],[-79.32694,43.64683],[-79.32661,43.64696],[-79.32591,43.64688],[-79.32583,43.64681],[-79.32572,43.64627],[-79.32534,43.64565],[-79.32536,43.64551],[-79.32683,43.64397],[-79.32729,43.64385],[-79.32835,43.64398],[-79.32867,43.64377],[-79.32777,43.64359],[-79.32751,43.64346],[-79.32711,43.64298],[-79.32719,43.64251],[-79.32756,43.64212],[-79.32745,43.64167],[-79.32752,43.64143],[-79.32775,43.64114],[-79.32804,43.64094],[-79.32873,43.64081],[-79.32856,43.64065],[-79.32869,43.64034],[-79.32898,43.64005],[-79.32942,43.63983],[-79.32993,43.63973],[-79.32977,43.63921],[-79.33009,43.63888],[-79.33103,43.63861],[-79.33033,43.63826],[-79.33026,43.63781],[-79.32959,43.63714],[-79.32938,43.63707],[-79.3288,43.63731],[-79.32849,43.63753],[-79.32848,43.6378],[-79.32882,43.63816],[-79.32773,43.63922],[-79.32671,43.64043],[-79.32506,43.6399],[-79.32471,43.64007],[-79.32475,43.6402],[-79.3263,43.6408],[-79.32533,43.64227],[-79.32446,43.64425],[-79.32458,43.6444],[-79.32432,43.64521],[-79.32168,43.64482],[-79.32158,43.64472],[-79.32176,43.64393],[-79.32174,43.64375],[-79.32195,43.6433],[-79.32232,43.64156],[-79.32262,43.64121],[-79.3226,43.64047],[-79.32281,43.6395],[-79.32299,43.63898],[-79.32296,43.63857],[-79.32303,43.63815],[-79.3234,43.63753],[-79.32409,43.63694],[-79.32459,43.63635],[-79.32532,43.63588],[-79.32609,43.63572],[-79.3262,43.63546],[-79.32624,43.63489],[-79.32592,43.63479],[-79.32566,43.63453],[-79.32545,43.63408],[-79.32541,43.63379],[-79.32603,43.63302],[-79.32642,43.63266],[-79.32642,43.63204],[-79.32676,43.63167],[-79.32728,43.63167],[-79.32826,43.63193],[-79.32898,43.63204],[-79.32916,43.63214],[-79.32926,43.63242],[-79.32871,43.63316],[-79.3297,43.633],[-79.33088,43.63263],[-79.33141,43.63229],[-79.33285,43.63184],[-79.33343,43.63153],[-79.33384,43.63148],[-79.33451,43.63157],[-79.33472,43.63134],[-79.33483,43.63103],[-79.33524,43.63083],[-79.33584,43.63042],[-79.33602,43.63013],[-79.33647,43.62978],[-79.33662,43.62934],[-79.33631,43.62916],[-79.33613,43.62919],[-79.33525,43.62968],[-79.335,43.62969],[-79.33441,43.6294],[-79.33415,43.62937],[-79.33372,43.62961],[-79.33371,43.62978],[-79.33394,43.63029],[-79.33363,43.63054],[-79.33311,43.63068],[-79.33261,43.63062],[-79.33251,43.63051],[-79.33271,43.63025],[-79.33244,43.6302],[-79.33242,43.63045],[-79.33192,43.63048],[-79.33182,43.63075],[-79.33148,43.63121],[-79.33123,43.63125],[-79.32987,43.63123],[-79.3287,43.63086],[-79.32867,43.63056],[-79.3288,43.63018],[-79.32938,43.62944],[-79.3299,43.62848],[-79.33024,43.6282],[-79.33062,43.62812],[-79.33081,43.62784],[-79.33122,43.62755],[-79.33147,43.62727],[-79.33147,43.62679],[-79.33187,43.6267],[-79.33126,43.62638],[-79.33089,43.62611],[-79.33042,43.62677],[-79.32958,43.62741],[-79.32933,43.6275],[-79.32844,43.62738],[-79.32794,43.62755],[-79.32832,43.62805],[-79.32821,43.62845],[-79.3278,43.629],[-79.32739,43.6291],[-79.32692,43.629],[-79.3267,43.62903],[-79.32651,43.62937],[-79.32731,43.62946],[-79.3274,43.62957],[-79.32729,43.62991],[-79.32657,43.63084],[-79.32604,43.63137],[-79.32534,43.63226],[-79.32415,43.63349],[-79.32354,43.6334],[-79.32305,43.63338],[-79.32298,43.63302],[-79.32323,43.6321],[-79.32336,43.63178],[-79.3237,43.63129],[-79.32355,43.63076],[-79.3236,43.63058],[-79.32407,43.63012],[-79.3256,43.62962],[-79.32572,43.62949],[-79.32534,43.62928],[-79.32509,43.62941],[-79.32458,43.62952],[-79.32422,43.62975],[-79.32366,43.6296],[-79.32356,43.62908],[-79.32376,43.62768],[-79.32376,43.62665],[-79.32385,43.62644],[-79.32432,43.62644],[-79.32682,43.62727],[-79.32732,43.62723],[-79.32718,43.62687],[-79.32659,43.62666],[-79.32523,43.62638],[-79.32418,43.62583],[-79.32404,43.62567],[-79.32397,43.62503],[-79.32408,43.62438],[-79.32414,43.62348],[-79.32427,43.62284],[-79.32468,43.62259],[-79.32749,43.62264],[-79.33205,43.6222],[-79.33304,43.62229],[-79.33324,43.62241],[-79.33335,43.62301],[-79.33296,43.62406],[-79.33197,43.62553],[-79.33133,43.62571],[-79.3313,43.62579],[-79.33215,43.62617],[-79.33266,43.62584],[-79.33317,43.62584],[-79.33393,43.6257],[-79.33414,43.62559],[-79.33428,43.62512],[-79.33487,43.62525],[-79.33543,43.62569],[-79.33576,43.62635],[-79.33561,43.62654],[-79.33491,43.62708],[-79.33499,43.62743],[-79.33527,43.62752],[-79.3359,43.62757],[-79.33654,43.62748],[-79.33689,43.62751],[-79.33732,43.62782],[-79.33753,43.62853],[-79.33858,43.62796],[-79.33861,43.62815],[-79.3376,43.62859],[-79.33772,43.62877],[-79.33796,43.62873],[-79.33852,43.62831],[-79.33868,43.62837],[-79.33853,43.62866],[-79.338,43.62881],[-79.33753,43.62885],[-79.33762,43.62907],[-79.3387,43.62905],[-79.33936,43.62935],[-79.33942,43.62922],[-79.33879,43.62797],[-79.33845,43.62698],[-79.33816,43.62651],[-79.33784,43.62634],[-79.3375,43.62574],[-79.33683,43.62535],[-79.3367,43.62494],[-79.33675,43.62454],[-79.33708,43.62394],[-79.33743,43.62358],[-79.33747,43.62307],[-79.33757,43.62271],[-79.33813,43.6222],[-79.33872,43.62206],[-79.33901,43.62213],[-79.33945,43.62289],[-79.33986,43.62325],[-79.34078,43.62381],[-79.34111,43.62414],[-79.34129,43.62442],[-79.34109,43.62458],[-79.34171,43.6246],[-79.34179,43.62396],[-79.34212,43.62361],[-79.34237,43.62354],[-79.34299,43.62352],[-79.34326,43.62342],[-79.34319,43.62305],[-79.34279,43.62278],[-79.34239,43.62283],[-79.34131,43.62248],[-79.34122,43.62215],[-79.34096,43.62187],[-79.34058,43.62165],[-79.34006,43.62149],[-79.33976,43.62121],[-79.33965,43.62069],[-79.34005,43.62018],[-79.34069,43.61972],[-79.34152,43.61944],[-79.34213,43.61936],[-79.34271,43.61951],[-79.34287,43.61986],[-79.34278,43.62024],[-79.34297,43.62103],[-79.34324,43.62157],[-79.34307,43.62193],[-79.34332,43.62209],[-79.34388,43.62211],[-79.34478,43.62183],[-79.34442,43.62163],[-79.34356,43.62075],[-79.34338,43.62035],[-79.34344,43.61972],[-79.34389,43.61889],[-79.34445,43.61835],[-79.34469,43.61791],[-79.34436,43.61772],[-79.34377,43.61673],[-79.34369,43.61622],[-79.34369,43.61533],[-79.34383,43.61486],[-79.34395,43.61383],[-79.34392,43.61341],[-79.34368,43.61309],[-79.34342,43.61301],[-79.34291,43.61316],[-79.34278,43.61339],[-79.34269,43.61389],[-79.34242,43.61462],[-79.34184,43.61519],[-79.3418,43.6154],[-79.34245,43.61582],[-79.34262,43.61625],[-79.34226,43.61719],[-79.34151,43.61833],[-79.34082,43.61893],[-79.3401,43.61938],[-79.33986,43.61946],[-79.33873,43.61948],[-79.33834,43.61922],[-79.33772,43.61924],[-79.33752,43.61941],[-79.33755,43.61987],[-79.33725,43.62102],[-79.33695,43.62137],[-79.33633,43.62128],[-79.33604,43.62139],[-79.3353,43.62103],[-79.33623,43.61995],[-79.33608,43.61964],[-79.33567,43.61947],[-79.33506,43.61946],[-79.33448,43.61983],[-79.33306,43.62029],[-79.33209,43.62034],[-79.3309,43.62021],[-79.33012,43.62024],[-79.32952,43.62009],[-79.32909,43.61983],[-79.32832,43.61955],[-79.32789,43.61924],[-79.32758,43.61912],[-79.32725,43.61912],[-79.32698,43.61924],[-79.32687,43.6196],[-79.32713,43.61998],[-79.32807,43.62048],[-79.32873,43.621],[-79.32882,43.6212],[-79.32883,43.62159],[-79.32838,43.62177],[-79.32717,43.62193],[-79.32657,43.62207],[-79.32603,43.62208],[-79.32548,43.62198],[-79.32483,43.62158],[-79.32484,43.62101],[-79.32502,43.62061],[-79.32511,43.62019],[-79.32505,43.61942],[-79.32565,43.61852],[-79.32632,43.61811],[-79.32688,43.61796],[-79.32713,43.61769],[-79.32678,43.61747],[-79.3257,43.61777],[-79.32507,43.61774],[-79.32383,43.61713],[-79.32351,43.61716],[-79.3232,43.61756],[-79.32391,43.61795],[-79.32423,43.61836],[-79.32426,43.61888],[-79.32406,43.62085],[-79.32383,43.6219],[-79.32369,43.62209],[-79.32318,43.62222],[-79.32299,43.62239],[-79.3231,43.62269],[-79.32356,43.62293],[-79.32366,43.62311],[-79.32357,43.62401],[-79.32328,43.62518],[-79.32314,43.62547],[-79.32285,43.62575],[-79.3228,43.62607],[-79.32313,43.6263],[-79.32327,43.62671],[-79.32328,43.62715],[-79.32308,43.62825],[-79.32289,43.62886],[-79.32252,43.62905],[-79.32235,43.62936],[-79.32236,43.62958],[-79.32267,43.62981],[-79.32289,43.6303],[-79.32272,43.63153],[-79.32231,43.63273],[-79.3221,43.63292],[-79.32163,43.63307],[-79.32143,43.63338],[-79.32154,43.63354],[-79.32237,43.63388],[-79.323,43.63437],[-79.32312,43.63464],[-79.32312,43.63525],[-79.32295,43.63571],[-79.32212,43.63896],[-79.32168,43.64026],[-79.32119,43.64125],[-79.32064,43.64174],[-79.32071,43.64195],[-79.32113,43.64214],[-79.32121,43.64231],[-79.32077,43.64434],[-79.32034,43.64554],[-79.31985,43.64584],[-79.31958,43.64614],[-79.31989,43.64627],[-79.32002,43.64658],[-79.32007,43.64697],[-79.32003,43.64737],[-79.31987,43.64802],[-79.32021,43.64841],[-79.32017,43.64886],[-79.31965,43.65037],[-79.31953,43.65116],[-79.31914,43.65205],[-79.31861,43.65291],[-79.31813,43.65413],[-79.31771,43.65471],[-79.31694,43.65538],[-79.31682,43.65556],[-79.31615,43.65598],[-79.31605,43.65617],[-79.31623,43.6567],[-79.31643,43.65691],[-79.31605,43.65725],[-79.31605,43.65746],[-79.31651,43.65724],[-79.31682,43.65732],[-79.31627,43.6576],[-79.3151,43.65739],[-79.31443,43.6574],[-79.31372,43.65757],[-79.31314,43.65792],[-79.31314,43.65807],[-79.3143,43.65891],[-79.31477,43.6591],[-79.31561,43.65959],[-79.3172,43.66078],[-79.31706,43.66095],[-79.31711,43.66145],[-79.31484,43.66197],[-79.31463,43.66178],[-79.31439,43.66174],[-79.31424,43.66156],[-79.31333,43.6616],[-79.31341,43.66133],[-79.31404,43.66119],[-79.31441,43.66092],[-79.31386,43.66037],[-79.31297,43.65965],[-79.31275,43.65956],[-79.31266,43.65927],[-79.31219,43.65891],[-79.31193,43.65853],[-79.3117,43.65834],[-79.31184,43.65796],[-79.31167,43.65778],[-79.31174,43.65754],[-79.31196,43.65753],[-79.31225,43.65723],[-79.31262,43.65708],[-79.31244,43.65678],[-79.31217,43.65675],[-79.31196,43.65689],[-79.31164,43.65692],[-79.31108,43.65684],[-79.31075,43.65662],[-79.31056,43.6566],[-79.31023,43.65693],[-79.3112,43.65726],[-79.31092,43.65793],[-79.31034,43.6584],[-79.30999,43.65816],[-79.30972,43.65807],[-79.30939,43.65823],[-79.30837,43.65788],[-79.30749,43.65769],[-79.3068,43.65719],[-79.30682,43.65686],[-79.30718,43.65692],[-79.30785,43.65671],[-79.3083,43.65625],[-79.30838,43.65601],[-79.30877,43.65591],[-79.30928,43.6559],[-79.3096,43.65606],[-79.31006,43.65613],[-79.31109,43.65597],[-79.31131,43.65563],[-79.31118,43.65539],[-79.31067,43.65516],[-79.31029,43.6552],[-79.31023,43.65542],[-79.30989,43.65541],[-79.30956,43.6553],[-79.3092,43.65501],[-79.30866,43.65414],[-79.30832,43.65421],[-79.30839,43.6549],[-79.30789,43.65585],[-79.30763,43.65619],[-79.30708,43.6565],[-79.30677,43.6566],[-79.30638,43.65658],[-79.30596,43.65645],[-79.30551,43.6564],[-79.30509,43.65652],[-79.30496,43.65666],[-79.30506,43.65701],[-79.30593,43.6579],[-79.30602,43.65839],[-79.30583,43.65891],[-79.30554,43.65933],[-79.30522,43.65941],[-79.30497,43.65986],[-79.30502,43.65999],[-79.30547,43.66032],[-79.3061,43.66041],[-79.30638,43.6603],[-79.3063,43.66004],[-79.30676,43.65989],[-79.30735,43.6601],[-79.30762,43.66034],[-79.30776,43.66112],[-79.30764,43.66161],[-79.30704,43.66242],[-79.30644,43.66302],[-79.30559,43.66339],[-79.30446,43.66411],[-79.30407,43.66424],[-79.30309,43.66476],[-79.30248,43.66491],[-79.30221,43.66487],[-79.30211,43.66504],[-79.3014,43.66524],[-79.30086,43.66547],[-79.30052,43.66548],[-79.30029,43.66537],[-79.29945,43.66567],[-79.29919,43.66549],[-79.29849,43.66553],[-79.2977,43.66525],[-79.29698,43.66531],[-79.29592,43.66561],[-79.2956,43.6658],[-79.29495,43.66607],[-79.29472,43.66599],[-79.29392,43.66674],[-79.29328,43.66724],[-79.292,43.6679],[-79.29156,43.66801],[-79.29115,43.66797],[-79.29009,43.66844],[-79.28929,43.66869],[-79.28843,43.66876],[-79.28793,43.66899],[-79.2878,43.66912],[-79.28715,43.66937],[-79.28609,43.66945],[-79.28596,43.6696],[-79.28553,43.66978],[-79.2852,43.66983],[-79.28494,43.66975],[-79.28448,43.67006],[-79.28378,43.67017],[-79.28353,43.67014],[-79.28347,43.67035],[-79.28304,43.67043],[-79.2827,43.67039],[-79.28248,43.67062],[-79.28198,43.67061],[-79.28158,43.67093],[-79.28124,43.67085],[-79.28063,43.67114],[-79.28018,43.67123],[-79.28013,43.67135],[-79.28002,43.67138],[-79.28106,43.6739],[-79.28119,43.67386],[-79.28776,43.68978],[-79.29269,43.68871],[-79.29426,43.69238],[-79.30341,43.69028],[-79.30352,43.6905],[-79.30415,43.6904],[-79.30888,43.68928],[-79.30814,43.68755],[-79.31357,43.68629],[-79.31484,43.68918],[-79.3388,43.68403],[-79.33885,43.68415],[-79.34804,43.68239],[-79.34875,43.68408],[-79.35722,43.68244],[-79.35744,43.68171],[-79.36129,43.68167],[-79.36177,43.68174],[-79.36238,43.68169],[-79.36234,43.68126],[-79.36169,43.6797],[-79.36426,43.67919],[-79.36444,43.67902],[-79.36677,43.67851],[-79.36726,43.67913],[-79.36752,43.67958],[-79.36793,43.68093],[-79.36785,43.68149],[-79.36647,43.68406],[-79.36755,43.68656],[-79.36728,43.68821],[-79.36741,43.68875],[-79.36772,43.68924],[-79.36802,43.68954],[-79.36858,43.68989],[-79.3695,43.69032],[-79.37059,43.69071],[-79.37082,43.69094],[-79.37378,43.69254],[-79.37445,43.6928],[-79.37639,43.69339],[-79.37673,43.69335],[-79.37754,43.69365],[-79.37996,43.69473],[-79.38008,43.69503],[-79.37995,43.69507],[-79.37322,43.6965],[-79.37174,43.69675],[-79.37695,43.7103],[-79.37716,43.71104],[-79.37749,43.71309],[-79.37898,43.71272],[-79.38151,43.71222],[-79.38149,43.71218],[-79.38571,43.71135],[-79.38735,43.71546],[-79.38826,43.71895],[-79.39016,43.7281],[-79.39241,43.73691],[-79.40455,43.73426],[-79.40493,43.73601],[-79.41698,43.73334],[-79.41615,43.72884],[-79.41588,43.72774],[-79.41456,43.72449],[-79.4135,43.71876],[-79.42222,43.71703],[-79.42112,43.7142],[-79.41933,43.70995],[-79.43969,43.70561],[-79.43883,43.70204],[-79.44069,43.70161],[-79.43925,43.69807],[-79.42556,43.70099],[-79.41941,43.68589],[-79.41288,43.68722],[-79.41322,43.68801],[-79.41316,43.68807],[-79.4119,43.68494],[-79.41347,43.68462],[-79.41341,43.68447],[-79.4183,43.68349],[-79.41841,43.68379],[-79.42466,43.6825],[-79.42458,43.68232],[-79.42619,43.68196],[-79.42629,43.68219],[-79.44245,43.67876],[-79.44495,43.68489],[-79.46021,43.68156],[-79.46044,43.6819],[-79.46114,43.68175],[-79.46111,43.68166],[-79.46548,43.68072],[-79.46533,43.68036],[-79.47048,43.67927],[-79.47057,43.67949],[-79.47178,43.67924],[-79.47264,43.67921],[-79.47345,43.67901],[-79.47383,43.67938],[-79.476,43.67887],[-79.4758,43.67837],[-79.47368,43.67672],[-79.47366,43.67629],[-79.47388,43.67568],[-79.4735,43.6752],[-79.47419,43.67498],[-79.47837,43.67408],[-79.47824,43.67379],[-79.47884,43.67364],[-79.47857,43.673],[-79.48078,43.67251],[-79.48008,43.67077],[-79.48405,43.66989],[-79.48223,43.66549],[-79.4823,43.66519],[-79.48267,43.6651],[-79.48122,43.66172],[-79.48081,43.66032],[-79.48257,43.65993],[-79.48288,43.65992],[-79.48842,43.65867],[-79.4883,43.65836],[-79.48872,43.65826],[-79.485,43.64919],[-79.48491,43.64908],[-79.49262,43.64744],[-79.49277,43.64712],[-79.49282,43.64673],[-79.49279,43.64621],[-79.49252,43.64562],[-79.49174,43.64495],[-79.4912,43.6442],[-79.49059,43.64308],[-79.49019,43.642],[-79.4899,43.64155],[-79.48944,43.64123],[-79.4891,43.64121],[-79.4875,43.64181],[-79.48666,43.64203],[-79.48571,43.64211],[-79.48522,43.64203],[-79.48499,43.64174],[-79.48511,43.64027],[-79.4851,43.63911],[-79.48504,43.63882],[-79.48483,43.63848],[-79.48425,43.63815],[-79.48385,43.63805],[-79.48233,43.63797],[-79.48086,43.63809],[-79.47885,43.63812],[-79.47812,43.63799],[-79.4775,43.63773],[-79.47709,43.63721],[-79.47687,43.63675],[-79.47683,43.63644],[-79.4755,43.63411],[-79.47513,43.63385],[-79.47396,43.63329],[-79.47408,43.6331],[-79.4746,43.63256],[-79.47501,43.63228],[-79.47484,43.63217],[-79.47326,43.63301],[-79.4728,43.63282],[-79.47202,43.63237],[-79.4707,43.63126]]]},"properties":{"name":"Old Toronto","info":"The original City of Toronto, incorporated in 1834.","lp":[-79.39213,43.66301]}}
]}