{"type":"FeatureCollection", "features": [
{"type":"Feature","geometry":{"type":"Polygon","coordinates":[[[-79.38605,43.67039],[-79.38679,43.67023],[-79.38741,43.6701],[-79.38802,43.66997],[-79.38951,43.66967],[-79.39058,43.66945],[-79.39103,43.66936],[-79.39414,43.66872],[-79.39587,43.66833],[-79.39836,43.66783],[-79.40154,43.66716],[-79.40271,43.66691],[-79.40387,43.66666],[-79.40452,43.66652],[-79.40535,43.66636],[-79.40536,43.66636],[-79.40627,43.66616],[-79.40667,43.66608],[-79.40868,43.66568],[-79.40932,43.66552],[-79.40999,43.66539],[-79.41059,43.66525],[-79.41121,43.66512],[-79.41121,43.66511],[-79.41072,43.66383],[-79.41025,43.66267],[-79.40944,43.6607],[-79.40909,43.65981],[-79.40847,43.65829],[-79.40772,43.65648],[-79.40684,43.65429],[-79.40602,43.65231],[-79.40565,43.65139],[-79.4055,43.65101],[-79.4047,43.64897],[-79.4046,43.64871],[-79.40419,43.64768],[-79.40401,43.64719],[-79.40389,43.64682],[-79.40376,43.64647],[-79.40337,43.64552],[-79.40323,43.64519],[-79.40311,43.64489],[-79.4029,43.64441],[-79.4024,43.6432],[-79.4022,43.64265],[-79.40127,43.64037],[-79.40044,43.63831],[-79.40002,43.63734],[-79.39982,43.63683],[-79.39981,43.63682],[-79.39972,43.63663],[-79.39965,43.63649],[-79.39965,43.63648],[-79.39961,43.63644],[-79.39961,43.63643],[-79.39958,43.63641],[-79.39958,43.6364],[-79.3995,43.63634],[-79.39937,43.63626],[-79.39894,43.63606],[-79.39893,43.63605],[-79.39885,43.63601],[-79.39879,43.63598],[-79.39878,43.63597],[-79.39848,43.63578],[-79.39847,43.63577],[-79.39841,43.63572],[-79.3984,43.63571],[-79.39837,43.63568],[-79.39834,43.63564],[-79.39826,43.63556],[-79.3972,43.63431],[-79.39701,43.6341],[-79.39699,43.63407],[-79.39699,43.63401],[-79.39701,43.63397],[-79.39704,43.63395],[-79.39754,43.63368],[-79.39759,43.63363],[-79.3976,43.63357],[-79.39762,43.63355],[-79.39764,43.63353],[-79.39792,43.63336],[-79.39828,43.63296],[-79.39791,43.6327],[-79.39792,43.6326],[-79.39878,43.63154],[-79.40141,43.63012],[-79.4028,43.62935],[-79.4049,43.62784],[-79.40469,43.62728],[-79.40429,43.62644],[-79.40338,43.62665],[-79.40328,43.62663],[-79.40228,43.626],[-79.40161,43.62561],[-79.40017,43.62459],[-79.39932,43.62385],[-79.39853,43.6233],[-79.39784,43.62262],[-79.39716,43.62208],[-79.39678,43.62189],[-79.39548,43.62088],[-79.39424,43.61972],[-79.39316,43.61839],[-79.39293,43.61798],[-79.39258,43.61755],[-79.39193,43.61666],[-79.39161,43.61609],[-79.39156,43.61547],[-79.39161,43.61506],[-79.39087,43.61452],[-79.39046,43.61406],[-79.38994,43.61365],[-79.3899,43.6133],[-79.38961,43.61303],[-79.38985,43.6124],[-79.38967,43.61224],[-79.38896,43.61198],[-79.38835,43.61199],[-79.38806,43.61212],[-79.38681,43.6121],[-79.38606,43.61202],[-79.3849,43.61196],[-79.38402,43.61201],[-79.38304,43.61221],[-79.38206,43.61226],[-79.38164,43.61248],[-79.38146,43.61268],[-79.38086,43.61311],[-79.38054,43.6132],[-79.37969,43.61373],[-79.379,43.61377],[-79.37797,43.61405],[-79.37706,43.61447],[-79.37608,43.61444],[-79.37556,43.61471],[-79.37533,43.61493],[-79.37433,43.61547],[-79.37371,43.61585],[-79.37234,43.61647],[-79.37194,43.61634],[-79.37157,43.61648],[-79.37153,43.61675],[-79.37117,43.61714],[-79.37076,43.61735],[-79.37048,43.6176],[-79.36992,43.61777],[-79.36962,43.618],[-79.36758,43.6189],[-79.36698,43.61906],[-79.36645,43.61934],[-79.36452,43.6207],[-79.36332,43.62159],[-79.36209,43.6224],[-79.36018,43.62376],[-79.35998,43.62393],[-79.35893,43.62463],[-79.35782,43.62545],[-79.35678,43.62641],[-79.35594,43.62731],[-79.35518,43.62842],[-79.35455,43.62957],[-79.35436,43.62978],[-79.35327,43.62988],[-79.35211,43.62988],[-79.35099,43.62982],[-79.34994,43.62968],[-79.34976,43.62962],[-79.34953,43.6309],[-79.34939,43.63102],[-79.35029,43.63177],[-79.35227,43.6335],[-79.35219,43.63368],[-79.34965,43.6334],[-79.35368,43.63807],[-79.35985,43.64529],[-79.35985,43.6453],[-79.35986,43.64531],[-79.36042,43.6465],[-79.36042,43.64658],[-79.36039,43.64662],[-79.36031,43.64664],[-79.36025,43.64661],[-79.36008,43.6464],[-79.35943,43.64559],[-79.35936,43.6455],[-79.35441,43.64762],[-79.35435,43.64765],[-79.35434,43.64765],[-79.35427,43.64768],[-79.34766,43.65042],[-79.34746,43.65052],[-79.3473,43.65075],[-79.34732,43.65081],[-79.34742,43.65099],[-79.34772,43.65141],[-79.34952,43.65359],[-79.34966,43.65373],[-79.35174,43.65556],[-79.35279,43.65645],[-79.35354,43.65705],[-79.35421,43.65767],[-79.35439,43.65802],[-79.3544,43.65804],[-79.35443,43.65815],[-79.35448,43.65841],[-79.35464,43.65892],[-79.35473,43.65931],[-79.3548,43.65958],[-79.35485,43.65972],[-79.3549,43.65986],[-79.35517,43.66071],[-79.35548,43.66185],[-79.35552,43.66199],[-79.35561,43.66228],[-79.3558,43.66285],[-79.35584,43.66299],[-79.35591,43.66327],[-79.356,43.66355],[-79.35605,43.66368],[-79.35609,43.6638],[-79.35613,43.66392],[-79.35613,43.66393],[-79.35616,43.66405],[-79.3562,43.66418],[-79.35627,43.66442],[-79.35635,43.66466],[-79.35643,43.66503],[-79.35653,43.66539],[-79.35658,43.66552],[-79.35732,43.66819],[-79.35735,43.66827],[-79.35738,43.66837],[-79.35739,43.66837],[-79.35743,43.66846],[-79.35747,43.66855],[-79.3575,43.66863],[-79.35751,43.66864],[-79.35751,43.66865],[-79.35756,43.66872],[-79.35761,43.66879],[-79.35781,43.66902],[-79.35788,43.66908],[-79.35789,43.66908],[-79.35797,43.66915],[-79.35815,43.66926],[-79.35854,43.66956],[-79.35875,43.66967],[-79.35913,43.66994],[-79.35923,43.67],[-79.35933,43.67005],[-79.35933,43.67006],[-79.35971,43.67046],[-79.35972,43.67047],[-79.35975,43.67055],[-79.35979,43.67065],[-79.35984,43.67074],[-79.35992,43.67092],[-79.35992,43.67093],[-79.35996,43.67102],[-79.36001,43.67112],[-79.36009,43.6713],[-79.36013,43.67139],[-79.36018,43.67148],[-79.36022,43.67156],[-79.36023,43.67157],[-79.36028,43.67165],[-79.36034,43.67174],[-79.3604,43.67181],[-79.36046,43.67189],[-79.36052,43.67197],[-79.36053,43.67197],[-79.36061,43.67204],[-79.3607,43.67211],[-79.36088,43.67224],[-79.36156,43.67268],[-79.36157,43.67268],[-79.36166,43.67273],[-79.36167,43.67273],[-79.36176,43.67278],[-79.36185,43.67283],[-79.36205,43.67291],[-79.36224,43.67297],[-79.36257,43.67302],[-79.36258,43.67303],[-79.36269,43.67307],[-79.36278,43.67313],[-79.3628,43.67314],[-79.36286,43.67319],[-79.36293,43.67323],[-79.363,43.67332],[-79.36305,43.67345],[-79.36306,43.67347],[-79.36305,43.67355],[-79.36304,43.6737],[-79.36301,43.67387],[-79.36299,43.67395],[-79.36299,43.67396],[-79.36296,43.67403],[-79.36294,43.67412],[-79.36293,43.67421],[-79.3629,43.67431],[-79.36288,43.6744],[-79.36288,43.67449],[-79.36288,43.6745],[-79.36289,43.67457],[-79.36289,43.67458],[-79.36291,43.67464],[-79.36291,43.67465],[-79.36295,43.67473],[-79.36298,43.67481],[-79.36299,43.67481],[-79.36303,43.67487],[-79.36311,43.67494],[-79.36339,43.67532],[-79.36425,43.67516],[-79.36631,43.67477],[-79.36673,43.67467],[-79.36674,43.67467],[-79.36677,43.67465],[-79.36679,43.67464],[-79.36688,43.67462],[-79.367,43.67458],[-79.367,43.67457],[-79.36709,43.67453],[-79.36719,43.67448],[-79.36727,43.67443],[-79.36737,43.67437],[-79.36992,43.67258],[-79.37069,43.67202],[-79.37127,43.67189],[-79.37138,43.67189],[-79.37318,43.67215],[-79.37485,43.67233],[-79.37589,43.67247],[-79.37646,43.67245],[-79.37686,43.67236],[-79.37907,43.67192],[-79.37947,43.67183],[-79.38057,43.67161],[-79.38238,43.67122],[-79.38316,43.67105],[-79.38605,43.67039]]]},"properties":{"name":"Downtown","info":"The central core: Financial District, waterfront and the dense grid south of Bloor.","lp":[-79.38163,43.64926]}},
{"type":"Feature","geometry":{"type":"Polygon","coordinates":[[[-79.39824,43.70614],[-79.39785,43.70435],[-79.39767,43.70329],[-79.39751,43.70251],[-79.39734,43.7018],[-79.39704,43.7003],[-79.39695,43.69979],[-79.39664,43.6983],[-79.39647,43.69737],[-79.3962,43.69613],[-79.39613,43.69578],[-79.39613,43.69577],[-79.39613,43.69576],[-79.39613,43.69573],[-79.39615,43.69569],[-79.39622,43.69566],[-79.3969,43.69561],[-79.39804,43.69585],[-79.40009,43.69639],[-79.40127,43.69673],[-79.40277,43.69713],[-79.40557,43.698],[-79.40588,43.69818],[-79.40609,43.69819],[-79.40667,43.6984],[-79.40778,43.69879],[-79.40871,43.69911],[-79.4091,43.69924],[-79.40916,43.6993],[-79.4094,43.69985],[-79.4094,43.70016],[-79.41026,43.70234],[-79.4108,43.70369],[-79.41096,43.70408],[-79.41323,43.70361],[-79.41989,43.70219],[-79.42089,43.702],[-79.42209,43.70174],[-79.42314,43.70151],[-79.42556,43.70099],[-79.42434,43.69795],[-79.42404,43.69727],[-79.42333,43.6955],[-79.42258,43.69371],[-79.4203,43.68809],[-79.41996,43.68721],[-79.41924,43.68541],[-79.41313,43.68666],[-79.41259,43.68531],[-79.41357,43.68511],[-79.41389,43.68488],[-79.41799,43.68406],[-79.41826,43.68427],[-79.41874,43.68423],[-79.41854,43.68376],[-79.41849,43.68363],[-79.41843,43.6835],[-79.41766,43.68156],[-79.41748,43.68105],[-79.41709,43.68011],[-79.41676,43.67925],[-79.41658,43.67878],[-79.41644,43.67833],[-79.41579,43.67673],[-79.41553,43.67607],[-79.41485,43.67434],[-79.41473,43.67402],[-79.41481,43.67389],[-79.41675,43.67347],[-79.42182,43.67243],[-79.42185,43.67242],[-79.42123,43.67077],[-79.42029,43.66834],[-79.4202,43.66812],[-79.41993,43.66739],[-79.41976,43.66693],[-79.41975,43.66691],[-79.41962,43.66657],[-79.41947,43.66617],[-79.41879,43.66444],[-79.41857,43.66395],[-79.41842,43.66359],[-79.41841,43.66359],[-79.41722,43.66383],[-79.41612,43.66407],[-79.41599,43.66409],[-79.41486,43.66434],[-79.41365,43.66462],[-79.41244,43.66488],[-79.41244,43.66489],[-79.41185,43.665],[-79.41181,43.665],[-79.41121,43.66512],[-79.40999,43.66539],[-79.40932,43.66552],[-79.40868,43.66568],[-79.40747,43.66591],[-79.40667,43.66608],[-79.40627,43.66616],[-79.40627,43.66617],[-79.40536,43.66636],[-79.40535,43.66636],[-79.40452,43.66652],[-79.40387,43.66666],[-79.40271,43.66691],[-79.40154,43.66716],[-79.39836,43.66783],[-79.39588,43.66833],[-79.39414,43.66872],[-79.39103,43.66936],[-79.39058,43.66945],[-79.38951,43.66967],[-79.38802,43.66997],[-79.38741,43.6701],[-79.38679,43.67023],[-79.38605,43.67039],[-79.38316,43.67105],[-79.38238,43.67122],[-79.38057,43.67161],[-79.37947,43.67183],[-79.37907,43.67192],[-79.37685,43.67236],[-79.37646,43.67245],[-79.37589,43.67247],[-79.37485,43.67233],[-79.37318,43.67215],[-79.37138,43.67189],[-79.37127,43.67189],[-79.3707,43.67201],[-79.36992,43.67258],[-79.36737,43.67437],[-79.36727,43.67443],[-79.36719,43.67448],[-79.36718,43.67448],[-79.36709,43.67453],[-79.367,43.67457],[-79.36699,43.67458],[-79.36688,43.67462],[-79.36678,43.67465],[-79.36675,43.67466],[-79.36672,43.67467],[-79.36631,43.67477],[-79.36474,43.67507],[-79.36446,43.67512],[-79.36432,43.67515],[-79.36425,43.67516],[-79.36339,43.67532],[-79.36347,43.6754],[-79.36376,43.67565],[-79.36403,43.67594],[-79.36433,43.67623],[-79.36468,43.67645],[-79.36491,43.67668],[-79.36493,43.67672],[-79.36493,43.67679],[-79.36485,43.67698],[-79.3648,43.67702],[-79.36445,43.67723],[-79.36444,43.67723],[-79.36411,43.67748],[-79.36384,43.67779],[-79.3636,43.67806],[-79.3636,43.67807],[-79.3636,43.67843],[-79.36373,43.6788],[-79.36405,43.67909],[-79.36418,43.6792],[-79.36419,43.6792],[-79.36426,43.67919],[-79.36447,43.67902],[-79.36671,43.67852],[-79.36681,43.67856],[-79.36719,43.67904],[-79.36719,43.67917],[-79.36753,43.6796],[-79.36788,43.68067],[-79.36795,43.68117],[-79.36785,43.6815],[-79.36648,43.68406],[-79.36754,43.68653],[-79.36729,43.68798],[-79.36728,43.68822],[-79.36741,43.68875],[-79.36773,43.68925],[-79.36835,43.68977],[-79.3695,43.69033],[-79.37057,43.6907],[-79.37082,43.69094],[-79.37339,43.69234],[-79.37445,43.6928],[-79.37639,43.69339],[-79.37676,43.69336],[-79.37754,43.69365],[-79.37993,43.69472],[-79.37995,43.69507],[-79.37445,43.69622],[-79.37322,43.6965],[-79.37174,43.69675],[-79.3725,43.69873],[-79.37285,43.69956],[-79.37338,43.70094],[-79.37413,43.703],[-79.37494,43.70511],[-79.37601,43.70781],[-79.37695,43.7103],[-79.37716,43.71105],[-79.37749,43.71309],[-79.37886,43.71278],[-79.379,43.71272],[-79.38151,43.71222],[-79.38158,43.71216],[-79.38381,43.71169],[-79.38397,43.7117],[-79.38563,43.71137],[-79.38574,43.71143],[-79.38602,43.71217],[-79.38621,43.71222],[-79.38631,43.71251],[-79.38621,43.71266],[-79.38645,43.71314],[-79.38735,43.71545],[-79.38829,43.71908],[-79.38844,43.71905],[-79.38977,43.71878],[-79.39416,43.71789],[-79.39912,43.71687],[-79.40048,43.71661],[-79.40044,43.71637],[-79.40023,43.71546],[-79.40011,43.71495],[-79.39929,43.71091],[-79.399,43.70958],[-79.39887,43.70909],[-79.39824,43.70614]]]},"properties":{"name":"Midtown","info":"Bloor to roughly Eglinton: the Annex, Yonge & St. Clair, Davisville.","lp":[-79.39909,43.68186]}},
{"type":"Feature","geometry":{"type":"Polygon","coordinates":[[[-79.39824,43.70614],[-79.39863,43.70799],[-79.39887,43.70909],[-79.39929,43.71091],[-79.40011,43.71495],[-79.40023,43.71546],[-79.40044,43.71637],[-79.40045,43.71657],[-79.40039,43.71662],[-79.39912,43.71687],[-79.39769,43.71716],[-79.39416,43.71789],[-79.38829,43.71908],[-79.38925,43.72368],[-79.38961,43.72453],[-79.38946,43.7247],[-79.39016,43.7281],[-79.39054,43.72914],[-79.39085,43.72982],[-79.39065,43.72999],[-79.39127,43.73244],[-79.39241,43.73691],[-79.40445,43.73428],[-79.40457,43.73436],[-79.40493,43.73601],[-79.40884,43.73514],[-79.41698,43.73334],[-79.41615,43.72884],[-79.41588,43.72774],[-79.41457,43.7245],[-79.41352,43.71886],[-79.4136,43.71874],[-79.42222,43.71703],[-79.42112,43.71419],[-79.42061,43.7131],[-79.41937,43.71007],[-79.41945,43.70993],[-79.42701,43.70834],[-79.42729,43.70823],[-79.43616,43.70638],[-79.43969,43.70561],[-79.43886,43.70214],[-79.43893,43.70202],[-79.44068,43.70161],[-79.44005,43.70005],[-79.44014,43.69991],[-79.43939,43.69804],[-79.43602,43.69877],[-79.4299,43.70006],[-79.42761,43.70057],[-79.42556,43.70099],[-79.42314,43.70151],[-79.42089,43.702],[-79.41988,43.70219],[-79.41323,43.70361],[-79.41104,43.70407],[-79.41096,43.70405],[-79.41093,43.704],[-79.4108,43.70369],[-79.41026,43.70234],[-79.40986,43.70132],[-79.4094,43.70017],[-79.40943,43.69991],[-79.40914,43.69926],[-79.40871,43.69911],[-79.40778,43.69879],[-79.40667,43.6984],[-79.40617,43.69822],[-79.4061,43.69819],[-79.40586,43.69817],[-79.40556,43.69799],[-79.40278,43.69713],[-79.40127,43.69673],[-79.40009,43.69639],[-79.39804,43.69585],[-79.39691,43.69561],[-79.39611,43.69567],[-79.3962,43.69613],[-79.39647,43.69737],[-79.39664,43.6983],[-79.39695,43.69979],[-79.39704,43.7003],[-79.39734,43.70179],[-79.39767,43.70329],[-79.39785,43.70435],[-79.39824,43.70614]]]},"properties":{"name":"Uptown","info":"Around and north of Yonge & Eglinton up to the 401.","lp":[-79.40508,43.72486]}},
{"type":"Feature","geometry":{"type":"Polygon","coordinates":[[[-79.48278,43.66682],[-79.48331,43.66679],[-79.48286,43.66571],[-79.48314,43.66528],[-79.48313,43.6649],[-79.48169,43.66155],[-79.48144,43.66068],[-79.48263,43.66043],[-79.48299,43.66041],[-79.48851,43.65916],[-79.48812,43.65827],[-79.48698,43.65539],[-79.48452,43.64942],[-79.48488,43.6491],[-79.48508,43.64908],[-79.49262,43.64744],[-79.49277,43.64712],[-79.49282,43.64673],[-79.49279,43.64621],[-79.4927,43.64591],[-79.49252,43.64561],[-79.49173,43.64494],[-79.49155,43.64472],[-79.49098,43.64384],[-79.49059,43.64308],[-79.49019,43.642],[-79.4898,43.64145],[-79.48944,43.64123],[-79.48911,43.64121],[-79.48821,43.64152],[-79.48751,43.64181],[-79.48667,43.64202],[-79.48598,43.64211],[-79.48545,43.64209],[-79.48505,43.64189],[-79.48499,43.64172],[-79.48502,43.64088],[-79.48511,43.64028],[-79.48513,43.63963],[-79.48504,43.63883],[-79.48484,43.63848],[-79.48425,43.63815],[-79.48385,43.63805],[-79.48248,43.63797],[-79.48188,43.63799],[-79.48086,43.63809],[-79.47985,43.63814],[-79.47885,43.63812],[-79.47813,43.63799],[-79.47752,43.63774],[-79.47708,43.63721],[-79.47687,43.63673],[-79.47683,43.63645],[-79.47652,43.63596],[-79.47584,43.63475],[-79.4755,43.63411],[-79.47512,43.63385],[-79.47386,43.63325],[-79.4728,43.63282],[-79.47202,43.63236],[-79.47123,43.6317],[-79.47098,43.63194],[-79.47029,43.63222],[-79.46924,43.63278],[-79.46877,43.63317],[-79.46839,43.63376],[-79.46804,43.63404],[-79.46731,43.63425],[-79.46716,43.6344],[-79.46672,43.63448],[-79.46636,43.63442],[-79.46581,43.63464],[-79.46522,43.63503],[-79.46504,43.63522],[-79.46391,43.63571],[-79.4632,43.63578],[-79.46261,43.63568],[-79.46233,43.63581],[-79.46192,43.63625],[-79.46166,43.6364],[-79.46126,43.63636],[-79.46074,43.6366],[-79.46019,43.63676],[-79.45943,43.63678],[-79.45903,43.63684],[-79.45877,43.63676],[-79.45831,43.63702],[-79.4579,43.63718],[-79.45742,43.63723],[-79.45637,43.6372],[-79.45521,43.63748],[-79.45447,43.63741],[-79.45382,43.63729],[-79.45293,43.63695],[-79.45259,43.63673],[-79.45212,43.63663],[-79.45104,43.63649],[-79.45057,43.63658],[-79.44976,43.63652],[-79.44932,43.63622],[-79.44894,43.63619],[-79.44838,43.63643],[-79.44763,43.63653],[-79.44674,43.63631],[-79.44643,43.63614],[-79.44596,43.63602],[-79.44398,43.63518],[-79.44392,43.63501],[-79.44323,43.63472],[-79.44292,43.63473],[-79.44244,43.63489],[-79.44201,43.63495],[-79.44115,43.63488],[-79.44072,43.6347],[-79.44008,43.63429],[-79.44001,43.63391],[-79.43932,43.63357],[-79.43936,43.63323],[-79.4382,43.63269],[-79.43773,43.63254],[-79.43694,43.63217],[-79.43587,43.63182],[-79.43508,43.6314],[-79.43347,43.63082],[-79.43172,43.63043],[-79.42948,43.63002],[-79.42721,43.62972],[-79.42597,43.62966],[-79.4237,43.62985],[-79.42011,43.63012],[-79.41874,43.62952],[-79.4184,43.62941],[-79.41807,43.62834],[-79.41814,43.62821],[-79.41857,43.62823],[-79.41868,43.62795],[-79.41892,43.62787],[-79.41923,43.62792],[-79.41935,43.62813],[-79.41915,43.62849],[-79.41952,43.62875],[-79.41934,43.62899],[-79.4194,43.62919],[-79.41963,43.62932],[-79.42008,43.62925],[-79.42246,43.62906],[-79.42221,43.62874],[-79.42205,43.6284],[-79.42212,43.62814],[-79.42254,43.62774],[-79.42238,43.62746],[-79.42201,43.62742],[-79.42139,43.62753],[-79.4207,43.62734],[-79.42037,43.62718],[-79.42002,43.62676],[-79.4197,43.62676],[-79.41942,43.62688],[-79.41822,43.62649],[-79.4167,43.62628],[-79.41639,43.62629],[-79.41502,43.6264],[-79.41492,43.62655],[-79.41653,43.6264],[-79.41818,43.62661],[-79.41857,43.6268],[-79.4184,43.627],[-79.4181,43.62705],[-79.41775,43.62691],[-79.4178,43.62738],[-79.4173,43.62793],[-79.41632,43.62808],[-79.4161,43.62785],[-79.41565,43.62765],[-79.41555,43.62715],[-79.41537,43.62708],[-79.41436,43.62717],[-79.41366,43.62699],[-79.41332,43.62702],[-79.41307,43.62725],[-79.4128,43.62735],[-79.41225,43.62739],[-79.41146,43.6273],[-79.41104,43.62738],[-79.41038,43.6278],[-79.41013,43.62806],[-79.41003,43.62833],[-79.41022,43.62911],[-79.40989,43.62938],[-79.40915,43.62952],[-79.40905,43.62978],[-79.40928,43.63021],[-79.40947,43.63081],[-79.40946,43.63102],[-79.40987,43.63096],[-79.40992,43.63117],[-79.40963,43.63123],[-79.40879,43.6317],[-79.40864,43.63297],[-79.40853,43.63306],[-79.40665,43.63285],[-79.40511,43.63311],[-79.40503,43.63309],[-79.40301,43.63152],[-79.40303,43.63129],[-79.40236,43.63104],[-79.40201,43.63118],[-79.39886,43.63288],[-79.39792,43.63336],[-79.39761,43.63355],[-79.39754,43.63367],[-79.39746,43.63372],[-79.39693,43.63401],[-79.3972,43.63431],[-79.39814,43.63543],[-79.39826,43.63557],[-79.39834,43.63564],[-79.39837,43.63568],[-79.3984,43.63571],[-79.39841,43.63572],[-79.39847,43.63578],[-79.39848,43.63578],[-79.39859,43.63586],[-79.3987,43.63592],[-79.39878,43.63597],[-79.39878,43.63598],[-79.39885,43.63601],[-79.39894,43.63605],[-79.39894,43.63606],[-79.39936,43.63626],[-79.3995,43.63634],[-79.39957,43.6364],[-79.3996,43.63643],[-79.39961,43.63644],[-79.39964,43.63648],[-79.39965,43.63649],[-79.39981,43.63682],[-79.39982,43.63683],[-79.40002,43.63734],[-79.40044,43.63831],[-79.4022,43.64265],[-79.4024,43.6432],[-79.4029,43.64441],[-79.40311,43.64489],[-79.40323,43.64519],[-79.40337,43.64552],[-79.40376,43.64647],[-79.40389,43.64682],[-79.40401,43.64719],[-79.40419,43.64768],[-79.4055,43.65101],[-79.4056,43.65127],[-79.40565,43.65139],[-79.40602,43.65231],[-79.40684,43.65429],[-79.40772,43.65648],[-79.40847,43.65829],[-79.40909,43.65981],[-79.40944,43.66071],[-79.41025,43.66267],[-79.41072,43.66383],[-79.41121,43.66511],[-79.41181,43.665],[-79.41185,43.665],[-79.41244,43.66489],[-79.41244,43.66488],[-79.41365,43.66462],[-79.41486,43.66434],[-79.41612,43.66407],[-79.41722,43.66383],[-79.41834,43.6636],[-79.41835,43.6636],[-79.41836,43.6636],[-79.41839,43.66361],[-79.41843,43.66363],[-79.41845,43.66366],[-79.41879,43.66444],[-79.41947,43.66617],[-79.41959,43.66649],[-79.41962,43.66657],[-79.41993,43.66739],[-79.4202,43.66812],[-79.42029,43.66834],[-79.42181,43.67231],[-79.42174,43.67244],[-79.41675,43.67347],[-79.4147,43.67391],[-79.41469,43.67391],[-79.41485,43.67434],[-79.41553,43.67607],[-79.41579,43.67673],[-79.41644,43.67833],[-79.41644,43.67834],[-79.41658,43.67878],[-79.41676,43.67925],[-79.41709,43.68011],[-79.41748,43.68105],[-79.41767,43.68157],[-79.41843,43.6835],[-79.41849,43.68363],[-79.42072,43.68316],[-79.42079,43.68311],[-79.42328,43.68259],[-79.42355,43.68272],[-79.42465,43.6825],[-79.42471,43.6823],[-79.42611,43.68198],[-79.42646,43.68199],[-79.42895,43.68147],[-79.4291,43.68159],[-79.43395,43.68058],[-79.43996,43.67928],[-79.44237,43.67877],[-79.44248,43.67883],[-79.44356,43.68145],[-79.44495,43.68489],[-79.46014,43.68157],[-79.46044,43.6819],[-79.46114,43.68175],[-79.46122,43.68164],[-79.46547,43.68072],[-79.46544,43.68033],[-79.47038,43.67929],[-79.47057,43.67949],[-79.47177,43.67924],[-79.47264,43.67921],[-79.4734,43.67903],[-79.47383,43.67938],[-79.476,43.67887],[-79.47583,43.67837],[-79.47372,43.67673],[-79.47366,43.67628],[-79.47388,43.67568],[-79.47359,43.67532],[-79.47364,43.67516],[-79.4742,43.67498],[-79.47836,43.67408],[-79.47836,43.67376],[-79.47884,43.67364],[-79.47862,43.67311],[-79.47869,43.67297],[-79.48078,43.67251],[-79.48012,43.67088],[-79.48019,43.67074],[-79.48394,43.66991],[-79.48356,43.66899],[-79.48268,43.66696],[-79.48278,43.66682]]]},"properties":{"name":"West End","info":"Old Toronto west of Bathurst: Parkdale, the Junction, Roncesvalles, Little Italy.","lp":[-79.45442,43.65988]}},
{"type":"Feature","geometry":{"type":"Polygon","coordinates":[[[-79.36496,43.67673],[-79.36495,43.67673],[-79.36469,43.67646],[-79.36468,43.67646],[-79.36434,43.67623],[-79.36432,43.67622],[-79.36403,43.67594],[-79.36376,43.67565],[-79.36347,43.6754],[-79.3634,43.67533],[-79.36339,43.67532],[-79.3631,43.67492],[-79.36304,43.67488],[-79.36303,43.67487],[-79.36302,43.67485],[-79.36299,43.67481],[-79.36298,43.6748],[-79.36291,43.67465],[-79.36289,43.67459],[-79.36289,43.67457],[-79.36289,43.67456],[-79.36288,43.67449],[-79.36288,43.67441],[-79.36288,43.67439],[-79.36294,43.67413],[-79.36299,43.67395],[-79.36301,43.67387],[-79.36304,43.67369],[-79.36306,43.67354],[-79.36306,43.67347],[-79.36306,43.67346],[-79.36304,43.6734],[-79.36304,43.67339],[-79.36301,43.67332],[-79.36295,43.67324],[-79.36279,43.67313],[-79.36269,43.67308],[-79.36258,43.67303],[-79.36257,43.67303],[-79.36245,43.673],[-79.36233,43.67298],[-79.36223,43.67296],[-79.36206,43.67292],[-79.36195,43.67286],[-79.36186,43.67283],[-79.36185,43.67283],[-79.36176,43.67278],[-79.36167,43.67273],[-79.36166,43.67273],[-79.36157,43.67269],[-79.36156,43.67268],[-79.36053,43.67198],[-79.36052,43.67196],[-79.36046,43.67189],[-79.36045,43.67188],[-79.3604,43.67181],[-79.36034,43.67174],[-79.36028,43.67165],[-79.36023,43.67157],[-79.36022,43.67156],[-79.36018,43.67148],[-79.36013,43.67139],[-79.36009,43.6713],[-79.36005,43.67121],[-79.36001,43.67112],[-79.36001,43.67111],[-79.35996,43.67102],[-79.35992,43.67093],[-79.35984,43.67074],[-79.35979,43.67065],[-79.35975,43.67055],[-79.35971,43.67047],[-79.35971,43.67046],[-79.35966,43.67038],[-79.35959,43.67028],[-79.35942,43.67013],[-79.35942,43.67012],[-79.35933,43.67006],[-79.35875,43.66967],[-79.35853,43.66956],[-79.35814,43.66926],[-79.35781,43.66902],[-79.35781,43.66901],[-79.3578,43.66901],[-79.35776,43.66896],[-79.35774,43.66893],[-79.35761,43.6688],[-79.35755,43.66872],[-79.35751,43.66865],[-79.35751,43.66864],[-79.35743,43.66846],[-79.35739,43.66837],[-79.35738,43.66837],[-79.35735,43.66827],[-79.35732,43.66819],[-79.35718,43.6677],[-79.35658,43.66552],[-79.35635,43.66466],[-79.35613,43.66393],[-79.35609,43.6638],[-79.35605,43.66368],[-79.356,43.66355],[-79.35591,43.66327],[-79.3558,43.66285],[-79.35576,43.6627],[-79.35572,43.66257],[-79.35561,43.66228],[-79.35548,43.66185],[-79.35544,43.66171],[-79.35538,43.66143],[-79.35517,43.66071],[-79.35503,43.66028],[-79.3549,43.65986],[-79.35485,43.65972],[-79.35473,43.65932],[-79.35471,43.65919],[-79.35465,43.65892],[-79.35439,43.65803],[-79.35435,43.65791],[-79.35434,43.65791],[-79.35428,43.65779],[-79.35421,43.65767],[-79.35411,43.65756],[-79.35354,43.65705],[-79.35279,43.65645],[-79.35174,43.65556],[-79.34951,43.65359],[-79.34772,43.65141],[-79.34732,43.65081],[-79.34731,43.65078],[-79.34731,43.65075],[-79.34733,43.6507],[-79.34745,43.65053],[-79.34766,43.65042],[-79.35427,43.64768],[-79.35435,43.64765],[-79.35441,43.64762],[-79.35929,43.64553],[-79.35934,43.64552],[-79.35938,43.64554],[-79.35941,43.64556],[-79.35943,43.64559],[-79.36008,43.6464],[-79.36075,43.64721],[-79.35985,43.6453],[-79.35368,43.63807],[-79.34965,43.6334],[-79.34709,43.6332],[-79.34697,43.63354],[-79.34704,43.63369],[-79.34702,43.63418],[-79.34684,43.63459],[-79.34656,43.63473],[-79.34551,43.63499],[-79.34506,43.63555],[-79.3442,43.63621],[-79.34388,43.63653],[-79.34381,43.63671],[-79.34325,43.63723],[-79.34284,43.63752],[-79.34242,43.63772],[-79.34158,43.63803],[-79.34159,43.63839],[-79.3413,43.63866],[-79.34053,43.63917],[-79.33921,43.63938],[-79.33855,43.63939],[-79.33801,43.63934],[-79.33742,43.6394],[-79.33658,43.63919],[-79.33638,43.63928],[-79.33581,43.63938],[-79.33561,43.63964],[-79.33493,43.64008],[-79.33454,43.64028],[-79.33467,43.64041],[-79.33498,43.64014],[-79.33564,43.63979],[-79.33616,43.63943],[-79.33654,43.63948],[-79.33726,43.63995],[-79.33741,43.64021],[-79.33671,43.64097],[-79.33644,43.64117],[-79.33577,43.6418],[-79.33525,43.6421],[-79.33522,43.64233],[-79.33457,43.64295],[-79.33386,43.64356],[-79.33352,43.64396],[-79.33307,43.64429],[-79.33233,43.64496],[-79.33128,43.64563],[-79.33096,43.64588],[-79.33045,43.64658],[-79.32946,43.64708],[-79.32888,43.6474],[-79.32844,43.64758],[-79.32816,43.64761],[-79.32747,43.64735],[-79.32739,43.64705],[-79.32675,43.64685],[-79.32654,43.64694],[-79.32596,43.64692],[-79.32572,43.64678],[-79.3256,43.64656],[-79.32537,43.6456],[-79.32588,43.64497],[-79.32685,43.64398],[-79.3273,43.644],[-79.32824,43.64435],[-79.32836,43.64412],[-79.32787,43.64393],[-79.32737,43.64357],[-79.32713,43.64318],[-79.3271,43.64283],[-79.3272,43.6425],[-79.3276,43.64217],[-79.32741,43.64176],[-79.32745,43.64154],[-79.32772,43.64116],[-79.328,43.64102],[-79.32866,43.64086],[-79.32858,43.64056],[-79.32891,43.64011],[-79.32943,43.63986],[-79.32987,43.6398],[-79.32975,43.63952],[-79.32983,43.6392],[-79.33009,43.63896],[-79.33043,43.63881],[-79.33086,43.6388],[-79.3309,43.63866],[-79.33051,43.63853],[-79.3303,43.63826],[-79.33023,43.63789],[-79.32978,43.6375],[-79.32965,43.63715],[-79.32948,43.63706],[-79.32892,43.63726],[-79.32866,43.63748],[-79.32859,43.63767],[-79.32877,43.63785],[-79.32883,43.63814],[-79.32822,43.63878],[-79.32773,43.63921],[-79.32742,43.6396],[-79.32714,43.63986],[-79.3268,43.64035],[-79.32659,43.64045],[-79.32624,43.64028],[-79.32506,43.63991],[-79.32471,43.64007],[-79.32475,43.6402],[-79.32618,43.64075],[-79.32623,43.6409],[-79.32533,43.64227],[-79.32446,43.64424],[-79.32456,43.64445],[-79.32435,43.64512],[-79.32424,43.64519],[-79.32176,43.64483],[-79.32159,43.64465],[-79.32175,43.64375],[-79.32195,43.6433],[-79.32211,43.64266],[-79.32211,43.64242],[-79.32237,43.64145],[-79.32262,43.6412],[-79.3226,43.64046],[-79.32269,43.64023],[-79.32281,43.63951],[-79.32299,43.63898],[-79.32297,43.6383],[-79.3231,43.63801],[-79.32342,43.63752],[-79.32409,43.63694],[-79.32448,43.63645],[-79.32532,43.63589],[-79.32591,43.63578],[-79.32618,43.63558],[-79.32636,43.6352],[-79.32634,43.63495],[-79.32674,43.63482],[-79.32659,43.63453],[-79.32619,43.63435],[-79.32593,43.63394],[-79.3264,43.63336],[-79.32676,43.63303],[-79.3269,43.63281],[-79.32692,43.63218],[-79.32721,43.63217],[-79.32813,43.63241],[-79.32859,43.63249],[-79.32823,43.63284],[-79.32816,43.63306],[-79.32825,43.63338],[-79.3286,43.63365],[-79.32903,43.63361],[-79.32904,43.63348],[-79.32937,43.6332],[-79.32996,43.63286],[-79.33057,43.63278],[-79.33146,43.63227],[-79.33189,43.63213],[-79.3323,43.63192],[-79.33329,43.63158],[-79.33363,43.63157],[-79.33424,43.63166],[-79.33456,43.6316],[-79.33486,43.63092],[-79.33542,43.63063],[-79.33597,43.63007],[-79.33634,43.62992],[-79.33646,43.62937],[-79.33613,43.62909],[-79.33596,43.62935],[-79.33537,43.62967],[-79.33503,43.62973],[-79.33452,43.62946],[-79.33397,43.62942],[-79.33375,43.6296],[-79.33372,43.62983],[-79.33391,43.6303],[-79.33369,43.63052],[-79.33305,43.63068],[-79.33255,43.63061],[-79.33241,43.63035],[-79.33199,43.63047],[-79.33182,43.63063],[-79.33152,43.63118],[-79.33115,43.63127],[-79.33086,43.63123],[-79.33015,43.6313],[-79.32891,43.63094],[-79.32866,43.63068],[-79.32868,43.63041],[-79.32883,43.63011],[-79.32936,43.62945],[-79.32961,43.62886],[-79.32998,43.62833],[-79.33035,43.62818],[-79.33065,43.62815],[-79.33086,43.62782],[-79.33111,43.62769],[-79.33136,43.62735],[-79.33154,43.62724],[-79.33145,43.62692],[-79.33166,43.62667],[-79.33108,43.62629],[-79.33104,43.62608],[-79.33128,43.62586],[-79.33155,43.62586],[-79.33215,43.62619],[-79.33264,43.62591],[-79.33312,43.62593],[-79.33361,43.62573],[-79.33397,43.62575],[-79.33423,43.62597],[-79.33439,43.6259],[-79.33427,43.62565],[-79.33424,43.62532],[-79.33441,43.62515],[-79.33488,43.62526],[-79.33544,43.6257],[-79.33571,43.62616],[-79.33573,43.62638],[-79.3356,43.62655],[-79.33511,43.62688],[-79.33491,43.62708],[-79.33499,43.62743],[-79.33527,43.62752],[-79.3359,43.62757],[-79.33653,43.62748],[-79.33691,43.62753],[-79.3373,43.6278],[-79.33741,43.62803],[-79.3375,43.6286],[-79.33736,43.62881],[-79.33744,43.62902],[-79.33769,43.62908],[-79.3382,43.62889],[-79.33855,43.62895],[-79.33861,43.6291],[-79.33923,43.62941],[-79.33944,43.62923],[-79.33839,43.62774],[-79.33824,43.62739],[-79.33789,43.62695],[-79.33731,43.62593],[-79.33703,43.62482],[-79.33704,43.62458],[-79.3374,43.62387],[-79.33796,43.62327],[-79.33747,43.62288],[-79.33756,43.62274],[-79.33813,43.62232],[-79.33857,43.62215],[-79.33894,43.62219],[-79.33915,43.62242],[-79.339,43.62262],[-79.33895,43.62302],[-79.33926,43.62297],[-79.33962,43.62304],[-79.34037,43.62356],[-79.34053,43.62378],[-79.3404,43.62406],[-79.34122,43.62367],[-79.34167,43.62337],[-79.34238,43.62323],[-79.34287,43.62345],[-79.3432,43.62339],[-79.34315,43.62311],[-79.34284,43.62283],[-79.3426,43.62275],[-79.34223,43.62286],[-79.34127,43.6225],[-79.34113,43.62239],[-79.34112,43.62207],[-79.34096,43.62187],[-79.34058,43.62165],[-79.34007,43.62149],[-79.33976,43.6212],[-79.33965,43.62088],[-79.33976,43.62051],[-79.34005,43.62017],[-79.34069,43.61972],[-79.34124,43.6195],[-79.34211,43.61936],[-79.34269,43.61951],[-79.34286,43.61989],[-79.34278,43.62024],[-79.34298,43.62123],[-79.3432,43.62145],[-79.34332,43.62171],[-79.34312,43.62187],[-79.34329,43.62215],[-79.34407,43.62233],[-79.34427,43.62229],[-79.34468,43.62193],[-79.34499,43.62182],[-79.34475,43.62162],[-79.34394,43.62112],[-79.34355,43.62074],[-79.34339,43.62036],[-79.34344,43.61973],[-79.34374,43.61922],[-79.34467,43.61843],[-79.34477,43.61803],[-79.34435,43.6177],[-79.34378,43.61674],[-79.34369,43.61621],[-79.34369,43.61535],[-79.34383,43.61486],[-79.34394,43.61394],[-79.34405,43.61373],[-79.34412,43.61325],[-79.3437,43.61281],[-79.34343,43.61273],[-79.34297,43.61282],[-79.34273,43.6131],[-79.34251,43.61365],[-79.34206,43.61445],[-79.34184,43.61471],[-79.34141,43.61494],[-79.34132,43.61555],[-79.34153,43.61582],[-79.34204,43.61615],[-79.34208,43.61625],[-79.34181,43.61696],[-79.34113,43.618],[-79.34052,43.61853],[-79.33977,43.61896],[-79.33888,43.61898],[-79.33849,43.61874],[-79.33799,43.61868],[-79.33772,43.61873],[-79.33711,43.61914],[-79.33702,43.61944],[-79.33705,43.61982],[-79.3368,43.62078],[-79.3363,43.62078],[-79.33672,43.62006],[-79.33668,43.61973],[-79.33647,43.61933],[-79.33606,43.61943],[-79.33542,43.61941],[-79.33513,43.61934],[-79.33485,43.61944],[-79.33478,43.61969],[-79.33454,43.61988],[-79.33388,43.62014],[-79.33241,43.62042],[-79.33186,43.62041],[-79.33068,43.62033],[-79.32951,43.62009],[-79.32826,43.61964],[-79.32795,43.61943],[-79.32772,43.61891],[-79.32749,43.6188],[-79.3272,43.61885],[-79.32696,43.61904],[-79.32671,43.61956],[-79.32679,43.62011],[-79.32698,43.62033],[-79.32739,43.62052],[-79.32862,43.6213],[-79.32865,43.62165],[-79.32837,43.62178],[-79.32771,43.62192],[-79.32743,43.62191],[-79.32657,43.62206],[-79.32604,43.62208],[-79.32547,43.62198],[-79.32486,43.6216],[-79.32478,43.62137],[-79.32488,43.62098],[-79.32515,43.62049],[-79.32518,43.62023],[-79.32503,43.61959],[-79.32507,43.6194],[-79.32545,43.61889],[-79.32564,43.61854],[-79.3263,43.61813],[-79.32693,43.61802],[-79.32723,43.61781],[-79.32729,43.61764],[-79.32706,43.61747],[-79.32644,43.61754],[-79.32575,43.61776],[-79.3253,43.61779],[-79.32461,43.61759],[-79.32443,43.61742],[-79.32406,43.61727],[-79.32354,43.61734],[-79.32349,43.61764],[-79.32362,43.61779],[-79.3241,43.61812],[-79.32423,43.61838],[-79.32426,43.61888],[-79.32406,43.62084],[-79.32385,43.62165],[-79.32369,43.6219],[-79.32335,43.62215],[-79.32292,43.62228],[-79.32251,43.62226],[-79.32257,43.62271],[-79.32293,43.62288],[-79.32313,43.62311],[-79.32314,43.624],[-79.32301,43.62467],[-79.32282,43.6253],[-79.32263,43.62555],[-79.32236,43.62567],[-79.32231,43.62617],[-79.32258,43.62631],[-79.32277,43.6268],[-79.32278,43.62711],[-79.32259,43.62813],[-79.32227,43.62897],[-79.32189,43.62918],[-79.32186,43.62957],[-79.32218,43.62969],[-79.32232,43.62988],[-79.32238,43.63034],[-79.32223,43.63141],[-79.3219,43.63271],[-79.32154,43.63293],[-79.32103,43.63307],[-79.32093,43.63334],[-79.32146,43.63359],[-79.32251,43.63398],[-79.32294,43.63426],[-79.32312,43.63448],[-79.32316,43.63478],[-79.32296,43.63568],[-79.32283,43.63586],[-79.32251,43.63688],[-79.32223,43.63733],[-79.32197,43.63754],[-79.32177,43.63833],[-79.32204,43.63873],[-79.32206,43.6389],[-79.32179,43.63968],[-79.3212,43.6411],[-79.32107,43.64132],[-79.32064,43.64178],[-79.32068,43.64202],[-79.32125,43.64237],[-79.3213,43.64267],[-79.32084,43.6442],[-79.32054,43.64492],[-79.32035,43.64552],[-79.31988,43.64586],[-79.31978,43.64611],[-79.32002,43.64659],[-79.32006,43.64697],[-79.31994,43.64796],[-79.32,43.64823],[-79.32021,43.64845],[-79.32009,43.64941],[-79.31988,43.65007],[-79.31963,43.65112],[-79.31945,43.6516],[-79.31841,43.65346],[-79.318,43.65433],[-79.31752,43.65491],[-79.31698,43.65537],[-79.31682,43.65557],[-79.31639,43.65589],[-79.31604,43.65604],[-79.31599,43.6562],[-79.31624,43.65672],[-79.31664,43.65723],[-79.31661,43.65737],[-79.31623,43.65756],[-79.31568,43.65758],[-79.31475,43.65737],[-79.31443,43.6574],[-79.31372,43.65757],[-79.31314,43.65792],[-79.31314,43.65807],[-79.3137,43.65849],[-79.31434,43.65891],[-79.31507,43.65925],[-79.31604,43.65988],[-79.31706,43.66079],[-79.31711,43.66139],[-79.31703,43.66149],[-79.31492,43.66197],[-79.31435,43.66162],[-79.31394,43.66158],[-79.31343,43.66164],[-79.3134,43.66133],[-79.31403,43.66119],[-79.31441,43.66093],[-79.31409,43.66068],[-79.31386,43.66037],[-79.31276,43.65955],[-79.31266,43.65927],[-79.31206,43.65879],[-79.31193,43.65854],[-79.3117,43.65834],[-79.31184,43.65796],[-79.31172,43.6576],[-79.31196,43.65753],[-79.31223,43.65726],[-79.31262,43.65708],[-79.31256,43.65685],[-79.3123,43.65674],[-79.31196,43.65688],[-79.31163,43.65692],[-79.3111,43.65684],[-79.31075,43.65662],[-79.31042,43.65669],[-79.31025,43.65695],[-79.31109,43.65719],[-79.31116,43.65731],[-79.31091,43.65795],[-79.31037,43.65838],[-79.30999,43.65816],[-79.3096,43.65807],[-79.30944,43.65824],[-79.30899,43.65812],[-79.30838,43.65788],[-79.3075,43.65767],[-79.30688,43.65722],[-79.3069,43.65691],[-79.3073,43.6569],[-79.30773,43.65677],[-79.30805,43.65657],[-79.30849,43.656],[-79.30878,43.65591],[-79.30935,43.65595],[-79.30964,43.65607],[-79.31015,43.65614],[-79.31065,43.65601],[-79.31108,43.65598],[-79.31125,43.65576],[-79.31121,43.65548],[-79.31104,43.65529],[-79.31065,43.65516],[-79.31033,43.6552],[-79.31022,43.65541],[-79.30972,43.65541],[-79.30935,43.6552],[-79.30878,43.65443],[-79.30862,43.65416],[-79.30835,43.65436],[-79.30842,43.65498],[-79.30829,43.65534],[-79.30776,43.65613],[-79.3072,43.65647],[-79.3069,43.65658],[-79.30638,43.65662],[-79.30607,43.65653],[-79.30539,43.65644],[-79.30503,43.65664],[-79.30499,43.65689],[-79.30533,43.65732],[-79.30597,43.65793],[-79.30612,43.65841],[-79.30608,43.65867],[-79.30569,43.65925],[-79.30532,43.65938],[-79.30508,43.6596],[-79.30497,43.65986],[-79.30513,43.66012],[-79.30547,43.66032],[-79.30589,43.66041],[-79.30629,43.66039],[-79.30642,43.66061],[-79.30665,43.66072],[-79.30686,43.66045],[-79.30718,43.66062],[-79.30725,43.66109],[-79.30718,43.66139],[-79.30666,43.66209],[-79.30615,43.6626],[-79.30532,43.66297],[-79.30432,43.6636],[-79.30366,43.66419],[-79.30338,43.66454],[-79.30303,43.66459],[-79.3026,43.66491],[-79.3024,43.66493],[-79.30205,43.66476],[-79.30169,43.66502],[-79.30131,43.66518],[-79.30115,43.66515],[-79.30074,43.66537],[-79.30035,43.66535],[-79.29969,43.66562],[-79.29933,43.66567],[-79.29899,43.66547],[-79.29854,43.66553],[-79.29796,43.66525],[-79.29747,43.66535],[-79.29696,43.66534],[-79.29594,43.66565],[-79.29507,43.66604],[-79.295,43.66628],[-79.29466,43.66623],[-79.29392,43.66703],[-79.29354,43.66729],[-79.2932,43.66736],[-79.2927,43.66732],[-79.29243,43.66763],[-79.29218,43.66775],[-79.29168,43.66769],[-79.29148,43.66794],[-79.29054,43.66841],[-79.29019,43.66852],[-79.28968,43.66855],[-79.2895,43.66818],[-79.28893,43.6686],[-79.28859,43.66864],[-79.2884,43.66889],[-79.28798,43.66913],[-79.2876,43.6692],[-79.28725,43.66913],[-79.28704,43.66888],[-79.28671,43.6689],[-79.28679,43.66909],[-79.28608,43.66943],[-79.28558,43.66983],[-79.28514,43.66994],[-79.28498,43.66971],[-79.28448,43.67006],[-79.28383,43.67024],[-79.28337,43.67028],[-79.28288,43.67008],[-79.28265,43.67022],[-79.28236,43.67057],[-79.28191,43.67073],[-79.28142,43.67063],[-79.28137,43.67037],[-79.28085,43.67093],[-79.28061,43.67105],[-79.28003,43.67102],[-79.28002,43.67138],[-79.28106,43.67389],[-79.28122,43.67396],[-79.28438,43.6816],[-79.28625,43.6861],[-79.28776,43.68978],[-79.29261,43.68873],[-79.29272,43.68878],[-79.29431,43.69247],[-79.29485,43.69236],[-79.29493,43.69223],[-79.30333,43.69029],[-79.30352,43.6905],[-79.30415,43.6904],[-79.30831,43.68945],[-79.30888,43.68928],[-79.30819,43.68766],[-79.30826,43.68753],[-79.31349,43.68631],[-79.31361,43.68638],[-79.31485,43.68918],[-79.32512,43.68697],[-79.3287,43.68621],[-79.33136,43.68563],[-79.33872,43.68405],[-79.33885,43.68415],[-79.34796,43.6824],[-79.34807,43.68246],[-79.34875,43.68408],[-79.35721,43.68244],[-79.35734,43.68202],[-79.35765,43.6817],[-79.36032,43.68165],[-79.36063,43.68169],[-79.36128,43.68167],[-79.36174,43.68173],[-79.36238,43.68169],[-79.36234,43.68126],[-79.36174,43.67981],[-79.36181,43.67968],[-79.36418,43.6792],[-79.36405,43.67909],[-79.36405,43.67908],[-79.36375,43.67881],[-79.36372,43.67877],[-79.3636,43.67844],[-79.3636,43.67841],[-79.3636,43.6781],[-79.3636,43.67807],[-79.36362,43.67803],[-79.36384,43.67779],[-79.3641,43.67749],[-79.36412,43.67747],[-79.36445,43.67723],[-79.36483,43.67701],[-79.36496,43.67673]],[[-79.33086,43.62553],[-79.33048,43.62582],[-79.33006,43.62642],[-79.32928,43.62699],[-79.32851,43.62688],[-79.32779,43.62707],[-79.32755,43.62653],[-79.32735,43.6264],[-79.32669,43.62617],[-79.3254,43.6259],[-79.32452,43.62544],[-79.32447,43.62504],[-79.32458,43.62441],[-79.32464,43.62355],[-79.32476,43.62309],[-79.32754,43.62314],[-79.33205,43.6227],[-79.33283,43.62277],[-79.33284,43.62294],[-79.33251,43.62383],[-79.33166,43.6251],[-79.33103,43.62531],[-79.33086,43.62553]],[[-79.32727,43.62778],[-79.32747,43.62771],[-79.32777,43.62816],[-79.32751,43.62856],[-79.3269,43.6285],[-79.32644,43.6286],[-79.32618,43.62884],[-79.32586,43.62893],[-79.32543,43.62879],[-79.32447,43.62903],[-79.32407,43.62907],[-79.32425,43.62775],[-79.32426,43.62695],[-79.32666,43.62774],[-79.32727,43.62778]],[[-79.32615,43.62975],[-79.32667,43.62989],[-79.32619,43.63051],[-79.32565,43.63106],[-79.32496,43.63193],[-79.32394,43.63298],[-79.32353,43.6329],[-79.3238,43.63202],[-79.32411,43.63158],[-79.3242,43.63135],[-79.32408,43.63081],[-79.32434,43.63056],[-79.32576,43.6301],[-79.32615,43.62975]]]},"properties":{"name":"East End","info":"Old Toronto east of the Don: Riverdale, Leslieville, the Danforth, the Beaches.","lp":[-79.33526,43.66571]}}
]}