{"type":"FeatureCollection", "features": [
{"type":"Feature","geometry":{"type":"MultiPolygon","coordinates":[[[[-79.42436,43.62977],[-79.42011,43.6301],[-79.41868,43.62948],[-79.4174,43.6299],[-79.41494,43.63031],[-79.41456,43.63011],[-79.41176,43.6306],[-79.41042,43.63031],[-79.41237,43.62935],[-79.41378,43.62998],[-79.41422,43.628],[-79.41561,43.62826],[-79.41754,43.62799],[-79.41787,43.62779],[-79.41935,43.62815],[-79.41963,43.62932],[-79.42247,43.62906],[-79.42138,43.62754],[-79.41833,43.6266],[-79.41733,43.62792],[-79.4162,43.6281],[-79.41539,43.62708],[-79.41349,43.62697],[-79.41297,43.62731],[-79.41105,43.62738],[-79.41006,43.6282],[-79.41024,43.62914],[-79.40905,43.62978],[-79.40958,43.63122],[-79.40879,43.63168],[-79.40861,43.63304],[-79.40664,43.6328],[-79.40344,43.63334],[-79.40159,43.63417],[-79.4003,43.6329],[-79.40296,43.63148],[-79.40232,43.631],[-79.39548,43.63469],[-79.39696,43.63643],[-79.3844,43.63761],[-79.385,43.639],[-79.38424,43.63912],[-79.38367,43.63769],[-79.37958,43.63807],[-79.38027,43.63969],[-79.37874,43.63904],[-79.37714,43.63898],[-79.3754,43.63962],[-79.3745,43.64036],[-79.37519,43.64157],[-79.37453,43.64181],[-79.37353,43.64033],[-79.36827,43.64227],[-79.36913,43.64357],[-79.3683,43.64388],[-79.36744,43.64259],[-79.35943,43.64559],[-79.35444,43.64777],[-79.35476,43.64668],[-79.35671,43.64583],[-79.35636,43.64541],[-79.3544,43.64622],[-79.35403,43.64579],[-79.35817,43.644],[-79.35661,43.64217],[-79.35252,43.64394],[-79.35224,43.64343],[-79.35624,43.64172],[-79.35409,43.6391],[-79.33373,43.65068],[-79.33508,43.65231],[-79.33154,43.65384],[-79.33017,43.65222],[-79.32538,43.65361],[-79.32502,43.65315],[-79.33296,43.64974],[-79.35334,43.63813],[-79.35118,43.63556],[-79.35033,43.63527],[-79.3481,43.63357],[-79.34711,43.63311],[-79.34686,43.63433],[-79.34558,43.63493],[-79.3435,43.63685],[-79.34066,43.63904],[-79.33765,43.63939],[-79.33737,43.64034],[-79.33234,43.64496],[-79.33096,43.64588],[-79.33045,43.64659],[-79.32836,43.64761],[-79.32583,43.64681],[-79.32534,43.64557],[-79.32683,43.64397],[-79.32775,43.64114],[-79.32898,43.64005],[-79.32993,43.63973],[-79.33026,43.63781],[-79.32922,43.63711],[-79.32882,43.63816],[-79.3263,43.6408],[-79.32533,43.64227],[-79.32446,43.64425],[-79.32432,43.64521],[-79.32158,43.64467],[-79.3234,43.63753],[-79.32624,43.63489],[-79.32541,43.63379],[-79.32728,43.63167],[-79.32898,43.63204],[-79.32871,43.63316],[-79.33088,43.63263],[-79.33343,43.63153],[-79.33451,43.63157],[-79.33664,43.62947],[-79.33525,43.62968],[-79.33415,43.62937],[-79.33394,43.63029],[-79.33148,43.63121],[-79.32987,43.63123],[-79.3287,43.63086],[-79.3288,43.63018],[-79.3299,43.62848],[-79.33147,43.62727],[-79.33089,43.62611],[-79.33004,43.62711],[-79.32832,43.62805],[-79.32729,43.62991],[-79.32434,43.63335],[-79.32305,43.63338],[-79.32354,43.63067],[-79.32422,43.62975],[-79.32356,43.62908],[-79.32376,43.62665],[-79.32432,43.62644],[-79.32397,43.62503],[-79.3242,43.62303],[-79.32468,43.62259],[-79.32749,43.62264],[-79.33205,43.6222],[-79.33324,43.62241],[-79.33296,43.62406],[-79.33197,43.62553],[-79.33266,43.62584],[-79.33487,43.62525],[-79.33576,43.62635],[-79.33499,43.62743],[-79.33689,43.62751],[-79.33762,43.62907],[-79.33936,43.62935],[-79.33845,43.62698],[-79.33683,43.62535],[-79.33694,43.62415],[-79.33757,43.62271],[-79.33901,43.62213],[-79.33986,43.62325],[-79.34129,43.62442],[-79.34319,43.62305],[-79.34131,43.62248],[-79.34006,43.62149],[-79.33975,43.62051],[-79.34069,43.61972],[-79.34271,43.61951],[-79.34307,43.62193],[-79.34442,43.62163],[-79.34356,43.62075],[-79.34344,43.61972],[-79.34469,43.61791],[-79.34377,43.61673],[-79.34392,43.61341],[-79.34291,43.61316],[-79.34242,43.61462],[-79.3418,43.6154],[-79.34262,43.61625],[-79.34151,43.61833],[-79.33986,43.61946],[-79.33772,43.61924],[-79.33725,43.62102],[-79.33604,43.62139],[-79.3353,43.62103],[-79.33623,43.61995],[-79.33567,43.61947],[-79.33306,43.62029],[-79.32952,43.62009],[-79.32758,43.61912],[-79.32713,43.61998],[-79.32873,43.621],[-79.32883,43.62159],[-79.32657,43.62207],[-79.32483,43.62158],[-79.32505,43.61942],[-79.32565,43.61852],[-79.32507,43.61774],[-79.32383,43.61713],[-79.32426,43.61888],[-79.32383,43.6219],[-79.32304,43.62229],[-79.32366,43.62311],[-79.32328,43.62518],[-79.32285,43.62575],[-79.32328,43.62715],[-79.32289,43.62886],[-79.32236,43.62958],[-79.32289,43.6303],[-79.32231,43.63273],[-79.32154,43.63354],[-79.323,43.63437],[-79.32312,43.63525],[-79.32212,43.63896],[-79.32119,43.64125],[-79.32121,43.64231],[-79.32077,43.64434],[-79.31989,43.64627],[-79.32017,43.64886],[-79.31953,43.65116],[-79.31771,43.65471],[-79.31605,43.65617],[-79.31605,43.65725],[-79.31372,43.65757],[-79.31314,43.65807],[-79.31561,43.65959],[-79.3172,43.66078],[-79.31711,43.66145],[-79.31484,43.66197],[-79.31441,43.66092],[-79.3117,43.65834],[-79.31034,43.6584],[-79.30749,43.65769],[-79.30838,43.65601],[-79.31006,43.65613],[-79.31023,43.65542],[-79.30839,43.6549],[-79.30708,43.6565],[-79.30551,43.6564],[-79.30506,43.65701],[-79.30602,43.65839],[-79.30497,43.65986],[-79.30567,43.66038],[-79.30676,43.65989],[-79.30762,43.66034],[-79.30776,43.66129],[-79.30644,43.66302],[-79.30309,43.66476],[-79.30086,43.66547],[-79.29945,43.66567],[-79.29698,43.66531],[-79.29472,43.66599],[-79.29328,43.66724],[-79.28715,43.66937],[-79.27966,43.67117],[-79.27833,43.67218],[-79.27765,43.67209],[-79.27644,43.67391],[-79.27389,43.67686],[-79.27264,43.67852],[-79.27032,43.68055],[-79.2674,43.6838],[-79.26416,43.68637],[-79.2632,43.68792],[-79.26249,43.68804],[-79.25981,43.69088],[-79.25783,43.69335],[-79.25567,43.69502],[-79.25336,43.69618],[-79.25125,43.69697],[-79.24941,43.69808],[-79.24732,43.69872],[-79.24633,43.69969],[-79.24346,43.70157],[-79.24192,43.70226],[-79.2386,43.7046],[-79.23728,43.70504],[-79.23679,43.70416],[-79.23755,43.70358],[-79.23826,43.70219],[-79.23734,43.7022],[-79.23612,43.7012],[-79.23543,43.70167],[-79.2364,43.70241],[-79.23631,43.70376],[-79.23578,43.70449],[-79.23311,43.70587],[-79.23234,43.7049],[-79.23112,43.70533],[-79.22921,43.70468],[-79.22965,43.70587],[-79.23187,43.70673],[-79.23347,43.7076],[-79.23305,43.70931],[-79.23131,43.71057],[-79.23103,43.70878],[-79.22967,43.70915],[-79.22829,43.70997],[-79.22808,43.71176],[-79.22924,43.71161],[-79.22915,43.71055],[-79.22989,43.71036],[-79.23052,43.71153],[-79.22941,43.71258],[-79.22661,43.71239],[-79.2263,43.71126],[-79.2271,43.70888],[-79.22782,43.70807],[-79.22583,43.70811],[-79.22648,43.7089],[-79.2256,43.71068],[-79.22578,43.7117],[-79.22522,43.71227],[-79.22664,43.71296],[-79.22644,43.71409],[-79.2257,43.71548],[-79.22358,43.7185],[-79.22217,43.71977],[-79.21935,43.7218],[-79.21864,43.722],[-79.21651,43.72468],[-79.21486,43.72638],[-79.21337,43.72726],[-79.2129,43.72853],[-79.20983,43.73201],[-79.20748,43.73416],[-79.20548,43.73533],[-79.20475,43.735],[-79.20238,43.73573],[-79.19754,43.73914],[-79.1964,43.74066],[-79.1951,43.74154],[-79.1941,43.7428],[-79.19352,43.7429],[-79.18894,43.74664],[-79.18756,43.74743],[-79.18311,43.74952],[-79.18267,43.75018],[-79.18122,43.75112],[-79.17564,43.75382],[-79.16728,43.75683],[-79.16335,43.75753],[-79.15961,43.75855],[-79.15564,43.75898],[-79.15301,43.75909],[-79.15152,43.76015],[-79.14986,43.76229],[-79.14601,43.76587],[-79.14362,43.76729],[-79.14136,43.76939],[-79.1385,43.77135],[-79.13654,43.77312],[-79.13473,43.77511],[-79.13305,43.77639],[-79.12689,43.78245],[-79.12477,43.78506],[-79.12018,43.79121],[-79.11837,43.79286],[-79.11545,43.79456],[-79.11714,43.79437],[-79.11932,43.7948],[-79.121,43.79474],[-79.12111,43.79533],[-79.12031,43.79615],[-79.12117,43.79702],[-79.12234,43.79743],[-79.12423,43.79743],[-79.12423,43.79901],[-79.12557,43.80022],[-79.12768,43.80029],[-79.13023,43.80161],[-79.13216,43.80163],[-79.13427,43.80087],[-79.13541,43.80108],[-79.13377,43.80272],[-79.13439,43.80443],[-79.13391,43.80621],[-79.1341,43.80686],[-79.13626,43.80807],[-79.13705,43.80771],[-79.13958,43.80844],[-79.14064,43.80845],[-79.14288,43.81008],[-79.1461,43.81007],[-79.14613,43.81084],[-79.14823,43.81232],[-79.14947,43.81248],[-79.15216,43.81469],[-79.1528,43.81672],[-79.1555,43.82258],[-79.16591,43.84591],[-79.17029,43.85546],[-79.18002,43.85317],[-79.19503,43.84949],[-79.2045,43.84725],[-79.22974,43.84165],[-79.25119,43.8366],[-79.30549,43.82407],[-79.32669,43.81909],[-79.33579,43.81702],[-79.3422,43.81542],[-79.35197,43.81322],[-79.37176,43.80865],[-79.42008,43.798],[-79.43895,43.79392],[-79.45303,43.79081],[-79.46319,43.78865],[-79.47009,43.78728],[-79.48731,43.78322],[-79.49451,43.78158],[-79.50434,43.77924],[-79.51701,43.77636],[-79.52057,43.77575],[-79.52345,43.77499],[-79.53488,43.77269],[-79.56478,43.76655],[-79.57487,43.76434],[-79.57754,43.7637],[-79.59607,43.7595],[-79.63172,43.75151],[-79.63525,43.75123],[-79.63737,43.75076],[-79.63926,43.74987],[-79.63761,43.7483],[-79.63566,43.74462],[-79.63149,43.73753],[-79.63035,43.73547],[-79.62926,43.73464],[-79.62897,43.73381],[-79.62779,43.73318],[-79.62695,43.73142],[-79.62594,43.72819],[-79.61915,43.71625],[-79.61322,43.70627],[-79.60725,43.69692],[-79.60439,43.69202],[-79.60277,43.68883],[-79.60132,43.68648],[-79.60015,43.68511],[-79.59995,43.68373],[-79.59475,43.67502],[-79.59455,43.67421],[-79.58996,43.66682],[-79.58878,43.66462],[-79.59568,43.65829],[-79.60873,43.64645],[-79.60781,43.64505],[-79.60716,43.6447],[-79.60561,43.64483],[-79.60501,43.64447],[-79.60334,43.64471],[-79.60199,43.64413],[-79.59922,43.64369],[-79.59838,43.6431],[-79.59542,43.64329],[-79.59331,43.64451],[-79.59245,43.64472],[-79.59038,43.644],[-79.58856,43.64273],[-79.58822,43.64146],[-79.58738,43.64065],[-79.58694,43.63949],[-79.58529,43.63723],[-79.58594,43.63568],[-79.58553,43.63442],[-79.58583,43.63364],[-79.58535,43.6329],[-79.58514,43.63122],[-79.58594,43.62988],[-79.58539,43.62882],[-79.58046,43.62753],[-79.57971,43.62692],[-79.5769,43.62619],[-79.57573,43.62561],[-79.57451,43.62553],[-79.56979,43.62698],[-79.568,43.62703],[-79.56697,43.6282],[-79.56411,43.62799],[-79.56344,43.62631],[-79.5636,43.62489],[-79.56561,43.62404],[-79.5659,43.62252],[-79.56565,43.62148],[-79.56682,43.62087],[-79.56682,43.61886],[-79.56651,43.61795],[-79.56785,43.61678],[-79.56835,43.61437],[-79.56771,43.61378],[-79.56631,43.61339],[-79.56438,43.61324],[-79.56395,43.61253],[-79.56615,43.61107],[-79.56717,43.61066],[-79.56727,43.6096],[-79.56664,43.60868],[-79.5648,43.60838],[-79.56487,43.60722],[-79.56252,43.60667],[-79.56187,43.60604],[-79.55926,43.60475],[-79.55802,43.60349],[-79.55631,43.60257],[-79.55625,43.60141],[-79.55538,43.59942],[-79.55429,43.59912],[-79.55348,43.5979],[-79.55395,43.59633],[-79.55371,43.59576],[-79.55238,43.59532],[-79.54903,43.59513],[-79.54877,43.59362],[-79.54949,43.59226],[-79.54955,43.59062],[-79.54641,43.58893],[-79.54816,43.587],[-79.54465,43.58528],[-79.54388,43.58139],[-79.54341,43.581],[-79.54222,43.58366],[-79.53989,43.58615],[-79.53696,43.58808],[-79.53542,43.58812],[-79.534,43.58779],[-79.53349,43.58811],[-79.53111,43.58857],[-79.53074,43.58789],[-79.52971,43.58791],[-79.52864,43.58902],[-79.52755,43.58957],[-79.52478,43.58975],[-79.52349,43.59003],[-79.51984,43.59021],[-79.5185,43.59069],[-79.51723,43.59056],[-79.51568,43.58945],[-79.51542,43.59013],[-79.51302,43.59085],[-79.51177,43.59052],[-79.51123,43.58867],[-79.51403,43.58713],[-79.51123,43.58738],[-79.51043,43.58809],[-79.51042,43.58902],[-79.50885,43.59054],[-79.51087,43.59104],[-79.51057,43.59376],[-79.50863,43.59374],[-79.50641,43.59412],[-79.50251,43.59443],[-79.50039,43.5954],[-79.50031,43.59625],[-79.49956,43.59753],[-79.49786,43.59851],[-79.49792,43.60021],[-79.49595,43.60195],[-79.49493,43.6022],[-79.49273,43.60206],[-79.48842,43.6068],[-79.48697,43.60933],[-79.48654,43.60969],[-79.4872,43.61257],[-79.48768,43.613],[-79.48652,43.61375],[-79.48541,43.6157],[-79.48496,43.61733],[-79.48316,43.61838],[-79.48136,43.61864],[-79.48056,43.61838],[-79.47887,43.61715],[-79.48055,43.6157],[-79.48013,43.61546],[-79.48042,43.61411],[-79.4827,43.61396],[-79.48338,43.61464],[-79.48418,43.61321],[-79.48292,43.61233],[-79.48244,43.61315],[-79.48058,43.61336],[-79.47996,43.61229],[-79.47874,43.61407],[-79.47751,43.61496],[-79.47573,43.61751],[-79.47727,43.61735],[-79.47834,43.61792],[-79.47651,43.61908],[-79.47713,43.61961],[-79.47898,43.62016],[-79.47994,43.62087],[-79.48163,43.62084],[-79.4806,43.62177],[-79.47754,43.62158],[-79.47722,43.62024],[-79.47435,43.61925],[-79.47482,43.62018],[-79.47324,43.62206],[-79.47253,43.6224],[-79.47047,43.62256],[-79.46923,43.62295],[-79.46991,43.62372],[-79.47067,43.62533],[-79.47198,43.62497],[-79.47156,43.62434],[-79.4724,43.62349],[-79.47452,43.62254],[-79.47573,43.62347],[-79.47765,43.62229],[-79.47846,43.62256],[-79.4778,43.62352],[-79.47681,43.62386],[-79.47612,43.62627],[-79.47534,43.62804],[-79.47356,43.6297],[-79.47257,43.6297],[-79.47226,43.63048],[-79.47099,43.6306],[-79.47081,43.63192],[-79.46932,43.63265],[-79.46813,43.6339],[-79.46599,43.63459],[-79.46403,43.63563],[-79.46256,43.63577],[-79.46029,43.63669],[-79.45869,43.6367],[-79.4577,43.63714],[-79.4552,43.63742],[-79.4524,43.63671],[-79.44976,43.63651],[-79.44886,43.63619],[-79.44769,43.63648],[-79.44615,43.63609],[-79.44291,43.63469],[-79.44083,43.63472],[-79.43929,43.63355],[-79.43932,43.63318],[-79.43365,43.63086],[-79.43043,43.63015],[-79.42716,43.62968],[-79.42436,43.62977]],[[-79.47073,43.64704],[-79.4698,43.64724],[-79.46839,43.64409],[-79.46733,43.64259],[-79.46453,43.64138],[-79.46301,43.64137],[-79.46242,43.63931],[-79.46425,43.63875],[-79.46667,43.63834],[-79.46651,43.63943],[-79.46765,43.64048],[-79.46915,43.6429],[-79.46952,43.64442],[-79.47073,43.64704]]],[[[-79.34969,43.62894],[-79.34939,43.63102],[-79.35302,43.63407],[-79.35525,43.63325],[-79.35655,43.6333],[-79.35709,43.63243],[-79.35718,43.63044],[-79.35649,43.62974],[-79.35654,43.62851],[-79.35842,43.62636],[-79.35999,43.62515],[-79.3641,43.62279],[-79.36439,43.62216],[-79.36581,43.62147],[-79.37063,43.62064],[-79.37001,43.61918],[-79.37145,43.61858],[-79.37361,43.61906],[-79.37477,43.61849],[-79.37663,43.61851],[-79.3777,43.61677],[-79.37921,43.617],[-79.38075,43.61893],[-79.38167,43.61955],[-79.38321,43.61988],[-79.38428,43.6182],[-79.3865,43.61961],[-79.38633,43.62031],[-79.38863,43.62097],[-79.3894,43.6208],[-79.38929,43.61852],[-79.38891,43.61736],[-79.38825,43.61693],[-79.38456,43.61627],[-79.38491,43.61485],[-79.38377,43.61451],[-79.38357,43.61372],[-79.38621,43.61414],[-79.38727,43.61585],[-79.38951,43.61655],[-79.39032,43.61817],[-79.39014,43.61906],[-79.39022,43.62192],[-79.38983,43.62374],[-79.38893,43.62444],[-79.38959,43.62594],[-79.38891,43.62746],[-79.38965,43.62972],[-79.38743,43.63051],[-79.38807,43.63192],[-79.38977,43.63183],[-79.39172,43.63129],[-79.39313,43.63189],[-79.39489,43.63364],[-79.4028,43.62934],[-79.4049,43.62784],[-79.40427,43.6264],[-79.40273,43.62677],[-79.40152,43.62614],[-79.39821,43.62369],[-79.39539,43.62145],[-79.39387,43.62006],[-79.39274,43.61867],[-79.39185,43.61646],[-79.39214,43.61437],[-79.39144,43.61323],[-79.38915,43.61183],[-79.38761,43.61202],[-79.38402,43.61188],[-79.37723,43.61437],[-79.37598,43.6144],[-79.37253,43.61634],[-79.37161,43.61647],[-79.37069,43.61744],[-79.36645,43.61934],[-79.35782,43.62545],[-79.35607,43.62715],[-79.35455,43.62958],[-79.35231,43.62984],[-79.35015,43.62972],[-79.34969,43.62894]],[[-79.38962,43.61485],[-79.38723,43.61506],[-79.38652,43.61415],[-79.38748,43.61338],[-79.38929,43.61425],[-79.38962,43.61485]]],[[[-79.35978,43.62584],[-79.35912,43.62626],[-79.35744,43.62824],[-79.35724,43.62946],[-79.35836,43.6304],[-79.35903,43.63003],[-79.36227,43.62704],[-79.36308,43.62583],[-79.36189,43.62471],[-79.35978,43.62584]]],[[[-79.36288,43.62438],[-79.36446,43.62506],[-79.36565,43.62446],[-79.36524,43.62376],[-79.36396,43.62312],[-79.363,43.62356],[-79.36288,43.62438]]],[[[-79.36586,43.62163],[-79.36476,43.62225],[-79.36556,43.6228],[-79.36695,43.62275],[-79.36586,43.62163]]],[[[-79.37118,43.62158],[-79.36853,43.62155],[-79.36668,43.62176],[-79.36709,43.62252],[-79.37082,43.62272],[-79.37118,43.62158]]],[[[-79.36823,43.62304],[-79.3682,43.62398],[-79.3705,43.62441],[-79.37104,43.62337],[-79.36913,43.62335],[-79.36823,43.62304]]],[[[-79.38136,43.62439],[-79.38135,43.62552],[-79.38293,43.62569],[-79.38403,43.625],[-79.38327,43.62353],[-79.38209,43.62365],[-79.38101,43.62276],[-79.38114,43.62127],[-79.38033,43.62036],[-79.37476,43.61928],[-79.37468,43.61991],[-79.37147,43.61914],[-79.37045,43.61955],[-79.3718,43.62101],[-79.37422,43.62104],[-79.37674,43.62148],[-79.37881,43.62291],[-79.37819,43.62326],[-79.37944,43.6241],[-79.38055,43.62421],[-79.38326,43.62373],[-79.38336,43.62451],[-79.38246,43.62539],[-79.38136,43.62439]]],[[[-79.37211,43.62308],[-79.3729,43.62366],[-79.37512,43.62361],[-79.37732,43.6231],[-79.37733,43.62224],[-79.37592,43.62163],[-79.37364,43.62141],[-79.37218,43.62158],[-79.37211,43.62308]]],[[[-79.3792,43.61889],[-79.37971,43.61853],[-79.37859,43.61725],[-79.37787,43.61769],[-79.37778,43.61856],[-79.3792,43.61889]]],[[[-79.38776,43.62499],[-79.38639,43.62151],[-79.38329,43.62086],[-79.38307,43.62114],[-79.38467,43.62477],[-79.38461,43.62587],[-79.38628,43.62733],[-79.38741,43.6266],[-79.38776,43.62499]]],[[[-79.41528,43.6282],[-79.41401,43.62916],[-79.4147,43.62961],[-79.416,43.62936],[-79.41655,43.62864],[-79.41528,43.6282]]]]},"properties":{"kind":"city","name":"City of Toronto"}},
{"type":"Feature","geometry":{"type":"Polygon","coordinates":[[[-79.62669,43.48256],[-79.61696,43.49418],[-79.6118,43.51508],[-79.60915,43.53657],[-79.60121,43.55865],[-79.58929,43.57101],[-79.57089,43.5822],[-79.54969,43.59014],[-79.54975,43.5924],[-79.54905,43.59373],[-79.54946,43.59491],[-79.55238,43.59502],[-79.55385,43.5955],[-79.55424,43.59642],[-79.55379,43.5979],[-79.55441,43.59884],[-79.55546,43.59913],[-79.55612,43.59993],[-79.55656,43.60239],[-79.55815,43.60322],[-79.55944,43.60451],[-79.56198,43.60576],[-79.56265,43.60639],[-79.56477,43.60682],[-79.56513,43.60707],[-79.56496,43.60812],[-79.56682,43.60844],[-79.56748,43.60923],[-79.56742,43.61082],[-79.5644,43.61249],[-79.56452,43.61297],[-79.5663,43.61309],[-79.568,43.61361],[-79.56865,43.61433],[-79.56815,43.61676],[-79.56682,43.61793],[-79.5671,43.61876],[-79.56706,43.62105],[-79.56596,43.62162],[-79.56619,43.62258],[-79.5659,43.62409],[-79.56516,43.62487],[-79.56388,43.62502],[-79.56375,43.62631],[-79.56423,43.62771],[-79.56718,43.62782],[-79.56749,43.6271],[-79.56876,43.62645],[-79.57016,43.62666],[-79.57236,43.62587],[-79.57514,43.62515],[-79.57701,43.62591],[-79.57978,43.62663],[-79.58062,43.62727],[-79.58269,43.6277],[-79.58547,43.62853],[-79.58628,43.62931],[-79.58543,43.63132],[-79.58562,43.63275],[-79.58609,43.63378],[-79.58582,43.6343],[-79.58634,43.63542],[-79.58562,43.63682],[-79.58586,43.63762],[-79.58703,43.63903],[-79.58763,43.64048],[-79.58843,43.64124],[-79.58876,43.6425],[-79.59052,43.64373],[-79.5919,43.64431],[-79.59319,43.64424],[-79.59527,43.64303],[-79.59674,43.64274],[-79.59839,43.6428],[-79.59933,43.64341],[-79.60204,43.64383],[-79.6033,43.64441],[-79.60475,43.64413],[-79.60569,43.64453],[-79.60717,43.6444],[-79.60808,43.64492],[-79.60893,43.64667],[-79.59588,43.65851],[-79.58915,43.66468],[-79.59021,43.66666],[-79.5948,43.67405],[-79.59505,43.67494],[-79.60021,43.68358],[-79.60029,43.68397],[-79.60248,43.68766],[-79.60956,43.69999],[-79.61347,43.70611],[-79.61941,43.7161],[-79.6262,43.72804],[-79.62673,43.72934],[-79.63001,43.73483],[-79.63056,43.73526],[-79.6322,43.73486],[-79.63411,43.73315],[-79.63935,43.73706],[-79.64999,43.72753],[-79.65595,43.72199],[-79.66112,43.71753],[-79.66283,43.71627],[-79.66536,43.7139],[-79.67313,43.70686],[-79.67257,43.70093],[-79.67709,43.69519],[-79.67937,43.69061],[-79.69068,43.66869],[-79.69767,43.66246],[-79.70757,43.65371],[-79.71027,43.65224],[-79.71342,43.65076],[-79.73002,43.6415],[-79.73305,43.63975],[-79.7419,43.63194],[-79.76103,43.61455],[-79.77807,43.60945],[-79.78992,43.6018],[-79.78793,43.60034],[-79.79288,43.59966],[-79.79627,43.59869],[-79.79944,43.59722],[-79.80273,43.59496],[-79.81032,43.58824],[-79.81,43.58707],[-79.80849,43.58494],[-79.8067,43.58352],[-79.79622,43.57586],[-79.7883,43.57035],[-79.7844,43.56722],[-79.7781,43.56255],[-79.77003,43.55673],[-79.7626,43.55211],[-79.75572,43.54617],[-79.74527,43.53864],[-79.74217,43.53677],[-79.73535,43.53318],[-79.72915,43.53071],[-79.72755,43.53039],[-79.72483,43.52844],[-79.71916,43.52447],[-79.71474,43.52108],[-79.69735,43.50824],[-79.68166,43.52276],[-79.6737,43.51701],[-79.66536,43.51081],[-79.65456,43.50301],[-79.63534,43.48889],[-79.6279,43.48351],[-79.62669,43.48256]]]},"properties":{"kind":"neighbour","name":"Mississauga","lp":[-79.66522,43.59411]}},
{"type":"Feature","geometry":{"type":"Polygon","coordinates":[[[-79.63949,43.75006],[-79.64108,43.7521],[-79.64326,43.75802],[-79.64445,43.76031],[-79.64786,43.76588],[-79.65502,43.77848],[-79.6586,43.78492],[-79.66913,43.80295],[-79.67172,43.80759],[-79.67497,43.8132],[-79.67966,43.8209],[-79.6889,43.83694],[-79.69542,43.8481],[-79.70573,43.83891],[-79.71011,43.83494],[-79.72223,43.82417],[-79.74812,43.80119],[-79.7585,43.79211],[-79.76023,43.7912],[-79.77187,43.78239],[-79.77563,43.77899],[-79.77809,43.77561],[-79.78506,43.76926],[-79.79627,43.75897],[-79.79833,43.75703],[-79.80278,43.75323],[-79.8044,43.75169],[-79.80839,43.74915],[-79.81757,43.74075],[-79.81973,43.73864],[-79.82507,43.74265],[-79.8357,43.73293],[-79.83573,43.73263],[-79.83265,43.73089],[-79.83005,43.72898],[-79.83281,43.72622],[-79.83801,43.72154],[-79.84373,43.71624],[-79.85,43.71066],[-79.85,43.64611],[-79.83141,43.63233],[-79.8084,43.61543],[-79.78992,43.6018],[-79.77807,43.60945],[-79.76103,43.61455],[-79.7419,43.63194],[-79.73305,43.63975],[-79.73002,43.6415],[-79.71342,43.65076],[-79.71027,43.65224],[-79.70757,43.65371],[-79.69767,43.66246],[-79.69068,43.66869],[-79.67937,43.69061],[-79.67709,43.69519],[-79.67257,43.70093],[-79.67313,43.70686],[-79.66536,43.7139],[-79.66283,43.71627],[-79.66112,43.71753],[-79.65595,43.72199],[-79.64999,43.72753],[-79.63935,43.73706],[-79.63411,43.73315],[-79.6322,43.73486],[-79.63056,43.73526],[-79.63592,43.74447],[-79.63785,43.74811],[-79.63947,43.74965],[-79.63949,43.75006]]]},"properties":{"kind":"neighbour","name":"Brampton","lp":[-79.74665,43.71112]}},
{"type":"Feature","geometry":{"type":"Polygon","coordinates":[[[-79.42873,43.83456],[-79.43172,43.83308],[-79.43546,43.83192],[-79.44838,43.82874],[-79.4539,43.82754],[-79.4546,43.83132],[-79.45627,43.83714],[-79.46187,43.86167],[-79.46282,43.86637],[-79.46451,43.87322],[-79.46533,43.87565],[-79.46754,43.88461],[-79.46912,43.89201],[-79.47115,43.89983],[-79.47532,43.917],[-79.47776,43.92435],[-79.50055,43.91944],[-79.53149,43.91273],[-79.55453,43.90782],[-79.56878,43.90469],[-79.58736,43.90071],[-79.61028,43.89588],[-79.63728,43.8901],[-79.64787,43.88794],[-79.668,43.88351],[-79.69465,43.87771],[-79.7056,43.87555],[-79.71069,43.8744],[-79.70885,43.87108],[-79.70461,43.86368],[-79.6976,43.85181],[-79.69522,43.85025],[-79.69482,43.84964],[-79.69579,43.84869],[-79.69542,43.8481],[-79.6889,43.83694],[-79.67966,43.8209],[-79.67497,43.8132],[-79.67172,43.80759],[-79.66913,43.80295],[-79.6586,43.78492],[-79.65502,43.77848],[-79.64786,43.76588],[-79.64445,43.76031],[-79.64326,43.75802],[-79.64108,43.7521],[-79.63949,43.75006],[-79.6375,43.75103],[-79.63526,43.75153],[-79.63177,43.75181],[-79.59614,43.75979],[-79.57761,43.76399],[-79.57493,43.76463],[-79.56484,43.76684],[-79.52352,43.77528],[-79.52065,43.77604],[-79.51707,43.77665],[-79.50441,43.77953],[-79.48738,43.78351],[-79.47016,43.78757],[-79.46325,43.78894],[-79.45309,43.7911],[-79.43091,43.79597],[-79.42011,43.7983],[-79.42173,43.80438],[-79.42333,43.81101],[-79.42407,43.81467],[-79.42648,43.82505],[-79.42743,43.82869],[-79.42873,43.83456]]]},"properties":{"kind":"neighbour","name":"Vaughan","lp":[-79.5295,43.84359]}},
{"type":"Feature","geometry":{"type":"Polygon","coordinates":[[[-79.38956,43.92316],[-79.38723,43.91369],[-79.38104,43.88823],[-79.37768,43.87462],[-79.3741,43.85987],[-79.37086,43.847],[-79.37781,43.84545],[-79.39854,43.84067],[-79.40179,43.84008],[-79.40657,43.84008],[-79.40643,43.83952],[-79.41454,43.83779],[-79.42873,43.83456],[-79.42743,43.82869],[-79.42648,43.82505],[-79.42407,43.81467],[-79.42333,43.81101],[-79.42173,43.80438],[-79.42011,43.7983],[-79.38196,43.80669],[-79.37183,43.80894],[-79.34805,43.81441],[-79.34227,43.81571],[-79.33586,43.81731],[-79.32676,43.81938],[-79.30556,43.82436],[-79.25126,43.83689],[-79.2298,43.84194],[-79.20457,43.84754],[-79.1951,43.84978],[-79.18009,43.85346],[-79.17037,43.85575],[-79.1778,43.87292],[-79.1835,43.88595],[-79.18619,43.89149],[-79.18967,43.89916],[-79.19834,43.91773],[-79.2066,43.93642],[-79.21423,43.95289],[-79.21617,43.95892],[-79.21741,43.96251],[-79.22864,43.95987],[-79.22873,43.96023],[-79.25351,43.95474],[-79.25368,43.95545],[-79.27815,43.94963],[-79.27813,43.94948],[-79.30288,43.94387],[-79.30268,43.94311],[-79.32541,43.93833],[-79.32893,43.93763],[-79.35326,43.93195],[-79.35309,43.93126],[-79.37455,43.92635],[-79.38956,43.92316]]]},"properties":{"kind":"neighbour","name":"Markham","lp":[-79.25452,43.89567]}},
{"type":"Feature","geometry":{"type":"Polygon","coordinates":[[[-79.47776,43.92435],[-79.47532,43.917],[-79.47115,43.89983],[-79.46912,43.89201],[-79.46754,43.88461],[-79.46533,43.87565],[-79.46451,43.87322],[-79.46282,43.86637],[-79.46187,43.86167],[-79.45627,43.83714],[-79.4546,43.83132],[-79.4539,43.82754],[-79.44838,43.82874],[-79.43546,43.83192],[-79.43172,43.83308],[-79.42873,43.83456],[-79.41454,43.83779],[-79.40643,43.83952],[-79.40657,43.84008],[-79.40179,43.84008],[-79.39854,43.84067],[-79.37781,43.84545],[-79.37086,43.847],[-79.3741,43.85987],[-79.37768,43.87462],[-79.38104,43.88823],[-79.38723,43.91369],[-79.38956,43.92316],[-79.39017,43.92592],[-79.39027,43.92891],[-79.38939,43.9367],[-79.38963,43.93944],[-79.39017,43.94227],[-79.39135,43.94655],[-79.39232,43.9511],[-79.39268,43.95438],[-79.39294,43.95845],[-79.39253,43.97229],[-79.39288,43.9777],[-79.40052,43.97588],[-79.4087,43.97363],[-79.41522,43.97215],[-79.44223,43.9665],[-79.45629,43.9634],[-79.4612,43.96259],[-79.46632,43.9615],[-79.47115,43.96034],[-79.48113,43.9581],[-79.48555,43.95747],[-79.48403,43.95108],[-79.48308,43.94593],[-79.48142,43.93893],[-79.47776,43.92435]]]},"properties":{"kind":"neighbour","name":"Richmond Hill","lp":[-79.43304,43.92447]}},
{"type":"Feature","geometry":{"type":"Polygon","coordinates":[[[-79.00858,43.92262],[-79.01701,43.94045],[-79.01966,43.94645],[-79.02399,43.95646],[-79.0257,43.96001],[-79.03189,43.97377],[-79.03271,43.97549],[-79.04047,43.99318],[-79.04335,44],[-79.09356,44],[-79.09888,43.99888],[-79.10843,43.99669],[-79.12942,43.99175],[-79.16743,43.98287],[-79.19308,43.97709],[-79.22004,43.97092],[-79.21741,43.96251],[-79.21617,43.95892],[-79.21423,43.95289],[-79.2066,43.93642],[-79.19834,43.91773],[-79.18967,43.89916],[-79.18619,43.89149],[-79.1835,43.88595],[-79.1778,43.87292],[-79.17037,43.85575],[-79.17002,43.85558],[-79.16564,43.84603],[-79.15523,43.8227],[-79.15253,43.81685],[-79.15189,43.81482],[-79.14935,43.81276],[-79.14819,43.81262],[-79.14617,43.81134],[-79.14594,43.81036],[-79.14382,43.81035],[-79.14274,43.81065],[-79.1403,43.80865],[-79.13703,43.80803],[-79.13639,43.80834],[-79.13513,43.80799],[-79.13392,43.8071],[-79.13362,43.80613],[-79.13409,43.80449],[-79.13345,43.80345],[-79.13354,43.80253],[-79.13435,43.80116],[-79.13226,43.80191],[-79.13097,43.80207],[-79.12971,43.80171],[-79.12759,43.80058],[-79.12559,43.80052],[-79.12465,43.80013],[-79.12403,43.79927],[-79.11668,43.81121],[-79.10771,43.81916],[-79.09652,43.82505],[-79.08842,43.82652],[-79.06267,43.82563],[-79.0443,43.82913],[-79.04722,43.83619],[-79.0481,43.83736],[-79.05152,43.84541],[-79.05619,43.84405],[-79.06087,43.84204],[-79.06385,43.84861],[-79.06664,43.85499],[-79.06784,43.8544],[-79.0696,43.85542],[-79.07088,43.85462],[-79.07664,43.86495],[-79.07861,43.86997],[-79.07101,43.87429],[-79.07844,43.89251],[-79.0822,43.89167],[-79.08638,43.90249],[-79.0873,43.90445],[-79.07809,43.90655],[-79.07567,43.90719],[-79.06554,43.90939],[-79.06278,43.91011],[-79.03935,43.91552],[-79.03372,43.91689],[-79.00858,43.92262]]]},"properties":{"kind":"neighbour","name":"Pickering","lp":[-79.13971,43.92958]}},
{"type":"Feature","geometry":{"type":"Polygon","coordinates":[[[-79.72483,43.52844],[-79.72646,43.52691],[-79.7322,43.52198],[-79.73817,43.51701],[-79.74592,43.51046],[-79.75079,43.50623],[-79.75429,43.50336],[-79.75596,43.50174],[-79.75721,43.50018],[-79.77348,43.48497],[-79.77756,43.48554],[-79.7864,43.48659],[-79.79254,43.48098],[-79.79702,43.47698],[-79.79759,43.47505],[-79.79848,43.47409],[-79.79999,43.47417],[-79.80203,43.47222],[-79.80814,43.46676],[-79.80765,43.46583],[-79.80304,43.45589],[-79.80157,43.45402],[-79.79624,43.45],[-79.65396,43.45],[-79.62669,43.48256],[-79.6279,43.48351],[-79.63534,43.48889],[-79.65456,43.50301],[-79.66536,43.51081],[-79.6737,43.51701],[-79.68166,43.52276],[-79.69735,43.50824],[-79.71474,43.52108],[-79.71916,43.52447],[-79.72483,43.52844]]]},"properties":{"kind":"neighbour","name":"Oakville","lp":[-79.72326,43.48443]}},
{"type":"Feature","geometry":{"type":"Polygon","coordinates":[[[-79.00858,43.92262],[-79.03372,43.91689],[-79.03935,43.91552],[-79.06278,43.91011],[-79.06554,43.90939],[-79.07567,43.90719],[-79.07809,43.90655],[-79.0873,43.90445],[-79.08638,43.90249],[-79.0822,43.89167],[-79.07844,43.89251],[-79.07101,43.87429],[-79.07861,43.86997],[-79.07664,43.86495],[-79.07088,43.85462],[-79.0696,43.85542],[-79.06784,43.8544],[-79.06664,43.85499],[-79.06385,43.84861],[-79.06087,43.84204],[-79.05619,43.84405],[-79.05152,43.84541],[-79.0481,43.83736],[-79.04722,43.83619],[-79.0443,43.82913],[-79.04103,43.82976],[-78.98132,43.85844],[-78.98632,43.87025],[-78.9922,43.88378],[-78.99435,43.88931],[-79.00152,43.90551],[-79.00753,43.92047],[-79.00858,43.92262]]]},"properties":{"kind":"neighbour","name":"Ajax","lp":[-79.03131,43.87805]}}
]}