{"type":"FeatureCollection", "features": [
{"type":"Feature","geometry":{"type":"Polygon","coordinates":[[[-79.33304,43.70342],[-79.33248,43.70326],[-79.33208,43.70306],[-79.33156,43.70166],[-79.32735,43.7014],[-79.32674,43.70162],[-79.32958,43.69826],[-79.32954,43.69794],[-79.31482,43.66224],[-79.31528,43.66187],[-79.31487,43.66196],[-79.31442,43.66174],[-79.31424,43.66156],[-79.31336,43.6616],[-79.31343,43.66133],[-79.31404,43.66119],[-79.31441,43.66092],[-79.31386,43.66037],[-79.31297,43.65965],[-79.31276,43.65957],[-79.31266,43.65927],[-79.31204,43.6588],[-79.31193,43.65853],[-79.31171,43.65832],[-79.31184,43.65796],[-79.31168,43.65773],[-79.31224,43.65724],[-79.31262,43.65708],[-79.31244,43.65678],[-79.31217,43.65675],[-79.31195,43.65689],[-79.31163,43.65692],[-79.31109,43.65684],[-79.31075,43.65662],[-79.31056,43.6566],[-79.31023,43.65693],[-79.31115,43.65724],[-79.31118,43.65731],[-79.31091,43.65794],[-79.31037,43.65838],[-79.30999,43.65816],[-79.3096,43.65807],[-79.30939,43.65823],[-79.30837,43.65788],[-79.3075,43.65769],[-79.30682,43.6572],[-79.30685,43.65687],[-79.30718,43.65692],[-79.30785,43.65671],[-79.3083,43.65625],[-79.30839,43.65601],[-79.30878,43.65591],[-79.30927,43.6559],[-79.3096,43.65606],[-79.31006,43.65613],[-79.31109,43.65597],[-79.31131,43.65563],[-79.31118,43.65539],[-79.31067,43.65516],[-79.31029,43.6552],[-79.31019,43.65542],[-79.30955,43.65529],[-79.3092,43.655],[-79.30866,43.65414],[-79.30832,43.65421],[-79.30838,43.65491],[-79.30789,43.65585],[-79.30762,43.6562],[-79.30708,43.6565],[-79.30676,43.6566],[-79.30637,43.65658],[-79.30596,43.65645],[-79.30551,43.6564],[-79.30509,43.65652],[-79.30496,43.65666],[-79.30506,43.65701],[-79.30592,43.65789],[-79.30602,43.6584],[-79.30583,43.65891],[-79.30553,43.65933],[-79.30522,43.65941],[-79.30497,43.65986],[-79.30502,43.65999],[-79.30547,43.66032],[-79.3061,43.66041],[-79.30638,43.6603],[-79.30636,43.66002],[-79.30678,43.6599],[-79.30734,43.6601],[-79.30761,43.66033],[-79.30776,43.66111],[-79.30763,43.66162],[-79.30704,43.66242],[-79.30643,43.66302],[-79.30559,43.66339],[-79.30447,43.66411],[-79.30407,43.66424],[-79.3031,43.66476],[-79.30249,43.66491],[-79.30221,43.66487],[-79.30195,43.66511],[-79.3014,43.66524],[-79.30087,43.66547],[-79.30053,43.66548],[-79.30029,43.66537],[-79.29946,43.66567],[-79.29919,43.66549],[-79.29848,43.66553],[-79.2977,43.66525],[-79.29698,43.66531],[-79.29592,43.66561],[-79.29559,43.6658],[-79.29494,43.66606],[-79.29472,43.66599],[-79.29392,43.66674],[-79.29328,43.66724],[-79.29201,43.6679],[-79.29157,43.66801],[-79.29115,43.66797],[-79.29009,43.66844],[-79.28928,43.66869],[-79.28843,43.66876],[-79.28793,43.66899],[-79.28779,43.66912],[-79.28714,43.66937],[-79.28609,43.66945],[-79.28595,43.6696],[-79.28554,43.66978],[-79.28522,43.66983],[-79.28494,43.66975],[-79.28447,43.67006],[-79.28379,43.67017],[-79.28353,43.67014],[-79.28344,43.67036],[-79.28305,43.67043],[-79.2827,43.67039],[-79.28247,43.67062],[-79.28198,43.67061],[-79.28156,43.67093],[-79.28124,43.67085],[-79.28064,43.67114],[-79.28021,43.67122],[-79.28004,43.67116],[-79.28119,43.67385],[-79.28019,43.67427],[-79.28189,43.67833],[-79.28315,43.67863],[-79.29047,43.69655],[-79.30058,43.71978],[-79.32007,43.71553],[-79.32002,43.71481],[-79.32102,43.7144],[-79.32019,43.71376],[-79.32102,43.71325],[-79.32164,43.7123],[-79.31945,43.71258],[-79.31857,43.71156],[-79.31876,43.71102],[-79.32064,43.71038],[-79.32293,43.71026],[-79.32404,43.7099],[-79.32481,43.70959],[-79.32552,43.70851],[-79.32821,43.70797],[-79.3302,43.70628],[-79.33163,43.70619],[-79.33285,43.70524],[-79.33304,43.70342]]]},"properties":{"name":"Beaches—East York","lp":[-79.30666,43.68913]}},
{"type":"Feature","geometry":{"type":"Polygon","coordinates":[[[-79.4628,43.69289],[-79.46537,43.69194],[-79.46943,43.69142],[-79.48672,43.68743],[-79.4766,43.68237],[-79.4719,43.67924],[-79.44429,43.6512],[-79.44124,43.64869],[-79.42758,43.64207],[-79.42365,43.64088],[-79.42141,43.64067],[-79.42239,43.64349],[-79.41888,43.64419],[-79.42548,43.66155],[-79.43098,43.67471],[-79.43022,43.67473],[-79.4338,43.68302],[-79.43325,43.68329],[-79.43576,43.6899],[-79.44157,43.69298],[-79.45027,43.69569],[-79.4628,43.69289]]]},"properties":{"name":"Davenport","lp":[-79.44896,43.67865]}},
{"type":"Feature","geometry":{"type":"Polygon","coordinates":[[[-79.39622,43.80326],[-79.3959,43.80224],[-79.38804,43.76658],[-79.38705,43.76332],[-79.39284,43.76206],[-79.39683,43.76064],[-79.40838,43.7536],[-79.4081,43.74979],[-79.40648,43.7433],[-79.40441,43.74374],[-79.40406,43.74421],[-79.40237,43.74416],[-79.38414,43.74805],[-79.38235,43.74896],[-79.38065,43.74935],[-79.36414,43.75278],[-79.35996,43.75295],[-79.34391,43.75649],[-79.34451,43.75758],[-79.34591,43.75842],[-79.3465,43.75955],[-79.34831,43.75991],[-79.34876,43.76057],[-79.34974,43.76078],[-79.34984,43.76157],[-79.34938,43.76332],[-79.34979,43.76366],[-79.35098,43.76416],[-79.35118,43.76367],[-79.35162,43.7635],[-79.35294,43.76384],[-79.35423,43.76368],[-79.35495,43.76463],[-79.35754,43.76472],[-79.35964,43.76605],[-79.35964,43.76648],[-79.33725,43.76771],[-79.33866,43.77202],[-79.34006,43.77965],[-79.34639,43.80865],[-79.34705,43.81008],[-79.34805,43.8112],[-79.35199,43.8132],[-79.37176,43.80865],[-79.3819,43.8064],[-79.39622,43.80326]]]},"properties":{"name":"Don Valley North","lp":[-79.36934,43.78645]}},
{"type":"Feature","geometry":{"type":"Polygon","coordinates":[[[-79.34391,43.75649],[-79.35996,43.75295],[-79.36414,43.75278],[-79.38065,43.74935],[-79.38235,43.74896],[-79.38414,43.74805],[-79.40237,43.74416],[-79.40406,43.74421],[-79.40441,43.74374],[-79.40648,43.7433],[-79.40218,43.7251],[-79.39899,43.70958],[-79.39121,43.71112],[-79.39018,43.7084],[-79.37715,43.71103],[-79.37173,43.69674],[-79.38071,43.69475],[-79.37649,43.69309],[-79.37506,43.69282],[-79.37089,43.69065],[-79.36683,43.69445],[-79.36627,43.69408],[-79.36346,43.69348],[-79.36242,43.69284],[-79.36193,43.69174],[-79.3623,43.69068],[-79.36366,43.6892],[-79.36357,43.68791],[-79.36288,43.68881],[-79.36182,43.68863],[-79.3599,43.6915],[-79.36018,43.69221],[-79.36132,43.69288],[-79.36183,43.69409],[-79.35984,43.69539],[-79.3589,43.69559],[-79.35772,43.69525],[-79.35672,43.69554],[-79.35593,43.69727],[-79.35496,43.69814],[-79.35122,43.69875],[-79.35041,43.69974],[-79.34976,43.69996],[-79.34826,43.69992],[-79.34745,43.6992],[-79.34592,43.69853],[-79.34421,43.69831],[-79.34307,43.69902],[-79.34148,43.69943],[-79.33925,43.70122],[-79.33637,43.70292],[-79.33331,43.70316],[-79.33297,43.70364],[-79.33275,43.70542],[-79.33129,43.70634],[-79.3302,43.70628],[-79.32821,43.70797],[-79.3261,43.70823],[-79.3253,43.7087],[-79.32481,43.70959],[-79.32317,43.71021],[-79.32064,43.71038],[-79.31903,43.71084],[-79.31854,43.71136],[-79.31945,43.71258],[-79.32164,43.7123],[-79.32102,43.71325],[-79.32019,43.71376],[-79.32102,43.7144],[-79.32021,43.7146],[-79.31993,43.71516],[-79.3202,43.71592],[-79.32114,43.71593],[-79.32353,43.71673],[-79.3239,43.71844],[-79.32251,43.71933],[-79.32262,43.71986],[-79.32415,43.72067],[-79.32572,43.72035],[-79.32652,43.72049],[-79.32685,43.72112],[-79.32339,43.72217],[-79.3233,43.7233],[-79.32229,43.72538],[-79.32318,43.7263],[-79.32314,43.72718],[-79.32048,43.728],[-79.31863,43.72909],[-79.32038,43.72969],[-79.32011,43.73057],[-79.3196,43.73092],[-79.31964,43.73146],[-79.3201,43.73161],[-79.32285,43.72952],[-79.32518,43.7295],[-79.32459,43.73107],[-79.32487,43.73178],[-79.32605,43.73216],[-79.3269,43.7329],[-79.3274,43.7329],[-79.32813,43.73421],[-79.32944,43.73394],[-79.33107,43.73484],[-79.33121,43.7353],[-79.3307,43.73636],[-79.33155,43.73714],[-79.33036,43.73817],[-79.33009,43.73878],[-79.33081,43.74018],[-79.33063,43.74124],[-79.3316,43.74159],[-79.33275,43.74139],[-79.33372,43.74078],[-79.33576,43.7409],[-79.33666,43.74219],[-79.33623,43.74288],[-79.33641,43.74343],[-79.33748,43.74383],[-79.33818,43.74345],[-79.33907,43.74351],[-79.34015,43.74447],[-79.33972,43.74594],[-79.33918,43.74659],[-79.34222,43.74756],[-79.34242,43.74824],[-79.34219,43.74907],[-79.3426,43.74976],[-79.34259,43.75081],[-79.34537,43.75103],[-79.34635,43.75148],[-79.34531,43.75278],[-79.34555,43.75438],[-79.34369,43.75513],[-79.34391,43.75649]]]},"properties":{"name":"Don Valley West","lp":[-79.35573,43.72452]}},
{"type":"Feature","geometry":{"type":"Polygon","coordinates":[[[-79.41474,43.74946],[-79.41881,43.74532],[-79.42666,43.7403],[-79.44065,43.73215],[-79.44353,43.73115],[-79.47047,43.72536],[-79.4725,43.72469],[-79.46848,43.70469],[-79.46541,43.69379],[-79.4646,43.69215],[-79.4628,43.69289],[-79.44733,43.69636],[-79.39836,43.70673],[-79.40218,43.7251],[-79.4081,43.74979],[-79.40838,43.7536],[-79.41474,43.74946]]]},"properties":{"name":"Eglinton—Lawrence","lp":[-79.42124,43.72143]}},
{"type":"Feature","geometry":{"type":"Polygon","coordinates":[[[-79.59119,43.66875],[-79.59037,43.66736],[-79.58996,43.66682],[-79.58876,43.66461],[-79.59692,43.65721],[-79.60873,43.64645],[-79.60829,43.64603],[-79.60781,43.64505],[-79.60754,43.64485],[-79.60716,43.6447],[-79.6067,43.64469],[-79.60563,43.64483],[-79.60501,43.64447],[-79.60478,43.64443],[-79.60395,43.64451],[-79.60335,43.64471],[-79.60292,43.64469],[-79.60247,43.64452],[-79.60199,43.64413],[-79.60073,43.64392],[-79.59983,43.64384],[-79.59923,43.64369],[-79.59892,43.64352],[-79.59861,43.6432],[-79.59838,43.6431],[-79.59673,43.64304],[-79.59599,43.64312],[-79.59542,43.64329],[-79.59331,43.64451],[-79.5929,43.64465],[-79.59244,43.64472],[-79.59181,43.6446],[-79.59038,43.644],[-79.59007,43.64381],[-79.58931,43.64315],[-79.58857,43.64273],[-79.58824,43.64234],[-79.58806,43.64192],[-79.58818,43.64142],[-79.58739,43.64066],[-79.58702,43.63993],[-79.58694,43.63949],[-79.58629,43.6385],[-79.58562,43.6378],[-79.5853,43.63724],[-79.58534,43.63669],[-79.58594,43.63568],[-79.58606,43.63532],[-79.5859,43.63484],[-79.58554,43.63444],[-79.58555,43.63418],[-79.58583,43.63364],[-79.5857,43.63334],[-79.58536,43.63291],[-79.58507,43.63179],[-79.58515,43.63121],[-79.58594,43.62988],[-79.58602,43.62952],[-79.58552,43.62888],[-79.58539,43.62882],[-79.5826,43.62799],[-79.58162,43.62801],[-79.58045,43.62753],[-79.57971,43.62692],[-79.5788,43.62668],[-79.57686,43.62623],[-79.57524,43.62548],[-79.57506,43.62544],[-79.5744,43.62559],[-79.57368,43.62598],[-79.57277,43.62611],[-79.57123,43.6266],[-79.57023,43.62696],[-79.56979,43.62698],[-79.56915,43.62688],[-79.5688,43.62675],[-79.56838,43.6268],[-79.5675,43.62773],[-79.56742,43.62802],[-79.56696,43.6282],[-79.566,43.62824],[-79.56479,43.62816],[-79.56412,43.62799],[-79.56397,43.6279],[-79.56373,43.62695],[-79.56345,43.62633],[-79.5636,43.62564],[-79.56356,43.62519],[-79.56361,43.62488],[-79.56393,43.62451],[-79.56427,43.62439],[-79.56488,43.62458],[-79.56509,43.62458],[-79.56543,43.62437],[-79.56561,43.62404],[-79.5659,43.62252],[-79.56559,43.62193],[-79.56558,43.62163],[-79.56582,43.62136],[-79.56665,43.62099],[-79.56682,43.62087],[-79.56693,43.62055],[-79.56675,43.61994],[-79.56672,43.6195],[-79.56678,43.6191],[-79.56671,43.61852],[-79.56651,43.61796],[-79.56671,43.61753],[-79.56698,43.61729],[-79.56755,43.61704],[-79.56785,43.61678],[-79.56786,43.616],[-79.56818,43.6151],[-79.56835,43.61437],[-79.568,43.61398],[-79.54408,43.63009],[-79.52241,43.64825],[-79.52619,43.6509],[-79.52639,43.65136],[-79.52208,43.65611],[-79.50824,43.66148],[-79.50556,43.66278],[-79.50688,43.66302],[-79.5097,43.66199],[-79.51082,43.66192],[-79.51222,43.66262],[-79.5131,43.66577],[-79.51305,43.66663],[-79.51138,43.66794],[-79.51128,43.66837],[-79.5125,43.67265],[-79.51218,43.67419],[-79.50865,43.67655],[-79.50716,43.67939],[-79.50545,43.68065],[-79.50559,43.68176],[-79.50608,43.68233],[-79.50897,43.68246],[-79.5095,43.68284],[-79.51019,43.68409],[-79.5147,43.68347],[-79.5212,43.68333],[-79.5266,43.68233],[-79.53273,43.69616],[-79.53462,43.69527],[-79.53499,43.69331],[-79.53609,43.69124],[-79.53676,43.69078],[-79.54155,43.68892],[-79.54915,43.68755],[-79.55469,43.68562],[-79.55864,43.69424],[-79.56953,43.69175],[-79.57898,43.67506],[-79.58069,43.67338],[-79.583,43.67188],[-79.59119,43.66875]]]},"properties":{"name":"Etobicoke Centre","lp":[-79.55679,43.65699]}},
{"type":"Feature","geometry":{"type":"Polygon","coordinates":[[[-79.58061,43.763],[-79.58962,43.76097],[-79.59607,43.7595],[-79.6148,43.7553],[-79.63111,43.75163],[-79.63172,43.75151],[-79.63314,43.75131],[-79.63455,43.75126],[-79.63645,43.75105],[-79.63926,43.74987],[-79.63782,43.7485],[-79.63756,43.74821],[-79.63692,43.74715],[-79.6369,43.74683],[-79.63664,43.74648],[-79.63566,43.74462],[-79.63495,43.74341],[-79.62948,43.73481],[-79.62926,43.73463],[-79.62912,43.73424],[-79.62873,43.73363],[-79.62819,43.73353],[-79.62779,43.73317],[-79.62695,43.73142],[-79.62672,43.73046],[-79.62582,43.72905],[-79.61378,43.70787],[-79.60471,43.69342],[-79.60187,43.68795],[-79.6006,43.68612],[-79.60039,43.68534],[-79.60015,43.68509],[-79.59995,43.68376],[-79.59927,43.68259],[-79.59476,43.67503],[-79.59475,43.67485],[-79.59119,43.66875],[-79.58352,43.67162],[-79.58124,43.67297],[-79.57965,43.67433],[-79.57822,43.67616],[-79.57441,43.6835],[-79.56953,43.69175],[-79.55864,43.69424],[-79.55469,43.68562],[-79.54915,43.68755],[-79.54155,43.68892],[-79.53676,43.69078],[-79.53609,43.69124],[-79.53499,43.69331],[-79.53462,43.69527],[-79.53273,43.69616],[-79.53438,43.70033],[-79.53186,43.7032],[-79.53164,43.70391],[-79.53194,43.70496],[-79.53333,43.70498],[-79.53498,43.70455],[-79.53594,43.7047],[-79.53546,43.70699],[-79.5359,43.70825],[-79.53805,43.70856],[-79.53884,43.70904],[-79.5396,43.71016],[-79.53958,43.71097],[-79.53791,43.71243],[-79.53794,43.71435],[-79.53818,43.71468],[-79.54072,43.7153],[-79.5404,43.71612],[-79.54059,43.7167],[-79.54268,43.71673],[-79.54413,43.71765],[-79.54289,43.72029],[-79.54129,43.72158],[-79.5407,43.72251],[-79.54134,43.72578],[-79.54081,43.72615],[-79.53854,43.72657],[-79.53822,43.72694],[-79.53883,43.72906],[-79.53849,43.73176],[-79.53937,43.73207],[-79.53932,43.73089],[-79.54008,43.72979],[-79.54147,43.72959],[-79.54366,43.72999],[-79.54474,43.73067],[-79.54493,43.73087],[-79.5439,43.73183],[-79.54428,43.73236],[-79.54494,43.73232],[-79.54552,43.73142],[-79.5468,43.73151],[-79.54912,43.7331],[-79.55044,43.73351],[-79.55052,43.73468],[-79.54902,43.73585],[-79.55038,43.73606],[-79.55053,43.73658],[-79.55008,43.7371],[-79.55008,43.73775],[-79.54848,43.7383],[-79.54826,43.73901],[-79.54642,43.7398],[-79.54612,43.7402],[-79.54626,43.74082],[-79.5475,43.74171],[-79.54902,43.74169],[-79.54936,43.74192],[-79.54925,43.74244],[-79.55036,43.74238],[-79.54984,43.74304],[-79.5501,43.74391],[-79.55146,43.74419],[-79.55424,43.74318],[-79.55635,43.74317],[-79.55698,43.74246],[-79.5568,43.7416],[-79.55731,43.74096],[-79.55784,43.74093],[-79.55849,43.74149],[-79.55779,43.74208],[-79.55842,43.74281],[-79.55974,43.74248],[-79.56212,43.7427],[-79.56248,43.74305],[-79.56223,43.74422],[-79.56376,43.74519],[-79.5732,43.74717],[-79.57338,43.74777],[-79.57263,43.74978],[-79.57318,43.75037],[-79.57523,43.75004],[-79.57757,43.75027],[-79.5791,43.75085],[-79.57996,43.75156],[-79.58316,43.75276],[-79.58307,43.75369],[-79.58416,43.75423],[-79.58418,43.75541],[-79.58512,43.75617],[-79.58515,43.75694],[-79.58381,43.75741],[-79.58406,43.75834],[-79.5838,43.75874],[-79.58251,43.75852],[-79.58106,43.7588],[-79.58066,43.75921],[-79.58087,43.75975],[-79.58058,43.76037],[-79.57933,43.76082],[-79.57755,43.76206],[-79.57762,43.76243],[-79.57887,43.7621],[-79.58061,43.763]]]},"properties":{"name":"Etobicoke North","lp":[-79.5844,43.71861]}},
{"type":"Feature","geometry":{"type":"Polygon","coordinates":[[[-79.50556,43.66278],[-79.50824,43.66148],[-79.52208,43.65611],[-79.52639,43.65136],[-79.52619,43.6509],[-79.52241,43.64825],[-79.54408,43.63009],[-79.568,43.61398],[-79.56726,43.61363],[-79.56631,43.61339],[-79.56513,43.61342],[-79.56439,43.61324],[-79.56409,43.61297],[-79.56396,43.61256],[-79.56423,43.61224],[-79.56528,43.61176],[-79.56614,43.61107],[-79.56717,43.61066],[-79.56733,43.61019],[-79.56719,43.60932],[-79.56655,43.60866],[-79.5662,43.60859],[-79.56545,43.60867],[-79.56487,43.60845],[-79.56467,43.60824],[-79.56462,43.60793],[-79.56478,43.60762],[-79.56472,43.60713],[-79.56269,43.60682],[-79.56053,43.60549],[-79.55926,43.60475],[-79.55866,43.60422],[-79.55834,43.60377],[-79.55808,43.60354],[-79.55689,43.60296],[-79.5563,43.60255],[-79.55613,43.60205],[-79.5562,43.60169],[-79.55583,43.59999],[-79.55569,43.59967],[-79.5542,43.59914],[-79.55363,43.59845],[-79.55348,43.59789],[-79.55371,43.59713],[-79.55379,43.59594],[-79.55374,43.59584],[-79.55284,43.59543],[-79.55139,43.59532],[-79.55094,43.59532],[-79.54942,43.59521],[-79.54888,43.59513],[-79.54858,43.59442],[-79.54877,43.59334],[-79.54939,43.59245],[-79.54949,43.59226],[-79.54956,43.59176],[-79.54938,43.59062],[-79.54868,43.59021],[-79.54847,43.59017],[-79.54646,43.58896],[-79.54643,43.58888],[-79.54785,43.58731],[-79.54446,43.58545],[-79.54387,43.58139],[-79.54341,43.581],[-79.54279,43.58257],[-79.54222,43.58365],[-79.54157,43.58423],[-79.54138,43.58453],[-79.5411,43.58464],[-79.54101,43.5849],[-79.5399,43.58614],[-79.53967,43.58623],[-79.53935,43.5866],[-79.53856,43.58717],[-79.53822,43.58731],[-79.53712,43.58803],[-79.53683,43.5881],[-79.53602,43.58817],[-79.53541,43.58812],[-79.53459,43.58795],[-79.53424,43.58795],[-79.534,43.58776],[-79.53383,43.58794],[-79.53348,43.58811],[-79.53085,43.58859],[-79.53061,43.58854],[-79.53061,43.58821],[-79.53088,43.58816],[-79.53074,43.58789],[-79.52971,43.58791],[-79.52925,43.58824],[-79.52854,43.58909],[-79.52754,43.58957],[-79.5264,43.58964],[-79.52606,43.58975],[-79.52535,43.58975],[-79.52498,43.58984],[-79.52478,43.58975],[-79.52447,43.58985],[-79.52403,43.58988],[-79.52348,43.59003],[-79.52268,43.59003],[-79.51984,43.59021],[-79.51908,43.59046],[-79.51901,43.59062],[-79.51849,43.59068],[-79.5182,43.59039],[-79.51725,43.59056],[-79.51674,43.59028],[-79.5164,43.58991],[-79.51625,43.58952],[-79.51652,43.58897],[-79.51615,43.58911],[-79.51548,43.58891],[-79.51491,43.58897],[-79.51506,43.5894],[-79.51556,43.58938],[-79.51568,43.58948],[-79.51569,43.59006],[-79.51581,43.59015],[-79.51591,43.59052],[-79.51586,43.59069],[-79.51549,43.59078],[-79.51542,43.59013],[-79.51495,43.59011],[-79.51503,43.59046],[-79.51525,43.59055],[-79.51518,43.59075],[-79.51466,43.59045],[-79.51303,43.59085],[-79.51178,43.59052],[-79.51146,43.59025],[-79.51153,43.59013],[-79.51108,43.5891],[-79.51124,43.58866],[-79.5117,43.58844],[-79.51226,43.58827],[-79.51225,43.58793],[-79.51312,43.58771],[-79.51333,43.58796],[-79.51353,43.588],[-79.5141,43.58787],[-79.51461,43.58763],[-79.51505,43.58778],[-79.51531,43.58803],[-79.51582,43.58813],[-79.51609,43.58826],[-79.51727,43.58853],[-79.51699,43.58826],[-79.51593,43.58798],[-79.51445,43.58727],[-79.51403,43.58713],[-79.51325,43.5871],[-79.51123,43.58738],[-79.51066,43.58736],[-79.50998,43.58721],[-79.50961,43.58721],[-79.50928,43.58731],[-79.50927,43.58756],[-79.51014,43.58783],[-79.51042,43.58808],[-79.5105,43.58842],[-79.51042,43.58901],[-79.51017,43.58946],[-79.50955,43.59007],[-79.50879,43.59021],[-79.50869,43.59039],[-79.50885,43.59054],[-79.5101,43.59076],[-79.51084,43.59103],[-79.51094,43.59142],[-79.51083,43.59174],[-79.51059,43.59209],[-79.51024,43.59239],[-79.51049,43.59258],[-79.51045,43.59288],[-79.51069,43.59303],[-79.51083,43.59333],[-79.51073,43.59364],[-79.50992,43.59381],[-79.50968,43.59375],[-79.50904,43.59392],[-79.50863,43.59374],[-79.50826,43.59388],[-79.50684,43.59417],[-79.50644,43.59412],[-79.50632,43.59395],[-79.50631,43.59364],[-79.50619,43.59348],[-79.50579,43.59345],[-79.50546,43.59374],[-79.50506,43.59396],[-79.50493,43.59422],[-79.50438,43.59426],[-79.50373,43.59422],[-79.50251,43.59443],[-79.50092,43.59499],[-79.50039,43.5954],[-79.50048,43.59577],[-79.50031,43.59625],[-79.49956,43.59752],[-79.4993,43.59775],[-79.49887,43.59782],[-79.49835,43.59807],[-79.49813,43.59835],[-79.49786,43.59851],[-79.49798,43.5992],[-79.49818,43.59949],[-79.49818,43.59966],[-79.49792,43.60022],[-79.49748,43.60071],[-79.49697,43.60109],[-79.49629,43.60176],[-79.49594,43.60195],[-79.49477,43.60222],[-79.49426,43.60209],[-79.49347,43.60212],[-79.49307,43.60201],[-79.49259,43.60214],[-79.4925,43.60263],[-79.49207,43.60306],[-79.49138,43.60361],[-79.4912,43.60387],[-79.49058,43.60446],[-79.4902,43.60495],[-79.48988,43.60515],[-79.48931,43.60576],[-79.48935,43.60591],[-79.48893,43.60662],[-79.48842,43.6068],[-79.48819,43.6072],[-79.48799,43.60739],[-79.48775,43.60798],[-79.48757,43.6082],[-79.4872,43.60846],[-79.48697,43.60931],[-79.48654,43.60969],[-79.48651,43.61011],[-79.48642,43.6103],[-79.48669,43.61038],[-79.48679,43.61071],[-79.48657,43.6108],[-79.48685,43.61105],[-79.48692,43.61162],[-79.48738,43.61201],[-79.4872,43.61257],[-79.48765,43.61298],[-79.4875,43.61341],[-79.48713,43.61374],[-79.48652,43.61375],[-79.48626,43.61396],[-79.48608,43.61453],[-79.48583,43.61481],[-79.48583,43.61503],[-79.48563,43.61526],[-79.48541,43.6157],[-79.48543,43.6163],[-79.48496,43.61732],[-79.48463,43.61769],[-79.48425,43.61796],[-79.48372,43.61801],[-79.48315,43.61838],[-79.48241,43.61845],[-79.48168,43.61871],[-79.48138,43.61864],[-79.48127,43.61837],[-79.48165,43.61809],[-79.48131,43.61783],[-79.48117,43.61804],[-79.48053,43.61836],[-79.4789,43.61713],[-79.4789,43.61705],[-79.48005,43.61618],[-79.48043,43.61619],[-79.48053,43.6156],[-79.48015,43.61547],[-79.48012,43.61514],[-79.48041,43.61414],[-79.48085,43.61403],[-79.48193,43.6141],[-79.48218,43.61397],[-79.48269,43.61396],[-79.48283,43.61418],[-79.48306,43.61428],[-79.4831,43.6147],[-79.48338,43.61464],[-79.48348,43.61427],[-79.48373,43.6138],[-79.48418,43.61321],[-79.48403,43.61306],[-79.48372,43.61299],[-79.48342,43.61281],[-79.4832,43.61246],[-79.48292,43.61233],[-79.4827,43.61252],[-79.48271,43.6129],[-79.48244,43.61315],[-79.48178,43.61337],[-79.48081,43.61342],[-79.48057,43.61335],[-79.48029,43.61305],[-79.47996,43.61229],[-79.47944,43.61192],[-79.47906,43.61197],[-79.47893,43.61209],[-79.47891,43.61239],[-79.47927,43.61305],[-79.47874,43.61406],[-79.4785,43.61435],[-79.47826,43.61444],[-79.47728,43.61419],[-79.47692,43.61445],[-79.47741,43.61483],[-79.4775,43.61499],[-79.47715,43.61569],[-79.47677,43.61627],[-79.47614,43.61695],[-79.47602,43.6172],[-79.47572,43.61751],[-79.47497,43.6178],[-79.47515,43.61799],[-79.47595,43.61814],[-79.47606,43.61794],[-79.47672,43.61747],[-79.47729,43.61736],[-79.47834,43.61792],[-79.47865,43.61817],[-79.47881,43.61862],[-79.47816,43.61907],[-79.47768,43.61841],[-79.47727,43.61831],[-79.47686,43.61844],[-79.47653,43.61871],[-79.47651,43.61908],[-79.47663,43.61925],[-79.47713,43.61961],[-79.47809,43.61977],[-79.47897,43.62016],[-79.47969,43.6206],[-79.47994,43.62087],[-79.48033,43.62107],[-79.48054,43.62107],[-79.48079,43.6208],[-79.481,43.6207],[-79.48144,43.62072],[-79.48162,43.62087],[-79.48156,43.62121],[-79.48143,43.62139],[-79.48147,43.62179],[-79.48083,43.62164],[-79.48044,43.62177],[-79.48006,43.62168],[-79.47935,43.62166],[-79.47856,43.6215],[-79.47779,43.6216],[-79.47753,43.62156],[-79.47707,43.62094],[-79.47716,43.62073],[-79.47722,43.62024],[-79.47706,43.62011],[-79.47637,43.61985],[-79.47578,43.61977],[-79.47562,43.61963],[-79.47531,43.61893],[-79.4749,43.61871],[-79.4744,43.61885],[-79.47435,43.61925],[-79.47473,43.61979],[-79.47481,43.6202],[-79.47403,43.62124],[-79.47324,43.62206],[-79.47279,43.62233],[-79.47253,43.6224],[-79.47048,43.62256],[-79.46962,43.62238],[-79.4692,43.62256],[-79.46913,43.62277],[-79.46923,43.62295],[-79.46962,43.62329],[-79.46991,43.62371],[-79.47007,43.62416],[-79.47021,43.62485],[-79.47045,43.62524],[-79.47067,43.62533],[-79.47137,43.62511],[-79.47203,43.62535],[-79.47198,43.62497],[-79.47169,43.62467],[-79.47158,43.62432],[-79.47239,43.6235],[-79.4728,43.6234],[-79.47303,43.62351],[-79.47319,43.62325],[-79.47361,43.62288],[-79.4738,43.62257],[-79.47401,43.62248],[-79.4745,43.62254],[-79.4748,43.62282],[-79.47526,43.62302],[-79.47553,43.62341],[-79.47573,43.62347],[-79.47686,43.62301],[-79.47764,43.6223],[-79.4785,43.622],[-79.47884,43.6221],[-79.47882,43.62227],[-79.47846,43.62256],[-79.47823,43.62298],[-79.47781,43.62351],[-79.47734,43.62361],[-79.47649,43.62348],[-79.47678,43.62383],[-79.47656,43.62414],[-79.47593,43.624],[-79.47589,43.62409],[-79.47619,43.62449],[-79.47607,43.62493],[-79.47656,43.62484],[-79.47639,43.62535],[-79.47593,43.62535],[-79.47594,43.62578],[-79.47622,43.62582],[-79.47612,43.62627],[-79.4758,43.62697],[-79.47545,43.62704],[-79.47559,43.62736],[-79.47534,43.62803],[-79.47518,43.62824],[-79.47486,43.62821],[-79.4747,43.62836],[-79.4749,43.62856],[-79.47465,43.62894],[-79.47444,43.62908],[-79.47416,43.62898],[-79.474,43.62912],[-79.47407,43.62933],[-79.47357,43.62969],[-79.4733,43.6297],[-79.47295,43.62957],[-79.47257,43.6297],[-79.47227,43.63047],[-79.47181,43.63066],[-79.47099,43.6306],[-79.47084,43.63067],[-79.4707,43.63126],[-79.4708,43.63193],[-79.47253,43.63254],[-79.47509,43.63401],[-79.47572,43.63467],[-79.47734,43.6379],[-79.47839,43.63831],[-79.48227,43.63799],[-79.4847,43.6384],[-79.48509,43.6394],[-79.48502,43.64177],[-79.48531,43.64208],[-79.48684,43.64197],[-79.48894,43.64126],[-79.48988,43.6415],[-79.49058,43.64334],[-79.49262,43.64577],[-79.49276,43.64734],[-79.49066,43.65023],[-79.49088,43.65097],[-79.49156,43.65168],[-79.4923,43.65219],[-79.49745,43.652],[-79.50148,43.6524],[-79.50252,43.65289],[-79.50294,43.65356],[-79.50275,43.65477],[-79.50168,43.65604],[-79.49973,43.65737],[-79.49938,43.6584],[-79.49952,43.659],[-79.50556,43.66278]]]},"properties":{"name":"Etobicoke—Lakeshore","lp":[-79.51605,43.61938]}},
{"type":"Feature","geometry":{"type":"Polygon","coordinates":[[[-79.58061,43.763],[-79.5797,43.76247],[-79.5787,43.76207],[-79.57762,43.76243],[-79.57755,43.76206],[-79.57933,43.76082],[-79.58058,43.76037],[-79.58087,43.75975],[-79.58066,43.75921],[-79.58106,43.7588],[-79.58251,43.75852],[-79.5838,43.75874],[-79.58406,43.75834],[-79.58381,43.75741],[-79.5852,43.75684],[-79.58512,43.75617],[-79.58418,43.75541],[-79.58416,43.75423],[-79.58315,43.75385],[-79.58316,43.75276],[-79.58286,43.75253],[-79.57996,43.75156],[-79.5791,43.75085],[-79.57757,43.75027],[-79.57523,43.75004],[-79.57318,43.75037],[-79.57263,43.74978],[-79.57338,43.74777],[-79.5732,43.74717],[-79.56376,43.74519],[-79.56223,43.74422],[-79.56248,43.74305],[-79.56212,43.7427],[-79.55974,43.74248],[-79.55842,43.74281],[-79.55779,43.74208],[-79.55849,43.74149],[-79.55784,43.74093],[-79.55731,43.74096],[-79.5568,43.7416],[-79.55698,43.74246],[-79.55635,43.74317],[-79.55424,43.74318],[-79.55146,43.74419],[-79.5501,43.74391],[-79.54984,43.74304],[-79.55036,43.74238],[-79.54925,43.74244],[-79.54936,43.74192],[-79.54902,43.74169],[-79.5475,43.74171],[-79.54626,43.74082],[-79.54612,43.7402],[-79.54642,43.7398],[-79.54826,43.73901],[-79.54848,43.7383],[-79.55008,43.73775],[-79.55008,43.7371],[-79.55053,43.73658],[-79.55038,43.73606],[-79.54902,43.73585],[-79.55052,43.73468],[-79.55044,43.73351],[-79.54912,43.7331],[-79.5468,43.73151],[-79.54552,43.73142],[-79.54494,43.73232],[-79.54428,43.73236],[-79.5439,43.73183],[-79.54493,43.73087],[-79.54474,43.73067],[-79.54366,43.72999],[-79.54147,43.72959],[-79.54008,43.72979],[-79.53932,43.73089],[-79.53937,43.73207],[-79.53849,43.73176],[-79.53883,43.72906],[-79.53822,43.72694],[-79.53854,43.72657],[-79.54081,43.72615],[-79.54134,43.72578],[-79.5407,43.72251],[-79.54129,43.72158],[-79.54264,43.72062],[-79.54416,43.71796],[-79.5438,43.71723],[-79.54268,43.71673],[-79.54052,43.71664],[-79.54072,43.7153],[-79.53818,43.71468],[-79.53783,43.71299],[-79.52527,43.71582],[-79.50782,43.71775],[-79.51321,43.73938],[-79.51037,43.73952],[-79.49703,43.7425],[-79.49739,43.74285],[-79.49738,43.74357],[-79.49799,43.74362],[-79.49767,43.74382],[-79.49796,43.74601],[-79.50175,43.74708],[-79.50226,43.74777],[-79.50351,43.7482],[-79.50478,43.74914],[-79.49753,43.75053],[-79.49458,43.75233],[-79.49206,43.75297],[-79.49088,43.75285],[-79.48946,43.75182],[-79.48816,43.75202],[-79.49449,43.77774],[-79.49415,43.78015],[-79.49442,43.78157],[-79.50434,43.77924],[-79.51701,43.77636],[-79.51875,43.77602],[-79.51918,43.77596],[-79.52299,43.77508],[-79.52573,43.77452],[-79.56478,43.76655],[-79.56985,43.76544],[-79.58061,43.763]]]},"properties":{"name":"Humber River—Black Creek","lp":[-79.52919,43.75268]}},
{"type":"Feature","geometry":{"type":"Polygon","coordinates":[[[-79.27477,43.77729],[-79.31237,43.76866],[-79.32887,43.76822],[-79.35964,43.76633],[-79.35958,43.76585],[-79.35792,43.76487],[-79.35495,43.76463],[-79.35423,43.76368],[-79.35294,43.76384],[-79.35162,43.7635],[-79.35118,43.76367],[-79.35098,43.76416],[-79.34947,43.76345],[-79.34974,43.76078],[-79.34876,43.76057],[-79.34831,43.75991],[-79.3465,43.75955],[-79.34591,43.75842],[-79.34467,43.75773],[-79.34401,43.75692],[-79.34369,43.75513],[-79.34555,43.75438],[-79.34531,43.75278],[-79.34635,43.75148],[-79.34537,43.75103],[-79.34259,43.75081],[-79.3426,43.74976],[-79.34219,43.74907],[-79.34242,43.74824],[-79.34222,43.74756],[-79.33918,43.74659],[-79.33972,43.74594],[-79.34015,43.74447],[-79.33907,43.74351],[-79.33818,43.74345],[-79.33748,43.74383],[-79.33641,43.74343],[-79.33623,43.74288],[-79.33666,43.74219],[-79.33576,43.7409],[-79.33372,43.74078],[-79.33275,43.74139],[-79.3316,43.74159],[-79.33063,43.74124],[-79.33081,43.74018],[-79.33009,43.73878],[-79.33036,43.73817],[-79.33155,43.73714],[-79.3307,43.73636],[-79.33119,43.73503],[-79.32944,43.73394],[-79.32813,43.73421],[-79.3274,43.7329],[-79.3269,43.7329],[-79.32605,43.73216],[-79.32487,43.73178],[-79.32459,43.73107],[-79.32518,43.7295],[-79.32285,43.72952],[-79.3201,43.73161],[-79.31964,43.73146],[-79.3196,43.73092],[-79.32011,43.73057],[-79.32038,43.72969],[-79.31863,43.72909],[-79.32048,43.728],[-79.32314,43.72718],[-79.32318,43.7263],[-79.32229,43.72538],[-79.3233,43.7233],[-79.32339,43.72217],[-79.32684,43.72119],[-79.32652,43.72049],[-79.32572,43.72035],[-79.32415,43.72067],[-79.32262,43.71986],[-79.32251,43.71933],[-79.32347,43.71895],[-79.32394,43.71828],[-79.32353,43.71673],[-79.32292,43.71644],[-79.32034,43.71597],[-79.32007,43.71553],[-79.30058,43.71978],[-79.30257,43.72479],[-79.27677,43.73019],[-79.26296,43.73346],[-79.26828,43.74591],[-79.26398,43.74857],[-79.27084,43.76666],[-79.27164,43.76965],[-79.27477,43.77729]]]},"properties":{"name":"Scarborough Centre—Don Valley East","lp":[-79.29213,43.75009]}},
{"type":"Feature","geometry":{"type":"Polygon","coordinates":[[[-79.22781,43.84208],[-79.23516,43.84038],[-79.25119,43.8366],[-79.29043,43.82755],[-79.29657,43.82612],[-79.29732,43.82594],[-79.28878,43.80704],[-79.2866,43.80446],[-79.2787,43.7857],[-79.27692,43.7828],[-79.27477,43.77729],[-79.24643,43.78284],[-79.23461,43.78577],[-79.22815,43.78798],[-79.22054,43.79201],[-79.21562,43.7937],[-79.19689,43.79653],[-79.1992,43.80062],[-79.20033,43.80402],[-79.20369,43.81134],[-79.20434,43.81219],[-79.21559,43.81904],[-79.21801,43.81996],[-79.22206,43.81959],[-79.22378,43.81982],[-79.22678,43.82107],[-79.23151,43.82413],[-79.23223,43.82559],[-79.21743,43.83037],[-79.21822,43.83091],[-79.21908,43.8324],[-79.22154,43.83234],[-79.22382,43.83395],[-79.22402,43.83531],[-79.22182,43.83651],[-79.22287,43.83756],[-79.22265,43.83859],[-79.22384,43.83924],[-79.22599,43.8396],[-79.22666,43.84109],[-79.22781,43.84208]]]},"properties":{"name":"Scarborough North","lp":[-79.25368,43.80861]}},
{"type":"Feature","geometry":{"type":"Polygon","coordinates":[[[-79.23008,43.74075],[-79.3025,43.72463],[-79.29597,43.70877],[-79.29022,43.69597],[-79.28315,43.67863],[-79.28189,43.67833],[-79.28019,43.67427],[-79.28119,43.67385],[-79.28004,43.67116],[-79.27973,43.67107],[-79.27835,43.67217],[-79.27765,43.67209],[-79.27739,43.67262],[-79.27645,43.6739],[-79.27602,43.67417],[-79.27545,43.67505],[-79.27511,43.67538],[-79.27491,43.67571],[-79.27389,43.67686],[-79.27344,43.67721],[-79.27336,43.67742],[-79.27306,43.67775],[-79.27301,43.67801],[-79.27265,43.67851],[-79.27212,43.67878],[-79.27192,43.67914],[-79.27142,43.67963],[-79.27108,43.67983],[-79.27073,43.68036],[-79.27032,43.68055],[-79.27034,43.68073],[-79.27008,43.68086],[-79.26996,43.68113],[-79.26964,43.6814],[-79.26889,43.68213],[-79.26832,43.68261],[-79.26828,43.68284],[-79.2681,43.68309],[-79.26769,43.6833],[-79.26739,43.68381],[-79.26697,43.68398],[-79.26665,43.68446],[-79.26638,43.68461],[-79.26514,43.68571],[-79.26374,43.68672],[-79.26347,43.68702],[-79.26367,43.68716],[-79.26351,43.68752],[-79.2632,43.68791],[-79.26292,43.68813],[-79.26249,43.68804],[-79.26198,43.68866],[-79.2617,43.68887],[-79.26088,43.68973],[-79.26064,43.68982],[-79.26057,43.69004],[-79.26027,43.69038],[-79.25997,43.69051],[-79.2598,43.69089],[-79.25945,43.69118],[-79.2593,43.69165],[-79.25891,43.69192],[-79.25854,43.69255],[-79.25814,43.69279],[-79.25803,43.69309],[-79.25782,43.69336],[-79.2573,43.69354],[-79.25692,43.69403],[-79.25658,43.6942],[-79.25642,43.69441],[-79.25566,43.69502],[-79.25352,43.69598],[-79.25337,43.69617],[-79.25256,43.69654],[-79.25228,43.69654],[-79.25201,43.6967],[-79.25125,43.69697],[-79.25098,43.69719],[-79.2494,43.69808],[-79.24732,43.69872],[-79.24672,43.69905],[-79.24619,43.69943],[-79.2463,43.6997],[-79.24571,43.69999],[-79.24522,43.70041],[-79.24462,43.70064],[-79.24406,43.70119],[-79.24346,43.70157],[-79.24192,43.70226],[-79.24101,43.70295],[-79.24014,43.70348],[-79.23939,43.70348],[-79.23887,43.70333],[-79.23904,43.70361],[-79.23963,43.70364],[-79.23971,43.70377],[-79.23931,43.70406],[-79.2386,43.70426],[-79.23786,43.70415],[-79.23767,43.70435],[-79.23831,43.70433],[-79.23855,43.70462],[-79.23779,43.70488],[-79.23753,43.70503],[-79.23727,43.70503],[-79.23675,43.70473],[-79.23667,43.70453],[-79.2368,43.70415],[-79.23755,43.70358],[-79.23765,43.70305],[-79.2378,43.70283],[-79.23829,43.70253],[-79.23851,43.70246],[-79.23882,43.70253],[-79.23921,43.70232],[-79.23915,43.70205],[-79.23861,43.7019],[-79.23816,43.70222],[-79.23735,43.7022],[-79.23706,43.70208],[-79.23667,43.7017],[-79.2366,43.70147],[-79.23612,43.7012],[-79.23564,43.70125],[-79.23543,43.70167],[-79.23556,43.7019],[-79.23603,43.70205],[-79.23639,43.7024],[-79.23657,43.70283],[-79.23654,43.70329],[-79.23631,43.70376],[-79.23579,43.70448],[-79.23503,43.70497],[-79.23414,43.70542],[-79.23397,43.70538],[-79.23382,43.70569],[-79.2336,43.70582],[-79.23434,43.70632],[-79.23398,43.7064],[-79.23377,43.70673],[-79.23306,43.70687],[-79.23269,43.7067],[-79.23265,43.70652],[-79.23297,43.70598],[-79.23311,43.70587],[-79.23301,43.70562],[-79.23332,43.70541],[-79.23322,43.70525],[-79.23276,43.70533],[-79.2324,43.70516],[-79.23234,43.7049],[-79.23187,43.70494],[-79.23155,43.70527],[-79.23111,43.70533],[-79.23013,43.70513],[-79.22921,43.70468],[-79.2289,43.7049],[-79.22916,43.70541],[-79.22852,43.70666],[-79.22819,43.707],[-79.22767,43.70712],[-79.22759,43.70739],[-79.22817,43.70731],[-79.22851,43.70744],[-79.22878,43.70689],[-79.22963,43.7059],[-79.22968,43.70588],[-79.23104,43.7064],[-79.2311,43.70663],[-79.23152,43.70663],[-79.23187,43.70673],[-79.23343,43.70758],[-79.23321,43.70812],[-79.23331,43.70839],[-79.23305,43.70896],[-79.23304,43.70932],[-79.23233,43.70999],[-79.23132,43.71056],[-79.23097,43.71059],[-79.23065,43.71049],[-79.23021,43.71025],[-79.23015,43.71004],[-79.23031,43.7099],[-79.23102,43.70969],[-79.23137,43.70951],[-79.23167,43.70906],[-79.23182,43.70847],[-79.23132,43.70847],[-79.23101,43.70877],[-79.22994,43.70848],[-79.22982,43.70828],[-79.22985,43.70792],[-79.22952,43.70791],[-79.22945,43.70819],[-79.22913,43.70852],[-79.22868,43.70876],[-79.22843,43.70879],[-79.22852,43.70909],[-79.22914,43.7088],[-79.22931,43.70884],[-79.22966,43.70914],[-79.22957,43.70936],[-79.22918,43.70963],[-79.22904,43.70964],[-79.22823,43.70928],[-79.22799,43.7093],[-79.22782,43.70965],[-79.22827,43.71001],[-79.22805,43.71048],[-79.22803,43.71105],[-79.22728,43.71124],[-79.22725,43.71159],[-79.22808,43.71176],[-79.22912,43.71174],[-79.22924,43.71161],[-79.22915,43.71057],[-79.22934,43.71034],[-79.22988,43.71036],[-79.23015,43.71049],[-79.23045,43.71083],[-79.2306,43.71125],[-79.23051,43.71154],[-79.22999,43.71218],[-79.2294,43.71258],[-79.22861,43.71266],[-79.22791,43.71263],[-79.22662,43.71239],[-79.22647,43.71227],[-79.22645,43.7117],[-79.2263,43.71124],[-79.22675,43.70974],[-79.2271,43.70889],[-79.22749,43.7086],[-79.22797,43.70843],[-79.2281,43.70831],[-79.22782,43.70807],[-79.22723,43.70813],[-79.22654,43.70805],[-79.22643,43.70792],[-79.22632,43.70736],[-79.22609,43.70728],[-79.22594,43.70751],[-79.22583,43.70811],[-79.22605,43.70835],[-79.22632,43.70848],[-79.22647,43.70891],[-79.22606,43.70966],[-79.22569,43.71054],[-79.22544,43.71075],[-79.22514,43.71082],[-79.22502,43.71107],[-79.22576,43.71169],[-79.22561,43.71213],[-79.22522,43.71227],[-79.22544,43.71258],[-79.22569,43.71254],[-79.22661,43.71295],[-79.22665,43.7134],[-79.22644,43.71408],[-79.22621,43.7145],[-79.226,43.71472],[-79.2257,43.71548],[-79.22464,43.71699],[-79.22419,43.71779],[-79.22358,43.7185],[-79.2232,43.71873],[-79.22292,43.71913],[-79.22217,43.71977],[-79.22148,43.72016],[-79.22056,43.72092],[-79.21936,43.72179],[-79.21864,43.722],[-79.21853,43.72208],[-79.21778,43.72305],[-79.21742,43.72331],[-79.21745,43.72344],[-79.21651,43.72468],[-79.2154,43.72576],[-79.21538,43.72585],[-79.21486,43.72638],[-79.21456,43.72661],[-79.21407,43.72673],[-79.21439,43.72739],[-79.21758,43.72787],[-79.20749,43.7399],[-79.2044,43.74686],[-79.20472,43.74893],[-79.20601,43.74968],[-79.20193,43.75422],[-79.20645,43.75315],[-79.21245,43.75071],[-79.21994,43.74841],[-79.22203,43.74701],[-79.22647,43.74317],[-79.23008,43.74075]]]},"properties":{"name":"Scarborough Southwest","lp":[-79.27255,43.7092]}},
{"type":"Feature","geometry":{"type":"Polygon","coordinates":[[[-79.29732,43.82594],[-79.32553,43.81936],[-79.3392,43.81617],[-79.34132,43.81565],[-79.35196,43.8132],[-79.34823,43.81135],[-79.34714,43.81022],[-79.34645,43.80886],[-79.34006,43.77965],[-79.33866,43.77202],[-79.33725,43.76771],[-79.31196,43.76872],[-79.27477,43.77729],[-79.27692,43.7828],[-79.2787,43.7857],[-79.2866,43.80446],[-79.28878,43.80704],[-79.29732,43.82594]]]},"properties":{"name":"Scarborough—Agincourt","lp":[-79.31261,43.79547]}},
{"type":"Feature","geometry":{"type":"Polygon","coordinates":[[[-79.21407,43.72673],[-79.21383,43.72679],[-79.21337,43.72726],[-79.21342,43.72739],[-79.21331,43.72789],[-79.2129,43.72853],[-79.2121,43.72941],[-79.21112,43.73065],[-79.20924,43.73258],[-79.20878,43.73291],[-79.20869,43.73317],[-79.20748,43.73416],[-79.20617,43.73502],[-79.20549,43.73532],[-79.20504,43.73529],[-79.20503,43.73508],[-79.20475,43.735],[-79.20238,43.73573],[-79.19754,43.73914],[-79.19615,43.74093],[-79.19579,43.74123],[-79.19558,43.74117],[-79.19521,43.74142],[-79.19484,43.74213],[-79.19452,43.74251],[-79.19411,43.74279],[-79.19374,43.7428],[-79.19352,43.7429],[-79.19159,43.74438],[-79.19046,43.74539],[-79.18986,43.74571],[-79.18964,43.7461],[-79.18916,43.74641],[-79.18893,43.74664],[-79.18757,43.74743],[-79.18621,43.74776],[-79.18578,43.7482],[-79.18311,43.74952],[-79.18301,43.74985],[-79.18267,43.75018],[-79.18123,43.75112],[-79.18024,43.75143],[-79.1795,43.752],[-79.17702,43.75311],[-79.17564,43.75382],[-79.17353,43.75467],[-79.17275,43.75487],[-79.17012,43.75586],[-79.16846,43.75633],[-79.16729,43.75683],[-79.16617,43.757],[-79.16403,43.75746],[-79.16335,43.75753],[-79.16175,43.758],[-79.16044,43.75826],[-79.15961,43.75855],[-79.15771,43.75881],[-79.15564,43.75898],[-79.15342,43.75899],[-79.15301,43.75909],[-79.15256,43.75935],[-79.15234,43.75958],[-79.15152,43.76015],[-79.15072,43.76108],[-79.14986,43.76229],[-79.14819,43.76397],[-79.14662,43.76541],[-79.14601,43.76587],[-79.14362,43.76729],[-79.14286,43.7679],[-79.14251,43.7683],[-79.14174,43.76897],[-79.14136,43.76939],[-79.13987,43.77042],[-79.13918,43.77081],[-79.1385,43.77135],[-79.1369,43.77285],[-79.13654,43.77312],[-79.13633,43.77343],[-79.13473,43.77511],[-79.13305,43.77639],[-79.13179,43.77769],[-79.13048,43.77886],[-79.1302,43.77926],[-79.12974,43.77973],[-79.12858,43.78071],[-79.12836,43.78073],[-79.12787,43.78141],[-79.12729,43.78203],[-79.12683,43.78229],[-79.12688,43.78247],[-79.12652,43.78306],[-79.12477,43.78506],[-79.1239,43.78642],[-79.12248,43.78804],[-79.12222,43.78848],[-79.12078,43.79034],[-79.12018,43.79121],[-79.11837,43.79286],[-79.11701,43.79365],[-79.11663,43.79396],[-79.11545,43.79456],[-79.11579,43.79477],[-79.11602,43.79479],[-79.11713,43.79437],[-79.11775,43.79435],[-79.11841,43.79448],[-79.1192,43.79476],[-79.121,43.79473],[-79.12128,43.79511],[-79.1211,43.79533],[-79.12058,43.79551],[-79.12024,43.79571],[-79.12018,43.79586],[-79.12031,43.79615],[-79.12115,43.797],[-79.12151,43.79725],[-79.12187,43.79738],[-79.12347,43.79718],[-79.12421,43.79742],[-79.12438,43.79768],[-79.12422,43.79881],[-79.12423,43.79901],[-79.12445,43.79939],[-79.1251,43.80008],[-79.12557,43.80022],[-79.12708,43.80012],[-79.12769,43.80029],[-79.12846,43.80063],[-79.12897,43.80093],[-79.1309,43.80175],[-79.13179,43.80173],[-79.13221,43.80161],[-79.13427,43.80087],[-79.13523,43.80068],[-79.13548,43.80103],[-79.13367,43.80301],[-79.13369,43.80327],[-79.13418,43.80391],[-79.13439,43.80444],[-79.1343,43.80521],[-79.13403,43.80577],[-79.13391,43.80621],[-79.1341,43.80686],[-79.13497,43.8075],[-79.13589,43.80804],[-79.13625,43.80807],[-79.13695,43.80771],[-79.13759,43.80786],[-79.13787,43.80752],[-79.13817,43.8075],[-79.13841,43.80796],[-79.13891,43.80799],[-79.13933,43.80835],[-79.13958,43.80844],[-79.14009,43.80834],[-79.14038,43.80835],[-79.14063,43.8085],[-79.14096,43.80884],[-79.14125,43.80892],[-79.14185,43.80945],[-79.14269,43.80953],[-79.14312,43.80961],[-79.14326,43.81001],[-79.14468,43.81002],[-79.14528,43.80999],[-79.14587,43.81002],[-79.14632,43.81025],[-79.14636,43.8105],[-79.14613,43.81059],[-79.14613,43.81084],[-79.14667,43.81134],[-79.14773,43.81195],[-79.14823,43.81232],[-79.14948,43.81249],[-79.15076,43.81344],[-79.15123,43.81388],[-79.15191,43.81404],[-79.16901,43.85268],[-79.17029,43.85546],[-79.1892,43.85092],[-79.19503,43.84949],[-79.20317,43.84757],[-79.20448,43.84725],[-79.22781,43.84208],[-79.22666,43.84109],[-79.22599,43.8396],[-79.22384,43.83924],[-79.22265,43.83859],[-79.22287,43.83756],[-79.22182,43.83651],[-79.22402,43.83531],[-79.22382,43.83395],[-79.22154,43.83234],[-79.21908,43.8324],[-79.21822,43.83091],[-79.21743,43.83037],[-79.23223,43.82559],[-79.23151,43.82413],[-79.22678,43.82107],[-79.22378,43.81982],[-79.22206,43.81959],[-79.21801,43.81996],[-79.21559,43.81904],[-79.20434,43.81219],[-79.20369,43.81134],[-79.20033,43.80402],[-79.1992,43.80062],[-79.19689,43.79653],[-79.21596,43.79361],[-79.22054,43.79201],[-79.22555,43.78922],[-79.22452,43.78842],[-79.22353,43.78848],[-79.22206,43.78798],[-79.22201,43.78762],[-79.22296,43.78697],[-79.22301,43.78562],[-79.22144,43.78577],[-79.22047,43.78524],[-79.22014,43.78451],[-79.2204,43.78402],[-79.21955,43.78347],[-79.21937,43.78268],[-79.21791,43.78327],[-79.21759,43.78425],[-79.2161,43.78385],[-79.21522,43.78309],[-79.21484,43.7831],[-79.21442,43.78373],[-79.21377,43.78369],[-79.21341,43.78273],[-79.21252,43.78242],[-79.21121,43.78132],[-79.21078,43.77962],[-79.20982,43.78004],[-79.20814,43.77961],[-79.20853,43.77829],[-79.20661,43.7772],[-79.20753,43.77686],[-79.20736,43.7766],[-79.20295,43.77709],[-79.20259,43.77678],[-79.20204,43.77447],[-79.20026,43.77414],[-79.19892,43.77429],[-79.19975,43.77309],[-79.19876,43.77145],[-79.20054,43.76898],[-79.20062,43.76818],[-79.20111,43.76759],[-79.20348,43.76669],[-79.20133,43.76389],[-79.20154,43.76306],[-79.20279,43.76258],[-79.20168,43.76109],[-79.20243,43.7606],[-79.20268,43.7586],[-79.20362,43.75751],[-79.20477,43.75733],[-79.20475,43.75362],[-79.20193,43.75422],[-79.20601,43.74968],[-79.20472,43.74893],[-79.2044,43.74686],[-79.20749,43.7399],[-79.21758,43.72787],[-79.21439,43.72739],[-79.21407,43.72673]]]},"properties":{"name":"Scarborough—Guildwood—Rouge Park","lp":[-79.16768,43.78795]}},
{"type":"Feature","geometry":{"type":"Polygon","coordinates":[[[-79.22555,43.78922],[-79.23067,43.78703],[-79.24045,43.78419],[-79.27477,43.77729],[-79.27164,43.76965],[-79.27084,43.76666],[-79.26398,43.74857],[-79.26828,43.74591],[-79.26296,43.73346],[-79.23008,43.74075],[-79.22647,43.74317],[-79.22203,43.74701],[-79.21994,43.74841],[-79.21245,43.75071],[-79.20475,43.75362],[-79.20477,43.75733],[-79.20362,43.75751],[-79.20268,43.7586],[-79.20243,43.7606],[-79.20168,43.76109],[-79.20279,43.76258],[-79.20154,43.76306],[-79.20133,43.76389],[-79.20348,43.76669],[-79.20097,43.76771],[-79.20054,43.76898],[-79.19875,43.77161],[-79.19975,43.77309],[-79.19892,43.77429],[-79.20026,43.77414],[-79.20204,43.77447],[-79.20283,43.77704],[-79.20418,43.77712],[-79.20736,43.7766],[-79.20753,43.77686],[-79.20661,43.7772],[-79.20853,43.77829],[-79.20814,43.77961],[-79.20982,43.78004],[-79.21078,43.77962],[-79.21121,43.78132],[-79.21252,43.78242],[-79.21323,43.78258],[-79.21391,43.78375],[-79.21457,43.78367],[-79.21484,43.7831],[-79.21522,43.78309],[-79.2161,43.78385],[-79.21759,43.78425],[-79.21791,43.78327],[-79.21937,43.78268],[-79.21955,43.78347],[-79.2204,43.78402],[-79.22014,43.78451],[-79.22047,43.78524],[-79.22144,43.78577],[-79.22301,43.78562],[-79.22296,43.78697],[-79.22201,43.78762],[-79.22206,43.78798],[-79.22353,43.78848],[-79.22452,43.78842],[-79.22555,43.78922]]]},"properties":{"name":"Scarborough—Woburn","lp":[-79.24404,43.7606]}},
{"type":"Feature","geometry":{"type":"Polygon","coordinates":[[[-79.41939,43.63549],[-79.4286,43.63279],[-79.42715,43.62968],[-79.42608,43.62963],[-79.42012,43.6301],[-79.41871,43.62949],[-79.4184,43.62943],[-79.41805,43.62828],[-79.41838,43.62816],[-79.41869,43.62795],[-79.41901,43.62787],[-79.41929,43.62797],[-79.41934,43.62817],[-79.41915,43.62849],[-79.41935,43.62869],[-79.41968,43.62877],[-79.41933,43.62899],[-79.4194,43.62919],[-79.41963,43.62932],[-79.42247,43.62906],[-79.42218,43.62869],[-79.42206,43.62841],[-79.42213,43.62812],[-79.42254,43.62773],[-79.42248,43.62754],[-79.42221,43.62741],[-79.42139,43.62754],[-79.42096,43.62743],[-79.42038,43.62718],[-79.42024,43.62693],[-79.42001,43.62676],[-79.4197,43.62676],[-79.41944,43.62688],[-79.41822,43.62649],[-79.41659,43.62626],[-79.41502,43.6264],[-79.41508,43.62655],[-79.41653,43.6264],[-79.41832,43.6266],[-79.41859,43.6268],[-79.41839,43.62702],[-79.41811,43.62706],[-79.41775,43.62691],[-79.41781,43.62736],[-79.41731,43.62792],[-79.41628,43.62809],[-79.4161,43.62786],[-79.41565,43.62765],[-79.41537,43.62708],[-79.41454,43.62717],[-79.41418,43.62715],[-79.41349,43.62697],[-79.41331,43.62702],[-79.41298,43.6273],[-79.41226,43.62739],[-79.41124,43.62731],[-79.41038,43.6278],[-79.41013,43.62806],[-79.41003,43.62833],[-79.41024,43.62912],[-79.40987,43.62939],[-79.40915,43.62952],[-79.40905,43.62978],[-79.40928,43.63021],[-79.40945,43.63069],[-79.40946,43.63102],[-79.40994,43.63095],[-79.40997,43.63115],[-79.40958,43.63122],[-79.40879,43.63168],[-79.40862,43.63299],[-79.40856,43.63303],[-79.40664,43.6328],[-79.40504,43.63306],[-79.40298,43.6315],[-79.403,43.63127],[-79.40232,43.631],[-79.39757,43.63353],[-79.39736,43.63367],[-79.39699,43.63374],[-79.39878,43.63155],[-79.4028,43.62934],[-79.4049,43.62784],[-79.40427,43.6264],[-79.40275,43.62677],[-79.40222,43.62654],[-79.40121,43.62594],[-79.401,43.62597],[-79.40047,43.62541],[-79.39986,43.62498],[-79.39899,43.62423],[-79.39821,43.62369],[-79.39749,43.62297],[-79.39685,43.62247],[-79.39652,43.62232],[-79.39516,43.62126],[-79.39387,43.62006],[-79.39274,43.61867],[-79.39243,43.6181],[-79.39185,43.61646],[-79.39182,43.61585],[-79.39198,43.61528],[-79.39184,43.61487],[-79.39214,43.61437],[-79.39178,43.61361],[-79.39144,43.61323],[-79.38949,43.6121],[-79.38929,43.61188],[-79.38841,43.61176],[-79.38815,43.61199],[-79.38779,43.61194],[-79.3876,43.61202],[-79.38533,43.61185],[-79.38402,43.61188],[-79.38245,43.61207],[-79.38209,43.61215],[-79.38216,43.61244],[-79.38058,43.61317],[-79.37849,43.61385],[-79.37745,43.6143],[-79.37699,43.61441],[-79.37598,43.6144],[-79.37515,43.61501],[-79.37365,43.61583],[-79.37254,43.61634],[-79.37197,43.61633],[-79.37161,43.61647],[-79.37149,43.61675],[-79.37127,43.617],[-79.37056,43.61751],[-79.36989,43.61769],[-79.36957,43.61793],[-79.36903,43.61822],[-79.36645,43.61934],[-79.36332,43.62159],[-79.36136,43.6229],[-79.35782,43.62545],[-79.35678,43.62641],[-79.35607,43.62715],[-79.35538,43.6281],[-79.35456,43.62956],[-79.35362,43.62975],[-79.35231,43.62984],[-79.35016,43.62972],[-79.34973,43.62954],[-79.34963,43.63042],[-79.34953,43.63089],[-79.34939,43.63102],[-79.3524,43.6336],[-79.35236,43.63369],[-79.35057,43.63349],[-79.35957,43.64539],[-79.36108,43.64785],[-79.3758,43.64417],[-79.37925,43.65244],[-79.42239,43.64349],[-79.41939,43.63549]]]},"properties":{"name":"Spadina—Harbourfront","lp":[-79.38134,43.62955]}},
{"type":"Feature","geometry":{"type":"Polygon","coordinates":[[[-79.50444,43.66726],[-79.51173,43.6623],[-79.51005,43.66192],[-79.50688,43.66302],[-79.50593,43.66302],[-79.50187,43.66026],[-79.50011,43.65943],[-79.49952,43.659],[-79.49948,43.65782],[-79.50256,43.65514],[-79.50294,43.65356],[-79.50252,43.65289],[-79.50148,43.6524],[-79.49745,43.652],[-79.4923,43.65219],[-79.49088,43.65097],[-79.49066,43.65023],[-79.49276,43.64734],[-79.49262,43.64577],[-79.49058,43.64334],[-79.48988,43.6415],[-79.48894,43.64126],[-79.48684,43.64197],[-79.48531,43.64208],[-79.48502,43.64177],[-79.48509,43.6394],[-79.4847,43.6384],[-79.48227,43.63799],[-79.47839,43.63831],[-79.47734,43.6379],[-79.47572,43.63467],[-79.47509,43.63401],[-79.47253,43.63254],[-79.4708,43.63193],[-79.47057,43.63209],[-79.46932,43.63265],[-79.46858,43.63332],[-79.46837,43.63373],[-79.46813,43.6339],[-79.46708,43.63434],[-79.46599,43.63459],[-79.46529,43.6349],[-79.465,43.63519],[-79.46426,43.63554],[-79.46345,43.63573],[-79.46256,43.63577],[-79.46216,43.63603],[-79.46157,43.63631],[-79.4613,43.63633],[-79.46057,43.63661],[-79.46001,43.63674],[-79.45895,43.63677],[-79.45869,43.6367],[-79.45799,43.63705],[-79.45769,43.63714],[-79.45501,43.63741],[-79.45368,43.63721],[-79.45296,43.63686],[-79.4524,43.63671],[-79.45089,43.6365],[-79.44977,43.63651],[-79.44911,43.63619],[-79.44886,43.63619],[-79.44838,43.63636],[-79.44768,43.63648],[-79.44615,43.63609],[-79.44399,43.63516],[-79.44386,43.63495],[-79.44311,43.63469],[-79.44291,43.63469],[-79.44199,43.63496],[-79.44112,43.63481],[-79.44057,43.63459],[-79.44002,43.63422],[-79.44003,43.63396],[-79.43932,43.63357],[-79.43932,43.63318],[-79.43916,43.63309],[-79.43757,43.63247],[-79.43688,43.63214],[-79.43641,43.63199],[-79.43598,43.63178],[-79.43572,43.63176],[-79.43506,43.63136],[-79.43338,43.63078],[-79.43183,43.63043],[-79.42852,43.62986],[-79.42716,43.62968],[-79.42713,43.62968],[-79.42866,43.63292],[-79.41939,43.63549],[-79.42141,43.64067],[-79.42432,43.64101],[-79.42721,43.64191],[-79.43886,43.64732],[-79.44316,43.65017],[-79.46889,43.67621],[-79.47043,43.67649],[-79.49397,43.67078],[-79.50444,43.66726]]]},"properties":{"name":"Taiaiako'n—Parkdale—High Park","lp":[-79.47359,43.65552]}},
{"type":"Feature","geometry":{"type":"Polygon","coordinates":[[[-79.36344,43.6753],[-79.36698,43.67457],[-79.37093,43.67193],[-79.37631,43.67246],[-79.38677,43.67022],[-79.3758,43.64417],[-79.37403,43.64482],[-79.36303,43.64723],[-79.35754,43.64895],[-79.35174,43.64903],[-79.34955,43.64993],[-79.34823,43.65129],[-79.34815,43.65187],[-79.34958,43.65365],[-79.35428,43.65789],[-79.35749,43.66867],[-79.35949,43.67022],[-79.36055,43.67205],[-79.36292,43.67325],[-79.36287,43.67464],[-79.36344,43.6753]]]},"properties":{"name":"Toronto Centre","lp":[-79.36814,43.65936]}},
{"type":"Feature","geometry":{"type":"MultiPolygon","coordinates":[[[[-79.36486,43.68265],[-79.36634,43.68161],[-79.36627,43.68093],[-79.36558,43.68032],[-79.36492,43.68002],[-79.3636,43.6786],[-79.36362,43.67784],[-79.36495,43.6768],[-79.363,43.67492],[-79.36292,43.67325],[-79.36055,43.67205],[-79.35949,43.67022],[-79.35749,43.66867],[-79.35428,43.65789],[-79.34958,43.65365],[-79.34815,43.65187],[-79.3487,43.65055],[-79.35174,43.64903],[-79.3569,43.64906],[-79.36108,43.64785],[-79.35957,43.64539],[-79.35057,43.63349],[-79.34711,43.63311],[-79.34701,43.63403],[-79.34684,43.63434],[-79.34598,43.63469],[-79.34558,43.63493],[-79.34513,43.63541],[-79.34417,43.63616],[-79.3435,43.63685],[-79.34293,43.6373],[-79.34227,43.63769],[-79.34172,43.63785],[-79.34155,43.638],[-79.34149,43.63834],[-79.34088,43.63892],[-79.34065,43.63904],[-79.33905,43.63937],[-79.338,43.63931],[-79.33764,43.63939],[-79.33649,43.63914],[-79.33645,43.63924],[-79.33586,43.63934],[-79.33516,43.63973],[-79.33499,43.63987],[-79.33518,43.64001],[-79.33543,43.63991],[-79.33618,43.63943],[-79.33645,43.63941],[-79.33689,43.63961],[-79.33745,43.64008],[-79.33736,43.64035],[-79.33671,43.64098],[-79.33633,43.64123],[-79.3362,43.64148],[-79.33596,43.64156],[-79.33573,43.64191],[-79.33532,43.64203],[-79.33525,43.6423],[-79.33386,43.64356],[-79.33353,43.64394],[-79.33322,43.64416],[-79.33234,43.64496],[-79.33096,43.64588],[-79.33044,43.6466],[-79.32834,43.64761],[-79.32805,43.64756],[-79.32738,43.64728],[-79.32743,43.64704],[-79.32694,43.64683],[-79.3266,43.64696],[-79.32593,43.64688],[-79.32583,43.64679],[-79.32572,43.64627],[-79.32535,43.64567],[-79.32537,43.6455],[-79.32682,43.64398],[-79.3273,43.64385],[-79.32835,43.64398],[-79.32867,43.64377],[-79.32778,43.64359],[-79.3275,43.64345],[-79.32712,43.643],[-79.32719,43.64252],[-79.32756,43.64212],[-79.32745,43.64168],[-79.32753,43.64142],[-79.32775,43.64115],[-79.32805,43.64094],[-79.32873,43.64081],[-79.32857,43.64062],[-79.3287,43.64033],[-79.32899,43.64005],[-79.32943,43.63983],[-79.32993,43.63973],[-79.32978,43.63923],[-79.32985,43.63904],[-79.3301,43.63888],[-79.33103,43.63861],[-79.33035,43.63827],[-79.33026,43.63781],[-79.32959,43.63714],[-79.32938,43.63707],[-79.3288,43.63731],[-79.32849,43.63753],[-79.32848,43.6378],[-79.32876,43.638],[-79.3288,43.63818],[-79.32773,43.63922],[-79.32672,43.64042],[-79.32506,43.6399],[-79.32471,43.64007],[-79.32475,43.6402],[-79.32624,43.64078],[-79.32627,43.64085],[-79.32533,43.64227],[-79.32446,43.64425],[-79.32457,43.64443],[-79.32428,43.6452],[-79.3217,43.64482],[-79.32159,43.64469],[-79.32176,43.64393],[-79.32175,43.64374],[-79.32195,43.6433],[-79.32232,43.64157],[-79.32262,43.64121],[-79.3226,43.64046],[-79.32281,43.6395],[-79.32299,43.63898],[-79.32296,43.63856],[-79.32303,43.63814],[-79.32341,43.63752],[-79.32409,43.63694],[-79.3246,43.63635],[-79.32531,43.63589],[-79.32609,43.63572],[-79.3262,43.63546],[-79.32624,43.63489],[-79.32591,43.63478],[-79.32566,43.63452],[-79.32545,43.63409],[-79.32542,43.63377],[-79.32603,43.63302],[-79.32642,43.63266],[-79.32642,43.63205],[-79.32658,43.63178],[-79.32677,43.63167],[-79.32729,43.63167],[-79.32826,43.63193],[-79.32897,43.63204],[-79.32917,43.63216],[-79.32924,43.63244],[-79.32871,43.63316],[-79.3297,43.633],[-79.33088,43.63263],[-79.33142,43.63229],[-79.33285,43.63184],[-79.33342,43.63153],[-79.33385,43.63148],[-79.33451,43.63157],[-79.33472,43.63134],[-79.33485,43.63102],[-79.33524,43.63083],[-79.33584,43.63042],[-79.33603,43.63012],[-79.33647,43.62978],[-79.33662,43.62934],[-79.33631,43.62916],[-79.33613,43.62919],[-79.33526,43.62967],[-79.33499,43.62968],[-79.33441,43.6294],[-79.33415,43.62937],[-79.33372,43.62961],[-79.33371,43.62978],[-79.33392,43.63025],[-79.33362,43.63054],[-79.33312,43.63068],[-79.33263,43.63062],[-79.33254,43.63048],[-79.33271,43.63025],[-79.33244,43.6302],[-79.33238,43.63045],[-79.33192,43.63048],[-79.33181,43.63077],[-79.33146,43.63121],[-79.33123,43.63125],[-79.32988,43.63123],[-79.32873,43.63087],[-79.32867,43.63055],[-79.32881,43.63017],[-79.32938,43.62944],[-79.3299,43.62849],[-79.33023,43.62821],[-79.33062,43.62812],[-79.33082,43.62783],[-79.33122,43.62755],[-79.33147,43.62727],[-79.33147,43.62684],[-79.33187,43.6267],[-79.33126,43.62638],[-79.33089,43.62611],[-79.33041,43.62677],[-79.32959,43.62741],[-79.32932,43.6275],[-79.32844,43.62738],[-79.32794,43.62755],[-79.32831,43.62803],[-79.3282,43.62846],[-79.32781,43.62899],[-79.32738,43.6291],[-79.32692,43.629],[-79.3267,43.62903],[-79.32651,43.62937],[-79.32729,43.62946],[-79.32739,43.6296],[-79.32728,43.62992],[-79.32657,43.63084],[-79.32604,43.63137],[-79.32534,43.63226],[-79.32416,43.63348],[-79.32309,43.63338],[-79.32298,43.63301],[-79.32323,43.6321],[-79.32336,43.63178],[-79.3237,43.63129],[-79.32355,43.63077],[-79.32361,43.63057],[-79.32408,43.63012],[-79.3256,43.62962],[-79.32572,43.62949],[-79.32534,43.62928],[-79.32508,43.62941],[-79.32458,43.62952],[-79.32424,43.62974],[-79.32383,43.6297],[-79.32366,43.62958],[-79.32356,43.62907],[-79.32376,43.62768],[-79.32376,43.62666],[-79.32384,43.62646],[-79.32432,43.62644],[-79.32682,43.62727],[-79.32732,43.62723],[-79.32718,43.62687],[-79.32659,43.62666],[-79.32524,43.62638],[-79.32492,43.62622],[-79.32297,43.62619],[-79.32314,43.62632],[-79.32327,43.62672],[-79.32328,43.62715],[-79.32308,43.62825],[-79.3229,43.62884],[-79.32252,43.62905],[-79.32235,43.62936],[-79.32236,43.62958],[-79.32266,43.62981],[-79.32289,43.63031],[-79.32272,43.63153],[-79.32231,43.63272],[-79.32209,43.63292],[-79.32163,43.63307],[-79.32143,43.63338],[-79.32154,43.63354],[-79.32236,43.63388],[-79.32299,43.63436],[-79.32312,43.63465],[-79.32312,43.63524],[-79.32295,43.63571],[-79.32212,43.63896],[-79.32168,43.64026],[-79.32119,43.64124],[-79.32064,43.64174],[-79.32071,43.64195],[-79.32111,43.64213],[-79.32121,43.64233],[-79.32077,43.64434],[-79.32034,43.64553],[-79.31985,43.64584],[-79.31958,43.64614],[-79.3199,43.64629],[-79.32002,43.64659],[-79.32007,43.64698],[-79.32003,43.64737],[-79.31987,43.64802],[-79.32021,43.64842],[-79.32017,43.64887],[-79.31965,43.65037],[-79.31953,43.65117],[-79.31914,43.65205],[-79.31861,43.65291],[-79.31813,43.65412],[-79.31771,43.65471],[-79.31694,43.65538],[-79.31681,43.65557],[-79.31615,43.65598],[-79.31605,43.65617],[-79.31623,43.6567],[-79.31641,43.65689],[-79.31636,43.65705],[-79.31605,43.65725],[-79.31605,43.65746],[-79.31649,43.65725],[-79.3167,43.65738],[-79.31625,43.6576],[-79.3151,43.65739],[-79.31443,43.6574],[-79.31372,43.65757],[-79.31314,43.65792],[-79.31314,43.65807],[-79.3143,43.65891],[-79.31477,43.6591],[-79.31561,43.65959],[-79.3172,43.66078],[-79.31706,43.66095],[-79.31707,43.66146],[-79.31528,43.66187],[-79.31482,43.66224],[-79.32954,43.69794],[-79.32958,43.69826],[-79.32674,43.70162],[-79.32735,43.7014],[-79.33156,43.70166],[-79.33218,43.70316],[-79.33304,43.70342],[-79.33389,43.703],[-79.33566,43.70315],[-79.33925,43.70122],[-79.34148,43.69943],[-79.34307,43.69902],[-79.34421,43.69831],[-79.34592,43.69853],[-79.34745,43.6992],[-79.34826,43.69992],[-79.34976,43.69996],[-79.35041,43.69974],[-79.35122,43.69875],[-79.35496,43.69814],[-79.35593,43.69727],[-79.35672,43.69554],[-79.35772,43.69525],[-79.3589,43.69559],[-79.35984,43.69539],[-79.36183,43.69409],[-79.36132,43.69288],[-79.36018,43.69221],[-79.3599,43.6915],[-79.36128,43.68928],[-79.3626,43.68812],[-79.36161,43.68565],[-79.36193,43.68458],[-79.36322,43.68328],[-79.36486,43.68265]]],[[[-79.33033,43.6218],[-79.32979,43.62242],[-79.33205,43.6222],[-79.33303,43.62229],[-79.33332,43.62262],[-79.33335,43.62302],[-79.33296,43.62406],[-79.33198,43.62551],[-79.33133,43.62571],[-79.3313,43.62579],[-79.33215,43.62617],[-79.33265,43.62585],[-79.33317,43.62584],[-79.33393,43.6257],[-79.33414,43.62559],[-79.33433,43.62513],[-79.33488,43.62526],[-79.33544,43.6257],[-79.33575,43.62632],[-79.33561,43.62654],[-79.33491,43.62708],[-79.33499,43.62743],[-79.33527,43.62752],[-79.3359,43.62757],[-79.33653,43.62748],[-79.3369,43.62752],[-79.33732,43.62784],[-79.33753,43.62853],[-79.33765,43.62874],[-79.3374,43.62895],[-79.33762,43.62907],[-79.33869,43.62905],[-79.33936,43.62935],[-79.3394,43.62919],[-79.33879,43.62797],[-79.33845,43.62698],[-79.33816,43.62651],[-79.33783,43.62633],[-79.3375,43.62574],[-79.33702,43.6255],[-79.33683,43.62534],[-79.3367,43.62493],[-79.33675,43.62453],[-79.33708,43.62395],[-79.33743,43.62358],[-79.33747,43.62307],[-79.33758,43.6227],[-79.33812,43.62221],[-79.33871,43.62206],[-79.33902,43.62215],[-79.33945,43.62289],[-79.33986,43.62325],[-79.34077,43.62381],[-79.34125,43.62436],[-79.34109,43.62458],[-79.34171,43.6246],[-79.3418,43.62395],[-79.34211,43.62362],[-79.34238,43.62354],[-79.34299,43.62352],[-79.34326,43.62342],[-79.34319,43.62305],[-79.34279,43.62278],[-79.34237,43.62282],[-79.34134,43.62249],[-79.34122,43.62215],[-79.34096,43.62187],[-79.34058,43.62165],[-79.34007,43.62149],[-79.33976,43.6212],[-79.33966,43.62067],[-79.34006,43.62018],[-79.3407,43.61972],[-79.34152,43.61944],[-79.34212,43.61936],[-79.3427,43.61951],[-79.34287,43.61987],[-79.34278,43.62024],[-79.34297,43.62103],[-79.34323,43.62156],[-79.34307,43.62193],[-79.34332,43.62209],[-79.34388,43.62211],[-79.34478,43.62183],[-79.34441,43.62162],[-79.34357,43.62076],[-79.34338,43.62036],[-79.34344,43.61971],[-79.34389,43.6189],[-79.34445,43.61835],[-79.34469,43.61791],[-79.34435,43.61771],[-79.34377,43.61674],[-79.34369,43.61622],[-79.34369,43.61534],[-79.34383,43.61486],[-79.34395,43.61383],[-79.34392,43.61341],[-79.34368,43.61309],[-79.34342,43.61301],[-79.34291,43.61316],[-79.34278,43.61339],[-79.34269,43.61389],[-79.34241,43.61463],[-79.34184,43.61519],[-79.3418,43.6154],[-79.34244,43.61581],[-79.34261,43.61627],[-79.34226,43.61719],[-79.34151,43.61832],[-79.34082,43.61893],[-79.34011,43.61938],[-79.33985,43.61946],[-79.33875,43.61948],[-79.33834,43.61922],[-79.33772,43.61924],[-79.33752,43.61941],[-79.33755,43.61988],[-79.33725,43.62101],[-79.33692,43.62137],[-79.33633,43.62128],[-79.33602,43.62138],[-79.33536,43.62106],[-79.33534,43.62098],[-79.33623,43.61995],[-79.33608,43.61964],[-79.33567,43.61947],[-79.33506,43.61946],[-79.33447,43.61983],[-79.33307,43.62029],[-79.33209,43.62034],[-79.33183,43.62031],[-79.33033,43.6218]],[[-79.33855,43.62806],[-79.33856,43.62817],[-79.33775,43.62853],[-79.3377,43.62844],[-79.33848,43.62802],[-79.33855,43.62806]],[[-79.33798,43.62872],[-79.3385,43.62833],[-79.33868,43.62839],[-79.33852,43.62866],[-79.33798,43.62872]]]]},"properties":{"name":"Toronto—Danforth","lp":[-79.33778,43.66854]}},
{"type":"Feature","geometry":{"type":"Polygon","coordinates":[[[-79.45027,43.69569],[-79.45003,43.6956],[-79.44157,43.69298],[-79.43576,43.6899],[-79.43325,43.68329],[-79.4338,43.68302],[-79.43022,43.67473],[-79.43098,43.67471],[-79.4294,43.67098],[-79.40028,43.6771],[-79.38341,43.68464],[-79.37762,43.68598],[-79.37545,43.68683],[-79.37345,43.68811],[-79.37089,43.69065],[-79.37506,43.69282],[-79.37649,43.69309],[-79.38071,43.69475],[-79.37173,43.69674],[-79.37715,43.71103],[-79.39018,43.7084],[-79.39121,43.71112],[-79.39899,43.70958],[-79.39836,43.70673],[-79.45027,43.69569]]]},"properties":{"name":"Toronto—St. Paul's","lp":[-79.40779,43.69012]}},
{"type":"Feature","geometry":{"type":"Polygon","coordinates":[[[-79.38341,43.68464],[-79.39946,43.67739],[-79.40312,43.67631],[-79.42937,43.67092],[-79.41888,43.64419],[-79.37925,43.65244],[-79.38677,43.67022],[-79.37631,43.67246],[-79.37093,43.67193],[-79.36698,43.67457],[-79.36344,43.6753],[-79.36495,43.6768],[-79.36362,43.67784],[-79.36367,43.6788],[-79.36582,43.68047],[-79.36642,43.68131],[-79.36486,43.68265],[-79.36322,43.68328],[-79.36166,43.68511],[-79.36161,43.68565],[-79.36259,43.68771],[-79.3622,43.68853],[-79.36288,43.68881],[-79.36357,43.68791],[-79.36377,43.68852],[-79.36359,43.68934],[-79.36205,43.69108],[-79.36204,43.69223],[-79.36322,43.69338],[-79.36683,43.69445],[-79.37309,43.68842],[-79.37545,43.68683],[-79.37762,43.68598],[-79.38341,43.68464]]]},"properties":{"name":"University—Rosedale","lp":[-79.40753,43.66098]}},
{"type":"Feature","geometry":{"type":"Polygon","coordinates":[[[-79.44574,43.7924],[-79.44542,43.79056],[-79.44652,43.78907],[-79.44662,43.78811],[-79.43998,43.76156],[-79.43891,43.76146],[-79.43834,43.76074],[-79.43775,43.76062],[-79.43765,43.76009],[-79.43821,43.75957],[-79.4379,43.75913],[-79.43549,43.75903],[-79.43462,43.75826],[-79.43376,43.75805],[-79.43377,43.75756],[-79.43319,43.75722],[-79.43019,43.75747],[-79.42855,43.75545],[-79.42822,43.75428],[-79.42384,43.75167],[-79.42288,43.75059],[-79.4226,43.74975],[-79.42046,43.74932],[-79.41765,43.7498],[-79.41615,43.75065],[-79.41589,43.75149],[-79.41533,43.75199],[-79.41407,43.75154],[-79.41157,43.75157],[-79.39738,43.76038],[-79.39284,43.76206],[-79.38705,43.76332],[-79.38804,43.76658],[-79.39622,43.80326],[-79.44574,43.7924]]]},"properties":{"name":"Willowdale","lp":[-79.41625,43.77548]}},
{"type":"Feature","geometry":{"type":"Polygon","coordinates":[[[-79.49442,43.78157],[-79.49415,43.78015],[-79.49449,43.77774],[-79.48816,43.75202],[-79.48946,43.75182],[-79.49088,43.75285],[-79.49206,43.75297],[-79.49458,43.75233],[-79.49753,43.75053],[-79.50478,43.74914],[-79.50351,43.7482],[-79.50226,43.74777],[-79.50175,43.74708],[-79.49796,43.74601],[-79.49767,43.74382],[-79.49799,43.74362],[-79.49738,43.74357],[-79.49739,43.74285],[-79.49703,43.7425],[-79.51037,43.73952],[-79.51321,43.73938],[-79.50782,43.71775],[-79.50273,43.71832],[-79.49039,43.72049],[-79.47091,43.72526],[-79.4418,43.73169],[-79.43091,43.73777],[-79.41985,43.74464],[-79.41765,43.74623],[-79.41474,43.74946],[-79.41157,43.75157],[-79.41407,43.75154],[-79.41533,43.75199],[-79.41589,43.75149],[-79.41615,43.75065],[-79.41765,43.7498],[-79.42046,43.74932],[-79.42243,43.74967],[-79.42384,43.75167],[-79.42822,43.75428],[-79.42855,43.75545],[-79.43019,43.75747],[-79.43319,43.75722],[-79.43377,43.75756],[-79.43376,43.75805],[-79.43462,43.75826],[-79.43531,43.75895],[-79.43742,43.759],[-79.43811,43.75932],[-79.43817,43.75969],[-79.43765,43.76009],[-79.43775,43.76062],[-79.43834,43.76074],[-79.43891,43.76146],[-79.43998,43.76156],[-79.44662,43.78811],[-79.44659,43.78895],[-79.44537,43.79082],[-79.44574,43.7924],[-79.44662,43.79221],[-79.45303,43.79081],[-79.46319,43.78865],[-79.46991,43.78732],[-79.47074,43.78713],[-79.49442,43.78157]]]},"properties":{"name":"York Centre","lp":[-79.46328,43.75279]}},
{"type":"Feature","geometry":{"type":"Polygon","coordinates":[[[-79.53783,43.71299],[-79.53814,43.71206],[-79.53958,43.71097],[-79.53953,43.7099],[-79.53884,43.70904],[-79.53741,43.70831],[-79.5359,43.70825],[-79.53568,43.70788],[-79.53546,43.70699],[-79.53594,43.7047],[-79.53498,43.70455],[-79.53333,43.70498],[-79.53194,43.70496],[-79.53164,43.70391],[-79.53186,43.7032],[-79.53424,43.70053],[-79.53426,43.69982],[-79.5266,43.68233],[-79.5212,43.68333],[-79.5147,43.68347],[-79.51019,43.68409],[-79.5095,43.68284],[-79.50897,43.68246],[-79.50718,43.68247],[-79.50574,43.68209],[-79.50545,43.68065],[-79.50716,43.67939],[-79.50865,43.67655],[-79.51146,43.67477],[-79.51235,43.67384],[-79.51215,43.6734],[-79.5125,43.67265],[-79.51128,43.66837],[-79.51138,43.66794],[-79.51305,43.66663],[-79.5131,43.66577],[-79.51222,43.66262],[-79.51176,43.66231],[-79.50444,43.66726],[-79.49397,43.67078],[-79.47043,43.67649],[-79.46889,43.67621],[-79.4719,43.67924],[-79.47495,43.68139],[-79.48672,43.68743],[-79.47039,43.69122],[-79.4646,43.69215],[-79.46541,43.69379],[-79.46848,43.70469],[-79.47253,43.72487],[-79.49025,43.72052],[-79.49977,43.71879],[-79.52669,43.71556],[-79.53783,43.71299]]]},"properties":{"name":"York South—Weston—Etobicoke","lp":[-79.50033,43.70003]}}
]}