{"type":"FeatureCollection", "features": [
{"type":"Feature","geometry":{"type":"LineString","coordinates":[[-79.3803,43.64445],[-79.39963,43.64045],[-79.40501,43.63972],[-79.40969,43.6385],[-79.42623,43.63397],[-79.42961,43.63337],[-79.4321,43.63334],[-79.43527,43.6338],[-79.43688,43.63428],[-79.44355,43.6371],[-79.4451,43.63766],[-79.44838,43.63851],[-79.45091,43.63894],[-79.4545,43.63924],[-79.45883,43.63909],[-79.46233,43.63844],[-79.46574,43.63737],[-79.47213,43.63459],[-79.47558,43.63254],[-79.48248,43.62737],[-79.49497,43.61789],[-79.49868,43.61549],[-79.50177,43.61367],[-79.54593,43.59173],[-79.54796,43.59063],[-79.55235,43.5877],[-79.55501,43.58547],[-79.57083,43.57093],[-79.57214,43.56977],[-79.58699,43.55616],[-79.60779,43.53705],[-79.63765,43.50955],[-79.64065,43.50667],[-79.64219,43.5049],[-79.65431,43.48953],[-79.65881,43.48374],[-79.66267,43.47893],[-79.6654,43.47532],[-79.67036,43.46904],[-79.67306,43.46576],[-79.67783,43.45965],[-79.67993,43.45734],[-79.69927,43.43879],[-79.72494,43.41417],[-79.73902,43.40063],[-79.75658,43.38377],[-79.75996,43.38069],[-79.76489,43.37585],[-79.78384,43.35765],[-79.78719,43.3549],[-79.78999,43.35303],[-79.80476,43.34395],[-79.80732,43.34233],[-79.84927,43.31651],[-79.87906,43.29816],[-79.88417,43.29491],[-79.88639,43.29276],[-79.89047,43.2862],[-79.89099,43.285],[-79.89087,43.28268],[-79.89042,43.28028],[-79.88947,43.27797],[-79.88676,43.27395],[-79.88439,43.2715],[-79.88309,43.27082],[-79.87771,43.26936],[-79.87438,43.26877],[-79.81662,43.2552],[-79.79943,43.25114],[-79.74715,43.23882],[-79.70735,43.22938],[-79.69583,43.22667],[-79.65784,43.21764],[-79.62434,43.2097],[-79.61391,43.20725],[-79.55428,43.19528],[-79.54018,43.19246],[-79.52692,43.18977],[-79.51439,43.18728],[-79.51286,43.18703],[-79.47908,43.18187],[-79.44594,43.17681],[-79.40466,43.17048],[-79.34997,43.1621],[-79.32716,43.15854],[-79.31784,43.15713],[-79.29727,43.15393],[-79.27626,43.1507],[-79.24413,43.14571],[-79.22049,43.14206],[-79.21959,43.14196],[-79.18834,43.13711],[-79.18508,43.13679],[-79.18269,43.13682],[-79.17948,43.13719],[-79.17405,43.13847],[-79.15458,43.14364],[-79.14886,43.14501],[-79.1455,43.14539],[-79.14325,43.1454],[-79.10748,43.14269],[-79.10322,43.1421],[-79.10001,43.14126],[-79.09599,43.13952],[-79.09227,43.13741],[-79.08902,43.13514],[-79.08667,43.13268],[-79.08543,43.13067],[-79.07644,43.11373],[-79.07518,43.11211],[-79.07281,43.11042],[-79.07003,43.10937],[-79.06759,43.10901],[-79.06423,43.10894]]},"properties":{"line":"Lakeshore West","name":"Lakeshore West","color":"#98002E","offset":-2,"to":"Niagara Falls"}},
{"type":"Feature","geometry":{"type":"LineString","coordinates":[[-79.38033,43.64452],[-79.38886,43.64278],[-79.39053,43.64242],[-79.39387,43.64174],[-79.39467,43.64158],[-79.39541,43.64144],[-79.39965,43.64069],[-79.40046,43.64059],[-79.40144,43.64048],[-79.40218,43.64039],[-79.40316,43.64029],[-79.40415,43.6402],[-79.40504,43.64015],[-79.40581,43.64014],[-79.40662,43.64013],[-79.40737,43.64012],[-79.40928,43.64016],[-79.42189,43.64058],[-79.42433,43.64089],[-79.42742,43.64186],[-79.43849,43.64698],[-79.44123,43.64849],[-79.44396,43.65061],[-79.44794,43.6546],[-79.45801,43.66492],[-79.45972,43.66622],[-79.46118,43.66683],[-79.46369,43.66721],[-79.47225,43.66728],[-79.47463,43.66723],[-79.50073,43.66572],[-79.50644,43.66542],[-79.50876,43.66491],[-79.51072,43.66388],[-79.51632,43.65911],[-79.51784,43.65697],[-79.52022,43.65074],[-79.5214,43.64913],[-79.54375,43.63028],[-79.54505,43.62932],[-79.55899,43.6198],[-79.57049,43.61233],[-79.57465,43.60957],[-79.60022,43.59294],[-79.60236,43.59203],[-79.61425,43.5893],[-79.61716,43.58829],[-79.61985,43.58655],[-79.62856,43.57926],[-79.63501,43.57393],[-79.63799,43.57202],[-79.6403,43.57096],[-79.65296,43.56605],[-79.656,43.56527],[-79.65773,43.56513],[-79.66094,43.56541],[-79.67458,43.5682],[-79.67675,43.5691],[-79.69052,43.57648],[-79.69199,43.57701],[-79.69436,43.57715],[-79.69591,43.57682],[-79.7019,43.57504],[-79.70347,43.57472],[-79.70584,43.57486],[-79.70739,43.57538],[-79.71157,43.57754],[-79.71827,43.58237],[-79.71944,43.58333],[-79.72363,43.58783],[-79.72529,43.58917],[-79.72822,43.59052],[-79.73206,43.59157],[-79.7597,43.59937],[-79.76161,43.59974],[-79.7641,43.59982],[-79.76581,43.59963],[-79.77657,43.59783],[-79.77906,43.59732],[-79.78186,43.59613],[-79.78352,43.59492],[-79.81668,43.56494],[-79.84024,43.54361],[-79.85483,43.53036],[-79.85876,43.52694],[-79.86072,43.52584],[-79.8662,43.52371]]},"properties":{"line":"Milton","name":"Milton","color":"#F57F25","offset":-1,"to":"Milton"}},
{"type":"Feature","geometry":{"type":"LineString","coordinates":[[-79.38039,43.64466],[-79.38677,43.64326],[-79.39193,43.64218],[-79.39463,43.64162],[-79.39541,43.64148],[-79.39634,43.64137],[-79.39717,43.64125],[-79.39803,43.64107],[-79.39885,43.64088],[-79.39967,43.64073],[-79.40586,43.64017],[-79.42028,43.64062],[-79.42298,43.6408],[-79.42537,43.6413],[-79.42691,43.64184],[-79.43219,43.6442],[-79.439,43.64747],[-79.44068,43.6486],[-79.44236,43.65085],[-79.44374,43.65405],[-79.44915,43.66733],[-79.4504,43.66971],[-79.45218,43.67194],[-79.45509,43.67415],[-79.45599,43.67511],[-79.46124,43.68314],[-79.4618,43.68445],[-79.46277,43.68834],[-79.46346,43.69025],[-79.46522,43.69323],[-79.46634,43.69692],[-79.46854,43.70486],[-79.47011,43.71232],[-79.47279,43.72604],[-79.47737,43.74882],[-79.47892,43.75639],[-79.48388,43.78101],[-79.48459,43.78482],[-79.48536,43.78819],[-79.4869,43.7964],[-79.4893,43.80845],[-79.48972,43.80986],[-79.49096,43.8124],[-79.4933,43.81597],[-79.49458,43.8186],[-79.49512,43.82046],[-79.49938,43.8447],[-79.50043,43.84709],[-79.50584,43.85501],[-79.50646,43.85629],[-79.50695,43.85878],[-79.50781,43.86122],[-79.50896,43.86321],[-79.51684,43.8758],[-79.52246,43.88301],[-79.52386,43.88531],[-79.52424,43.88703],[-79.52472,43.89251],[-79.52439,43.89556],[-79.52557,43.90927],[-79.52632,43.91717],[-79.52718,43.92071],[-79.52868,43.92593],[-79.52887,43.92784],[-79.52833,43.92922],[-79.52752,43.93032],[-79.52618,43.93134],[-79.52481,43.93196],[-79.51901,43.93387],[-79.50346,43.93949],[-79.50209,43.9402],[-79.501,43.94117],[-79.48834,43.95956],[-79.48649,43.96107],[-79.48484,43.96186],[-79.48039,43.96292],[-79.47901,43.96342],[-79.47629,43.965],[-79.47438,43.96707],[-79.47267,43.97157],[-79.47226,43.97445],[-79.4713,43.97646],[-79.47009,43.97755],[-79.45803,43.98466],[-79.45662,43.98615],[-79.45606,43.98806],[-79.45602,43.98932],[-79.46212,44.00745],[-79.46386,44.01283],[-79.46402,44.01414],[-79.46438,44.02293],[-79.4636,44.02557],[-79.45791,44.03989],[-79.45425,44.05016],[-79.45425,44.0513],[-79.45509,44.0531],[-79.45825,44.05818],[-79.46013,44.0603],[-79.4609,44.062],[-79.4607,44.06342],[-79.45763,44.07008],[-79.45528,44.07283],[-79.45466,44.07418],[-79.45468,44.07542],[-79.45682,44.08464],[-79.45788,44.08627],[-79.46022,44.08754],[-79.46197,44.08778],[-79.47038,44.08849],[-79.47233,44.08876],[-79.47415,44.08931],[-79.47759,44.09077],[-79.47942,44.09133],[-79.49,44.09338],[-79.49184,44.0939],[-79.49337,44.09472],[-79.49437,44.09562],[-79.49786,44.09974],[-79.49984,44.10108],[-79.50328,44.10213],[-79.52078,44.10681],[-79.54384,44.11307],[-79.55301,44.11561],[-79.55544,44.1167],[-79.55689,44.11814],[-79.55765,44.12051],[-79.55715,44.12231],[-79.55335,44.1289],[-79.55305,44.13073],[-79.554,44.14229],[-79.55376,44.14498],[-79.55025,44.15891],[-79.54656,44.16625],[-79.5453,44.17018],[-79.54354,44.17635],[-79.54343,44.18281],[-79.54349,44.19329],[-79.54315,44.19507],[-79.54077,44.20094],[-79.53952,44.20437],[-79.53906,44.21143],[-79.53913,44.21269],[-79.53989,44.21479],[-79.54476,44.22207],[-79.55343,44.23532],[-79.55403,44.23644],[-79.55662,44.24561],[-79.55679,44.24703],[-79.55661,44.24869],[-79.55527,44.2573],[-79.55554,44.25967],[-79.55816,44.26642],[-79.55842,44.26784],[-79.55797,44.27048],[-79.55586,44.27565],[-79.55585,44.27783],[-79.55969,44.29316],[-79.56081,44.29536],[-79.56231,44.29658],[-79.5638,44.29724],[-79.57028,44.29945],[-79.5718,44.30013],[-79.57303,44.30107],[-79.57422,44.30279],[-79.5749,44.30526],[-79.5764,44.30732],[-79.57787,44.30828],[-79.58884,44.31436],[-79.59331,44.31769],[-79.5983,44.32173],[-79.60669,44.32841],[-79.62059,44.33957],[-79.62171,44.34155],[-79.62394,44.348],[-79.62455,44.349],[-79.62604,44.35039],[-79.63136,44.3541],[-79.64025,44.35914],[-79.65606,44.36821],[-79.65823,44.36939],[-79.66051,44.37039],[-79.66416,44.37117],[-79.68248,44.37332],[-79.68575,44.37327],[-79.68744,44.37347]]},"properties":{"line":"Barrie","name":"Barrie","color":"#003767","offset":0,"to":"Allandale Waterfront"}},
{"type":"Feature","geometry":{"type":"LineString","coordinates":[[-79.38036,43.64459],[-79.38886,43.64278],[-79.39053,43.64242],[-79.39144,43.64224],[-79.3924,43.64204],[-79.39335,43.64185],[-79.39431,43.64165],[-79.39507,43.6415],[-79.39601,43.64137],[-79.39686,43.64126],[-79.39864,43.64088],[-79.39938,43.64074],[-79.40034,43.6406],[-79.40109,43.64052],[-79.40187,43.64043],[-79.40362,43.64025],[-79.40454,43.64018],[-79.40544,43.64014],[-79.40702,43.64012],[-79.40784,43.64013],[-79.40869,43.64017],[-79.41876,43.64053],[-79.42137,43.64063],[-79.42299,43.64076],[-79.42387,43.6409],[-79.42482,43.6411],[-79.42574,43.64136],[-79.42663,43.64166],[-79.42731,43.64195],[-79.42795,43.64224],[-79.42873,43.6426],[-79.42949,43.64294],[-79.43106,43.64363],[-79.43813,43.64693],[-79.44015,43.64796],[-79.44078,43.64833],[-79.44134,43.64869],[-79.44188,43.64907],[-79.4424,43.64946],[-79.44304,43.64998],[-79.44354,43.65042],[-79.44414,43.65099],[-79.44458,43.65143],[-79.44515,43.65202],[-79.44572,43.65261],[-79.44629,43.6532],[-79.44687,43.65379],[-79.44802,43.65496],[-79.45024,43.65723],[-79.45073,43.65772],[-79.46904,43.67638],[-79.46965,43.67695],[-79.47028,43.67751],[-79.4709,43.67807],[-79.47138,43.67849],[-79.47197,43.67897],[-79.47446,43.68073],[-79.47502,43.68109],[-79.47579,43.68155],[-79.47656,43.68201],[-79.47735,43.68244],[-79.47795,43.68277],[-79.47876,43.68318],[-79.47938,43.68349],[-79.4802,43.68389],[-79.4816,43.68459],[-79.48225,43.68491],[-79.48287,43.68522],[-79.48882,43.68817],[-79.49348,43.69044],[-79.52018,43.70368],[-79.52234,43.70468],[-79.52633,43.70601],[-79.5305,43.70675],[-79.53397,43.70692],[-79.53646,43.70688],[-79.53994,43.70679],[-79.54069,43.70678],[-79.54318,43.70672],[-79.54417,43.7067],[-79.54492,43.70668],[-79.54567,43.70666],[-79.55738,43.70646],[-79.58762,43.70586],[-79.59121,43.70582],[-79.59465,43.70618],[-79.59705,43.70616],[-79.60067,43.70561],[-79.61317,43.70533],[-79.63687,43.70485],[-79.67358,43.70413],[-79.67993,43.70371],[-79.68163,43.70344],[-79.6966,43.70042],[-79.69904,43.69998],[-79.71485,43.69681],[-79.75056,43.6896],[-79.75231,43.68929],[-79.7725,43.68519],[-79.7812,43.68346],[-79.83406,43.67275],[-79.83576,43.67245],[-79.87482,43.66451],[-79.9195,43.65542],[-79.92475,43.65428],[-79.93042,43.65317],[-79.98003,43.637],[-79.98336,43.63577],[-79.99885,43.62926],[-80.00063,43.62861],[-80.00323,43.62802],[-80.0057,43.62781],[-80.00768,43.62786],[-80.01119,43.62844],[-80.03472,43.63398],[-80.03892,43.63428],[-80.0424,43.63414],[-80.05099,43.63304],[-80.0765,43.62971],[-80.10578,43.62591],[-80.14663,43.62056],[-80.14999,43.61984],[-80.15312,43.61851],[-80.155,43.61725],[-80.15667,43.6157],[-80.16056,43.6111],[-80.17788,43.59075],[-80.18393,43.58371],[-80.18743,43.58043],[-80.20739,43.56444],[-80.2116,43.56139],[-80.21384,43.56026],[-80.21672,43.55921],[-80.2186,43.55873],[-80.22729,43.557],[-80.22915,43.55654],[-80.23228,43.55543],[-80.23587,43.55349],[-80.2371,43.5526],[-80.24234,43.54832],[-80.24754,43.54341],[-80.24871,43.54254],[-80.25724,43.53826],[-80.26172,43.53639],[-80.26557,43.53505],[-80.27507,43.53202],[-80.28933,43.52658],[-80.31866,43.51521],[-80.36618,43.49681],[-80.37109,43.49487],[-80.40003,43.48369],[-80.40532,43.48217],[-80.428,43.47709],[-80.43232,43.47597],[-80.46049,43.46662],[-80.46137,43.46636],[-80.49249,43.45601]]},"properties":{"line":"Kitchener","name":"Kitchener","color":"#00853E","offset":1,"to":"Kitchener"}},
{"type":"Feature","geometry":{"type":"LineString","coordinates":[[-79.38369,43.64415],[-79.38677,43.64326],[-79.39193,43.64218],[-79.39531,43.6415],[-79.39605,43.6414],[-79.39688,43.6413],[-79.39775,43.64113],[-79.3987,43.64092],[-79.3995,43.64075],[-79.40309,43.64031],[-79.40407,43.64021],[-79.40482,43.64016],[-79.40581,43.64014],[-79.40869,43.64017],[-79.41876,43.64053],[-79.42137,43.64063],[-79.42299,43.64076],[-79.42387,43.6409],[-79.42466,43.64106],[-79.42548,43.64128],[-79.42626,43.64153],[-79.42695,43.64179],[-79.42762,43.64209],[-79.42839,43.64244],[-79.42922,43.64282],[-79.43013,43.64322],[-79.43125,43.64371],[-79.43813,43.64693],[-79.43957,43.64764],[-79.44017,43.64797],[-79.44083,43.64836],[-79.44147,43.64878],[-79.44203,43.64918],[-79.44255,43.64957],[-79.44304,43.64998],[-79.44352,43.6504],[-79.44398,43.65083],[-79.44459,43.65144],[-79.44586,43.65276],[-79.44776,43.6547],[-79.45024,43.65723],[-79.45073,43.65772],[-79.46435,43.6716],[-79.46665,43.67387],[-79.46797,43.67526],[-79.46854,43.67585],[-79.4691,43.67644],[-79.46971,43.67701],[-79.47034,43.67756],[-79.47097,43.67812],[-79.47161,43.67867],[-79.4721,43.67908],[-79.47264,43.67946],[-79.47336,43.67996],[-79.47407,43.68045],[-79.47461,43.68083],[-79.47537,43.68129],[-79.47613,43.68176],[-79.47691,43.6822],[-79.47767,43.68262],[-79.47941,43.68351],[-79.48109,43.68434],[-79.48266,43.68511],[-79.48922,43.68836],[-79.49304,43.69022],[-79.49478,43.69109],[-79.49818,43.69285],[-79.51369,43.70062],[-79.52197,43.7046],[-79.52439,43.70552],[-79.5279,43.70643],[-79.53057,43.70683],[-79.53503,43.70698],[-79.5402,43.70686],[-79.54166,43.70679],[-79.54282,43.70676],[-79.54464,43.70668],[-79.54648,43.70661],[-79.5581,43.70642],[-79.56215,43.70631],[-79.57824,43.70601],[-79.57912,43.70595],[-79.60198,43.70551],[-79.60917,43.7054],[-79.61333,43.70515],[-79.61447,43.70428],[-79.61403,43.70323],[-79.61117,43.70076],[-79.61074,43.70014],[-79.60986,43.6977],[-79.61017,43.69647],[-79.61226,43.69374],[-79.6137,43.68872],[-79.61428,43.68747],[-79.61565,43.68578],[-79.61553,43.68462],[-79.6134,43.6829]]},"properties":{"line":"UP","name":"UP Express","color":"#1F4E9C","offset":2,"to":"Pearson Airport"}},
{"type":"Feature","geometry":{"type":"LineString","coordinates":[[-79.3803,43.64445],[-79.37731,43.64509],[-79.37217,43.646],[-79.36345,43.64785],[-79.3611,43.64843],[-79.35658,43.64995],[-79.35509,43.65059],[-79.35429,43.65102],[-79.35349,43.65145],[-79.35269,43.65188],[-79.35189,43.65231],[-79.35114,43.65271],[-79.35049,43.65306],[-79.34971,43.6535],[-79.34911,43.65383],[-79.34855,43.65419],[-79.34785,43.6547],[-79.34737,43.65512],[-79.34694,43.65557],[-79.3466,43.65606],[-79.34632,43.65657],[-79.3461,43.65709],[-79.34582,43.65816],[-79.34524,43.66243],[-79.34456,43.66417],[-79.34312,43.66665],[-79.34072,43.66927],[-79.34016,43.66975],[-79.33965,43.67015],[-79.33913,43.67054],[-79.33858,43.67091],[-79.33802,43.67127],[-79.33741,43.67163],[-79.33666,43.67204],[-79.33603,43.67235],[-79.33519,43.67273],[-79.33439,43.67307],[-79.33368,43.67336],[-79.33215,43.67397],[-79.32977,43.67491],[-79.30852,43.68324],[-79.30355,43.68514],[-79.29879,43.68662],[-79.28003,43.69094],[-79.2785,43.69133],[-79.2769,43.69184],[-79.27464,43.69276],[-79.27194,43.69422],[-79.26955,43.696],[-79.26727,43.69847],[-79.25941,43.71027],[-79.2591,43.71077],[-79.25872,43.7114],[-79.25838,43.71191],[-79.25805,43.7124],[-79.25655,43.71467],[-79.25579,43.7158],[-79.25324,43.71965],[-79.25211,43.72133],[-79.25007,43.72442],[-79.2475,43.72826],[-79.24564,43.73045],[-79.24402,43.73188],[-79.24152,43.73357],[-79.22995,43.74082],[-79.22637,43.74323],[-79.22415,43.74502],[-79.2217,43.74726],[-79.21918,43.74876],[-79.21411,43.75021],[-79.21095,43.75129],[-79.20731,43.75284],[-79.20384,43.75384],[-79.16537,43.76128],[-79.16277,43.76185],[-79.15007,43.76508],[-79.14847,43.76558],[-79.14619,43.76666],[-79.13946,43.77094],[-79.13726,43.77275],[-79.13518,43.7749],[-79.12307,43.78787],[-79.12207,43.78912],[-79.11768,43.79517],[-79.11614,43.79802],[-79.11539,43.80103],[-79.11487,43.80839],[-79.11427,43.81209],[-79.11327,43.81448],[-79.11139,43.81715],[-79.10953,43.819],[-79.10654,43.8211],[-79.09858,43.82511],[-79.09592,43.82671],[-79.09132,43.82857],[-79.08271,43.8325],[-79.07819,43.83474],[-79.07303,43.83691],[-79.06965,43.83844],[-79.06411,43.84119],[-79.05743,43.84428],[-79.05546,43.8451],[-79.05145,43.8462],[-79.04461,43.84755],[-78.99406,43.85889],[-78.96116,43.86624],[-78.95675,43.86673],[-78.95216,43.86655],[-78.94193,43.86543],[-78.93568,43.86438],[-78.93101,43.86369],[-78.92145,43.86243],[-78.91793,43.86202],[-78.91479,43.86196],[-78.91133,43.86228],[-78.90707,43.86327],[-78.89478,43.86745],[-78.88511,43.87084]]},"properties":{"line":"Lakeshore East","name":"Lakeshore East","color":"#FF0D00","offset":1,"to":"Durham College Oshawa"}},
{"type":"Feature","geometry":{"type":"LineString","coordinates":[[-79.38032,43.64452],[-79.37722,43.64518],[-79.37221,43.64602],[-79.36255,43.64809],[-79.3607,43.6486],[-79.35641,43.65005],[-79.35554,43.6504],[-79.35469,43.65085],[-79.35397,43.6512],[-79.35323,43.65158],[-79.35165,43.65243],[-79.35086,43.65286],[-79.35013,43.65326],[-79.34934,43.6537],[-79.34876,43.65405],[-79.34805,43.65455],[-79.34754,43.65496],[-79.34705,43.65543],[-79.34667,43.65594],[-79.34633,43.65657],[-79.3461,43.6571],[-79.34582,43.65818],[-79.34524,43.66243],[-79.34456,43.66417],[-79.34313,43.66664],[-79.34072,43.66927],[-79.34018,43.66973],[-79.33961,43.67018],[-79.33901,43.67062],[-79.33843,43.67101],[-79.33768,43.67148],[-79.33689,43.67192],[-79.33607,43.67233],[-79.33541,43.67264],[-79.33459,43.67299],[-79.33373,43.67334],[-79.33307,43.6736],[-79.3324,43.67387],[-79.32977,43.67491],[-79.30359,43.68518],[-79.29962,43.68652],[-79.28137,43.69067],[-79.27854,43.69136],[-79.27695,43.69187],[-79.27468,43.6928],[-79.27318,43.69357],[-79.26962,43.69604],[-79.26697,43.69898],[-79.26396,43.70349],[-79.26289,43.70512],[-79.26105,43.70787],[-79.26041,43.70885],[-79.25966,43.70998],[-79.25933,43.71047],[-79.2589,43.71112],[-79.25847,43.71176],[-79.25816,43.71226],[-79.25776,43.71292],[-79.25735,43.71357],[-79.25706,43.71407],[-79.25521,43.717],[-79.25317,43.71998],[-79.25289,43.72111],[-79.25308,43.72218],[-79.25426,43.72462],[-79.25512,43.72563],[-79.25699,43.72683],[-79.25909,43.72759],[-79.26033,43.72833],[-79.26119,43.7294],[-79.26315,43.73371],[-79.26444,43.73696],[-79.2686,43.74672],[-79.26988,43.74992],[-79.27017,43.75125],[-79.27581,43.76598],[-79.27665,43.76843],[-79.2797,43.77609],[-79.28047,43.77828],[-79.28244,43.78281],[-79.28395,43.78527],[-79.28614,43.79053],[-79.2907,43.80116],[-79.29277,43.80419],[-79.29617,43.81141],[-79.30244,43.82523],[-79.3032,43.82636],[-79.31104,43.83457],[-79.31322,43.83674],[-79.31428,43.83855],[-79.315,43.84093],[-79.31566,43.84391],[-79.31575,43.84517],[-79.31526,43.84775],[-79.31358,43.86037],[-79.31323,43.86225],[-79.31192,43.86394],[-79.31054,43.8647],[-79.30244,43.86813],[-79.30025,43.86932],[-79.29815,43.87085],[-79.2959,43.87191],[-79.28205,43.87569],[-79.27947,43.87635],[-79.26589,43.87958],[-79.2639,43.88064],[-79.26301,43.88177],[-79.2622,43.88361],[-79.26078,43.88522],[-79.26025,43.88629],[-79.26028,43.88737],[-79.26309,43.8958],[-79.26325,43.89819],[-79.26247,43.90418],[-79.26235,43.90591],[-79.26312,43.90888],[-79.26306,43.91006],[-79.26254,43.91112],[-79.2591,43.91504],[-79.25837,43.91618],[-79.25755,43.92063],[-79.25539,43.92437],[-79.25514,43.9262],[-79.25608,43.92789],[-79.25671,43.92978],[-79.25676,43.93093],[-79.2558,43.93271],[-79.25274,43.93579],[-79.25219,43.93686],[-79.25198,43.93877],[-79.252,43.94379],[-79.25174,43.94722],[-79.2505,43.95045],[-79.25022,43.95228],[-79.25097,43.9575],[-79.25098,43.95887],[-79.25005,43.97259],[-79.24966,43.9757],[-79.24917,43.97691],[-79.24384,43.98306],[-79.24322,43.98362],[-79.2404,43.9851],[-79.2395,43.98618],[-79.23866,43.98806],[-79.237,43.991]]},"properties":{"line":"Stouffville","name":"Stouffville","color":"#794500","offset":0,"to":"Old Elm"}},
{"type":"Feature","geometry":{"type":"LineString","coordinates":[[-79.38035,43.64459],[-79.37727,43.64524],[-79.37163,43.64619],[-79.36376,43.64786],[-79.36124,43.64847],[-79.35643,43.65008],[-79.35213,43.65227],[-79.35091,43.65367],[-79.35138,43.65483],[-79.35419,43.65724],[-79.35487,43.65821],[-79.35682,43.66471],[-79.35807,43.66848],[-79.35901,43.66952],[-79.36199,43.67194],[-79.364,43.67442],[-79.36478,43.67612],[-79.36713,43.67916],[-79.36759,43.68095],[-79.36638,43.68235],[-79.36353,43.6838],[-79.36243,43.68472],[-79.36213,43.68581],[-79.36275,43.68752],[-79.36266,43.68871],[-79.36084,43.69092],[-79.36002,43.693],[-79.35693,43.69689],[-79.35468,43.69862],[-79.35147,43.6999],[-79.34952,43.70019],[-79.3478,43.70003],[-79.34504,43.69923],[-79.34307,43.69929],[-79.34168,43.69978],[-79.33468,43.70482],[-79.33315,43.70573],[-79.33001,43.70719],[-79.32558,43.70952],[-79.32092,43.71115],[-79.32002,43.71204],[-79.31967,43.71436],[-79.31983,43.71561],[-79.32236,43.72091],[-79.32282,43.72209],[-79.32274,43.72351],[-79.32064,43.72811],[-79.32097,43.72972],[-79.32225,43.73048],[-79.32485,43.73098],[-79.3263,43.73169],[-79.32887,43.73339],[-79.33197,43.7343],[-79.33329,43.73498],[-79.33392,43.73616],[-79.33422,43.7381],[-79.33634,43.74115],[-79.33741,43.7422],[-79.33885,43.7426],[-79.34219,43.74276],[-79.34413,43.74301],[-79.34596,43.74357],[-79.34755,43.74441],[-79.34972,43.74659],[-79.35492,43.75314],[-79.36719,43.76872],[-79.36816,43.77043],[-79.36876,43.77364],[-79.3685,43.77488],[-79.36702,43.77864],[-79.36708,43.78047],[-79.36742,43.78185],[-79.37348,43.79859],[-79.37422,43.79992],[-79.37661,43.80329],[-79.37927,43.80578],[-79.38501,43.81067],[-79.39263,43.81802],[-79.39467,43.82006],[-79.39845,43.82359],[-79.40121,43.82519],[-79.40299,43.82577],[-79.41043,43.82725],[-79.41199,43.8278],[-79.41429,43.82944],[-79.4215,43.83624],[-79.42696,43.84261],[-79.42777,43.84426],[-79.42909,43.8503],[-79.42868,43.85497],[-79.42843,43.85622],[-79.42517,43.86786],[-79.42515,43.86913],[-79.42592,43.8725],[-79.42685,43.87585],[-79.42972,43.87902],[-79.43344,43.88434],[-79.43428,43.88622],[-79.43449,43.88746],[-79.43419,43.8896],[-79.43129,43.89849],[-79.42793,43.90907],[-79.42736,43.91031],[-79.4262,43.91189],[-79.41743,43.91915],[-79.41324,43.92462],[-79.41201,43.92574],[-79.40766,43.92869],[-79.4069,43.92963],[-79.40569,43.93199],[-79.40381,43.93329],[-79.39992,43.93463],[-79.39854,43.9354],[-79.39779,43.93634],[-79.39759,43.93795],[-79.39988,43.94365],[-79.40034,43.9456],[-79.40044,43.95643],[-79.40032,43.9577],[-79.39971,43.95887],[-79.39491,43.96401],[-79.39416,43.96577],[-79.39461,43.9669],[-79.39717,43.97083],[-79.39754,43.97201],[-79.39728,43.97595]]},"properties":{"line":"Richmond Hill","name":"Richmond Hill","color":"#0099C7","offset":-1,"to":"Bloomington"}}
]}