{"type":"FeatureCollection","features":[{"type":"Feature","properties":{"name":"Union Station","lines":["Barrie","Kitchener","Lakeshore East","Lakeshore West","Milton","Richmond Hill","Stouffville","UP Express"],"hub":true},"geometry":{"type":"Point","coordinates":[-79.38192,43.64433]}},{"type":"Feature","properties":{"name":"Downsview Park GO","lines":["Barrie"],"hub":false},"geometry":{"type":"Point","coordinates":[-79.47836,43.75363]}},{"type":"Feature","properties":{"name":"Rutherford GO","lines":["Barrie"],"hub":false},"geometry":{"type":"Point","coordinates":[-79.49831,43.83853]}},{"type":"Feature","properties":{"name":"Maple GO","lines":["Barrie"],"hub":false},"geometry":{"type":"Point","coordinates":[-79.50713,43.85946]}},{"type":"Feature","properties":{"name":"King City GO","lines":["Barrie"],"hub":false},"geometry":{"type":"Point","coordinates":[-79.52701,43.92002]}},{"type":"Feature","properties":{"name":"Aurora GO","lines":["Barrie"],"hub":false},"geometry":{"type":"Point","coordinates":[-79.45986,44.00073]}},{"type":"Feature","properties":{"name":"Newmarket GO","lines":["Barrie"],"hub":false},"geometry":{"type":"Point","coordinates":[-79.45997,44.06012]}},{"type":"Feature","properties":{"name":"East Gwillimbury GO","lines":["Barrie"],"hub":false},"geometry":{"type":"Point","coordinates":[-79.4553,44.07805]}},{"type":"Feature","properties":{"name":"Bradford GO","lines":["Barrie"],"hub":false},"geometry":{"type":"Point","coordinates":[-79.55528,44.1166]}},{"type":"Feature","properties":{"name":"Barrie South GO","lines":["Barrie"],"hub":false},"geometry":{"type":"Point","coordinates":[-79.62727,44.35125]}},{"type":"Feature","properties":{"name":"Allandale Waterfront GO","lines":["Barrie"],"hub":false},"geometry":{"type":"Point","coordinates":[-79.68744,44.37347]}},{"type":"Feature","properties":{"name":"Bloor GO","lines":["Kitchener","UP Express"],"hub":false},"geometry":{"type":"Point","coordinates":[-79.45003,43.65701]}},{"type":"Feature","properties":{"name":"Mount Dennis GO","lines":["Kitchener","UP Express"],"hub":false},"geometry":{"type":"Point","coordinates":[-79.48717,43.68735]}},{"type":"Feature","properties":{"name":"Weston GO","lines":["Kitchener","UP Express"],"hub":false},"geometry":{"type":"Point","coordinates":[-79.51357,43.70041]}},{"type":"Feature","properties":{"name":"Etobicoke North GO","lines":["Kitchener"],"hub":false},"geometry":{"type":"Point","coordinates":[-79.56351,43.70632]}},{"type":"Feature","properties":{"name":"Malton GO","lines":["Kitchener"],"hub":false},"geometry":{"type":"Point","coordinates":[-79.63822,43.70483]}},{"type":"Feature","properties":{"name":"Bramalea GO","lines":["Kitchener"],"hub":false},"geometry":{"type":"Point","coordinates":[-79.68866,43.70203]}},{"type":"Feature","properties":{"name":"Brampton Innovation District GO","lines":["Kitchener"],"hub":false},"geometry":{"type":"Point","coordinates":[-79.76296,43.68714]}},{"type":"Feature","properties":{"name":"Mount Pleasant GO","lines":["Kitchener"],"hub":false},"geometry":{"type":"Point","coordinates":[-79.82225,43.67515]}},{"type":"Feature","properties":{"name":"Georgetown GO","lines":["Kitchener"],"hub":false},"geometry":{"type":"Point","coordinates":[-79.91911,43.6555]}},{"type":"Feature","properties":{"name":"Acton GO","lines":["Kitchener"],"hub":false},"geometry":{"type":"Point","coordinates":[-80.03409,43.63384]}},{"type":"Feature","properties":{"name":"Guelph Central GO","lines":["Kitchener"],"hub":false},"geometry":{"type":"Point","coordinates":[-80.24668,43.54422]}},{"type":"Feature","properties":{"name":"Kitchener GO","lines":["Kitchener"],"hub":false},"geometry":{"type":"Point","coordinates":[-80.49317,43.45575]}},{"type":"Feature","properties":{"name":"Danforth GO","lines":["Lakeshore East"],"hub":false},"geometry":{"type":"Point","coordinates":[-79.30024,43.68624]}},{"type":"Feature","properties":{"name":"Scarborough GO","lines":["Lakeshore East"],"hub":false},"geometry":{"type":"Point","coordinates":[-79.25498,43.71703]}},{"type":"Feature","properties":{"name":"Eglinton GO","lines":["Lakeshore East"],"hub":false},"geometry":{"type":"Point","coordinates":[-79.23212,43.73946]}},{"type":"Feature","properties":{"name":"Guildwood GO","lines":["Lakeshore East"],"hub":false},"geometry":{"type":"Point","coordinates":[-79.19813,43.75495]}},{"type":"Feature","properties":{"name":"Rouge Hill GO","lines":["Lakeshore East"],"hub":false},"geometry":{"type":"Point","coordinates":[-79.13025,43.78018]}},{"type":"Feature","properties":{"name":"Pickering GO","lines":["Lakeshore East"],"hub":false},"geometry":{"type":"Point","coordinates":[-79.08462,43.83161]}},{"type":"Feature","properties":{"name":"Ajax GO","lines":["Lakeshore East"],"hub":false},"geometry":{"type":"Point","coordinates":[-79.04157,43.84823]}},{"type":"Feature","properties":{"name":"Whitby GO","lines":["Lakeshore East"],"hub":false},"geometry":{"type":"Point","coordinates":[-78.93819,43.8648]}},{"type":"Feature","properties":{"name":"Durham College Oshawa GO","lines":["Lakeshore East"],"hub":false},"geometry":{"type":"Point","coordinates":[-78.88511,43.87084]}},{"type":"Feature","properties":{"name":"Clarkson GO","lines":["Lakeshore West"],"hub":false},"geometry":{"type":"Point","coordinates":[-79.63355,43.51333]}},{"type":"Feature","properties":{"name":"Oakville GO","lines":["Lakeshore West"],"hub":false},"geometry":{"type":"Point","coordinates":[-79.68193,43.45542]}},{"type":"Feature","properties":{"name":"Bronte GO","lines":["Lakeshore West"],"hub":false},"geometry":{"type":"Point","coordinates":[-79.72225,43.41675]}},{"type":"Feature","properties":{"name":"Appleby GO","lines":["Lakeshore West"],"hub":false},"geometry":{"type":"Point","coordinates":[-79.76116,43.37952]}},{"type":"Feature","properties":{"name":"Burlington GO","lines":["Lakeshore West"],"hub":false},"geometry":{"type":"Point","coordinates":[-79.8091,43.34123]}},{"type":"Feature","properties":{"name":"Aldershot GO","lines":["Lakeshore West"],"hub":false},"geometry":{"type":"Point","coordinates":[-79.85511,43.31292]}},{"type":"Feature","properties":{"name":"Hamilton GO Centre","lines":["Lakeshore West"],"hub":false},"geometry":{"type":"Point","coordinates":[-79.86929,43.25308]}},{"type":"Feature","properties":{"name":"Exhibition GO","lines":["Lakeshore West"],"hub":false},"geometry":{"type":"Point","coordinates":[-79.41912,43.63592]}},{"type":"Feature","properties":{"name":"Mimico GO","lines":["Lakeshore West"],"hub":false},"geometry":{"type":"Point","coordinates":[-79.49753,43.61623]}},{"type":"Feature","properties":{"name":"Long Branch GO","lines":["Lakeshore West"],"hub":false},"geometry":{"type":"Point","coordinates":[-79.54635,43.59151]}},{"type":"Feature","properties":{"name":"Port Credit GO","lines":["Lakeshore West"],"hub":false},"geometry":{"type":"Point","coordinates":[-79.58705,43.5561]}},{"type":"Feature","properties":{"name":"West Harbour GO","lines":["Lakeshore West"],"hub":false},"geometry":{"type":"Point","coordinates":[-79.86625,43.26671]}},{"type":"Feature","properties":{"name":"Confederation GO","lines":["Lakeshore West"],"hub":false},"geometry":{"type":"Point","coordinates":[-79.76032,43.24189]}},{"type":"Feature","properties":{"name":"St. Catharines GO","lines":["Lakeshore West"],"hub":false},"geometry":{"type":"Point","coordinates":[-79.25497,43.1474]}},{"type":"Feature","properties":{"name":"Niagara Falls GO","lines":["Lakeshore West"],"hub":false},"geometry":{"type":"Point","coordinates":[-79.06423,43.10894]}},{"type":"Feature","properties":{"name":"Kipling GO","lines":["Milton"],"hub":false},"geometry":{"type":"Point","coordinates":[-79.53602,43.63679]}},{"type":"Feature","properties":{"name":"Dixie GO","lines":["Milton"],"hub":false},"geometry":{"type":"Point","coordinates":[-79.57744,43.60777]}},{"type":"Feature","properties":{"name":"Cooksville GO","lines":["Milton"],"hub":false},"geometry":{"type":"Point","coordinates":[-79.62394,43.58313]}},{"type":"Feature","properties":{"name":"Erindale GO","lines":["Milton"],"hub":false},"geometry":{"type":"Point","coordinates":[-79.66861,43.56697]}},{"type":"Feature","properties":{"name":"Streetsville GO","lines":["Milton"],"hub":false},"geometry":{"type":"Point","coordinates":[-79.70852,43.57591]}},{"type":"Feature","properties":{"name":"Meadowvale GO","lines":["Milton"],"hub":false},"geometry":{"type":"Point","coordinates":[-79.75419,43.59782]}},{"type":"Feature","properties":{"name":"Lisgar GO","lines":["Milton"],"hub":false},"geometry":{"type":"Point","coordinates":[-79.78827,43.59064]}},{"type":"Feature","properties":{"name":"Milton GO","lines":["Milton"],"hub":false},"geometry":{"type":"Point","coordinates":[-79.8662,43.5237]}},{"type":"Feature","properties":{"name":"Oriole GO","lines":["Richmond Hill"],"hub":false},"geometry":{"type":"Point","coordinates":[-79.36457,43.7654]}},{"type":"Feature","properties":{"name":"Old Cummer GO","lines":["Richmond Hill"],"hub":false},"geometry":{"type":"Point","coordinates":[-79.37168,43.79365]}},{"type":"Feature","properties":{"name":"Langstaff GO","lines":["Richmond Hill"],"hub":false},"geometry":{"type":"Point","coordinates":[-79.42343,43.83842]}},{"type":"Feature","properties":{"name":"Richmond Hill GO","lines":["Richmond Hill"],"hub":false},"geometry":{"type":"Point","coordinates":[-79.42642,43.87427]}},{"type":"Feature","properties":{"name":"Gormley GO","lines":["Richmond Hill"],"hub":false},"geometry":{"type":"Point","coordinates":[-79.39907,43.94161]}},{"type":"Feature","properties":{"name":"Bloomington GO","lines":["Richmond Hill"],"hub":false},"geometry":{"type":"Point","coordinates":[-79.39728,43.97595]}},{"type":"Feature","properties":{"name":"Kennedy GO","lines":["Stouffville"],"hub":false},"geometry":{"type":"Point","coordinates":[-79.26283,43.73302]}},{"type":"Feature","properties":{"name":"Agincourt GO","lines":["Stouffville"],"hub":false},"geometry":{"type":"Point","coordinates":[-79.28433,43.78612]}},{"type":"Feature","properties":{"name":"Milliken GO","lines":["Stouffville"],"hub":false},"geometry":{"type":"Point","coordinates":[-79.30154,43.82328]}},{"type":"Feature","properties":{"name":"Unionville GO","lines":["Stouffville"],"hub":false},"geometry":{"type":"Point","coordinates":[-79.31472,43.85172]}},{"type":"Feature","properties":{"name":"Centennial GO","lines":["Stouffville"],"hub":false},"geometry":{"type":"Point","coordinates":[-79.28927,43.87372]}},{"type":"Feature","properties":{"name":"Markham GO","lines":["Stouffville"],"hub":false},"geometry":{"type":"Point","coordinates":[-79.2626,43.88272]}},{"type":"Feature","properties":{"name":"Mount Joy GO","lines":["Stouffville"],"hub":false},"geometry":{"type":"Point","coordinates":[-79.26294,43.90051]}},{"type":"Feature","properties":{"name":"Stouffville GO","lines":["Stouffville"],"hub":false},"geometry":{"type":"Point","coordinates":[-79.25015,43.97093]}},{"type":"Feature","properties":{"name":"Old Elm GO","lines":["Stouffville"],"hub":false},"geometry":{"type":"Point","coordinates":[-79.23732,43.99046]}},{"type":"Feature","properties":{"name":"Pearson Airport (UP)","lines":["UP Express"],"hub":false},"geometry":{"type":"Point","coordinates":[-79.6134,43.6829]}}]}