{"type":"FeatureCollection","features":[{"type":"Feature","properties":{"route":"401","toll":false},"geometry":{"type":"Point","coordinates":[-79.95321,43.50876]}},{"type":"Feature","properties":{"route":"401","toll":false},"geometry":{"type":"Point","coordinates":[-79.68282,43.63058]}},{"type":"Feature","properties":{"route":"401","toll":false},"geometry":{"type":"Point","coordinates":[-78.97453,43.86452]}},{"type":"Feature","properties":{"route":"401","toll":false},"geometry":{"type":"Point","coordinates":[-78.54729,43.91846]}},{"type":"Feature","properties":{"route":"410","toll":false},"geometry":{"type":"Point","coordinates":[-79.74192,43.7084]}},{"type":"Feature","properties":{"route":"400","toll":false},"geometry":{"type":"Point","coordinates":[-79.57375,43.95213]}},{"type":"Feature","properties":{"route":"407","toll":true},"geometry":{"type":"Point","coordinates":[-78.71254,43.98549]}},{"type":"Feature","properties":{"route":"407","toll":true},"geometry":{"type":"Point","coordinates":[-79.12544,43.90958]}},{"type":"Feature","properties":{"route":"407","toll":true},"geometry":{"type":"Point","coordinates":[-79.52883,43.78503]}},{"type":"Feature","properties":{"route":"407","toll":true},"geometry":{"type":"Point","coordinates":[-79.75187,43.54323]}},{"type":"Feature","properties":{"route":"QEW","toll":false},"geometry":{"type":"Point","coordinates":[-79.63274,43.53827]}},{"type":"Feature","properties":{"route":"403","toll":false},"geometry":{"type":"Point","coordinates":[-79.89326,43.28239]}},{"type":"Feature","properties":{"route":"403","toll":false},"geometry":{"type":"Point","coordinates":[-79.70024,43.5513]}},{"type":"Feature","properties":{"route":"404","toll":false},"geometry":{"type":"Point","coordinates":[-79.38471,43.90408]}}]}