{"type":"FeatureCollection", "features": [
{"type":"Feature","geometry":{"type":"MultiLineString","coordinates":[[[-79.57386,43.66809],[-79.57419,43.66854],[-79.57477,43.66919],[-79.57557,43.66992],[-79.57625,43.67039],[-79.57691,43.67069],[-79.57796,43.67099],[-79.57902,43.67109],[-79.58027,43.67101],[-79.58132,43.67078],[-79.58393,43.67018],[-79.58453,43.67003],[-79.58528,43.66995],[-79.58594,43.66995],[-79.58671,43.67003],[-79.58698,43.67008],[-79.58733,43.67016],[-79.58806,43.67039],[-79.58842,43.67055],[-79.58955,43.67124],[-79.59046,43.672],[-79.59095,43.67253],[-79.59189,43.67381],[-79.59225,43.67468],[-79.59257,43.67655],[-79.59309,43.67935],[-79.59335,43.68018],[-79.59365,43.68074],[-79.59435,43.68157],[-79.59497,43.68209],[-79.59598,43.68273],[-79.59706,43.68326],[-79.59881,43.68415],[-79.59976,43.68478],[-79.60015,43.68511],[-79.6005,43.68545],[-79.60101,43.68609],[-79.60151,43.68676],[-79.60236,43.68808],[-79.60299,43.68927],[-79.60485,43.69285],[-79.60539,43.69381],[-79.60728,43.69698],[-79.60738,43.69712],[-79.61018,43.70145],[-79.61265,43.70536],[-79.61388,43.70736],[-79.61453,43.70844],[-79.61788,43.71409],[-79.61844,43.71505],[-79.62034,43.71838],[-79.62268,43.72251],[-79.62365,43.72423],[-79.62613,43.72855],[-79.62664,43.73006],[-79.62695,43.73142],[-79.62752,43.7341],[-79.62802,43.73679],[-79.62895,43.74099],[-79.62993,43.74561],[-79.63042,43.74818],[-79.63113,43.75164]],[[-79.57075,43.66171],[-79.57322,43.66766],[-79.57374,43.66878],[-79.57444,43.67031],[-79.57455,43.67051],[-79.57503,43.67103],[-79.57565,43.67152],[-79.57598,43.67171],[-79.57673,43.67204],[-79.57749,43.67226],[-79.57796,43.67234],[-79.57835,43.67238],[-79.57949,43.67238],[-79.58077,43.67222],[-79.58229,43.67204],[-79.58285,43.67197],[-79.58553,43.67162],[-79.58642,43.67156],[-79.5878,43.67167],[-79.58846,43.67181],[-79.58955,43.67224],[-79.59013,43.67262],[-79.59068,43.67308],[-79.59124,43.67373],[-79.59169,43.67453],[-79.59194,43.67513],[-79.59207,43.67576],[-79.59212,43.67627],[-79.59218,43.67665],[-79.59264,43.67907],[-79.59278,43.67956],[-79.59313,43.68043],[-79.59355,43.68114],[-79.59397,43.6816],[-79.59476,43.68231],[-79.59552,43.68279],[-79.59805,43.68401],[-79.59897,43.68451],[-79.59961,43.68503],[-79.6006,43.68612],[-79.60083,43.68642],[-79.60187,43.68795],[-79.60265,43.68936],[-79.60471,43.69342],[-79.60692,43.69706],[-79.60701,43.6972],[-79.60928,43.70079],[-79.60971,43.70144],[-79.61222,43.70538],[-79.61353,43.70747],[-79.61712,43.71353],[-79.62,43.71849],[-79.62258,43.72309],[-79.62401,43.72566],[-79.62465,43.72677],[-79.62583,43.72906],[-79.62617,43.72993],[-79.62645,43.73086],[-79.62714,43.73417],[-79.62766,43.73645],[-79.62824,43.7393],[-79.62922,43.74409],[-79.62956,43.74582],[-79.63008,43.74821],[-79.63081,43.75171]],[[-79.56835,43.65512],[-79.56902,43.6562],[-79.56999,43.65804],[-79.5707,43.65972],[-79.57153,43.66195],[-79.57217,43.66354],[-79.57287,43.66497],[-79.57367,43.66658],[-79.57383,43.667],[-79.57391,43.66767],[-79.57386,43.66809]],[[-79.57132,43.6622],[-79.57291,43.66611],[-79.57353,43.66747],[-79.57386,43.66809]],[[-79.56775,43.65565],[-79.57079,43.66254],[-79.57259,43.66681],[-79.57317,43.66828],[-79.57324,43.66868],[-79.57328,43.66934]],[[-79.57132,43.6622],[-79.57014,43.65888],[-79.56929,43.65694],[-79.56835,43.65512]],[[-79.56615,43.65128],[-79.56755,43.65418],[-79.5685,43.65593],[-79.56914,43.65727],[-79.57132,43.6622]],[[-79.56394,43.6473],[-79.5673,43.65425],[-79.56878,43.65709],[-79.56967,43.659],[-79.57075,43.66171]],[[-79.56775,43.65565],[-79.56869,43.65738],[-79.57075,43.66171]],[[-79.56369,43.6456],[-79.56475,43.64754],[-79.5653,43.64874],[-79.56635,43.65119],[-79.56678,43.6521],[-79.56781,43.65412],[-79.56835,43.65512]],[[-79.56659,43.6534],[-79.56775,43.65565]],[[-79.56394,43.6473],[-79.5643,43.64833],[-79.56659,43.6534]],[[-79.55968,43.63761],[-79.56032,43.63923],[-79.56146,43.64217],[-79.56291,43.64563],[-79.56384,43.64778],[-79.56468,43.64981],[-79.56659,43.6534]],[[-79.56615,43.65128],[-79.56486,43.64823],[-79.56369,43.6456]],[[-79.56085,43.63921],[-79.56234,43.64304],[-79.5634,43.64552],[-79.56463,43.64828],[-79.56615,43.65128]],[[-79.55998,43.63756],[-79.56079,43.63983],[-79.56315,43.64558],[-79.56394,43.6473]],[[-79.56047,43.63605],[-79.56092,43.63843],[-79.56133,43.63978],[-79.56185,43.64112],[-79.56363,43.64547],[-79.56369,43.6456]],[[-79.56085,43.63921],[-79.56004,43.63614],[-79.55984,43.6354],[-79.55954,43.63379]],[[-79.55788,43.63064],[-79.5598,43.63621],[-79.56085,43.63921]],[[-79.55821,43.63046],[-79.55908,43.63171],[-79.55997,43.6334],[-79.56031,43.63455],[-79.56046,43.63552],[-79.56047,43.63605]],[[-79.56047,43.63605],[-79.56002,43.63466],[-79.5598,43.63421],[-79.55954,43.63379]],[[-79.55269,43.61914],[-79.55291,43.61969],[-79.55437,43.62296],[-79.55677,43.62853],[-79.55806,43.63177],[-79.55959,43.63626],[-79.55998,43.63756]],[[-79.55851,43.634],[-79.55943,43.63629],[-79.55998,43.63756]],[[-79.55851,43.634],[-79.5588,43.63521],[-79.55919,43.63635],[-79.55968,43.63761]],[[-79.55746,43.63182],[-79.55774,43.63321],[-79.55832,43.63471],[-79.55908,43.63637],[-79.55968,43.63761]],[[-79.55954,43.63379],[-79.55938,43.63305],[-79.55918,43.63242],[-79.55821,43.63046]],[[-79.55954,43.63379],[-79.5586,43.63224],[-79.55806,43.63097],[-79.55788,43.63064]],[[-79.55746,43.63182],[-79.55805,43.63284],[-79.55851,43.634]],[[-79.55319,43.6187],[-79.55347,43.61957],[-79.55408,43.62107],[-79.55477,43.62264],[-79.5564,43.62626],[-79.55726,43.62841],[-79.55821,43.63046]],[[-79.55223,43.6172],[-79.55246,43.61794],[-79.55316,43.61963],[-79.55456,43.62278],[-79.55609,43.62628],[-79.55698,43.62848],[-79.55788,43.63064]],[[-79.55139,43.61765],[-79.55209,43.61861],[-79.55239,43.61914],[-79.55265,43.61976],[-79.55348,43.62159],[-79.55413,43.62308],[-79.55505,43.62521],[-79.55579,43.62694],[-79.55609,43.62784],[-79.55629,43.62866],[-79.55655,43.62963],[-79.55702,43.63104],[-79.55746,43.63182]],[[-79.55223,43.6172],[-79.55217,43.61694],[-79.55169,43.6152],[-79.55154,43.61451],[-79.55148,43.61398],[-79.55153,43.61352],[-79.55168,43.61302],[-79.55199,43.61249],[-79.55248,43.6119],[-79.5547,43.60978],[-79.55513,43.60928]],[[-79.55463,43.60939],[-79.55179,43.61152],[-79.55118,43.61212],[-79.55085,43.61262],[-79.55071,43.61292],[-79.55057,43.61351],[-79.55059,43.61411]],[[-79.55059,43.61411],[-79.55066,43.61457],[-79.55088,43.61537],[-79.55157,43.61682],[-79.55235,43.61836],[-79.55269,43.61914]],[[-79.53641,43.61595],[-79.53714,43.61589],[-79.53972,43.6155],[-79.54536,43.6148],[-79.54782,43.61465],[-79.54839,43.61468],[-79.54892,43.61477],[-79.54932,43.61489],[-79.54961,43.61501],[-79.55015,43.61534],[-79.55034,43.61548],[-79.55063,43.6158],[-79.5512,43.61662],[-79.55185,43.61764],[-79.55269,43.61914]],[[-79.55223,43.6172],[-79.55204,43.61694],[-79.55145,43.61525],[-79.5511,43.61459],[-79.55059,43.61411]],[[-79.55059,43.61411],[-79.55011,43.61382],[-79.54944,43.61357],[-79.54907,43.6135],[-79.54875,43.61345]],[[-79.54914,43.61325],[-79.54875,43.61345]],[[-79.54914,43.61325],[-79.54916,43.61287],[-79.54944,43.61204],[-79.54965,43.61179],[-79.54988,43.61169],[-79.55022,43.61167],[-79.5505,43.61176],[-79.55073,43.612],[-79.55073,43.61228],[-79.55052,43.61252],[-79.54914,43.61325]],[[-79.54875,43.61345],[-79.54778,43.61347],[-79.5471,43.61356],[-79.54484,43.61412],[-79.54207,43.61473],[-79.54013,43.61505]],[[-79.54875,43.61345],[-79.54867,43.61347],[-79.54738,43.61396],[-79.54579,43.61437]]]},"properties":{"route":"427","name":"Highway 427","kind":"provincial"}},
{"type":"Feature","geometry":{"type":"MultiLineString","coordinates":[[[-79.59119,43.66877],[-79.58877,43.66965],[-79.58733,43.67016],[-79.58439,43.67125],[-79.58318,43.6718],[-79.58285,43.67197],[-79.58217,43.67236],[-79.58118,43.67303],[-79.58057,43.67349],[-79.57995,43.67405],[-79.57938,43.67467],[-79.57856,43.67566],[-79.57823,43.67616],[-79.57803,43.67657],[-79.57651,43.67941],[-79.57528,43.68178],[-79.57441,43.68351],[-79.57246,43.68689],[-79.57034,43.69052],[-79.56945,43.69187],[-79.56858,43.693],[-79.5665,43.69538],[-79.56157,43.70092],[-79.55854,43.70434]],[[-79.59109,43.66859],[-79.58898,43.66937],[-79.58698,43.67008],[-79.58669,43.67017],[-79.58378,43.67127],[-79.58332,43.6715],[-79.58229,43.67204],[-79.5816,43.67246],[-79.58027,43.67345],[-79.57934,43.67432],[-79.57849,43.67536],[-79.57777,43.67645],[-79.57742,43.6771],[-79.57631,43.67926],[-79.57549,43.6808],[-79.57505,43.6816],[-79.57406,43.68348],[-79.5718,43.68736],[-79.5702,43.69019],[-79.56901,43.69196],[-79.56806,43.69317],[-79.56536,43.69616],[-79.56144,43.70064]],[[-79.56144,43.70064],[-79.56061,43.7014],[-79.55977,43.70231],[-79.55765,43.70438],[-79.55583,43.70608],[-79.55544,43.70649],[-79.55373,43.70815],[-79.55318,43.70856],[-79.55219,43.70914],[-79.55101,43.70951],[-79.54741,43.71036],[-79.54201,43.71162],[-79.53859,43.71245],[-79.53605,43.71305],[-79.53369,43.7136],[-79.52979,43.71448],[-79.52835,43.71478],[-79.52639,43.71518],[-79.5249,43.71545],[-79.52325,43.71565],[-79.5202,43.71601],[-79.5187,43.71619],[-79.51804,43.71628],[-79.51797,43.71628],[-79.51019,43.71714],[-79.50767,43.71738],[-79.50643,43.71748]],[[-79.56144,43.70064],[-79.55729,43.70531],[-79.55552,43.70731],[-79.55498,43.70779],[-79.55431,43.7083],[-79.55308,43.70899],[-79.55226,43.70931],[-79.55048,43.70981],[-79.53855,43.71265],[-79.53785,43.71281],[-79.53613,43.71323],[-79.52972,43.71471],[-79.52815,43.71505],[-79.52651,43.71545],[-79.52431,43.7158],[-79.52034,43.71621],[-79.51819,43.71644],[-79.51809,43.71645],[-79.50772,43.71761],[-79.50646,43.71774]],[[-79.55854,43.70434],[-79.55778,43.70517],[-79.55659,43.70648],[-79.5557,43.70745],[-79.55485,43.70815],[-79.55364,43.7089],[-79.55232,43.70948],[-79.55092,43.70988],[-79.54263,43.71186],[-79.53853,43.71283],[-79.53618,43.71339],[-79.52966,43.7149],[-79.52657,43.71559],[-79.52471,43.71591],[-79.52043,43.71636],[-79.52021,43.71639],[-79.51832,43.71659],[-79.5182,43.7166],[-79.50778,43.71776],[-79.50362,43.71824]],[[-79.55854,43.70434],[-79.55795,43.70513],[-79.55686,43.70647],[-79.55634,43.70707],[-79.55531,43.70802],[-79.55446,43.70865],[-79.55344,43.70921],[-79.55239,43.70963],[-79.54911,43.71051],[-79.54686,43.71127],[-79.54507,43.71179],[-79.54357,43.71211]],[[-79.54357,43.71211],[-79.54646,43.71169],[-79.54925,43.71088]],[[-79.50473,43.71834],[-79.50785,43.71799],[-79.51007,43.71772],[-79.51566,43.71705],[-79.51848,43.71676],[-79.5205,43.71653],[-79.52448,43.71613],[-79.52665,43.71579],[-79.5296,43.71511],[-79.5308,43.71484],[-79.53625,43.71358],[-79.53851,43.71306],[-79.54139,43.71243],[-79.54357,43.71211]],[[-79.50646,43.71774],[-79.5035,43.71786],[-79.50195,43.71786]],[[-79.50646,43.71774],[-79.50101,43.71843],[-79.49695,43.71911]],[[-79.50643,43.71748],[-79.50331,43.71755],[-79.50261,43.71766],[-79.50195,43.71786]],[[-79.50643,43.71748],[-79.50308,43.71742],[-79.50137,43.71755],[-79.50049,43.71771],[-79.49955,43.71795],[-79.4966,43.71896]],[[-79.50473,43.71834],[-79.50319,43.71849],[-79.50239,43.71863],[-79.49944,43.71943],[-79.49811,43.71952]],[[-79.49336,43.72015],[-79.49635,43.72009],[-79.49804,43.71993],[-79.49941,43.71965],[-79.50269,43.71868],[-79.50473,43.71834]],[[-79.49357,43.7199],[-79.50175,43.71846],[-79.50362,43.71824]],[[-79.50362,43.71824],[-79.50086,43.71876],[-79.49985,43.719],[-79.49811,43.71952]],[[-79.50195,43.71786],[-79.50044,43.71832],[-79.49695,43.71911]],[[-79.50195,43.71786],[-79.50103,43.71785],[-79.50023,43.71795],[-79.49756,43.71875],[-79.4966,43.71896]],[[-79.49811,43.71952],[-79.49677,43.71986],[-79.49457,43.72],[-79.49336,43.72015]],[[-79.49811,43.71952],[-79.49719,43.71951],[-79.4963,43.71956],[-79.49357,43.7199]],[[-79.49695,43.71911],[-79.49147,43.72008],[-79.48883,43.72069],[-79.48127,43.72255],[-79.47253,43.72469],[-79.47089,43.72509],[-79.45784,43.72789],[-79.45148,43.72924],[-79.44906,43.72976],[-79.44851,43.72989],[-79.44844,43.7299]],[[-79.4966,43.71896],[-79.49232,43.71968],[-79.48783,43.72073],[-79.48123,43.72236],[-79.47532,43.7238],[-79.47249,43.7245],[-79.46989,43.72513],[-79.46457,43.72623],[-79.4578,43.7277],[-79.45704,43.72787],[-79.45139,43.72908],[-79.44903,43.72958],[-79.44848,43.72969],[-79.44639,43.73002],[-79.44482,43.73021],[-79.44307,43.73053],[-79.4418,43.73097]],[[-79.49357,43.7199],[-79.48998,43.72059],[-79.48131,43.72273],[-79.47257,43.72487],[-79.47004,43.72547],[-79.45789,43.72807],[-79.45155,43.72943],[-79.4491,43.72996],[-79.44855,43.73008],[-79.44849,43.7301],[-79.44648,43.73053]],[[-79.49336,43.72015],[-79.49146,43.72047],[-79.48897,43.72106],[-79.48135,43.7229],[-79.47368,43.72478],[-79.47101,43.72545],[-79.46526,43.72668],[-79.46094,43.72762],[-79.45794,43.72828],[-79.4564,43.72867],[-79.4552,43.72912],[-79.4544,43.72936],[-79.45346,43.72958],[-79.45251,43.72973],[-79.4504,43.72992],[-79.44933,43.73012],[-79.44913,43.73017],[-79.44858,43.73028],[-79.44657,43.7307],[-79.44349,43.73146],[-79.44211,43.73204]],[[-79.44844,43.7299],[-79.44641,43.73016],[-79.44446,43.73039],[-79.44323,43.73057],[-79.4418,43.73097]],[[-79.44844,43.7299],[-79.44643,43.73034],[-79.44358,43.73098],[-79.44172,43.73152],[-79.44049,43.73203],[-79.43941,43.73258],[-79.43366,43.73598],[-79.4308,43.73766],[-79.42732,43.73971],[-79.42298,43.74245],[-79.41881,43.74511],[-79.41812,43.74561],[-79.41724,43.74642],[-79.41581,43.74814],[-79.41516,43.74882],[-79.41443,43.74946],[-79.41348,43.75007]],[[-79.44648,43.73053],[-79.44329,43.73122],[-79.44136,43.73187],[-79.43992,43.73253],[-79.43703,43.7342],[-79.43371,43.73615],[-79.43121,43.73761],[-79.42666,43.74031],[-79.42311,43.74256],[-79.4189,43.74528],[-79.41798,43.74596],[-79.41765,43.74624],[-79.4152,43.74906],[-79.41459,43.7496],[-79.41386,43.75011]],[[-79.44211,43.73204],[-79.44287,43.73158],[-79.44372,43.73123],[-79.44648,43.73053]],[[-79.44211,43.73204],[-79.44144,43.73242],[-79.44032,43.73313],[-79.43979,43.73341],[-79.43736,43.73435],[-79.43656,43.7347],[-79.43376,43.73636],[-79.43175,43.73759],[-79.42723,43.74023],[-79.42446,43.74194],[-79.42329,43.74268],[-79.41956,43.74509],[-79.41829,43.74597],[-79.4178,43.74644],[-79.41724,43.74706]],[[-79.4418,43.73097],[-79.44013,43.7318],[-79.4387,43.73278],[-79.43361,43.73577],[-79.43033,43.73771],[-79.42687,43.73973],[-79.42283,43.74231],[-79.41981,43.74421],[-79.41843,43.7451],[-79.41784,43.74553],[-79.41719,43.7461],[-79.41645,43.74688]],[[-79.41386,43.75011],[-79.41464,43.74963],[-79.41556,43.74889],[-79.41602,43.74845],[-79.41724,43.74706]],[[-79.41724,43.74706],[-79.41622,43.74844],[-79.41527,43.74938],[-79.41459,43.7499],[-79.41166,43.75176],[-79.40844,43.75381],[-79.40683,43.75483],[-79.40355,43.75692],[-79.39912,43.75965],[-79.39724,43.76065],[-79.39621,43.76112],[-79.39504,43.76157],[-79.39225,43.7624],[-79.38719,43.76347],[-79.38021,43.76499],[-79.3773,43.76561],[-79.37438,43.7659]],[[-79.41645,43.74688],[-79.41448,43.74898],[-79.41377,43.74956],[-79.41272,43.75026],[-79.40828,43.75319],[-79.40666,43.75422],[-79.40385,43.75597],[-79.39894,43.75909],[-79.39775,43.75975],[-79.39663,43.7603],[-79.39546,43.7608],[-79.39425,43.76125],[-79.39303,43.76163],[-79.39127,43.76208],[-79.38706,43.76296],[-79.38228,43.76398],[-79.37679,43.76498],[-79.37374,43.76543]],[[-79.41645,43.74688],[-79.41614,43.74739],[-79.41534,43.74844],[-79.4147,43.74911],[-79.41348,43.75007]],[[-79.41386,43.75011],[-79.41145,43.75165],[-79.40839,43.75362],[-79.40675,43.75465],[-79.39918,43.75942],[-79.39793,43.76012],[-79.39673,43.76069],[-79.39495,43.76141],[-79.39309,43.762],[-79.38715,43.76331],[-79.38244,43.76431]],[[-79.41348,43.75007],[-79.41123,43.75153],[-79.40834,43.7534],[-79.40668,43.75443],[-79.39904,43.75925],[-79.3979,43.75989],[-79.3966,43.76052],[-79.39474,43.76126],[-79.39289,43.76184],[-79.39088,43.76233],[-79.3871,43.76313],[-79.38295,43.76403]],[[-79.38295,43.76403],[-79.37672,43.7651],[-79.37481,43.76537],[-79.37374,43.76543]],[[-79.38295,43.76403],[-79.37873,43.7649],[-79.37638,43.7653],[-79.37458,43.76553],[-79.37128,43.76581],[-79.36514,43.76609],[-79.36281,43.76619],[-79.3593,43.76636],[-79.35368,43.76662],[-79.34677,43.76695],[-79.33873,43.76745],[-79.3372,43.76755],[-79.33562,43.76763]],[[-79.38244,43.76431],[-79.37855,43.7651],[-79.37513,43.76563],[-79.37158,43.76594],[-79.36526,43.76623],[-79.35966,43.76649],[-79.35931,43.7665],[-79.35112,43.76689],[-79.34675,43.76714],[-79.33893,43.7676],[-79.33877,43.76762],[-79.33724,43.76772],[-79.33555,43.76782]],[[-79.38244,43.76431],[-79.38172,43.76452],[-79.37938,43.76505],[-79.37764,43.76538],[-79.37438,43.7659]],[[-79.37438,43.7659],[-79.37212,43.76612],[-79.36975,43.76624],[-79.36541,43.76643],[-79.36307,43.76652],[-79.35967,43.76668],[-79.35933,43.76669],[-79.35422,43.76696],[-79.34943,43.7673],[-79.34608,43.76755],[-79.34352,43.76771]],[[-79.37374,43.76543],[-79.37134,43.76562],[-79.36501,43.76591],[-79.36268,43.76603],[-79.35928,43.76618],[-79.35238,43.76646],[-79.34853,43.76655],[-79.34681,43.7666],[-79.34406,43.76671]],[[-79.34406,43.76671],[-79.34261,43.76675],[-79.33862,43.76701],[-79.33752,43.7671],[-79.33712,43.76712],[-79.32929,43.76768],[-79.32563,43.7679],[-79.32287,43.76799],[-79.31963,43.76801],[-79.31794,43.76801],[-79.31517,43.76807],[-79.31342,43.76819],[-79.31244,43.7683],[-79.30943,43.76885],[-79.3062,43.7696],[-79.30397,43.77013],[-79.30192,43.77061],[-79.29808,43.77138],[-79.29515,43.77217]],[[-79.34406,43.76671],[-79.3428,43.76683],[-79.33869,43.76728],[-79.33718,43.76745],[-79.33701,43.76746],[-79.33562,43.76763]],[[-79.34352,43.76771],[-79.34038,43.76776],[-79.3388,43.76778],[-79.33862,43.76779],[-79.33726,43.7678],[-79.33709,43.76781],[-79.33555,43.76782]],[[-79.34352,43.76771],[-79.34007,43.76794],[-79.33885,43.76803],[-79.33737,43.76813],[-79.33717,43.76815],[-79.33282,43.76844],[-79.32754,43.76855],[-79.32574,43.76856],[-79.32165,43.76857],[-79.31989,43.76856],[-79.31967,43.76855],[-79.31578,43.76859],[-79.31422,43.76868],[-79.31168,43.76899],[-79.30895,43.76956],[-79.30419,43.77064],[-79.30232,43.77111],[-79.30031,43.77166],[-79.29878,43.77202],[-79.2945,43.77289],[-79.29183,43.77351],[-79.28729,43.77463],[-79.28471,43.77524],[-79.27978,43.77644],[-79.27719,43.77705],[-79.27486,43.7775],[-79.27268,43.77796]],[[-79.33667,43.76268],[-79.33674,43.76421]],[[-79.33562,43.76763],[-79.33,43.76798],[-79.3271,43.76809],[-79.32473,43.76815],[-79.31951,43.76818],[-79.31532,43.76823],[-79.31377,43.76834],[-79.31237,43.7685],[-79.30981,43.76896],[-79.30404,43.77031],[-79.30191,43.7708]],[[-79.33555,43.76782],[-79.32887,43.76822],[-79.32448,43.76835],[-79.31979,43.76836],[-79.3196,43.76837],[-79.31536,43.7684],[-79.31386,43.7685],[-79.31238,43.76867],[-79.30975,43.76915],[-79.30411,43.77047],[-79.29443,43.77273],[-79.292,43.77329],[-79.28461,43.77501]],[[-79.30191,43.7708],[-79.29895,43.77133],[-79.29515,43.77217]],[[-79.30191,43.7708],[-79.29435,43.77258],[-79.29213,43.77309],[-79.28454,43.77484],[-79.27721,43.77657],[-79.27472,43.77713],[-79.26974,43.7782],[-79.26496,43.77908]],[[-79.29515,43.77217],[-79.29227,43.77287],[-79.28448,43.7747],[-79.28145,43.77539],[-79.27957,43.77584],[-79.27463,43.77695],[-79.27371,43.77716]],[[-79.28461,43.77501],[-79.2772,43.77674],[-79.27478,43.77728],[-79.26906,43.7785],[-79.26297,43.77968]],[[-79.28461,43.77501],[-79.27973,43.77629],[-79.27719,43.77691],[-79.27483,43.77742],[-79.27268,43.77796]],[[-79.27371,43.77716],[-79.27222,43.77739],[-79.26461,43.77895],[-79.2615,43.77955],[-79.25482,43.78087],[-79.25337,43.78113],[-79.25122,43.78153],[-79.2495,43.78179],[-79.24825,43.78199],[-79.24567,43.78264]],[[-79.27371,43.77716],[-79.2692,43.77819],[-79.26496,43.77908]],[[-79.27268,43.77796],[-79.27099,43.77832],[-79.27004,43.7785]],[[-79.26297,43.77968],[-79.26479,43.7794],[-79.26813,43.77887],[-79.27004,43.7785]],[[-79.27004,43.7785],[-79.26692,43.77925],[-79.26487,43.77958],[-79.26391,43.77974],[-79.25504,43.78143],[-79.24976,43.78249],[-79.24165,43.78413]],[[-79.26496,43.77908],[-79.26469,43.77913],[-79.25489,43.78105],[-79.25234,43.7815]],[[-79.26297,43.77968],[-79.25496,43.78123],[-79.24966,43.78224]],[[-79.25234,43.7815],[-79.24955,43.78191],[-79.24567,43.78264]],[[-79.25234,43.7815],[-79.2496,43.78206],[-79.24279,43.78349],[-79.23791,43.78471],[-79.23524,43.78547],[-79.23259,43.78626],[-79.23128,43.78666],[-79.22847,43.78763],[-79.22674,43.78837],[-79.22533,43.78908]],[[-79.24966,43.78224],[-79.24517,43.78313],[-79.24046,43.7842],[-79.23529,43.7856],[-79.23265,43.7864],[-79.23038,43.78714],[-79.2286,43.78781],[-79.22696,43.78851],[-79.22552,43.78925],[-79.22204,43.79131]],[[-79.24966,43.78224],[-79.24165,43.78413]],[[-79.24567,43.78264],[-79.24144,43.78362],[-79.23928,43.78415],[-79.23518,43.78532],[-79.23253,43.78609],[-79.2292,43.78718],[-79.22729,43.78792],[-79.22639,43.78833],[-79.2252,43.78896],[-79.22262,43.79036],[-79.21959,43.79189],[-79.21838,43.79242],[-79.21721,43.79286]],[[-79.24165,43.78413],[-79.24003,43.78453],[-79.23717,43.78527],[-79.23537,43.78579],[-79.23272,43.78659],[-79.22983,43.78754],[-79.22772,43.78839],[-79.22568,43.78939],[-79.22188,43.79163],[-79.22047,43.79234],[-79.21883,43.79303],[-79.21736,43.79355],[-79.21585,43.79395],[-79.2135,43.79432]],[[-79.22533,43.78908],[-79.22221,43.7908],[-79.22046,43.79168],[-79.21854,43.79247],[-79.21721,43.79286]],[[-79.22533,43.78908],[-79.2225,43.79079],[-79.22055,43.79182],[-79.21961,43.79223],[-79.2178,43.7929],[-79.21562,43.79353],[-79.21379,43.79391],[-79.19692,43.79636],[-79.19269,43.79698],[-79.19202,43.79703]],[[-79.18778,43.79788],[-79.19238,43.79719],[-79.19699,43.79652],[-79.2134,43.79414],[-79.21571,43.79369],[-79.21755,43.79317],[-79.21888,43.79271],[-79.22056,43.79202],[-79.22204,43.79131]],[[-79.22204,43.79131],[-79.22065,43.79203],[-79.21922,43.79267],[-79.2174,43.79338],[-79.21578,43.79383],[-79.2135,43.79432]],[[-79.21721,43.79286],[-79.21551,43.79336],[-79.21337,43.79377],[-79.21023,43.79422],[-79.20428,43.79508],[-79.20251,43.79534]],[[-79.20065,43.7962],[-79.20923,43.79494],[-79.2135,43.79432]],[[-79.20251,43.79534],[-79.19681,43.79608],[-79.19538,43.7963],[-79.18724,43.79758],[-79.17679,43.79909],[-79.17297,43.79952],[-79.17125,43.79965],[-79.16972,43.79963],[-79.16801,43.79949],[-79.16606,43.79912],[-79.16477,43.79878]],[[-79.20251,43.79534],[-79.19686,43.79622],[-79.19284,43.79687],[-79.19202,43.79703]],[[-79.18778,43.79788],[-79.19211,43.79738],[-79.1949,43.79705],[-79.19709,43.79672],[-79.19944,43.79632],[-79.20065,43.7962]],[[-79.1669,43.8],[-79.16823,43.80023],[-79.16977,43.80038],[-79.17058,43.8004],[-79.17197,43.80037],[-79.17397,43.80016],[-79.17907,43.79937],[-79.18217,43.79887],[-79.18747,43.79811],[-79.18826,43.798],[-79.19183,43.79758],[-79.19417,43.79729],[-79.19713,43.79681],[-79.19905,43.79647],[-79.20065,43.7962]],[[-79.19202,43.79703],[-79.18731,43.79774],[-79.182,43.79848],[-79.17725,43.7992]],[[-79.17951,43.79908],[-79.18739,43.79794],[-79.18778,43.79788]],[[-79.17951,43.79908],[-79.17341,43.79994],[-79.17175,43.80009],[-79.17021,43.8001],[-79.16866,43.80001],[-79.16772,43.79989],[-79.16627,43.79961],[-79.16512,43.7993],[-79.15839,43.79694],[-79.15613,43.79619],[-79.15508,43.79593],[-79.1535,43.79568],[-79.15249,43.79562],[-79.1514,43.79562],[-79.14945,43.79584],[-79.1483,43.7961],[-79.14706,43.79651],[-79.14597,43.79699],[-79.14469,43.7977],[-79.1432,43.79867],[-79.13745,43.80266],[-79.13527,43.80408]],[[-79.1669,43.8],[-79.16888,43.80024],[-79.1698,43.8003],[-79.17177,43.80024],[-79.17405,43.79998],[-79.17951,43.79908]],[[-79.17725,43.7992],[-79.17372,43.79961],[-79.17126,43.79979],[-79.16955,43.79974],[-79.16875,43.79966],[-79.16782,43.79954],[-79.1661,43.7992],[-79.16477,43.79878]],[[-79.17725,43.7992],[-79.17317,43.7998],[-79.17114,43.79994],[-79.16985,43.79993],[-79.16829,43.7998],[-79.16712,43.79963],[-79.16606,43.79937],[-79.16515,43.79913],[-79.15892,43.79691],[-79.15639,43.79608],[-79.15557,43.79585],[-79.15467,43.79566],[-79.15351,43.7955],[-79.15219,43.79543],[-79.15078,43.7955],[-79.14968,43.79563],[-79.14838,43.7959],[-79.14716,43.79628],[-79.1456,43.79696],[-79.14457,43.79756],[-79.14259,43.79886],[-79.13822,43.8019],[-79.13508,43.80393]],[[-79.14199,43.79985],[-79.14482,43.79781],[-79.14602,43.79715],[-79.147,43.79673],[-79.14792,43.79641],[-79.14914,43.7961],[-79.15003,43.79593],[-79.15108,43.79583],[-79.15269,43.79581],[-79.15403,43.79594],[-79.15557,43.79623],[-79.15634,43.79645],[-79.16484,43.79942],[-79.16614,43.79981],[-79.1669,43.8]],[[-79.16477,43.79878],[-79.1639,43.79846],[-79.15969,43.79699],[-79.15719,43.79613],[-79.15556,43.79567],[-79.15411,43.79539],[-79.15331,43.7953],[-79.15199,43.79525],[-79.15112,43.79528],[-79.14987,43.79541],[-79.14883,43.7956],[-79.1475,43.79594],[-79.14635,43.79635],[-79.14434,43.7973],[-79.14251,43.79851]],[[-79.14251,43.79851],[-79.13992,43.80023],[-79.138,43.80163],[-79.13613,43.80292],[-79.13429,43.80415]],[[-79.14251,43.79851],[-79.13814,43.8018],[-79.13508,43.80393]],[[-79.14199,43.79985],[-79.13918,43.80178],[-79.13663,43.80332],[-79.13527,43.80408]],[[-79.13436,43.80495],[-79.13614,43.80386],[-79.13935,43.80187],[-79.14199,43.79985]],[[-79.13527,43.80408],[-79.1344,43.80462]],[[-79.13508,43.80393],[-79.13437,43.80436]]]},"properties":{"route":"401","name":"Highway 401","kind":"provincial"}},
{"type":"Feature","geometry":{"type":"MultiLineString","coordinates":[[[-79.50156,43.70996],[-79.5016,43.71004],[-79.50236,43.71043],[-79.50378,43.71099],[-79.50443,43.71115],[-79.50608,43.71142],[-79.51108,43.71225],[-79.51245,43.71256],[-79.51474,43.71322],[-79.51696,43.71396],[-79.51788,43.71431],[-79.51869,43.7147],[-79.51934,43.71514],[-79.5202,43.71601],[-79.52034,43.71621],[-79.52043,43.71636],[-79.5205,43.71653],[-79.52102,43.71816],[-79.5232,43.72238],[-79.52341,43.72318],[-79.52653,43.73624],[-79.52945,43.74845],[-79.53048,43.75325],[-79.53075,43.75442],[-79.53208,43.76002],[-79.53437,43.76945],[-79.53508,43.77265]],[[-79.50133,43.71001],[-79.5027,43.71073],[-79.50386,43.71114],[-79.50479,43.71135],[-79.50612,43.71157],[-79.51018,43.71228],[-79.51108,43.71245],[-79.51307,43.71299],[-79.51417,43.71338],[-79.51503,43.71377],[-79.51576,43.71418],[-79.51643,43.71465],[-79.51696,43.71511],[-79.51764,43.7158],[-79.51804,43.71628],[-79.51819,43.71644],[-79.51832,43.71659],[-79.51848,43.71676],[-79.51947,43.71782],[-79.52182,43.72079],[-79.52262,43.72209],[-79.5229,43.72266],[-79.52305,43.72312],[-79.52616,43.73632],[-79.52901,43.74844],[-79.53055,43.75447],[-79.53132,43.75775],[-79.53398,43.76897],[-79.53488,43.77269]]]},"properties":{"route":"400","name":"Highway 400","kind":"provincial"}},
{"type":"Feature","geometry":{"type":"MultiLineString","coordinates":[[[-79.60738,43.69712],[-79.60701,43.6972],[-79.60632,43.69729],[-79.60517,43.6973],[-79.60018,43.69689],[-79.59788,43.69672],[-79.59624,43.69673],[-79.59518,43.69675],[-79.59443,43.69679],[-79.5927,43.69696],[-79.59028,43.69732],[-79.58828,43.69777],[-79.58665,43.69819],[-79.58617,43.69829],[-79.58453,43.69853],[-79.58319,43.6986],[-79.58019,43.69853],[-79.57807,43.69856],[-79.57667,43.6987],[-79.57429,43.69908],[-79.57266,43.69947],[-79.5717,43.69977],[-79.5701,43.70033],[-79.56901,43.70081],[-79.56763,43.70148],[-79.56648,43.70209],[-79.56537,43.70281],[-79.56328,43.7044],[-79.56265,43.70482],[-79.56186,43.70514],[-79.56084,43.70532],[-79.55909,43.70542],[-79.55851,43.70557],[-79.55783,43.70588]],[[-79.60728,43.69698],[-79.60692,43.69706],[-79.60592,43.69717],[-79.60464,43.69713],[-79.60012,43.69675],[-79.59713,43.69654],[-79.59516,43.69657],[-79.59252,43.6968],[-79.58942,43.69734],[-79.58657,43.69803],[-79.58616,43.69812],[-79.58485,43.69833],[-79.58312,43.69844],[-79.5801,43.69834],[-79.57915,43.69834],[-79.57722,43.69846],[-79.57422,43.69892],[-79.57163,43.69961],[-79.56948,43.70038],[-79.56776,43.70118],[-79.56654,43.70185],[-79.56529,43.70265],[-79.56319,43.70423],[-79.56251,43.70469],[-79.56176,43.70499],[-79.56125,43.70511],[-79.56053,43.70514],[-79.55895,43.70504],[-79.55843,43.70506],[-79.55795,43.70513],[-79.55778,43.70517],[-79.55729,43.70531],[-79.55635,43.70588]]]},"properties":{"route":"409","name":"Highway 409","kind":"provincial"}},
{"type":"Feature","geometry":{"type":"MultiLineString","coordinates":[[[-79.33685,43.76223],[-79.33717,43.76355],[-79.33785,43.76519],[-79.33813,43.76574],[-79.33862,43.76701],[-79.33869,43.76728],[-79.33873,43.76745],[-79.33877,43.76762],[-79.3388,43.76778],[-79.33885,43.76803],[-79.3389,43.7686],[-79.33898,43.77129],[-79.33924,43.77291],[-79.33989,43.77606],[-79.34041,43.77962],[-79.34092,43.78188],[-79.34195,43.78653],[-79.3427,43.78997],[-79.34376,43.79513],[-79.34474,43.7994],[-79.34553,43.8029],[-79.34602,43.80502],[-79.34679,43.80865],[-79.3471,43.80951],[-79.34737,43.80995],[-79.34763,43.81028],[-79.34844,43.81114],[-79.349,43.81156],[-79.3497,43.81196],[-79.35246,43.8131]],[[-79.33667,43.76268],[-79.3369,43.76372],[-79.33696,43.76424],[-79.33712,43.76712],[-79.33718,43.76745],[-79.3372,43.76755],[-79.33724,43.76772],[-79.33726,43.7678],[-79.33737,43.76813],[-79.33783,43.76938],[-79.33834,43.77074],[-79.33877,43.77265],[-79.33945,43.77602],[-79.34056,43.78191],[-79.34154,43.78657],[-79.34222,43.78965],[-79.3431,43.79342],[-79.34346,43.79517],[-79.3444,43.79949],[-79.34511,43.80295],[-79.34603,43.80713],[-79.34613,43.80736],[-79.34646,43.80887],[-79.34688,43.80979],[-79.34716,43.81022],[-79.34749,43.81063],[-79.34798,43.81113],[-79.34844,43.81151],[-79.34894,43.81185],[-79.34963,43.81223],[-79.35197,43.81322]]]},"properties":{"route":"404","name":"Highway 404","kind":"provincial"}},
{"type":"Feature","geometry":{"type":"LineString","coordinates":[[-79.43503,43.69899],[-79.43521,43.69935],[-79.43586,43.70012],[-79.43667,43.70156],[-79.4369,43.70212],[-79.438,43.70472],[-79.43843,43.70564],[-79.43986,43.70789],[-79.44099,43.70959],[-79.44202,43.71126],[-79.44271,43.7128],[-79.44343,43.71468],[-79.44402,43.71614],[-79.44514,43.71904],[-79.4452,43.71921],[-79.44688,43.72363],[-79.4473,43.72467],[-79.44773,43.72584],[-79.44799,43.72683],[-79.44848,43.72969],[-79.44851,43.72989],[-79.44855,43.73008],[-79.44858,43.73028],[-79.44871,43.73103],[-79.44886,43.73169],[-79.45081,43.73711],[-79.45144,43.73878],[-79.45197,43.7397],[-79.45274,43.74055],[-79.45419,43.74175],[-79.45422,43.74173],[-79.45348,43.74098],[-79.45276,43.74015],[-79.45223,43.73943],[-79.4519,43.73878],[-79.45083,43.73592],[-79.45011,43.73396],[-79.4496,43.73253],[-79.4494,43.7316],[-79.44916,43.73028],[-79.44913,43.73017],[-79.4491,43.72996],[-79.44906,43.72976],[-79.44903,43.72958],[-79.44854,43.72687],[-79.44813,43.72575],[-79.44784,43.72492],[-79.44734,43.72355],[-79.44554,43.71894],[-79.44447,43.71605],[-79.44391,43.71457],[-79.44322,43.71272],[-79.44251,43.71116],[-79.44147,43.70949],[-79.44035,43.70778],[-79.43904,43.70575],[-79.43847,43.70461],[-79.43778,43.70293],[-79.43744,43.70197],[-79.4368,43.69966],[-79.43644,43.69868]]},"properties":{"route":"Allen","name":"Allen Road","kind":"city"}},
{"type":"Feature","geometry":{"type":"MultiLineString","coordinates":[[[-79.35057,43.6497],[-79.35009,43.64994],[-79.34953,43.6503],[-79.34913,43.65067],[-79.34897,43.6509],[-79.34878,43.65126],[-79.34864,43.65165],[-79.3486,43.65209],[-79.34865,43.65253],[-79.34892,43.65319],[-79.34928,43.65373]],[[-79.34977,43.64987],[-79.34912,43.65023],[-79.34856,43.65075],[-79.34827,43.65126],[-79.34818,43.65165],[-79.34818,43.65195],[-79.34827,43.65239]],[[-79.34928,43.65373],[-79.35005,43.65452],[-79.35255,43.65669],[-79.35311,43.65721],[-79.35376,43.65799],[-79.35419,43.65877],[-79.35443,43.65941],[-79.35509,43.66177],[-79.35596,43.66461],[-79.35686,43.66775],[-79.35741,43.66953],[-79.35775,43.67015],[-79.35849,43.67107],[-79.35975,43.67239],[-79.36056,43.67335],[-79.36118,43.67439],[-79.36165,43.67567],[-79.36201,43.67692],[-79.3622,43.67782],[-79.36242,43.67939],[-79.36258,43.68104],[-79.36253,43.68192],[-79.36225,43.68282],[-79.36151,43.68437],[-79.36131,43.68484],[-79.36106,43.6857],[-79.36097,43.68717],[-79.36088,43.68798],[-79.36065,43.68893],[-79.36032,43.68977],[-79.35974,43.69073],[-79.35899,43.6917],[-79.35811,43.69263],[-79.35347,43.69658],[-79.35276,43.6971],[-79.35182,43.69759],[-79.35097,43.69787],[-79.34975,43.69805],[-79.34914,43.69809],[-79.34807,43.69802],[-79.34469,43.69754],[-79.344,43.6975],[-79.34312,43.69753],[-79.3422,43.69766],[-79.34146,43.69789],[-79.34065,43.69824],[-79.33987,43.69871],[-79.33935,43.69912],[-79.33827,43.69994],[-79.33772,43.70029],[-79.33709,43.70061],[-79.33458,43.70159],[-79.33397,43.70189],[-79.33347,43.70222],[-79.33302,43.70261],[-79.33261,43.7031],[-79.33224,43.7037],[-79.33208,43.70414],[-79.33159,43.70644],[-79.33147,43.70705],[-79.3313,43.70752],[-79.33103,43.70802],[-79.33067,43.70849],[-79.32965,43.70937],[-79.32679,43.7115],[-79.32624,43.71209],[-79.32585,43.71273],[-79.32569,43.71307],[-79.32555,43.71357],[-79.3255,43.71396],[-79.32553,43.71459],[-79.32573,43.71533],[-79.32616,43.71608],[-79.32851,43.71904],[-79.32893,43.71966],[-79.32954,43.7208],[-79.3298,43.72139],[-79.33005,43.72203],[-79.33036,43.72309],[-79.33058,43.72643],[-79.33066,43.72886],[-79.33076,43.72972],[-79.33092,43.73043],[-79.33131,43.73269],[-79.33167,43.73419],[-79.33189,43.73521],[-79.33217,43.73674],[-79.33229,43.73802],[-79.33228,43.73946],[-79.33228,43.74152],[-79.33236,43.74255],[-79.33338,43.74684],[-79.33349,43.74767],[-79.33364,43.74948],[-79.33378,43.75087],[-79.33394,43.75193],[-79.33444,43.75399],[-79.3351,43.75588],[-79.33544,43.7568],[-79.33586,43.75826],[-79.33622,43.75972],[-79.33685,43.76223]],[[-79.34928,43.65373],[-79.34827,43.65239]],[[-79.34916,43.65379],[-79.34962,43.65428],[-79.35244,43.65672],[-79.35301,43.65727],[-79.35362,43.65802],[-79.35404,43.65878],[-79.35423,43.65925],[-79.35452,43.66037],[-79.35494,43.66179],[-79.35669,43.66778],[-79.35705,43.66898],[-79.35727,43.66956],[-79.35779,43.67042],[-79.3581,43.67082],[-79.36012,43.67301],[-79.36041,43.6734],[-79.36099,43.67436],[-79.36151,43.6757],[-79.36191,43.67708],[-79.36211,43.67801],[-79.36245,43.68121],[-79.36245,43.68162],[-79.36239,43.68203],[-79.3621,43.68277],[-79.36123,43.68459],[-79.36091,43.68561],[-79.36083,43.68622],[-79.36081,43.68712],[-79.36063,43.68832],[-79.36033,43.68929],[-79.3598,43.69038],[-79.35912,43.69136],[-79.35864,43.69191],[-79.35782,43.69269],[-79.35335,43.6965],[-79.35254,43.69704],[-79.35157,43.69747],[-79.35061,43.69773],[-79.34963,43.69784],[-79.34813,43.69779],[-79.34456,43.69735],[-79.34353,43.69732],[-79.34212,43.69751],[-79.34104,43.69786],[-79.34016,43.69834],[-79.33842,43.69965],[-79.33772,43.70011],[-79.33658,43.70067],[-79.33471,43.70136],[-79.33418,43.7016],[-79.33365,43.70191],[-79.3332,43.70225],[-79.33281,43.70262],[-79.33235,43.70322],[-79.33208,43.70372],[-79.33188,43.70424],[-79.33147,43.70611],[-79.33128,43.70703],[-79.331,43.70769],[-79.33071,43.70815],[-79.3303,43.70864],[-79.3297,43.70916],[-79.32649,43.71152],[-79.32591,43.71206],[-79.32547,43.71263],[-79.32513,43.71334],[-79.32504,43.71368],[-79.32498,43.7142],[-79.32504,43.71486],[-79.32536,43.71572],[-79.32578,43.71634],[-79.32735,43.71796],[-79.32828,43.7191],[-79.3285,43.71944],[-79.32926,43.72073],[-79.32956,43.72135],[-79.32992,43.72242],[-79.33007,43.72318],[-79.33026,43.72437],[-79.33034,43.7268],[-79.33047,43.72897],[-79.33069,43.73056],[-79.33088,43.73172],[-79.33111,43.73271],[-79.33142,43.73412],[-79.33175,43.73555],[-79.33196,43.73663],[-79.33209,43.73767],[-79.33213,43.7386],[-79.33209,43.7395],[-79.33209,43.74081],[-79.3321,43.74154],[-79.33224,43.74284],[-79.33317,43.74704],[-79.33343,43.74956],[-79.33352,43.75072],[-79.3337,43.75198],[-79.33393,43.75308],[-79.33461,43.75531],[-79.33528,43.75705],[-79.3366,43.76229],[-79.33667,43.76268]],[[-79.34827,43.65239],[-79.34846,43.65285],[-79.34916,43.65379]],[[-79.34827,43.65239],[-79.34809,43.65226],[-79.34724,43.65129],[-79.34717,43.65133],[-79.34823,43.65267],[-79.34855,43.65314],[-79.34916,43.65379]]]},"properties":{"route":"DVP","name":"Don Valley Parkway","kind":"city"}},
{"type":"Feature","geometry":{"type":"MultiLineString","coordinates":[[[-79.55978,43.60505],[-79.55764,43.60698],[-79.55513,43.60928],[-79.5522,43.61188],[-79.55145,43.61245],[-79.55071,43.61292],[-79.54944,43.61357],[-79.54875,43.61384],[-79.54735,43.61428],[-79.54624,43.6145],[-79.54522,43.61463]],[[-79.55952,43.60491],[-79.55763,43.60668],[-79.55463,43.60939],[-79.55224,43.61158],[-79.55149,43.61218],[-79.55085,43.61262],[-79.54983,43.61317],[-79.54914,43.61345],[-79.54907,43.6135],[-79.54874,43.61364],[-79.54688,43.61416],[-79.54579,43.61437],[-79.5451,43.61445]]]},"properties":{"route":"QEW","name":"Queen Elizabeth Way","kind":"provincial"}},
{"type":"Feature","geometry":{"type":"MultiLineString","coordinates":[[[-79.17063,43.78011],[-79.17047,43.7802],[-79.1698,43.78106],[-79.1689,43.78195],[-79.16837,43.78236],[-79.16708,43.78325],[-79.16482,43.78476],[-79.1579,43.78914],[-79.15247,43.79257]],[[-79.17037,43.78064],[-79.16921,43.78191],[-79.16864,43.78244],[-79.16827,43.7827],[-79.16724,43.78338],[-79.16492,43.7849],[-79.15815,43.78918],[-79.15291,43.7925],[-79.15185,43.79326],[-79.15098,43.79408],[-79.14987,43.79541],[-79.14968,43.79563],[-79.14945,43.79584]]]},"properties":{"route":"2A","name":"Highway 2A","kind":"city"}},
{"type":"Feature","geometry":{"type":"MultiLineString","coordinates":[[[-79.54522,43.61463],[-79.5412,43.61514],[-79.53641,43.61595],[-79.53338,43.61655]],[[-79.5451,43.61445],[-79.54116,43.61496],[-79.54013,43.61505],[-79.53018,43.61699]],[[-79.53338,43.61655],[-79.53047,43.61713],[-79.53025,43.61717],[-79.52579,43.61804],[-79.51508,43.62014]],[[-79.53338,43.61655],[-79.53052,43.61723],[-79.52955,43.61744],[-79.52583,43.61818],[-79.52118,43.61913]],[[-79.53018,43.61699],[-79.5257,43.6177],[-79.52379,43.61804],[-79.52207,43.6184],[-79.51726,43.61934],[-79.5163,43.61953],[-79.51291,43.62016],[-79.50632,43.62148],[-79.5019,43.62246],[-79.50099,43.62277]],[[-79.53018,43.61699],[-79.52575,43.61786],[-79.51306,43.62033],[-79.50099,43.62277]],[[-79.51508,43.62014],[-79.51719,43.61985],[-79.52118,43.61913]],[[-79.52118,43.61913],[-79.51754,43.61991],[-79.51646,43.6201],[-79.51594,43.62018],[-79.51328,43.62065],[-79.51042,43.62122],[-79.50429,43.62226]],[[-79.51508,43.62014],[-79.51318,43.6205],[-79.50429,43.62226]],[[-79.50429,43.62226],[-79.50108,43.62297],[-79.49514,43.62436],[-79.49319,43.62484],[-79.48871,43.6259],[-79.4868,43.62636],[-79.48223,43.6275],[-79.48121,43.62791],[-79.48046,43.62833],[-79.47768,43.63046],[-79.47542,43.6321],[-79.47397,43.63292],[-79.47303,43.63339],[-79.47165,43.63418],[-79.46972,43.63533],[-79.46869,43.6358],[-79.46586,43.63705],[-79.46395,43.63773],[-79.46289,43.63804],[-79.46085,43.63852],[-79.45921,43.63879],[-79.45816,43.63892],[-79.45588,43.63903],[-79.45374,43.63892],[-79.45176,43.63879],[-79.44961,43.63849],[-79.44805,43.63819],[-79.44701,43.63793],[-79.44521,43.63742],[-79.44392,43.63695],[-79.4377,43.63433],[-79.43565,43.63343],[-79.43442,43.63297],[-79.43366,43.63276],[-79.43295,43.63263],[-79.43194,43.63254],[-79.43054,43.63258],[-79.42957,43.63275],[-79.42754,43.63329],[-79.42542,43.63388],[-79.41326,43.63724],[-79.41169,43.63748],[-79.41012,43.63754],[-79.40864,43.63755],[-79.40732,43.63761],[-79.4024,43.63806],[-79.40164,43.63808],[-79.39917,43.63797],[-79.39745,43.63794],[-79.39616,43.63809],[-79.39231,43.63874],[-79.3888,43.63932],[-79.38694,43.6397],[-79.38447,43.64025],[-79.38332,43.6406],[-79.38227,43.64103],[-79.38096,43.64169],[-79.37951,43.64241],[-79.37791,43.64322],[-79.37587,43.64432],[-79.37485,43.64472],[-79.37426,43.64489],[-79.37055,43.64571],[-79.36622,43.64664],[-79.36306,43.64735],[-79.36119,43.64788],[-79.3599,43.64835],[-79.35799,43.64898],[-79.3573,43.64912],[-79.35645,43.6492],[-79.354,43.64902],[-79.35319,43.649],[-79.35229,43.6491],[-79.35167,43.64927],[-79.35057,43.6497]],[[-79.50099,43.62277],[-79.4931,43.62464],[-79.48659,43.62621],[-79.48268,43.62715],[-79.48158,43.62751],[-79.48044,43.62808],[-79.47555,43.63182],[-79.47459,43.63241],[-79.47378,43.63283],[-79.47182,43.63392],[-79.46981,43.63513],[-79.46912,43.63548],[-79.46862,43.63571],[-79.46577,43.63693],[-79.4638,43.63764],[-79.46252,43.63801],[-79.46092,43.63837],[-79.45918,43.63867],[-79.45786,43.63882],[-79.45625,43.6389],[-79.4537,43.63881],[-79.45178,43.63867],[-79.45017,43.63845],[-79.44852,43.63816],[-79.44708,43.6378],[-79.44543,43.63734],[-79.44393,43.63681],[-79.43776,43.63417],[-79.43601,43.63345],[-79.43512,43.63306],[-79.43436,43.6328],[-79.43318,43.63254],[-79.4325,43.63245],[-79.43176,43.63241],[-79.4309,43.63243],[-79.42997,43.63254],[-79.42927,43.63268],[-79.42537,43.63373],[-79.41343,43.63706],[-79.41207,43.63733],[-79.41138,43.6374],[-79.41008,43.63742],[-79.4087,43.63743],[-79.40657,43.63756],[-79.40321,43.63788],[-79.40157,43.63791],[-79.40025,43.63788],[-79.39965,43.63785],[-79.39741,43.63782],[-79.39635,43.63795],[-79.39611,43.638],[-79.39227,43.63863],[-79.38688,43.63958],[-79.38445,43.64015],[-79.38313,43.64055],[-79.38225,43.64092],[-79.38091,43.64157],[-79.37942,43.64233],[-79.37787,43.64311],[-79.37581,43.64416],[-79.37463,43.64466],[-79.37242,43.64518],[-79.36617,43.64654],[-79.36365,43.64707],[-79.3612,43.64774],[-79.35798,43.64883],[-79.35689,43.64905],[-79.35645,43.64906],[-79.3557,43.64902],[-79.35401,43.6489],[-79.35291,43.64888],[-79.35194,43.64903],[-79.35096,43.64934],[-79.34977,43.64987]]]},"properties":{"route":"Gardiner","name":"Gardiner Expressway","kind":"city"}}
]}