{"type":"FeatureCollection","features":[{"type":"Feature","properties":{"name":"Halton Region"},"geometry":{"type":"Point","coordinates":[-79.96104,43.57241]}},{"type":"Feature","properties":{"name":"Peel Region"},"geometry":{"type":"Point","coordinates":[-79.84903,43.82554]}},{"type":"Feature","properties":{"name":"York Region"},"geometry":{"type":"Point","coordinates":[-79.41271,43.97846]}},{"type":"Feature","properties":{"name":"Durham Region"},"geometry":{"type":"Point","coordinates":[-79.05692,44.00503]}}]}