{"type":"FeatureCollection","features":[{"type":"Feature","properties":{"name":"Finch","lines":["1"],"terminus":true},"geometry":{"type":"Point","coordinates":[-79.41569,43.78026]}},{"type":"Feature","properties":{"name":"North York Centre","lines":["1"],"terminus":false},"geometry":{"type":"Point","coordinates":[-79.41248,43.76795]}},{"type":"Feature","properties":{"name":"Sheppard-Yonge","lines":["1","4"],"terminus":true},"geometry":{"type":"Point","coordinates":[-79.41035,43.76144]}},{"type":"Feature","properties":{"name":"York Mills","lines":["1"],"terminus":false},"geometry":{"type":"Point","coordinates":[-79.40615,43.74385]}},{"type":"Feature","properties":{"name":"Lawrence","lines":["1"],"terminus":false},"geometry":{"type":"Point","coordinates":[-79.40245,43.72594]}},{"type":"Feature","properties":{"name":"Eglinton","lines":["1","5"],"terminus":false},"geometry":{"type":"Point","coordinates":[-79.39859,43.70612]}},{"type":"Feature","properties":{"name":"Davisville","lines":["1"],"terminus":false},"geometry":{"type":"Point","coordinates":[-79.39715,43.69763]}},{"type":"Feature","properties":{"name":"St Clair","lines":["1"],"terminus":false},"geometry":{"type":"Point","coordinates":[-79.39322,43.68807]}},{"type":"Feature","properties":{"name":"Summerhill","lines":["1"],"terminus":false},"geometry":{"type":"Point","coordinates":[-79.39095,43.68271]}},{"type":"Feature","properties":{"name":"Rosedale","lines":["1"],"terminus":false},"geometry":{"type":"Point","coordinates":[-79.38853,43.67661]}},{"type":"Feature","properties":{"name":"Bloor-Yonge","lines":["1","2"],"terminus":false},"geometry":{"type":"Point","coordinates":[-79.38601,43.67067]}},{"type":"Feature","properties":{"name":"Wellesley","lines":["1"],"terminus":false},"geometry":{"type":"Point","coordinates":[-79.38383,43.66551]}},{"type":"Feature","properties":{"name":"College","lines":["1"],"terminus":false},"geometry":{"type":"Point","coordinates":[-79.38289,43.6608]}},{"type":"Feature","properties":{"name":"TMU","lines":["1"],"terminus":false},"geometry":{"type":"Point","coordinates":[-79.38105,43.65653]}},{"type":"Feature","properties":{"name":"Queen","lines":["1"],"terminus":false},"geometry":{"type":"Point","coordinates":[-79.37942,43.65274]}},{"type":"Feature","properties":{"name":"King","lines":["1"],"terminus":false},"geometry":{"type":"Point","coordinates":[-79.37783,43.64906]}},{"type":"Feature","properties":{"name":"Vaughan Metropolitan Centre","lines":["1"],"terminus":true},"geometry":{"type":"Point","coordinates":[-79.52741,43.79379]}},{"type":"Feature","properties":{"name":"St Andrew","lines":["1"],"terminus":false},"geometry":{"type":"Point","coordinates":[-79.38502,43.64793]}},{"type":"Feature","properties":{"name":"Osgoode","lines":["1"],"terminus":false},"geometry":{"type":"Point","coordinates":[-79.38673,43.65109]}},{"type":"Feature","properties":{"name":"St Patrick","lines":["1"],"terminus":false},"geometry":{"type":"Point","coordinates":[-79.38826,43.65463]}},{"type":"Feature","properties":{"name":"Queen's Park","lines":["1"],"terminus":false},"geometry":{"type":"Point","coordinates":[-79.39024,43.65992]}},{"type":"Feature","properties":{"name":"Museum","lines":["1"],"terminus":false},"geometry":{"type":"Point","coordinates":[-79.39331,43.66657]}},{"type":"Feature","properties":{"name":"St George","lines":["1","2"],"terminus":false},"geometry":{"type":"Point","coordinates":[-79.39881,43.6684]}},{"type":"Feature","properties":{"name":"Spadina","lines":["1","2"],"terminus":false},"geometry":{"type":"Point","coordinates":[-79.40458,43.66845]}},{"type":"Feature","properties":{"name":"Dupont","lines":["1"],"terminus":false},"geometry":{"type":"Point","coordinates":[-79.40688,43.67435]}},{"type":"Feature","properties":{"name":"St Clair West","lines":["1"],"terminus":false},"geometry":{"type":"Point","coordinates":[-79.41517,43.68467]}},{"type":"Feature","properties":{"name":"Cedarvale","lines":["1","5"],"terminus":false},"geometry":{"type":"Point","coordinates":[-79.43618,43.69936]}},{"type":"Feature","properties":{"name":"Glencairn","lines":["1"],"terminus":false},"geometry":{"type":"Point","coordinates":[-79.44066,43.70856]}},{"type":"Feature","properties":{"name":"Lawrence West","lines":["1"],"terminus":false},"geometry":{"type":"Point","coordinates":[-79.44397,43.71525]}},{"type":"Feature","properties":{"name":"Yorkdale","lines":["1"],"terminus":false},"geometry":{"type":"Point","coordinates":[-79.44755,43.72458]}},{"type":"Feature","properties":{"name":"Wilson","lines":["1"],"terminus":false},"geometry":{"type":"Point","coordinates":[-79.45014,43.73443]}},{"type":"Feature","properties":{"name":"Sheppard West","lines":["1"],"terminus":false},"geometry":{"type":"Point","coordinates":[-79.46233,43.74969]}},{"type":"Feature","properties":{"name":"Downsview Park","lines":["1"],"terminus":false},"geometry":{"type":"Point","coordinates":[-79.47879,43.75356]}},{"type":"Feature","properties":{"name":"Finch West","lines":["1","6"],"terminus":true},"geometry":{"type":"Point","coordinates":[-79.49107,43.76389]}},{"type":"Feature","properties":{"name":"York University","lines":["1"],"terminus":false},"geometry":{"type":"Point","coordinates":[-79.49986,43.77414]}},{"type":"Feature","properties":{"name":"Pioneer Village","lines":["1"],"terminus":false},"geometry":{"type":"Point","coordinates":[-79.50931,43.77682]}},{"type":"Feature","properties":{"name":"Highway 407","lines":["1"],"terminus":false},"geometry":{"type":"Point","coordinates":[-79.52323,43.78343]}},{"type":"Feature","properties":{"name":"Kipling","lines":["2"],"terminus":true},"geometry":{"type":"Point","coordinates":[-79.53536,43.63778]}},{"type":"Feature","properties":{"name":"Islington","lines":["2"],"terminus":false},"geometry":{"type":"Point","coordinates":[-79.52419,43.6455]}},{"type":"Feature","properties":{"name":"Royal York","lines":["2"],"terminus":false},"geometry":{"type":"Point","coordinates":[-79.5096,43.64847]}},{"type":"Feature","properties":{"name":"Old Mill","lines":["2"],"terminus":false},"geometry":{"type":"Point","coordinates":[-79.49415,43.64974]}},{"type":"Feature","properties":{"name":"Jane","lines":["2"],"terminus":false},"geometry":{"type":"Point","coordinates":[-79.48377,43.65]}},{"type":"Feature","properties":{"name":"Runnymede","lines":["2"],"terminus":false},"geometry":{"type":"Point","coordinates":[-79.4758,43.6518]}},{"type":"Feature","properties":{"name":"High Park","lines":["2"],"terminus":false},"geometry":{"type":"Point","coordinates":[-79.46784,43.6537]}},{"type":"Feature","properties":{"name":"Keele","lines":["2"],"terminus":false},"geometry":{"type":"Point","coordinates":[-79.45958,43.65559]}},{"type":"Feature","properties":{"name":"Dundas West","lines":["2"],"terminus":false},"geometry":{"type":"Point","coordinates":[-79.45192,43.65726]}},{"type":"Feature","properties":{"name":"Lansdowne","lines":["2"],"terminus":false},"geometry":{"type":"Point","coordinates":[-79.44244,43.65917]}},{"type":"Feature","properties":{"name":"Dufferin","lines":["2"],"terminus":false},"geometry":{"type":"Point","coordinates":[-79.43466,43.6604]}},{"type":"Feature","properties":{"name":"Ossington","lines":["2"],"terminus":false},"geometry":{"type":"Point","coordinates":[-79.42699,43.66221]}},{"type":"Feature","properties":{"name":"Christie","lines":["2"],"terminus":false},"geometry":{"type":"Point","coordinates":[-79.41808,43.66416]}},{"type":"Feature","properties":{"name":"Bathurst","lines":["2"],"terminus":false},"geometry":{"type":"Point","coordinates":[-79.41143,43.66577]}},{"type":"Feature","properties":{"name":"Bay","lines":["2"],"terminus":false},"geometry":{"type":"Point","coordinates":[-79.39098,43.67009]}},{"type":"Feature","properties":{"name":"Sherbourne","lines":["2"],"terminus":false},"geometry":{"type":"Point","coordinates":[-79.37617,43.67224]}},{"type":"Feature","properties":{"name":"Castle Frank","lines":["2"],"terminus":false},"geometry":{"type":"Point","coordinates":[-79.36883,43.6737]}},{"type":"Feature","properties":{"name":"Broadview","lines":["2"],"terminus":false},"geometry":{"type":"Point","coordinates":[-79.35878,43.67664]}},{"type":"Feature","properties":{"name":"Chester","lines":["2"],"terminus":false},"geometry":{"type":"Point","coordinates":[-79.35251,43.67826]}},{"type":"Feature","properties":{"name":"Pape","lines":["2"],"terminus":false},"geometry":{"type":"Point","coordinates":[-79.34494,43.6798]}},{"type":"Feature","properties":{"name":"Donlands","lines":["2"],"terminus":false},"geometry":{"type":"Point","coordinates":[-79.33836,43.68112]}},{"type":"Feature","properties":{"name":"Greenwood","lines":["2"],"terminus":false},"geometry":{"type":"Point","coordinates":[-79.33083,43.68268]}},{"type":"Feature","properties":{"name":"Coxwell","lines":["2"],"terminus":false},"geometry":{"type":"Point","coordinates":[-79.32283,43.68439]}},{"type":"Feature","properties":{"name":"Woodbine","lines":["2"],"terminus":false},"geometry":{"type":"Point","coordinates":[-79.31313,43.6865]}},{"type":"Feature","properties":{"name":"Main Street","lines":["2"],"terminus":false},"geometry":{"type":"Point","coordinates":[-79.30153,43.68909]}},{"type":"Feature","properties":{"name":"Victoria Park","lines":["2"],"terminus":false},"geometry":{"type":"Point","coordinates":[-79.28871,43.69493]}},{"type":"Feature","properties":{"name":"Warden","lines":["2"],"terminus":false},"geometry":{"type":"Point","coordinates":[-79.27905,43.71156]}},{"type":"Feature","properties":{"name":"Kennedy","lines":["2","5"],"terminus":true},"geometry":{"type":"Point","coordinates":[-79.26455,43.73226]}},{"type":"Feature","properties":{"name":"Bayview","lines":["4"],"terminus":false},"geometry":{"type":"Point","coordinates":[-79.38676,43.767]}},{"type":"Feature","properties":{"name":"Bessarion","lines":["4"],"terminus":false},"geometry":{"type":"Point","coordinates":[-79.37632,43.76923]}},{"type":"Feature","properties":{"name":"Leslie","lines":["4"],"terminus":false},"geometry":{"type":"Point","coordinates":[-79.36583,43.77109]}},{"type":"Feature","properties":{"name":"Don Mills","lines":["4"],"terminus":true},"geometry":{"type":"Point","coordinates":[-79.34722,43.77502]}},{"type":"Feature","properties":{"name":"Mount Dennis","lines":["5"],"terminus":true},"geometry":{"type":"Point","coordinates":[-79.48642,43.68784]}},{"type":"Feature","properties":{"name":"Keelesdale","lines":["5"],"terminus":false},"geometry":{"type":"Point","coordinates":[-79.47513,43.69006]}},{"type":"Feature","properties":{"name":"Caledonia","lines":["5"],"terminus":false},"geometry":{"type":"Point","coordinates":[-79.46573,43.69219]}},{"type":"Feature","properties":{"name":"Fairbank","lines":["5"],"terminus":false},"geometry":{"type":"Point","coordinates":[-79.45001,43.69571]}},{"type":"Feature","properties":{"name":"Oakwood","lines":["5"],"terminus":false},"geometry":{"type":"Point","coordinates":[-79.44327,43.69715]}},{"type":"Feature","properties":{"name":"Forest Hill","lines":["5"],"terminus":false},"geometry":{"type":"Point","coordinates":[-79.42574,43.70096]}},{"type":"Feature","properties":{"name":"Chaplin","lines":["5"],"terminus":false},"geometry":{"type":"Point","coordinates":[-79.41676,43.70287]}},{"type":"Feature","properties":{"name":"Avenue","lines":["5"],"terminus":false},"geometry":{"type":"Point","coordinates":[-79.40824,43.70469]}},{"type":"Feature","properties":{"name":"Mount Pleasant","lines":["5"],"terminus":false},"geometry":{"type":"Point","coordinates":[-79.38997,43.70845]}},{"type":"Feature","properties":{"name":"Leaside","lines":["5"],"terminus":false},"geometry":{"type":"Point","coordinates":[-79.37724,43.71105]}},{"type":"Feature","properties":{"name":"Laird","lines":["5"],"terminus":false},"geometry":{"type":"Point","coordinates":[-79.36457,43.7136]}},{"type":"Feature","properties":{"name":"Sunnybrook Park","lines":["5"],"terminus":false},"geometry":{"type":"Point","coordinates":[-79.34897,43.71733]}},{"type":"Feature","properties":{"name":"Don Valley","lines":["5"],"terminus":false},"geometry":{"type":"Point","coordinates":[-79.33896,43.72044]}},{"type":"Feature","properties":{"name":"Aga Khan Park & Museum","lines":["5"],"terminus":false},"geometry":{"type":"Point","coordinates":[-79.33272,43.72238]}},{"type":"Feature","properties":{"name":"Wynford","lines":["5"],"terminus":false},"geometry":{"type":"Point","coordinates":[-79.3267,43.72404]}},{"type":"Feature","properties":{"name":"Sloane","lines":["5"],"terminus":false},"geometry":{"type":"Point","coordinates":[-79.31258,43.72586]}},{"type":"Feature","properties":{"name":"O'Connor","lines":["5"],"terminus":false},"geometry":{"type":"Point","coordinates":[-79.30165,43.72481]}},{"type":"Feature","properties":{"name":"Pharmacy","lines":["5"],"terminus":false},"geometry":{"type":"Point","coordinates":[-79.29661,43.72583]}},{"type":"Feature","properties":{"name":"Hakimi Lebovic","lines":["5"],"terminus":false},"geometry":{"type":"Point","coordinates":[-79.29247,43.72676]}},{"type":"Feature","properties":{"name":"Golden Mile","lines":["5"],"terminus":false},"geometry":{"type":"Point","coordinates":[-79.28856,43.72763]}},{"type":"Feature","properties":{"name":"Birchmount","lines":["5"],"terminus":false},"geometry":{"type":"Point","coordinates":[-79.27694,43.73018]}},{"type":"Feature","properties":{"name":"Ionview","lines":["5"],"terminus":false},"geometry":{"type":"Point","coordinates":[-79.27218,43.73127]}},{"type":"Feature","properties":{"name":"Humber College","lines":["6"],"terminus":true},"geometry":{"type":"Point","coordinates":[-79.60146,43.72993]}},{"type":"Feature","properties":{"name":"Westmore","lines":["6"],"terminus":false},"geometry":{"type":"Point","coordinates":[-79.6007,43.73472]}},{"type":"Feature","properties":{"name":"Martin Grove","lines":["6"],"terminus":false},"geometry":{"type":"Point","coordinates":[-79.5919,43.7367]}},{"type":"Feature","properties":{"name":"Albion","lines":["6"],"terminus":false},"geometry":{"type":"Point","coordinates":[-79.58921,43.74118]}},{"type":"Feature","properties":{"name":"Stevenson","lines":["6"],"terminus":false},"geometry":{"type":"Point","coordinates":[-79.58695,43.74322]}},{"type":"Feature","properties":{"name":"Mount Olive","lines":["6"],"terminus":false},"geometry":{"type":"Point","coordinates":[-79.58179,43.74334]}},{"type":"Feature","properties":{"name":"Rowntree Mills","lines":["6"],"terminus":false},"geometry":{"type":"Point","coordinates":[-79.56855,43.74624]}},{"type":"Feature","properties":{"name":"Pearldale","lines":["6"],"terminus":false},"geometry":{"type":"Point","coordinates":[-79.56252,43.7478]}},{"type":"Feature","properties":{"name":"Duncanwoods","lines":["6"],"terminus":false},"geometry":{"type":"Point","coordinates":[-79.55756,43.74885]}},{"type":"Feature","properties":{"name":"Milvan Rumike","lines":["6"],"terminus":false},"geometry":{"type":"Point","coordinates":[-79.5523,43.74995]}},{"type":"Feature","properties":{"name":"Emery","lines":["6"],"terminus":false},"geometry":{"type":"Point","coordinates":[-79.54237,43.75203]}},{"type":"Feature","properties":{"name":"Signet Arrow","lines":["6"],"terminus":false},"geometry":{"type":"Point","coordinates":[-79.53623,43.75329]}},{"type":"Feature","properties":{"name":"Norfinch Oakdale","lines":["6"],"terminus":false},"geometry":{"type":"Point","coordinates":[-79.52426,43.75595]}},{"type":"Feature","properties":{"name":"Jane and Finch","lines":["6"],"terminus":false},"geometry":{"type":"Point","coordinates":[-79.51772,43.75729]}},{"type":"Feature","properties":{"name":"Driftwood","lines":["6"],"terminus":false},"geometry":{"type":"Point","coordinates":[-79.51336,43.75809]}},{"type":"Feature","properties":{"name":"Tobermory","lines":["6"],"terminus":false},"geometry":{"type":"Point","coordinates":[-79.50789,43.75927]}},{"type":"Feature","properties":{"name":"Sentinel","lines":["6"],"terminus":false},"geometry":{"type":"Point","coordinates":[-79.50002,43.76104]}},{"type":"Feature","properties":{"name":"Union","lines":["1"],"terminus":false},"geometry":{"type":"Point","coordinates":[-79.3806,43.6453]}}]}