{"type":"FeatureCollection", "features": [
{"type":"Feature","geometry":{"type":"LineString","coordinates":[[-79.41555,43.77974],[-79.41537,43.77903],[-79.41518,43.77833],[-79.41482,43.77692],[-79.41458,43.77604],[-79.41445,43.7755],[-79.41394,43.77356],[-79.4137,43.77268],[-79.41357,43.77215],[-79.41333,43.77126],[-79.4132,43.77073],[-79.41292,43.76967],[-79.41282,43.76932],[-79.41265,43.76861],[-79.4125,43.76805],[-79.41223,43.76683],[-79.41218,43.76666],[-79.41182,43.76506],[-79.41177,43.76488],[-79.41137,43.76311],[-79.41124,43.76257],[-79.41115,43.76204],[-79.4108,43.76081],[-79.41039,43.75922],[-79.41031,43.75886],[-79.41017,43.75833],[-79.41,43.75762],[-79.40964,43.75621],[-79.40948,43.7555],[-79.4088,43.75267],[-79.40848,43.75153],[-79.40817,43.75021],[-79.40764,43.74866],[-79.40753,43.74831],[-79.40724,43.74749],[-79.4062,43.74444],[-79.40616,43.74405],[-79.40605,43.74209],[-79.40598,43.7407],[-79.40556,43.73865],[-79.40519,43.73692],[-79.40505,43.7362],[-79.40484,43.73532],[-79.40452,43.7339],[-79.40418,43.73248],[-79.40394,43.7316],[-79.40376,43.73089],[-79.40361,43.73037],[-79.40324,43.72895],[-79.40309,43.72843],[-79.40287,43.72772],[-79.40275,43.72719],[-79.40245,43.72595],[-79.40205,43.72417],[-79.40191,43.72346],[-79.40185,43.7231],[-79.40167,43.72221],[-79.40147,43.72114],[-79.40136,43.72061],[-79.4013,43.72025],[-79.40115,43.71954],[-79.40076,43.71777],[-79.40054,43.7167],[-79.40034,43.71581],[-79.40031,43.71563],[-79.40011,43.71475],[-79.40008,43.71457],[-79.39988,43.71368],[-79.39985,43.7135],[-79.39947,43.71172],[-79.39927,43.71084],[-79.39924,43.71066],[-79.39904,43.70977],[-79.39901,43.70959],[-79.39881,43.7087],[-79.39869,43.70798],[-79.39866,43.70726],[-79.39864,43.7069],[-79.39864,43.70676],[-79.39863,43.70673],[-79.39862,43.70655],[-79.39861,43.70638],[-79.39854,43.70548],[-79.39847,43.70506],[-79.39835,43.70297],[-79.39833,43.70279],[-79.39828,43.70189],[-79.39826,43.70172],[-79.39818,43.7003],[-79.39813,43.69974],[-79.39807,43.69946],[-79.39795,43.69912],[-79.39772,43.69868],[-79.39736,43.69803],[-79.39691,43.69719],[-79.39669,43.69681],[-79.39651,43.69638],[-79.39638,43.69582],[-79.39624,43.69541],[-79.39585,43.69357],[-79.39573,43.69298],[-79.39562,43.69256],[-79.39542,43.69196],[-79.39482,43.69055],[-79.3943,43.68964],[-79.39399,43.68915],[-79.39363,43.6887],[-79.39289,43.68772],[-79.39274,43.68743],[-79.39244,43.68648],[-79.39239,43.6862],[-79.39226,43.68588],[-79.39075,43.68223],[-79.38957,43.67926],[-79.38928,43.67849],[-79.38887,43.67748],[-79.3886,43.67678],[-79.38811,43.67554],[-79.38779,43.67493],[-79.38754,43.67459],[-79.38715,43.67414],[-79.3866,43.67346],[-79.38636,43.6731],[-79.38618,43.67274],[-79.38598,43.67207],[-79.38584,43.67136],[-79.3858,43.67119],[-79.38576,43.67101],[-79.38572,43.67083],[-79.38554,43.66992],[-79.3854,43.66932],[-79.38375,43.6653],[-79.3835,43.6647],[-79.38338,43.66435],[-79.38335,43.66417],[-79.38335,43.66381],[-79.38348,43.66285],[-79.38347,43.66253],[-79.38339,43.66211],[-79.3832,43.66154],[-79.38299,43.66102],[-79.38276,43.66051],[-79.38262,43.66016],[-79.38239,43.65965],[-79.38227,43.65935],[-79.38187,43.65845],[-79.38173,43.6581],[-79.3812,43.6569],[-79.38106,43.65656],[-79.38082,43.65605],[-79.38024,43.65467],[-79.38016,43.6545],[-79.37951,43.65295],[-79.37913,43.6521],[-79.37899,43.65175],[-79.37808,43.6497],[-79.37773,43.64883],[-79.37767,43.64865],[-79.37732,43.6478],[-79.37716,43.64736],[-79.37713,43.6472],[-79.37719,43.64687],[-79.37743,43.64656],[-79.3778,43.64632],[-79.37801,43.64623],[-79.37847,43.64608],[-79.37886,43.646],[-79.37883,43.64595],[-79.37936,43.6458],[-79.3803,43.6456],[-79.38104,43.64543],[-79.38198,43.64526],[-79.38238,43.64526],[-79.38262,43.64529],[-79.38324,43.64543],[-79.38355,43.64558],[-79.38377,43.64578],[-79.38407,43.64626],[-79.38463,43.64725],[-79.38511,43.64808],[-79.38533,43.64848],[-79.38563,43.64895],[-79.38611,43.64973],[-79.38632,43.65013],[-79.3865,43.65057],[-79.38688,43.65142],[-79.38702,43.65177],[-79.38732,43.65245],[-79.38761,43.65314],[-79.38821,43.65451],[-79.38858,43.65537],[-79.38923,43.65692],[-79.38931,43.65709],[-79.39,43.65874],[-79.39013,43.65914],[-79.39028,43.66018],[-79.39036,43.66089],[-79.39048,43.66162],[-79.39061,43.66217],[-79.39074,43.66258],[-79.39087,43.6629],[-79.39118,43.66358],[-79.39169,43.66475],[-79.39194,43.66505],[-79.39291,43.66584],[-79.39304,43.66596],[-79.39316,43.66621],[-79.39361,43.66731],[-79.39384,43.66785],[-79.39407,43.66818],[-79.39424,43.66833],[-79.39457,43.66857],[-79.39489,43.6687],[-79.3952,43.66879],[-79.39566,43.66886],[-79.39648,43.66886],[-79.39676,43.66883],[-79.39881,43.6684],[-79.40081,43.66798],[-79.40105,43.66792],[-79.402,43.66772],[-79.40295,43.66751],[-79.40296,43.66751],[-79.40305,43.6675],[-79.40316,43.66749],[-79.40346,43.66755],[-79.40384,43.66769],[-79.40408,43.66782],[-79.40428,43.66797],[-79.40451,43.66828],[-79.40517,43.66988],[-79.40537,43.67043],[-79.40747,43.67589],[-79.4078,43.67676],[-79.40788,43.67693],[-79.4083,43.67797],[-79.40838,43.67814],[-79.40881,43.67917],[-79.40955,43.68089],[-79.40978,43.6814],[-79.40991,43.68161],[-79.41011,43.68184],[-79.41036,43.68202],[-79.41054,43.6821],[-79.41146,43.68257],[-79.41218,43.68284],[-79.41375,43.68322],[-79.41413,43.68337],[-79.41453,43.68365],[-79.41485,43.68406],[-79.4151,43.68453],[-79.41569,43.68571],[-79.41581,43.68593],[-79.41642,43.68688],[-79.4167,43.68735],[-79.41697,43.68788],[-79.41725,43.68835],[-79.41771,43.68887],[-79.41813,43.68924],[-79.41875,43.68961],[-79.41947,43.6899],[-79.42017,43.69012],[-79.421,43.6903],[-79.42199,43.69046],[-79.42445,43.69073],[-79.42518,43.69082],[-79.42588,43.69089],[-79.42689,43.69101],[-79.42713,43.69103],[-79.42788,43.69113],[-79.42821,43.69119],[-79.42888,43.69136],[-79.42947,43.69164],[-79.43075,43.69255],[-79.43109,43.69281],[-79.43197,43.69344],[-79.43267,43.69395],[-79.43371,43.69472],[-79.43388,43.69483],[-79.43433,43.69521],[-79.43459,43.69553],[-79.43475,43.69581],[-79.43491,43.69623],[-79.43545,43.69758],[-79.43551,43.69776],[-79.43586,43.69862],[-79.43594,43.69879],[-79.43606,43.6991],[-79.43618,43.69937],[-79.43644,43.70005],[-79.43707,43.70173],[-79.4378,43.70353],[-79.43826,43.70463],[-79.43853,43.70518],[-79.4388,43.70568],[-79.43906,43.70612],[-79.44024,43.70793],[-79.4417,43.71014],[-79.44202,43.71064],[-79.44219,43.71093],[-79.44273,43.71216],[-79.44304,43.71284],[-79.44346,43.71387],[-79.44371,43.71457],[-79.44398,43.71526],[-79.4443,43.71613],[-79.44449,43.71658],[-79.44483,43.71752],[-79.4453,43.71873],[-79.44549,43.71926],[-79.44586,43.72018],[-79.44691,43.72288],[-79.44724,43.72374],[-79.44736,43.72409],[-79.44757,43.72461],[-79.4479,43.72548],[-79.44804,43.72582],[-79.44816,43.72617],[-79.44826,43.72654],[-79.44841,43.72741],[-79.44881,43.72955],[-79.4489,43.73008],[-79.44923,43.73185],[-79.44963,43.73301],[-79.44992,43.73378],[-79.45069,43.73597],[-79.45079,43.73623],[-79.45096,43.73658],[-79.45127,43.73698],[-79.45147,43.73718],[-79.45223,43.73788],[-79.45388,43.73942],[-79.45404,43.73956],[-79.4551,43.74054],[-79.45525,43.74069],[-79.45753,43.74279],[-79.45854,43.74373],[-79.45894,43.74417],[-79.46017,43.74549],[-79.46056,43.74592],[-79.46089,43.74632],[-79.46129,43.74693],[-79.46171,43.74768],[-79.46179,43.74802],[-79.46185,43.7484],[-79.46239,43.74986],[-79.4628,43.7509],[-79.46295,43.75124],[-79.46321,43.75171],[-79.46355,43.75207],[-79.46417,43.75247],[-79.4647,43.75267],[-79.4678,43.75344],[-79.4692,43.75378],[-79.47013,43.75402],[-79.47092,43.75418],[-79.4711,43.7542],[-79.47177,43.75423],[-79.47275,43.75426],[-79.47416,43.75426],[-79.47486,43.75423],[-79.47535,43.75418],[-79.47632,43.75406],[-79.47728,43.75388],[-79.47991,43.75333],[-79.48015,43.75327],[-79.48147,43.75299],[-79.482,43.7529],[-79.48253,43.75284],[-79.4831,43.75283],[-79.48344,43.75284],[-79.48403,43.75289],[-79.48465,43.753],[-79.48552,43.7532],[-79.48615,43.7534],[-79.48668,43.75361],[-79.48716,43.75387],[-79.48765,43.7542],[-79.48799,43.75451],[-79.48819,43.75473],[-79.48868,43.75539],[-79.48881,43.75559],[-79.48916,43.75635],[-79.48934,43.75702],[-79.48962,43.75819],[-79.4898,43.75889],[-79.48992,43.75943],[-79.49003,43.75984],[-79.4909,43.7634],[-79.49099,43.76353],[-79.49102,43.76358],[-79.49114,43.76375],[-79.49148,43.76509],[-79.49176,43.76615],[-79.49189,43.76668],[-79.49213,43.76756],[-79.49226,43.7681],[-79.49236,43.76845],[-79.49263,43.76969],[-79.49277,43.77039],[-79.49296,43.771],[-79.4932,43.77151],[-79.49358,43.77196],[-79.49406,43.77234],[-79.49461,43.7726],[-79.49512,43.77281],[-79.49575,43.77298],[-79.49735,43.77344],[-79.49897,43.7739],[-79.5006,43.77434],[-79.50106,43.77448],[-79.50176,43.77467],[-79.50222,43.77481],[-79.50338,43.77513],[-79.50384,43.77527],[-79.50454,43.77546],[-79.505,43.7756],[-79.50685,43.77612],[-79.50731,43.77626],[-79.50801,43.77645],[-79.50848,43.77659],[-79.50931,43.77682],[-79.51102,43.77731],[-79.51264,43.77772],[-79.51475,43.77826],[-79.51614,43.77866],[-79.51684,43.77885],[-79.5173,43.779],[-79.51819,43.77932],[-79.5187,43.77949],[-79.51949,43.77983],[-79.52037,43.78022],[-79.52104,43.78069],[-79.52174,43.78132],[-79.52219,43.78184],[-79.52276,43.78263],[-79.52305,43.78313],[-79.52355,43.78395],[-79.52365,43.78413],[-79.52597,43.78906],[-79.5261,43.78941],[-79.5264,43.79029],[-79.52647,43.79046],[-79.52693,43.79177],[-79.52725,43.79317],[-79.52748,43.79408]]},"properties":{"line":"1","name":"Line 1 Yonge–University","color":"#FFC425"}},
{"type":"Feature","geometry":{"type":"LineString","coordinates":[[-79.53536,43.63778],[-79.53477,43.63827],[-79.53433,43.63857],[-79.53373,43.63905],[-79.53337,43.63936],[-79.53251,43.64002],[-79.53167,43.6407],[-79.53155,43.64081],[-79.53042,43.64176],[-79.5298,43.64229],[-79.52948,43.64255],[-79.52876,43.64317],[-79.52851,43.64346],[-79.52812,43.644],[-79.52777,43.64436],[-79.52743,43.6446],[-79.52714,43.64475],[-79.52672,43.64492],[-79.52637,43.64503],[-79.52567,43.64519],[-79.52358,43.64563],[-79.52325,43.64563],[-79.52277,43.64572],[-79.52182,43.64593],[-79.52087,43.64615],[-79.52016,43.6463],[-79.51925,43.64651],[-79.51865,43.64667],[-79.51733,43.64698],[-79.51686,43.64708],[-79.51543,43.64741],[-79.51495,43.64751],[-79.51329,43.64789],[-79.51185,43.6482],[-79.5089,43.64856],[-79.50769,43.64876],[-79.50601,43.64907],[-79.50504,43.64927],[-79.50481,43.64933],[-79.50409,43.64948],[-79.50386,43.64954],[-79.50189,43.64997],[-79.50101,43.65013],[-79.5002,43.65026],[-79.49909,43.6504],[-79.49821,43.6505],[-79.49767,43.65052],[-79.4972,43.6505],[-79.49646,43.65044],[-79.49611,43.65039],[-79.4957,43.65029],[-79.49525,43.65014],[-79.49481,43.64997],[-79.49258,43.64917],[-79.49236,43.64908],[-79.49125,43.64868],[-79.49081,43.64853],[-79.49006,43.64834],[-79.48964,43.64827],[-79.48919,43.64822],[-79.48872,43.6482],[-79.48824,43.64824],[-79.48778,43.64834],[-79.48719,43.64855],[-79.48662,43.64885],[-79.48595,43.64927],[-79.48552,43.6495],[-79.48494,43.6497],[-79.48381,43.64999],[-79.48357,43.65004],[-79.48282,43.65023],[-79.48249,43.65035],[-79.481,43.65067],[-79.48034,43.65082],[-79.47933,43.65103],[-79.47909,43.65109],[-79.47718,43.65149],[-79.47671,43.6516],[-79.47599,43.65175],[-79.47528,43.65192],[-79.4748,43.65202],[-79.47409,43.65219],[-79.47362,43.65229],[-79.47191,43.65269],[-79.46961,43.65328],[-79.46866,43.6535],[-79.46796,43.65368],[-79.46772,43.65373],[-79.46702,43.65391],[-79.46631,43.65407],[-79.46571,43.65422],[-79.4645,43.65449],[-79.46384,43.65465],[-79.46322,43.65478],[-79.46085,43.65532],[-79.45989,43.65552],[-79.45918,43.65568],[-79.45846,43.65583],[-79.45816,43.65586],[-79.45773,43.65594],[-79.45654,43.65622],[-79.45463,43.65662],[-79.4544,43.65668],[-79.45348,43.65688],[-79.4525,43.65712],[-79.45226,43.65717],[-79.45114,43.65745],[-79.45061,43.65756],[-79.44942,43.65783],[-79.44801,43.65817],[-79.4461,43.65857],[-79.44562,43.65866],[-79.44305,43.65909],[-79.44177,43.65926],[-79.44104,43.65937],[-79.44007,43.65949],[-79.43983,43.65953],[-79.43812,43.65975],[-79.43715,43.65989],[-79.43667,43.65997],[-79.43547,43.66022],[-79.43452,43.66043],[-79.43358,43.66066],[-79.43334,43.66071],[-79.43217,43.66101],[-79.43193,43.66106],[-79.43123,43.66124],[-79.43005,43.66153],[-79.42886,43.6618],[-79.42791,43.662],[-79.42625,43.66238],[-79.42567,43.66248],[-79.42529,43.66257],[-79.42433,43.66277],[-79.4241,43.66283],[-79.42338,43.66298],[-79.42267,43.66316],[-79.42172,43.66336],[-79.42077,43.66358],[-79.41982,43.66378],[-79.41863,43.66405],[-79.41744,43.6643],[-79.41697,43.66443],[-79.41393,43.66521],[-79.41203,43.66563],[-79.41132,43.6658],[-79.4106,43.66595],[-79.40963,43.66612],[-79.40747,43.66654],[-79.40651,43.66674],[-79.40627,43.66678],[-79.40507,43.66703],[-79.40481,43.6671],[-79.40418,43.66723],[-79.40365,43.66735],[-79.40318,43.66746],[-79.40294,43.66752],[-79.4027,43.66757],[-79.40199,43.66774],[-79.40127,43.66788],[-79.40056,43.66804],[-79.39881,43.6684],[-79.39764,43.66865],[-79.397,43.66887],[-79.39604,43.66906],[-79.39461,43.66936],[-79.39437,43.6694],[-79.39293,43.6697],[-79.39269,43.66974],[-79.39101,43.67009],[-79.39077,43.67013],[-79.38911,43.67048],[-79.38874,43.67058],[-79.3885,43.67062],[-79.38794,43.67068],[-79.3877,43.67072],[-79.38699,43.67077],[-79.3865,43.67079],[-79.38575,43.67084],[-79.3855,43.67085],[-79.38501,43.67088],[-79.38476,43.67088],[-79.38399,43.67093],[-79.3836,43.67097],[-79.38232,43.67124],[-79.38184,43.67133],[-79.37896,43.67193],[-79.37793,43.67213],[-79.3773,43.67222],[-79.37673,43.67224],[-79.37578,43.67225],[-79.37499,43.67225],[-79.37489,43.67226],[-79.374,43.67226],[-79.37376,43.67227],[-79.37252,43.67227],[-79.37199,43.6723],[-79.37151,43.67239],[-79.37116,43.67249],[-79.37049,43.67276],[-79.36999,43.67303],[-79.36847,43.67392],[-79.36784,43.67427],[-79.36727,43.67454],[-79.36689,43.67468],[-79.36665,43.67473],[-79.36111,43.67582],[-79.36052,43.67594],[-79.35976,43.67615],[-79.35953,43.67625],[-79.35852,43.67677],[-79.35781,43.67712],[-79.35709,43.67737],[-79.35636,43.67753],[-79.35564,43.67766],[-79.35516,43.67776],[-79.35444,43.67789],[-79.35434,43.67789],[-79.35347,43.67806],[-79.35131,43.67851],[-79.35107,43.67855],[-79.34964,43.67885],[-79.3494,43.67889],[-79.34724,43.67934],[-79.347,43.67938],[-79.34556,43.67968],[-79.34533,43.67972],[-79.34413,43.67997],[-79.34389,43.68001],[-79.34269,43.68026],[-79.34245,43.6803],[-79.34149,43.6805],[-79.34029,43.68073],[-79.33909,43.68098],[-79.33885,43.68102],[-79.33765,43.68127],[-79.33741,43.68131],[-79.33455,43.68191],[-79.32809,43.68326],[-79.32762,43.68337],[-79.32427,43.68407],[-79.32403,43.68413],[-79.32284,43.68438],[-79.32237,43.68449],[-79.32141,43.68469],[-79.32094,43.6848],[-79.31998,43.685],[-79.31975,43.68506],[-79.31855,43.68531],[-79.31832,43.68537],[-79.31736,43.68557],[-79.31689,43.68568],[-79.31593,43.68588],[-79.3157,43.68594],[-79.3145,43.68619],[-79.31331,43.68646],[-79.31165,43.68682],[-79.30809,43.68762],[-79.30714,43.68783],[-79.30642,43.688],[-79.30571,43.68815],[-79.30476,43.68837],[-79.30428,43.68847],[-79.30191,43.689],[-79.30049,43.68933],[-79.29954,43.68956],[-79.29881,43.68978],[-79.29853,43.68988],[-79.29788,43.69019],[-79.29681,43.69074],[-79.29511,43.69166],[-79.29367,43.69247],[-79.29288,43.6929],[-79.29171,43.69356],[-79.29132,43.69377],[-79.29094,43.694],[-79.29026,43.69434],[-79.28902,43.69481],[-79.28852,43.69501],[-79.28792,43.69523],[-79.28726,43.69549],[-79.28674,43.69566],[-79.28647,43.69579],[-79.28572,43.69608],[-79.28525,43.69625],[-79.28442,43.69657],[-79.28397,43.69676],[-79.28356,43.69696],[-79.28326,43.69713],[-79.28281,43.69743],[-79.28231,43.69783],[-79.28195,43.69819],[-79.28163,43.6986],[-79.28141,43.69893],[-79.28115,43.69944],[-79.28097,43.69998],[-79.2809,43.70034],[-79.28054,43.70248],[-79.28052,43.70266],[-79.28016,43.70481],[-79.28014,43.70498],[-79.27966,43.70784],[-79.27945,43.70891],[-79.2793,43.70972],[-79.27928,43.71012],[-79.27911,43.71123],[-79.27896,43.71213],[-79.27869,43.71334],[-79.27857,43.71409],[-79.27845,43.71513],[-79.27832,43.71559],[-79.27812,43.71619],[-79.27778,43.71709],[-79.27763,43.71744],[-79.27697,43.7188],[-79.27545,43.72196],[-79.27521,43.72247],[-79.27478,43.72325],[-79.27454,43.7236],[-79.27368,43.72453],[-79.26851,43.73007],[-79.26809,43.73047],[-79.26689,43.73124],[-79.26644,43.73148],[-79.26574,43.7318],[-79.26531,43.73197],[-79.26492,43.7321],[-79.26455,43.73226]]},"properties":{"line":"2","name":"Line 2 Bloor–Danforth","color":"#00A64F"}},
{"type":"Feature","geometry":{"type":"LineString","coordinates":[[-79.40981,43.76175],[-79.40861,43.762],[-79.40814,43.76211],[-79.40694,43.76236],[-79.40647,43.76247],[-79.40551,43.76267],[-79.40504,43.76278],[-79.40408,43.76298],[-79.40337,43.76314],[-79.40219,43.76342],[-79.40171,43.76352],[-79.40053,43.7638],[-79.3991,43.76412],[-79.39887,43.76418],[-79.39744,43.7645],[-79.39531,43.765],[-79.39483,43.7651],[-79.39365,43.76538],[-79.3927,43.76559],[-79.39057,43.76609],[-79.39009,43.76619],[-79.3882,43.76663],[-79.38633,43.76711],[-79.3861,43.76718],[-79.38549,43.76732],[-79.38504,43.76737],[-79.38464,43.7675],[-79.38442,43.76755],[-79.38156,43.76815],[-79.3794,43.7686],[-79.37917,43.76866],[-79.37869,43.76875],[-79.37701,43.7691],[-79.37629,43.76923],[-79.37581,43.76933],[-79.37436,43.76958],[-79.3734,43.76976],[-79.37291,43.76984],[-79.37195,43.77002],[-79.37122,43.77014],[-79.37026,43.77032],[-79.36954,43.77044],[-79.36857,43.77062],[-79.36785,43.77074],[-79.36642,43.771],[-79.36617,43.77103],[-79.36472,43.77126],[-79.36399,43.77136],[-79.36301,43.77152],[-79.36205,43.77173],[-79.36134,43.7719],[-79.36087,43.772],[-79.36015,43.77217],[-79.35968,43.77227],[-79.35897,43.77244],[-79.35849,43.77254],[-79.35778,43.77271],[-79.35731,43.77281],[-79.35659,43.77298],[-79.35612,43.77308],[-79.35541,43.77325],[-79.35493,43.77335],[-79.35422,43.77352],[-79.35303,43.77378],[-79.35232,43.77395],[-79.35185,43.77405],[-79.35113,43.77422],[-79.35066,43.77432],[-79.34995,43.77449],[-79.34947,43.77459],[-79.34876,43.77476],[-79.34804,43.7749],[-79.34738,43.77498],[-79.34722,43.77502]]},"properties":{"line":"4","name":"Line 4 Sheppard","color":"#A8518A"}},
{"type":"Feature","geometry":{"type":"LineString","coordinates":[[-79.48642,43.68784],[-79.48487,43.68818],[-79.48346,43.68848],[-79.48249,43.6887],[-79.48204,43.68879],[-79.4813,43.6889],[-79.48047,43.68898],[-79.47995,43.68904],[-79.47892,43.68923],[-79.47793,43.68943],[-79.47696,43.68964],[-79.47513,43.69006],[-79.4745,43.6902],[-79.46858,43.69159],[-79.46675,43.69197],[-79.46573,43.69219],[-79.46317,43.69275],[-79.4503,43.69565],[-79.44966,43.69579],[-79.44327,43.69715],[-79.44277,43.69726],[-79.43607,43.69876],[-79.43591,43.69879],[-79.43474,43.69905],[-79.43383,43.69924],[-79.42574,43.70096],[-79.42483,43.70114],[-79.41741,43.70273],[-79.40856,43.70463],[-79.40824,43.70469],[-79.40527,43.70531],[-79.39853,43.7067],[-79.39816,43.70678],[-79.39672,43.70707],[-79.39582,43.70726],[-79.38529,43.7094],[-79.38424,43.70961],[-79.37835,43.71081],[-79.37724,43.71105],[-79.36695,43.71311],[-79.36639,43.71322],[-79.36482,43.71355],[-79.3627,43.71398],[-79.36132,43.71427],[-79.36013,43.71451],[-79.35747,43.71506],[-79.35512,43.71551],[-79.35471,43.71561],[-79.35391,43.71583],[-79.35323,43.71603],[-79.35131,43.71657],[-79.34967,43.7171],[-79.34901,43.71732],[-79.3476,43.71776],[-79.34719,43.71788],[-79.34622,43.71819],[-79.34547,43.71842],[-79.34144,43.71969],[-79.34018,43.72005],[-79.33889,43.72046],[-79.33557,43.72149],[-79.33272,43.72238],[-79.33185,43.72264],[-79.33168,43.7227],[-79.3298,43.72324],[-79.32841,43.7236],[-79.3273,43.72388],[-79.3267,43.72404],[-79.32616,43.72417],[-79.32398,43.72474],[-79.32304,43.72498],[-79.32024,43.72571],[-79.31954,43.72588],[-79.31849,43.72609],[-79.31708,43.72623],[-79.31625,43.72626],[-79.31597,43.72626],[-79.31508,43.72622],[-79.31462,43.72617],[-79.31202,43.72577],[-79.3114,43.72568],[-79.30881,43.72528],[-79.306,43.72488],[-79.305,43.72473],[-79.30451,43.72468],[-79.30389,43.72465],[-79.30348,43.72465],[-79.30296,43.72467],[-79.30242,43.72472],[-79.30108,43.72488],[-79.30075,43.72491],[-79.30015,43.725],[-79.29972,43.72509],[-79.29859,43.72539],[-79.29816,43.72549],[-79.29661,43.72583],[-79.29605,43.72596],[-79.29444,43.72631],[-79.29247,43.72676],[-79.29006,43.7273],[-79.28788,43.72778],[-79.28437,43.72857],[-79.28243,43.72899],[-79.28057,43.7294],[-79.28017,43.72948],[-79.27812,43.72992],[-79.27764,43.73003],[-79.27638,43.7303],[-79.27542,43.73052],[-79.27403,43.73083],[-79.27113,43.73152],[-79.26827,43.73219],[-79.26739,43.73234],[-79.26571,43.7326],[-79.26448,43.7328]]},"properties":{"line":"5","name":"Line 5 Eglinton","color":"#F58426"}},
{"type":"Feature","geometry":{"type":"LineString","coordinates":[[-79.60146,43.72991],[-79.60168,43.73043],[-79.60206,43.73121],[-79.60254,43.73224],[-79.60293,43.73311],[-79.60323,43.7338],[-79.60323,43.73393],[-79.60314,43.73409],[-79.60286,43.73422],[-79.60148,43.73454],[-79.60114,43.73461],[-79.59959,43.73498],[-79.59887,43.73514],[-79.59863,43.73518],[-79.59767,43.73538],[-79.59601,43.73576],[-79.59483,43.73604],[-79.59435,43.73614],[-79.5915,43.73679],[-79.59085,43.73696],[-79.59058,43.73707],[-79.59027,43.73727],[-79.59008,43.7375],[-79.58997,43.73775],[-79.5899,43.73828],[-79.58992,43.73856],[-79.58991,43.73873],[-79.58981,43.73963],[-79.58974,43.73995],[-79.58951,43.7405],[-79.58916,43.74129],[-79.58883,43.74208],[-79.58867,43.74238],[-79.58853,43.74255],[-79.58822,43.74281],[-79.58798,43.74294],[-79.58768,43.74306],[-79.58745,43.74312],[-79.58655,43.7433],[-79.58575,43.74345],[-79.58551,43.74347],[-79.58508,43.74346],[-79.58474,43.74342],[-79.58422,43.74332],[-79.58362,43.74323],[-79.58337,43.74321],[-79.58288,43.74321],[-79.58241,43.74325],[-79.58117,43.74344],[-79.57971,43.74364],[-79.57899,43.7438],[-79.57769,43.7441],[-79.573,43.74521],[-79.57109,43.74561],[-79.57062,43.74572],[-79.56757,43.7465],[-79.56619,43.74685],[-79.56547,43.74705],[-79.56455,43.74733],[-79.56408,43.74746],[-79.5636,43.74757],[-79.56251,43.7478],[-79.56207,43.7479],[-79.5607,43.74817],[-79.55856,43.74864],[-79.55721,43.74892],[-79.5566,43.74906],[-79.55456,43.7495],[-79.55401,43.74958],[-79.55208,43.75],[-79.55041,43.75035],[-79.55017,43.75041],[-79.54587,43.75131],[-79.54445,43.75164],[-79.54324,43.75186],[-79.54188,43.75212],[-79.54156,43.75217],[-79.53987,43.75249],[-79.53844,43.75279],[-79.53723,43.75308],[-79.53606,43.75332],[-79.53583,43.75338],[-79.53439,43.75368],[-79.53391,43.75377],[-79.53354,43.75388],[-79.53297,43.754],[-79.532,43.75417],[-79.53128,43.75432],[-79.5303,43.75454],[-79.52844,43.75498],[-79.52796,43.75508],[-79.52607,43.75553],[-79.52536,43.75569],[-79.5245,43.7559],[-79.52158,43.75659],[-79.5211,43.75671],[-79.51991,43.75697],[-79.51918,43.7571],[-79.51821,43.75722],[-79.51797,43.75726],[-79.51625,43.75747],[-79.51596,43.75751],[-79.51553,43.7576],[-79.51458,43.75782],[-79.51244,43.75829],[-79.51076,43.75867],[-79.5104,43.75871],[-79.50503,43.75991],[-79.5048,43.75997],[-79.50408,43.76012],[-79.50123,43.76076],[-79.50052,43.76093],[-79.49933,43.76119],[-79.49838,43.76141],[-79.49767,43.76156],[-79.49671,43.76178],[-79.49576,43.76198],[-79.49552,43.76204],[-79.49458,43.76224],[-79.49417,43.76236],[-79.49351,43.76264],[-79.49327,43.76278],[-79.49309,43.76283],[-79.49263,43.76304],[-79.49234,43.76313],[-79.49221,43.76315],[-79.49194,43.76322],[-79.4915,43.76332],[-79.49129,43.76337],[-79.49107,43.76342],[-79.49085,43.76347]]},"properties":{"line":"6","name":"Line 6 Finch West","color":"#959595"}}
]}