{"type": "Feature", "properties": {"osm_id": 15027443, "id": 15027443, "name": "Hyderabad Metropolitan Region", "name_local": "Hyderabad Metropolitan Region", "boundary": "local_authority", "admin_level": "7", "type_tags": {"official_name": "Hyderabad Metropolitan Development Authority", "wikidata": "Q24949051"}, "last_edit": "2025-07-30T12:00:10Z", "version": 8}, "geometry": {"type": "Polygon", "coordinates": [[[78.5595833, 16.9834789], [78.5577897, 16.9863605], [78.5553293, 16.9858228], [78.5504394, 16.9868316], [78.5429126, 16.9868105], [78.5407942, 16.9870916], [78.539329, 16.987687], [78.5376855, 16.9876822], [78.5333807, 16.9897428], [78.5326883, 16.9906756], [78.5299236, 16.9909725], [78.5227113, 16.9937144], [78.5166676, 17.0000268], [78.5149755, 17.0007195], [78.5139112, 17.0027107], [78.5108653, 17.0050316], [78.5090932, 17.0059436], [78.5076886, 17.0074642], [78.504323, 17.0086597], [78.5034708, 17.0086028], [78.4950672, 17.0140423], [78.4944746, 17.0180286], [78.4931274, 17.0159844], [78.4928931, 17.0143516], [78.4931926, 17.0142503], [78.4918667, 17.0098856], [78.4897823, 17.0073921], [78.4894541, 17.0039306], [78.4880759, 17.0034279], [78.4828587, 16.9983128], [78.4828991, 16.9974599], [78.4820579, 16.9964453], [78.4807312, 16.9960634], [78.4782049, 16.9932522], [78.4744661, 16.9902536], [78.4720325, 16.9899663], [78.4713232, 16.9891394], [78.4704186, 16.989127], [78.4700832, 16.9894129], [78.4685954, 16.9890116], [78.467827, 16.9881849], [78.4680736, 16.9876577], [78.4639537, 16.986316], [78.4624823, 16.9852743], [78.4620198, 16.9853243], [78.4591559, 16.9839554], [78.4603628, 16.9903024], [78.4601841, 16.9928144], [78.4554413, 16.9941553], [78.4569254, 16.9985839], [78.4510087, 17.0000734], [78.443667, 17.0032287], [78.4416619, 17.0029504], [78.4376058, 17.0055243], [78.4358904, 17.0070822], [78.4292557, 17.0095514], [78.4199987, 17.0142556], [78.4172783, 17.0145341], [78.414973, 17.0153015], [78.4040163, 17.0142893], [78.4028598, 17.0147511], [78.4015999, 17.014822], [78.3973967, 17.0178062], [78.3959626, 17.0192831], [78.3945158, 17.0192736], [78.3909276, 17.0212163], [78.3894987, 17.021509], [78.3858049, 17.0232192], [78.3818999, 17.0278561], [78.377077, 17.0280982], [78.3769913, 17.0267592], [78.3743148, 17.0278788], [78.369757, 17.0277215], [78.3702177, 17.028679], [78.3699591, 17.0316516], [78.368956, 17.0317824], [78.3675556, 17.0337926], [78.3674899, 17.0343949], [78.3659909, 17.0358101], [78.364512, 17.0366525], [78.3639783, 17.0373802], [78.3634376, 17.0383237], [78.3640445, 17.0400639], [78.3634157, 17.0410532], [78.3594253, 17.0433851], [78.3551478, 17.0446605], [78.3534848, 17.0455382], [78.3502892, 17.0459674], [78.3484035, 17.0466005], [78.3458353, 17.0464573], [78.3447124, 17.0470641], [78.3434893, 17.0471546], [78.3382545, 17.0461933], [78.3378783, 17.0454663], [78.3364346, 17.0449274], [78.3362218, 17.0431834], [78.3318021, 17.042688], [78.3229819, 17.0444973], [78.3195503, 17.046586], [78.3173221, 17.0499826], [78.3164184, 17.0511429], [78.3158019, 17.051439], [78.3140211, 17.0502469], [78.3129694, 17.0477573], [78.3116991, 17.0459709], [78.3098015, 17.0457447], [78.3078798, 17.0450393], [78.3038664, 17.0447151], [78.3010746, 17.0417784], [78.30098, 17.0411154], [78.2992663, 17.0392378], [78.2975801, 17.0356547], [78.2974255, 17.034626], [78.296452, 17.0330842], [78.2951044, 17.0338415], [78.2939048, 17.0329541], [78.293873, 17.032434], [78.2949842, 17.0313521], [78.2942271, 17.0303795], [78.2936568, 17.0284853], [78.2932181, 17.024095], [78.2958326, 17.0171304], [78.2942289, 17.014298], [78.289846, 17.0136169], [78.2890998, 17.0132128], [78.2891505, 17.0134408], [78.2882247, 17.013784], [78.2861457, 17.0165323], [78.2829943, 17.022012], [78.2814161, 17.0221502], [78.2779529, 17.0214163], [78.2773095, 17.0219216], [78.2753137, 17.0213193], [78.2705967, 17.0207756], [78.2631254, 17.0206472], [78.2625946, 17.0218524], [78.2609093, 17.0239849], [78.2552308, 17.0266995], [78.2542784, 17.0219005], [78.2528704, 17.0182233], [78.2480132, 17.0120065], [78.2477741, 17.0120377], [78.2496758, 17.007796], [78.2490913, 17.0011843], [78.248507, 16.998504], [78.2534565, 16.9980352], [78.2572069, 16.9972566], [78.2609398, 16.9970235], [78.2638983, 16.995631], [78.2674002, 16.9946403], [78.2676936, 16.995067], [78.2683817, 16.9951291], [78.2716935, 16.9948625], [78.2734511, 16.9908091], [78.2729065, 16.9859086], [78.2707006, 16.9756066], [78.2695657, 16.9651385], [78.2692433, 16.9638277], [78.2634115, 16.9642845], [78.2606887, 16.9621105], [78.2586744, 16.9623808], [78.2500859, 16.9623468], [78.2425687, 16.9634756], [78.240805, 16.964073], [78.2378937, 16.9580783], [78.2341222, 16.9472201], [78.2341137, 16.9408297], [78.2310772, 16.9407593], [78.2230234, 16.9397221], [78.2200347, 16.9398045], [78.2179451, 16.942974], [78.2143828, 16.9437661], [78.2135472, 16.9445764], [78.2133311, 16.9444198], [78.2110899, 16.9468026], [78.2113417, 16.9483763], [78.2121234, 16.9497953], [78.212203, 16.9520357], [78.2114718, 16.9527351], [78.2089856, 16.9537835], [78.2064905, 16.9541269], [78.204052, 16.9540617], [78.2006139, 16.9552766], [78.2005317, 16.9565099], [78.1924406, 16.9634508], [78.1904238, 16.965859], [78.1874203, 16.9684524], [78.1858045, 16.9706009], [78.182283, 16.9725414], [78.18132, 16.9735693], [78.1812117, 16.9744715], [78.1816103, 16.9789034], [78.1828881, 16.9816576], [78.1839495, 16.9825577], [78.1855238, 16.9848199], [78.1857412, 16.9891566], [78.1852732, 16.9905255], [78.1823478, 16.9919695], [78.1770732, 16.9979323], [78.1755794, 17.0022585], [78.1756819, 17.0026709], [78.1739811, 17.0055895], [78.1726504, 17.0061123], [78.1717363, 17.0060717], [78.1710999, 17.0053622], [78.1696112, 17.0049613], [78.165941, 17.0058305], [78.1660336, 17.0069634], [78.1653997, 17.0082469], [78.1639284, 17.0097886], [78.1622927, 17.0094834], [78.1603811, 17.0114591], [78.1557767, 17.0111666], [78.1541565, 17.0107868], [78.1509326, 17.0107985], [78.1422975, 17.0097567], [78.1384464, 17.0105696], [78.1362075, 16.990768], [78.1301036, 16.9927326], [78.1236588, 16.9960136], [78.1196372, 16.9962044], [78.1195208, 16.9924097], [78.119063, 16.9913532], [78.1187797, 16.9880809], [78.1182162, 16.9867779], [78.1186561, 16.9863637], [78.1183003, 16.9858571], [78.1182984, 16.9845533], [78.1214566, 16.9836754], [78.1229578, 16.9828334], [78.1208049, 16.9815006], [78.1079322, 16.981115], [78.1063201, 16.9806931], [78.1042412, 16.9796024], [78.1015715, 16.9800714], [78.1005137, 16.9794527], [78.0973148, 16.9806266], [78.0970859, 16.9809494], [78.0942568, 16.9815892], [78.0938662, 16.9822282], [78.0915333, 16.9833911], [78.0891486, 16.9865229], [78.0873523, 16.9912859], [78.0872237, 16.9923609], [78.0857774, 16.994259], [78.0853073, 16.9962174], [78.0790588, 16.9991274], [78.0745905, 17.000001], [78.0732349, 17.0007157], [78.0728069, 17.0005451], [78.0711294, 17.0008881], [78.0705383, 17.0021233], [78.0694863, 17.0032917], [78.0711003, 17.0049753], [78.0726899, 17.00592], [78.073594, 17.0076646], [78.075081, 17.0143312], [78.0769949, 17.0186896], [78.078741, 17.0208379], [78.0807644, 17.0253716], [78.0787814, 17.0265628], [78.0752771, 17.0271093], [78.0709957, 17.0271003], [78.0700652, 17.0272962], [78.0699326, 17.0278895], [78.068233, 17.0282173], [78.0694868, 17.034394], [78.0707814, 17.0382405], [78.0704633, 17.0409786], [78.0708894, 17.041632], [78.0709978, 17.0457041], [78.0742508, 17.0539427], [78.0741202, 17.0553129], [78.0756094, 17.0542625], [78.0764334, 17.0530364], [78.0770841, 17.053037], [78.0792923, 17.0520387], [78.0864652, 17.0515975], [78.086947, 17.0511157], [78.0880144, 17.0511195], [78.0898181, 17.051679], [78.0908263, 17.0524709], [78.0921163, 17.0545189], [78.0917457, 17.0557119], [78.0964768, 17.0676832], [78.0946039, 17.0683107], [78.0941398, 17.0710965], [78.0946555, 17.0733762], [78.0938941, 17.0774644], [78.0954286, 17.079882], [78.0960433, 17.0819942], [78.097683, 17.0838696], [78.0976131, 17.0863847], [78.0971297, 17.0876682], [78.098136, 17.0880698], [78.0986843, 17.089227], [78.0980537, 17.0898315], [78.0970413, 17.0896974], [78.0917892, 17.091012], [78.0919262, 17.0950392], [78.0943315, 17.101566], [78.087134, 17.1056404], [78.084623, 17.1064195], [78.080554, 17.1067048], [78.0813654, 17.1089121], [78.0811495, 17.1101742], [78.0794217, 17.1109598], [78.0804623, 17.1127127], [78.0809623, 17.1173564], [78.0792329, 17.1206185], [78.0800806, 17.1236989], [78.0816476, 17.1271012], [78.0850474, 17.1292548], [78.0863035, 17.1311944], [78.0900914, 17.1317062], [78.0925898, 17.1333163], [78.092856, 17.1343772], [78.0933941, 17.1347557], [78.0971125, 17.1358164], [78.0963671, 17.1366166], [78.095148, 17.1369035], [78.0951752, 17.1381486], [78.094642, 17.1401562], [78.09473, 17.1419749], [78.0943377, 17.1420971], [78.0944862, 17.1484921], [78.0895495, 17.1608285], [78.0900778, 17.1642714], [78.0824048, 17.1683059], [78.0832654, 17.1706122], [78.0830994, 17.171822], [78.083705, 17.1723279], [78.0831163, 17.1739108], [78.08343, 17.179258], [78.0799709, 17.1823553], [78.0763393, 17.1870713], [78.0747651, 17.1874735], [78.0740497, 17.1872086], [78.0737271, 17.1868794], [78.0736226, 17.1846635], [78.070147, 17.1846681], [78.0671994, 17.1850473], [78.0629318, 17.1842065], [78.0572422, 17.1855735], [78.0563036, 17.1861054], [78.0483106, 17.1869382], [78.0480968, 17.1874007], [78.0473005, 17.187668], [78.0459271, 17.1877097], [78.0476508, 17.1915055], [78.0484471, 17.1915641], [78.0488501, 17.1928952], [78.0490418, 17.1939672], [78.0485261, 17.2013438], [78.0492302, 17.2042991], [78.0503502, 17.2062824], [78.0513009, 17.2072946], [78.0520463, 17.207454], [78.0530378, 17.2082054], [78.0555097, 17.2106439], [78.0580967, 17.2147123], [78.0576054, 17.2177057], [78.0560568, 17.2229581], [78.0555104, 17.2232407], [78.0551704, 17.2258966], [78.0537301, 17.2298272], [78.0540811, 17.2307904], [78.053516, 17.2309949], [78.0526929, 17.2320157], [78.0552325, 17.2326805], [78.0560259, 17.2324862], [78.0602509, 17.2332027], [78.0606636, 17.2351535], [78.0601686, 17.2356584], [78.060649, 17.2379541], [78.0613519, 17.2391818], [78.0611976, 17.2402798], [78.0586614, 17.2414278], [78.0585975, 17.2421548], [78.0579803, 17.2423447], [78.058016, 17.243449], [78.0575191, 17.2434669], [78.056547, 17.2453064], [78.0570838, 17.2469086], [78.0599563, 17.2494736], [78.0598962, 17.2498874], [78.0605721, 17.2498255], [78.060498, 17.2505188], [78.0579996, 17.253093], [78.0576975, 17.2538309], [78.0567652, 17.2539632], [78.0560627, 17.254942], [78.0561298, 17.2554485], [78.0548548, 17.2582048], [78.0540189, 17.2585441], [78.0522332, 17.2618443], [78.0494927, 17.2640295], [78.0484367, 17.2661407], [78.0485922, 17.2665389], [78.0480726, 17.2670854], [78.0486064, 17.267993], [78.0479633, 17.270012], [78.0467579, 17.2722622], [78.0430028, 17.2752618], [78.0436946, 17.2774129], [78.0447496, 17.2791266], [78.0453266, 17.2813985], [78.0454696, 17.2841971], [78.046038, 17.2853971], [78.0462432, 17.2889984], [78.0455561, 17.2927691], [78.0460086, 17.2948135], [78.0463349, 17.2948463], [78.0464147, 17.2960675], [78.0437068, 17.2969293], [78.041899, 17.2985889], [78.0369762, 17.3001085], [78.0369852, 17.3005103], [78.0346554, 17.3027109], [78.0313949, 17.3038953], [78.0324513, 17.3095924], [78.0241405, 17.3108253], [78.0195499, 17.3106938], [78.0180814, 17.3101022], [78.015068, 17.3119019], [78.0130628, 17.3213315], [78.0109577, 17.3210115], [78.0091586, 17.3216401], [78.0041267, 17.3284233], [78.0040583, 17.3288803], [78.0049008, 17.3306053], [78.0053354, 17.332609], [78.0055376, 17.3345639], [78.0052788, 17.3361071], [78.0081608, 17.3415711], [78.0099714, 17.342568], [78.0114209, 17.3428339], [78.0140989, 17.3446213], [78.0174914, 17.3442083], [78.017652, 17.3493332], [78.0194477, 17.3535829], [78.0198893, 17.3536931], [78.0215176, 17.3628524], [78.0237556, 17.3615479], [78.025255, 17.3613825], [78.0266021, 17.3617251], [78.027317, 17.3623839], [78.0274987, 17.3631747], [78.0272425, 17.3641914], [78.0252159, 17.3674105], [78.0244178, 17.369162], [78.0243269, 17.3701833], [78.0255411, 17.3714124], [78.027735, 17.374831], [78.0294297, 17.3761956], [78.0324584, 17.3778268], [78.0330995, 17.3785545], [78.0335528, 17.3811009], [78.0333576, 17.3815574], [78.0336994, 17.3847551], [78.0341644, 17.3862661], [78.0350821, 17.3866127], [78.0340201, 17.3893785], [78.0407933, 17.3952625], [78.0449788, 17.397409], [78.0487177, 17.4028156], [78.0500721, 17.4065937], [78.0511134, 17.4122244], [78.0539942, 17.4115846], [78.0575499, 17.4116438], [78.0580875, 17.410513], [78.0637475, 17.4101551], [78.0666174, 17.4092273], [78.068161, 17.4091954], [78.0696904, 17.4096504], [78.0698719, 17.4094419], [78.071169, 17.4108404], [78.0725452, 17.4174605], [78.0718907, 17.417646], [78.0719309, 17.4239701], [78.071067, 17.4279431], [78.0731582, 17.4297764], [78.0720275, 17.4345131], [78.0721928, 17.4352783], [78.0725666, 17.4354075], [78.0715406, 17.4367067], [78.0717511, 17.4389183], [78.0712156, 17.4392749], [78.0707622, 17.4404853], [78.0693362, 17.4418963], [78.0684706, 17.443873], [78.067202, 17.4442735], [78.0672119, 17.4449256], [78.0659554, 17.4454107], [78.0651653, 17.4452777], [78.0640082, 17.4466713], [78.0627975, 17.4495463], [78.0630591, 17.4508064], [78.0651228, 17.4519636], [78.0648325, 17.4520504], [78.0657739, 17.4522997], [78.0664611, 17.4533511], [78.0706288, 17.4559956], [78.0705929, 17.4566021], [78.0683961, 17.4576492], [78.0683307, 17.4566876], [78.0666792, 17.4562292], [78.0661386, 17.458149], [78.064304, 17.458942], [78.0638744, 17.4661111], [78.0631538, 17.4681436], [78.0631233, 17.4692728], [78.0620073, 17.4695441], [78.0594003, 17.4693173], [78.0570407, 17.4703382], [78.0568375, 17.4700129], [78.0553139, 17.4702073], [78.0547658, 17.4710524], [78.0480544, 17.4717185], [78.0486663, 17.4724144], [78.0493682, 17.4761634], [78.0522367, 17.4817398], [78.0528173, 17.4835862], [78.0533663, 17.4838722], [78.0549217, 17.4835461], [78.0565648, 17.4836592], [78.0632558, 17.4853527], [78.0640642, 17.4883172], [78.0644888, 17.4918364], [78.0650076, 17.4923913], [78.0656387, 17.4941959], [78.0653094, 17.4985612], [78.0659074, 17.4999779], [78.0660062, 17.5016095], [78.0639142, 17.5039977], [78.0629483, 17.5039712], [78.0629456, 17.5041998], [78.0597216, 17.5047262], [78.0579174, 17.505363], [78.0576276, 17.5095829], [78.0608366, 17.509048], [78.064131, 17.5078489], [78.0669857, 17.5081677], [78.069351, 17.5102901], [78.070694, 17.5109298], [78.0712987, 17.513817], [78.071044, 17.5163695], [78.0713909, 17.5184959], [78.0720733, 17.5213818], [78.0740185, 17.5255571], [78.0740932, 17.5270857], [78.0731653, 17.5309559], [78.0677455, 17.5317786], [78.0641384, 17.5327379], [78.0641428, 17.532373], [78.0587627, 17.5324283], [78.0587725, 17.5345717], [78.0557781, 17.5451479], [78.0567169, 17.5535458], [78.0581099, 17.5590185], [78.0575263, 17.5623562], [78.0584976, 17.5657984], [78.0586081, 17.5686207], [78.0605335, 17.5727051], [78.0635953, 17.5766373], [78.0650921, 17.5778844], [78.0682775, 17.5787664], [78.0732435, 17.5785612], [78.0732601, 17.5893368], [78.0739856, 17.5918871], [78.0670067, 17.5936965], [78.069189, 17.6034157], [78.0655019, 17.6037404], [78.0652678, 17.6040034], [78.0658175, 17.6062673], [78.0607888, 17.6067656], [78.0574269, 17.6066926], [78.0556384, 17.6072001], [78.0526766, 17.6086594], [78.0505844, 17.6091312], [78.047753, 17.6091676], [78.0448167, 17.6149276], [78.0434263, 17.61595], [78.0425739, 17.6171302], [78.0437198, 17.6181724], [78.0440538, 17.6189447], [78.0439521, 17.6217662], [78.0434337, 17.6229729], [78.0417527, 17.6243725], [78.0410513, 17.6244649], [78.0404325, 17.6254166], [78.0405182, 17.6284287], [78.0416532, 17.6313442], [78.0408574, 17.634923], [78.0416051, 17.6360077], [78.0431864, 17.6367555], [78.044848, 17.6370801], [78.0457945, 17.6385728], [78.0457331, 17.6416992], [78.0462466, 17.6422733], [78.0497999, 17.6436813], [78.0496121, 17.6438189], [78.0508517, 17.6453848], [78.0529652, 17.6502248], [78.0537395, 17.6506924], [78.0547012, 17.6525104], [78.0515893, 17.6549868], [78.0494894, 17.6574095], [78.0491895, 17.6588404], [78.0502775, 17.6585409], [78.0506769, 17.6590118], [78.0505108, 17.660607], [78.0503213, 17.6612854], [78.0494794, 17.6621352], [78.0477243, 17.6629906], [78.0470404, 17.6663164], [78.0477144, 17.6673329], [78.0486424, 17.6668352], [78.0526019, 17.6618669], [78.0570562, 17.6589544], [78.0589217, 17.6589925], [78.0600829, 17.6598301], [78.061187, 17.6613149], [78.0621958, 17.6632755], [78.0658697, 17.6682248], [78.0672022, 17.6706804], [78.0691957, 17.6732419], [78.0697044, 17.6732518], [78.0705355, 17.6720387], [78.0709697, 17.6725465], [78.0715503, 17.6726588], [78.072495, 17.6720801], [78.0724138, 17.6717], [78.0730745, 17.6713958], [78.0737071, 17.6697689], [78.0728003, 17.6657193], [78.0731633, 17.6586086], [78.0733203, 17.658118], [78.0763528, 17.6551727], [78.0778805, 17.6548443], [78.0792796, 17.6549585], [78.0853187, 17.656429], [78.0906724, 17.6572428], [78.0934279, 17.6565433], [78.0969542, 17.6550299], [78.1043353, 17.6525886], [78.1074334, 17.6518605], [78.1134296, 17.6495048], [78.1164991, 17.6488624], [78.1189833, 17.6496761], [78.1201682, 17.6509753], [78.1223526, 17.6559151], [78.1226238, 17.6580138], [78.1220242, 17.6639101], [78.1226667, 17.6659088], [78.1241229, 17.6669225], [78.1270352, 17.6669017], [78.1279775, 17.6664306], [78.1302475, 17.6643176], [78.1322748, 17.6614622], [78.133988, 17.653453], [78.1356013, 17.6505548], [78.1406696, 17.6481706], [78.1423257, 17.6479421], [78.1435249, 17.6482848], [78.1447384, 17.6491842], [78.1461518, 17.6511401], [78.1488216, 17.6566224], [78.1520001, 17.6607942], [78.1527615, 17.6627453], [78.1532493, 17.6661836], [78.1529281, 17.6670521], [78.148181, 17.6710972], [78.1467891, 17.6719776], [78.1421015, 17.6739169], [78.1411259, 17.6747735], [78.1406619, 17.6760703], [78.1415423, 17.6793183], [78.1410189, 17.6858499], [78.1411497, 17.6886814], [78.1415661, 17.6896213], [78.1470467, 17.693247], [78.1529358, 17.6982141], [78.1554343, 17.7005341], [78.1560153, 17.7015478], [78.1564198, 17.7031421], [78.1563008, 17.7050695], [78.155587, 17.7080676], [78.154421, 17.7106374], [78.1487103, 17.7186562], [78.1474968, 17.7194176], [78.1462119, 17.7194414], [78.1454029, 17.7190845], [78.1419288, 17.7157056], [78.1401442, 17.715206], [78.1359088, 17.7151108], [78.1345894, 17.7155557], [78.130925, 17.7185539], [78.1292832, 17.7211951], [78.1289025, 17.725145], [78.1295213, 17.7261683], [78.132521, 17.7284337], [78.1335204, 17.73062], [78.1343561, 17.7314852], [78.1347666, 17.7325289], [78.1347148, 17.7336792], [78.1336855, 17.7359579], [78.1326215, 17.7364235], [78.131999, 17.7361818], [78.1314576, 17.7353782], [78.127037, 17.7341774], [78.1201841, 17.7334921], [78.1128173, 17.7320216], [78.1100191, 17.7319502], [78.1070923, 17.7331352], [78.1057075, 17.7345343], [78.1055505, 17.7355765], [78.1072208, 17.7381463], [78.1076063, 17.7402022], [78.1106758, 17.7492679], [78.1129601, 17.7544647], [78.1160733, 17.7602336], [78.1167871, 17.7628391], [78.1171084, 17.7655517], [78.1164302, 17.7699418], [78.1150739, 17.7729399], [78.1101127, 17.7807327], [78.1094227, 17.7831121], [78.1096607, 17.7847777], [78.1105886, 17.7867527], [78.1150382, 17.792273], [78.1162161, 17.7943313], [78.1157878, 17.7983288], [78.1148933, 17.8012507], [78.1140109, 17.802974], [78.1156264, 17.803539], [78.1174846, 17.8017295], [78.1179511, 17.8018279], [78.1182815, 17.8013315], [78.1201001, 17.8003499], [78.1208033, 17.801043], [78.1204068, 17.8024697], [78.1199158, 17.8025751], [78.1197496, 17.8036954], [78.12117, 17.8063017], [78.12277, 17.8072391], [78.1231646, 17.8079145], [78.1244665, 17.8085647], [78.1246428, 17.8090648], [78.12773, 17.8101815], [78.1294629, 17.81135], [78.1318189, 17.8121143], [78.1351604, 17.8165927], [78.1362223, 17.8188239], [78.1381053, 17.8244381], [78.1370948, 17.8304654], [78.1372564, 17.8311515], [78.136044, 17.8331685], [78.1356558, 17.8345327], [78.1402474, 17.833294], [78.1429653, 17.8353069], [78.1442588, 17.8355613], [78.146562, 17.8350288], [78.1481315, 17.8342451], [78.1482974, 17.8317073], [78.1474066, 17.829035], [78.1479706, 17.8287837], [78.1480926, 17.8263503], [78.1498108, 17.824601], [78.1482415, 17.8224146], [78.1478257, 17.8208469], [78.1457712, 17.8181397], [78.1477985, 17.8173196], [78.1471452, 17.8161364], [78.1495845, 17.8151028], [78.1483873, 17.8111836], [78.1496246, 17.8078047], [78.1493153, 17.8037597], [78.1501719, 17.8002619], [78.1499864, 17.7970695], [78.1569178, 17.7968193], [78.1569253, 17.7971855], [78.1583076, 17.797316], [78.1588846, 17.7972733], [78.1589636, 17.7967478], [78.162931, 17.7966482], [78.1615917, 17.7990205], [78.1613876, 17.8029514], [78.1617035, 17.8049618], [78.1631351, 17.8084804], [78.1628856, 17.809457], [78.1636754, 17.8126278], [78.1636088, 17.8136061], [78.1632013, 17.8136123], [78.1630862, 17.8144781], [78.1644194, 17.8174104], [78.1642894, 17.818948], [78.1654483, 17.8199266], [78.1770309, 17.8153016], [78.1855173, 17.8157785], [78.1952674, 17.8140119], [78.1946342, 17.8152706], [78.1866327, 17.8182627], [78.1807399, 17.8246312], [78.1857391, 17.8318016], [78.1888985, 17.8339054], [78.1897144, 17.8332812], [78.1908861, 17.8335951], [78.2072782, 17.8401505], [78.2150486, 17.8312446], [78.2167615, 17.8270565], [78.2166124, 17.8251775], [78.2169327, 17.8217531], [78.2172015, 17.8213544], [78.2157735, 17.8157337], [78.2121373, 17.8122459], [78.2102676, 17.8094972], [78.2105158, 17.8076319], [78.2095584, 17.8044818], [78.2168395, 17.796671], [78.2213755, 17.7946914], [78.2238807, 17.7946089], [78.2243985, 17.7930901], [78.2323038, 17.7873096], [78.2345086, 17.7880511], [78.2359014, 17.7891268], [78.2406447, 17.791657], [78.2407617, 17.7922877], [78.2428965, 17.7951247], [78.246221, 17.811876], [78.2487811, 17.8109062], [78.253792, 17.8114851], [78.2524563, 17.8149389], [78.2534257, 17.8157715], [78.2551381, 17.819594], [78.2609412, 17.8224425], [78.26321, 17.8226946], [78.2652306, 17.8234945], [78.2670306, 17.8251595], [78.270547, 17.8266785], [78.2728838, 17.8270605], [78.27325, 17.8268604], [78.275542, 17.8303549], [78.2759462, 17.8328566], [78.2766101, 17.8320952], [78.2769684, 17.8328011], [78.2779388, 17.8325506], [78.2788938, 17.8316456], [78.2852312, 17.833563], [78.2895497, 17.8327328], [78.2950675, 17.8335689], [78.2966261, 17.8359766], [78.2963914, 17.8380165], [78.295652, 17.8394629], [78.2965638, 17.8409269], [78.2977746, 17.8413162], [78.2980878, 17.8417194], [78.2983304, 17.8423797], [78.2981269, 17.8438602], [78.2990247, 17.8457599], [78.2991962, 17.8483709], [78.2983088, 17.850297], [78.2995774, 17.8526798], [78.2991554, 17.8540473], [78.3146004, 17.8452144], [78.3148079, 17.8454478], [78.3173562, 17.8456063], [78.3174541, 17.8460722], [78.3187178, 17.8474242], [78.3206753, 17.8492523], [78.3211077, 17.8493049], [78.3218062, 17.8504065], [78.3224057, 17.8504825], [78.3233997, 17.8521312], [78.3233854, 17.8526156], [78.3236433, 17.8524933], [78.324067, 17.8531939], [78.3260276, 17.8582556], [78.3263596, 17.8581981], [78.3313046, 17.8628215], [78.3338959, 17.8657952], [78.3409554, 17.8690756], [78.3478813, 17.8651254], [78.3511933, 17.8651981], [78.3550016, 17.8647811], [78.3599462, 17.8621722], [78.3678457, 17.8621075], [78.3763893, 17.8598515], [78.3792834, 17.8592035], [78.380372, 17.8592945], [78.3815643, 17.8572247], [78.3817158, 17.8495509], [78.383121, 17.844252], [78.3827044, 17.8415614], [78.3842833, 17.8408141], [78.3840746, 17.8390715], [78.3849111, 17.8393849], [78.3884198, 17.839632], [78.3882605, 17.8402496], [78.3887026, 17.8403555], [78.3867149, 17.8469845], [78.3872501, 17.8473841], [78.3870888, 17.8477198], [78.3874528, 17.8480727], [78.387595, 17.8494044], [78.387321, 17.8497347], [78.389331, 17.8555989], [78.3892596, 17.8574429], [78.3901688, 17.8569066], [78.3924582, 17.8583336], [78.392739, 17.8582543], [78.393157, 17.8588403], [78.3966833, 17.8587803], [78.3998178, 17.8590118], [78.4003471, 17.8593593], [78.4027867, 17.8631557], [78.4067398, 17.8706037], [78.4065321, 17.870772], [78.4069134, 17.8716356], [78.407097, 17.8718204], [78.4087015, 17.8712034], [78.408244, 17.8718274], [78.4091182, 17.8733749], [78.4167724, 17.876283], [78.4177456, 17.87792], [78.4186746, 17.878552], [78.4214426, 17.8771449], [78.4247601, 17.8764148], [78.4266164, 17.8694163], [78.4278584, 17.8697772], [78.4280553, 17.8694964], [78.4305613, 17.8702422], [78.4317277, 17.8698979], [78.4317529, 17.8691798], [78.4326656, 17.8683541], [78.4342908, 17.8691269], [78.4344834, 17.8694824], [78.4352813, 17.8695713], [78.4355284, 17.8691176], [78.4369781, 17.8697786], [78.4369471, 17.8704557], [78.4381814, 17.8716082], [78.4395327, 17.87128], [78.4399006, 17.8720133], [78.4405848, 17.8718848], [78.4411418, 17.87401], [78.4440312, 17.8776888], [78.4439514, 17.878604], [78.4510968, 17.8748986], [78.4554067, 17.8753242], [78.457195, 17.8832639], [78.4581517, 17.8832946], [78.46779, 17.8803397], [78.4679668, 17.8799011], [78.4688983, 17.8794738], [78.4694467, 17.87962], [78.4695924, 17.8790872], [78.4707707, 17.879793], [78.4716203, 17.8794893], [78.4717273, 17.8798117], [78.4724418, 17.8798124], [78.4716036, 17.8846407], [78.4736375, 17.8865361], [78.4746285, 17.8920172], [78.4750723, 17.8922575], [78.4767288, 17.8926831], [78.4803543, 17.8943157], [78.4855592, 17.8946525], [78.5001298, 17.8906961], [78.5038217, 17.8916801], [78.5115659, 17.8971618], [78.5154213, 17.9015071], [78.5190861, 17.8977959], [78.5248718, 17.8959593], [78.5273034, 17.8980059], [78.5294585, 17.8957848], [78.5310734, 17.8904745], [78.527407, 17.8909561], [78.5262935, 17.8891442], [78.5269591, 17.8860363], [78.5295162, 17.8822553], [78.5281337, 17.8781877], [78.5425222, 17.8811079], [78.5426896, 17.88366], [78.5405062, 17.8837505], [78.5410981, 17.8858266], [78.5423154, 17.8854136], [78.5432608, 17.8856493], [78.5438062, 17.8833685], [78.5440469, 17.8833192], [78.5459587, 17.8834553], [78.5467044, 17.8839301], [78.5491176, 17.8839178], [78.5512628, 17.8844748], [78.5549922, 17.8831604], [78.5613837, 17.8824583], [78.56247, 17.8785121], [78.5623253, 17.8766329], [78.5629173, 17.8764021], [78.5621006, 17.8750406], [78.5608013, 17.8673146], [78.56019, 17.8674373], [78.5572694, 17.8500563], [78.5582786, 17.8481364], [78.558331, 17.8464514], [78.5576419, 17.8418617], [78.5592751, 17.8379732], [78.5615676, 17.8370902], [78.5659738, 17.8366222], [78.5693168, 17.8357212], [78.5753979, 17.8334351], [78.5799401, 17.8326231], [78.5801207, 17.8328607], [78.5799402, 17.8326216], [78.5820361, 17.8321996], [78.583046, 17.8325024], [78.5826345, 17.8310104], [78.58379, 17.8306668], [78.5865826, 17.8303441], [78.5868708, 17.8307326], [78.587966, 17.8309978], [78.5891221, 17.8306637], [78.59142, 17.8330078], [78.5933987, 17.8324314], [78.596344, 17.8323174], [78.5957134, 17.8313093], [78.5954535, 17.8299855], [78.5989949, 17.8279369], [78.6032289, 17.8264459], [78.603444, 17.8267275], [78.6070321, 17.8261405], [78.6078848, 17.8262666], [78.6094909, 17.8257188], [78.6153949, 17.8292225], [78.6181852, 17.8322999], [78.6184948, 17.8322551], [78.6236592, 17.830197], [78.6253908, 17.8276048], [78.6267057, 17.8266729], [78.6277064, 17.8221479], [78.6288567, 17.8235685], [78.6314585, 17.8232493], [78.6334905, 17.8223745], [78.6399647, 17.8213575], [78.6455676, 17.8174562], [78.6481372, 17.8139124], [78.6498012, 17.810183], [78.6538595, 17.8067092], [78.655395, 17.8058638], [78.6555804, 17.8066929], [78.6594568, 17.8049898], [78.6631374, 17.8004452], [78.6636619, 17.8015434], [78.6641546, 17.8009112], [78.6694166, 17.7990236], [78.6699637, 17.7985417], [78.6838965, 17.7967049], [78.6884151, 17.7985319], [78.6972718, 17.7990213], [78.7020782, 17.7976829], [78.7114314, 17.7943257], [78.7156805, 17.7953544], [78.7185045, 17.8002853], [78.7196966, 17.8006426], [78.7203148, 17.8017696], [78.7215042, 17.80295], [78.7203856, 17.8027493], [78.7203656, 17.8048441], [78.7243434, 17.8058817], [78.7280686, 17.8053944], [78.7368364, 17.8030659], [78.7392801, 17.8032179], [78.7408622, 17.8029807], [78.7425587, 17.8054803], [78.7485093, 17.807577], [78.7512636, 17.8101525], [78.756048, 17.806216], [78.7579954, 17.8053895], [78.7560818, 17.8013762], [78.7524179, 17.7962612], [78.7605387, 17.793411], [78.7617399, 17.7933209], [78.761692, 17.7915385], [78.7626937, 17.7909976], [78.7629757, 17.789708], [78.7644458, 17.7894282], [78.7658304, 17.7883967], [78.7650114, 17.7861695], [78.7653768, 17.7840275], [78.7658575, 17.783338], [78.7656008, 17.7811986], [78.7680337, 17.7811939], [78.7693735, 17.7816599], [78.7709951, 17.7817046], [78.7675239, 17.7776403], [78.7648926, 17.7727823], [78.763021, 17.7710089], [78.7624409, 17.7709441], [78.7627705, 17.7674052], [78.7625879, 17.7636232], [78.7631114, 17.7607687], [78.7637456, 17.7607961], [78.7650034, 17.756939], [78.7644087, 17.7534222], [78.7673047, 17.7524051], [78.7660067, 17.7511133], [78.7654845, 17.750097], [78.7654015, 17.7469733], [78.7647048, 17.7452948], [78.7652058, 17.7425403], [78.7665582, 17.7404837], [78.7728741, 17.7419701], [78.7750478, 17.7404216], [78.7802961, 17.7376216], [78.7851592, 17.7359669], [78.7874784, 17.736435], [78.7887092, 17.7358522], [78.7905065, 17.7357803], [78.7934373, 17.7334674], [78.7922671, 17.7327495], [78.7889471, 17.7288473], [78.7843879, 17.7296599], [78.7835959, 17.7306237], [78.7838972, 17.7310222], [78.782136, 17.7309108], [78.7810156, 17.7319996], [78.778576, 17.7324156], [78.7778264, 17.7314121], [78.7764328, 17.731292], [78.7755975, 17.7308277], [78.7735828, 17.7308449], [78.7735638, 17.7310988], [78.7725568, 17.7307077], [78.7710793, 17.7310035], [78.7703749, 17.7301626], [78.7696141, 17.7298741], [78.7694702, 17.729499], [78.7691399, 17.7295807], [78.7687834, 17.7287638], [78.7679783, 17.7284293], [78.7670094, 17.7274414], [78.7667694, 17.7265756], [78.76603, 17.7261401], [78.7636262, 17.726909], [78.7628642, 17.726532], [78.7629691, 17.7254921], [78.7640203, 17.7249395], [78.7639437, 17.7243012], [78.7689944, 17.7221901], [78.7705375, 17.7194075], [78.7723525, 17.7178704], [78.7728608, 17.7181561], [78.773753, 17.7175533], [78.7736655, 17.7171682], [78.7743767, 17.7166359], [78.7751387, 17.7166702], [78.7756354, 17.7161657], [78.776317, 17.7161601], [78.7785139, 17.7143603], [78.7806191, 17.7133699], [78.7829804, 17.7101604], [78.7837659, 17.7074946], [78.7847849, 17.7068448], [78.7847909, 17.7063559], [78.785855, 17.704665], [78.7898917, 17.7002658], [78.7886182, 17.700846], [78.7847958, 17.7012537], [78.7825087, 17.6993553], [78.7824081, 17.6982024], [78.7812343, 17.6963324], [78.7805113, 17.6943905], [78.7785899, 17.6926276], [78.7770856, 17.690355], [78.7739774, 17.6886481], [78.7721023, 17.6880516], [78.7692623, 17.6861773], [78.7699417, 17.6846178], [78.7663756, 17.6838484], [78.7556356, 17.685345], [78.7554032, 17.685962], [78.7547331, 17.6858202], [78.7548863, 17.6852131], [78.7545294, 17.6851805], [78.7540904, 17.6856831], [78.7446174, 17.6835638], [78.7386187, 17.6743766], [78.7305089, 17.6672652], [78.7354854, 17.664164], [78.7390794, 17.6626252], [78.7363583, 17.6546212], [78.7398499, 17.651606], [78.7411768, 17.6492147], [78.7424002, 17.6491721], [78.7446511, 17.6479818], [78.7476496, 17.645104], [78.7482696, 17.6452141], [78.750651, 17.6412037], [78.7522061, 17.641523], [78.7519665, 17.6406085], [78.7526465, 17.6377207], [78.7518454, 17.6347283], [78.7525502, 17.6334463], [78.7519679, 17.6320792], [78.7547009, 17.6270741], [78.7550421, 17.6204965], [78.7552412, 17.620612], [78.7562549, 17.6188679], [78.7570483, 17.6182281], [78.7571076, 17.6175004], [78.7587854, 17.6170723], [78.7589159, 17.6162176], [78.7617311, 17.61451], [78.7628405, 17.6143309], [78.7635141, 17.6149583], [78.7652618, 17.614424], [78.7661809, 17.6149506], [78.7735186, 17.6152125], [78.7778036, 17.6141822], [78.77857, 17.6155511], [78.7790274, 17.6156527], [78.7813626, 17.6142663], [78.7820428, 17.6153461], [78.7841707, 17.6170161], [78.7845469, 17.6176342], [78.7862524, 17.6165167], [78.7945906, 17.6088182], [78.7961487, 17.6062984], [78.7977311, 17.6051032], [78.7995776, 17.6014035], [78.8016994, 17.5998974], [78.8017442, 17.6001109], [78.8055233, 17.5976205], [78.8069504, 17.5971526], [78.8094129, 17.5956546], [78.8114534, 17.5952997], [78.8159742, 17.593665], [78.8177651, 17.5935456], [78.8184645, 17.5941064], [78.8261442, 17.5916533], [78.8276222, 17.5907881], [78.8307826, 17.5878274], [78.8330984, 17.5873853], [78.832271, 17.5861978], [78.83267, 17.5860254], [78.8318037, 17.584705], [78.8308395, 17.5814494], [78.8304869, 17.5778281], [78.826723, 17.5689729], [78.8268206, 17.5657677], [78.8258889, 17.5636313], [78.8253537, 17.56317], [78.8253887, 17.56098], [78.8248204, 17.5598673], [78.8263236, 17.5534681], [78.8278308, 17.5512627], [78.826649, 17.5443691], [78.8291149, 17.5438182], [78.8306143, 17.543086], [78.8313713, 17.5435248], [78.8325074, 17.5414352], [78.8327979, 17.5398379], [78.834474, 17.5356329], [78.8360925, 17.5339893], [78.8378588, 17.5333932], [78.8366027, 17.5323923], [78.8353389, 17.5299322], [78.8352352, 17.5301546], [78.8347591, 17.5298445], [78.8277168, 17.521803], [78.8266408, 17.5245796], [78.8260934, 17.5243352], [78.8260465, 17.5239635], [78.8258156, 17.524179], [78.8254561, 17.5237703], [78.8253305, 17.5241324], [78.8250628, 17.5240241], [78.8250817, 17.5235412], [78.8239137, 17.5227234], [78.822272, 17.5229905], [78.8148547, 17.5259208], [78.8131195, 17.5263201], [78.8127913, 17.52706], [78.813167, 17.5275117], [78.8128422, 17.5275819], [78.8125198, 17.5271725], [78.811809, 17.527017], [78.8113864, 17.5273851], [78.8095539, 17.5267887], [78.8096703, 17.5256375], [78.8092813, 17.5243803], [78.8099771, 17.5210629], [78.8116457, 17.521178], [78.8119785, 17.5203169], [78.8135102, 17.5192939], [78.8148632, 17.5194504], [78.8162176, 17.5189018], [78.8177294, 17.518072], [78.8187384, 17.5157355], [78.8223983, 17.5139726], [78.8254801, 17.5129366], [78.8306737, 17.5097864], [78.8312078, 17.5099412], [78.8321286, 17.5073131], [78.8353281, 17.5044677], [78.8366211, 17.5019518], [78.8393973, 17.498154], [78.8395234, 17.4970925], [78.8366375, 17.4970915], [78.8356208, 17.4954721], [78.8334968, 17.4939614], [78.8334259, 17.4912718], [78.8338952, 17.4902554], [78.8337217, 17.4879054], [78.8343339, 17.4867683], [78.8335944, 17.4853686], [78.8344602, 17.4850706], [78.8338937, 17.4849987], [78.8347921, 17.4844697], [78.8351779, 17.4846972], [78.836189, 17.4841188], [78.8414315, 17.4711627], [78.8424915, 17.4696313], [78.8437953, 17.4690682], [78.8448483, 17.4675217], [78.8464802, 17.4665651], [78.848017, 17.4633387], [78.848782, 17.4623287], [78.8494346, 17.4620536], [78.8501776, 17.4621105], [78.8507009, 17.4625471], [78.8519411, 17.462368], [78.8519392, 17.4627205], [78.8522434, 17.4626468], [78.852351, 17.4629324], [78.8536531, 17.4632462], [78.8551545, 17.4651645], [78.8565479, 17.4678238], [78.8628149, 17.4716726], [78.8650998, 17.4737572], [78.8667092, 17.4757435], [78.867391, 17.4772151], [78.8698776, 17.4766804], [78.8745686, 17.4749862], [78.8769172, 17.4733552], [78.8792643, 17.4739348], [78.8861112, 17.4727346], [78.8898637, 17.4716078], [78.8894622, 17.4676375], [78.8885857, 17.4646228], [78.8876631, 17.4647792], [78.8863547, 17.4606623], [78.8835674, 17.4573185], [78.8857284, 17.4558206], [78.8869745, 17.456516], [78.8863969, 17.4544744], [78.886686, 17.454969], [78.8900488, 17.4533399], [78.8909834, 17.4527342], [78.8909278, 17.452492], [78.8952923, 17.4527192], [78.8992527, 17.4493369], [78.9006955, 17.4476324], [78.8999859, 17.4475424], [78.9031485, 17.4453714], [78.9062896, 17.444991], [78.9108401, 17.4432773], [78.9107816, 17.4429123], [78.9124602, 17.4409921], [78.9165026, 17.4378213], [78.9102375, 17.4276825], [78.9096553, 17.4272109], [78.9085354, 17.4267192], [78.9064482, 17.4265076], [78.9057446, 17.4267617], [78.9038979, 17.4256725], [78.9005757, 17.4249153], [78.8967346, 17.4247428], [78.8924835, 17.4254141], [78.8885314, 17.4252014], [78.8884801, 17.4283845], [78.8888425, 17.4301776], [78.8886626, 17.4328341], [78.8862784, 17.4347555], [78.8864399, 17.4352661], [78.8848758, 17.4384675], [78.880226, 17.434893], [78.8794045, 17.4347826], [78.8794826, 17.4337651], [78.8786238, 17.4337725], [78.8784128, 17.4295134], [78.8780586, 17.429216], [78.8770258, 17.4229048], [78.8784879, 17.4212132], [78.8792041, 17.4209432], [78.8808786, 17.4177242], [78.8845761, 17.4136444], [78.8853309, 17.4119129], [78.8854805, 17.4073489], [78.8877065, 17.4024181], [78.8864344, 17.399538], [78.8858517, 17.3937392], [78.8838798, 17.3896481], [78.8822827, 17.3878174], [78.8842506, 17.3865185], [78.8850255, 17.3854415], [78.8905654, 17.3802021], [78.8919569, 17.378255], [78.8938245, 17.3743347], [78.8973738, 17.370203], [78.8981627, 17.3678324], [78.9116814, 17.3761488], [78.9119028, 17.3739996], [78.9129356, 17.3713367], [78.9126153, 17.3706162], [78.9126966, 17.3667734], [78.9125379, 17.3669723], [78.9122125, 17.363369], [78.9116427, 17.3612659], [78.9124698, 17.3612046], [78.9112433, 17.358214], [78.9098064, 17.3583008], [78.9078078, 17.3542526], [78.9088471, 17.3540812], [78.9087595, 17.3534862], [78.9080056, 17.3521425], [78.9068934, 17.3511477], [78.9064655, 17.3500795], [78.9059631, 17.3501689], [78.9053545, 17.3485316], [78.9095387, 17.346556], [78.9098333, 17.3460867], [78.9135286, 17.3460732], [78.9180344, 17.3440906], [78.9221917, 17.3428311], [78.9243026, 17.3413461], [78.9260791, 17.3410803], [78.9271531, 17.3371537], [78.9288665, 17.3342904], [78.9300339, 17.3333919], [78.9313043, 17.3335351], [78.9320467, 17.3342774], [78.9333627, 17.3338248], [78.9375303, 17.3342615], [78.9422563, 17.3362069], [78.9443837, 17.3361417], [78.9479746, 17.3367798], [78.9514427, 17.3358364], [78.9534489, 17.3351658], [78.955246, 17.3339327], [78.9607574, 17.3285408], [78.9619448, 17.3278625], [78.9633906, 17.3259098], [78.9650598, 17.3248521], [78.9842236, 17.3190626], [78.9864581, 17.3176087], [78.9876764, 17.316071], [78.990401, 17.3145557], [78.9926402, 17.3140199], [78.9974993, 17.3140794], [78.9966206, 17.3072384], [78.9926456, 17.2982799], [78.9898727, 17.2891401], [78.9892826, 17.2881668], [78.9882983, 17.2825039], [78.9786751, 17.2842322], [78.9771256, 17.2841169], [78.9763309, 17.2811405], [78.9763516, 17.2800361], [78.9768677, 17.2794181], [78.9756308, 17.2711856], [78.9763428, 17.2669429], [78.9751576, 17.2606173], [78.9753231, 17.2586704], [78.9778155, 17.2546127], [78.9796834, 17.2500057], [78.9795968, 17.2461311], [78.9790769, 17.2449243], [78.9785977, 17.2421247], [78.9766146, 17.2368276], [78.9758326, 17.2321276], [78.9743194, 17.2276037], [78.9735168, 17.2208997], [78.9722246, 17.2169967], [78.973853, 17.2158258], [78.9724994, 17.2126104], [78.9703784, 17.2103054], [78.969413, 17.2103849], [78.9661323, 17.2068609], [78.9647303, 17.2055708], [78.9639932, 17.2054539], [78.962428, 17.2036734], [78.9617739, 17.2012703], [78.961501, 17.1977086], [78.9583687, 17.1985837], [78.9561384, 17.1997509], [78.9521723, 17.2008156], [78.9487146, 17.2024797], [78.9443567, 17.2034217], [78.9410353, 17.2036483], [78.9346871, 17.2056547], [78.9321054, 17.2067456], [78.9265448, 17.2099878], [78.9252611, 17.2070106], [78.9235867, 17.2077925], [78.9233995, 17.2081802], [78.9165871, 17.2107012], [78.9161339, 17.210703], [78.9154322, 17.2098799], [78.9130602, 17.2104788], [78.9125532, 17.2101792], [78.9129059, 17.2097813], [78.911404, 17.2083194], [78.9105969, 17.2063637], [78.910254, 17.2063377], [78.908566, 17.2045865], [78.9065369, 17.2064058], [78.9037698, 17.2078888], [78.9031475, 17.2087909], [78.9011238, 17.2096711], [78.8929115, 17.2109815], [78.8873106, 17.2133314], [78.8869178, 17.2129685], [78.8820808, 17.2155399], [78.8797786, 17.2152291], [78.8799648, 17.2144903], [78.8789165, 17.2123774], [78.8715612, 17.2113182], [78.8713661, 17.2116813], [78.8665534, 17.2093871], [78.866631, 17.2089471], [78.8670862, 17.2087543], [78.8646179, 17.2058219], [78.8636119, 17.2027196], [78.8606704, 17.199661], [78.858166, 17.1976611], [78.8525426, 17.19616], [78.8508518, 17.1952927], [78.8492312, 17.1952242], [78.8474241, 17.1960165], [78.8431796, 17.1963722], [78.8423305, 17.1971418], [78.8401045, 17.1952776], [78.8393532, 17.1952853], [78.8320274, 17.1985707], [78.8326599, 17.2018814], [78.8317184, 17.2008905], [78.8272101, 17.1998365], [78.822414, 17.2063951], [78.82142, 17.206562], [78.8173732, 17.2119409], [78.8160437, 17.2131709], [78.8105109, 17.2108168], [78.8073638, 17.2090431], [78.8030415, 17.2088372], [78.8063246, 17.2036136], [78.805995, 17.2021236], [78.8022816, 17.1987508], [78.7964214, 17.1979965], [78.7859137, 17.205649], [78.780677, 17.2072591], [78.7733016, 17.2106972], [78.7695041, 17.2120997], [78.7672742, 17.2127893], [78.7591565, 17.2143419], [78.7619014, 17.2099368], [78.7648926, 17.2067994], [78.7680314, 17.2003255], [78.7703063, 17.1966532], [78.7725337, 17.1917176], [78.772417, 17.1887545], [78.775039, 17.1888012], [78.7773426, 17.1882363], [78.77832, 17.187441], [78.7804738, 17.1875484], [78.7821258, 17.1822274], [78.7822924, 17.1781425], [78.7839029, 17.1758302], [78.7853907, 17.1731227], [78.7858972, 17.1713759], [78.7872779, 17.1694221], [78.7891597, 17.1641972], [78.786665, 17.1605306], [78.784872, 17.159571], [78.7779435, 17.1630516], [78.7780765, 17.1626127], [78.776572, 17.1602075], [78.7748842, 17.1577025], [78.7740029, 17.157079], [78.7750537, 17.1527373], [78.7803664, 17.1481949], [78.7802961, 17.1445439], [78.7823596, 17.1427373], [78.7821276, 17.1421491], [78.7835293, 17.1404011], [78.7848587, 17.1396902], [78.7851953, 17.1386678], [78.7861017, 17.1375291], [78.7879885, 17.1368141], [78.788467, 17.1369882], [78.7885595, 17.1375864], [78.7890561, 17.137605], [78.7923899, 17.1349423], [78.7947925, 17.1340682], [78.7963535, 17.1330442], [78.7997157, 17.1321026], [78.8060764, 17.1288689], [78.8194912, 17.1206022], [78.8312128, 17.1153807], [78.8339792, 17.1133826], [78.8336605, 17.1117589], [78.8335301, 17.1037365], [78.8327235, 17.1035328], [78.8323774, 17.1040552], [78.8269804, 17.1046657], [78.8240609, 17.1063825], [78.8182502, 17.1085116], [78.8154929, 17.0946628], [78.8193383, 17.0926677], [78.8234176, 17.0918683], [78.8243676, 17.0906309], [78.8282209, 17.0876368], [78.8278712, 17.087609], [78.8359334, 17.0820306], [78.8346184, 17.0797737], [78.8375373, 17.0764499], [78.8384471, 17.0742985], [78.8415382, 17.0739344], [78.8439764, 17.0720143], [78.8432152, 17.069894], [78.8415874, 17.0623677], [78.8385562, 17.0535888], [78.8369248, 17.0459371], [78.8367494, 17.0415546], [78.8364582, 17.0401427], [78.8360626, 17.0396329], [78.8378045, 17.0387221], [78.8378456, 17.0381996], [78.8367086, 17.0387814], [78.835258, 17.038372], [78.8342125, 17.0371405], [78.8252431, 17.0328452], [78.8133979, 17.0302566], [78.8043925, 17.0344592], [78.8025948, 17.0349457], [78.8021827, 17.0309202], [78.802218, 17.0275704], [78.8036117, 17.0223668], [78.8200653, 17.0183947], [78.8200709, 17.0101065], [78.8194083, 17.0100286], [78.8182671, 17.006914], [78.8064947, 17.0048331], [78.8068542, 17.0038517], [78.8063998, 17.0033798], [78.8039801, 17.0033574], [78.8032943, 17.0038783], [78.8023331, 17.0038676], [78.7996488, 17.0002824], [78.7965469, 16.9947603], [78.7926172, 16.9910566], [78.7912265, 16.9838685], [78.7908071, 16.9799719], [78.7894448, 16.9772589], [78.786033, 16.9776821], [78.7838443, 16.9785738], [78.783786, 16.9783566], [78.7815679, 16.9789594], [78.7787635, 16.9791417], [78.7786149, 16.9795951], [78.7779602, 16.979373], [78.7760892, 16.9802076], [78.7760427, 16.9806716], [78.7753209, 16.9809032], [78.7755164, 16.9815496], [78.7751316, 16.9817581], [78.7746201, 16.9817635], [78.7741828, 16.9810815], [78.7684103, 16.9811907], [78.7669087, 16.9806549], [78.7644569, 16.9804035], [78.7637847, 16.9814953], [78.7591964, 16.9833301], [78.7580935, 16.9800621], [78.7566291, 16.9712902], [78.7581555, 16.9712741], [78.7594774, 16.9701477], [78.7592972, 16.9696152], [78.7595086, 16.969465], [78.7538085, 16.9694267], [78.7441001, 16.9713903], [78.7441146, 16.971004], [78.7332193, 16.9734307], [78.7291633, 16.9737486], [78.728364, 16.973145], [78.7195692, 16.9695452], [78.7166417, 16.9695121], [78.7142245, 16.9691121], [78.7097309, 16.9662108], [78.7064406, 16.9701709], [78.7060399, 16.9698954], [78.7052626, 16.9709427], [78.7028309, 16.969393], [78.6997292, 16.9634558], [78.7046162, 16.9603872], [78.7031997, 16.9501767], [78.698286, 16.9455001], [78.6977984, 16.9421556], [78.6963293, 16.937868], [78.6947901, 16.9361073], [78.6954842, 16.9360214], [78.6934606, 16.9341726], [78.6909584, 16.93336], [78.6904568, 16.9326435], [78.6860078, 16.9342676], [78.6854184, 16.9337084], [78.6824501, 16.9361813], [78.6717158, 16.9415049], [78.6659178, 16.9453943], [78.6611242, 16.9465766], [78.6579909, 16.9488893], [78.6488626, 16.9565147], [78.6532746, 16.9592587], [78.6541829, 16.9619407], [78.6539708, 16.9622349], [78.6489977, 16.9604636], [78.6415705, 16.9605602], [78.638519, 16.9616005], [78.6341936, 16.9614158], [78.6115308, 16.9648359], [78.5885518, 16.9521164], [78.5726577, 16.9603012], [78.5711538, 16.9634408], [78.5695163, 16.9656616], [78.5693528, 16.9669088], [78.5639929, 16.9776417], [78.5595833, 16.9834789]]]}}