{"type": "Feature", "properties": {"osm_id": 16460488, "id": 16460488, "name": "Greater Hyderabad Municipal Corporation West Zone", "name_local": "Greater Hyderabad Municipal Corporation West Zone", "boundary": "administrative", "admin_level": "9", "type_tags": {"source": "OpenCity (2023-10-09, Public Domain, https://data.opencity.in/dataset/hyderabad-wards-info)"}, "last_edit": "2026-07-15T16:46:03Z", "version": 6}, "geometry": {"type": "MultiPolygon", "coordinates": [[[[78.4945145, 17.473408], [78.4939888, 17.4696138], [78.4911644, 17.4693516], [78.4909861, 17.4700564], [78.4899279, 17.470059], [78.4895739, 17.4708496], [78.4849001, 17.4709378], [78.4819899, 17.4718218], [78.481546, 17.4727927], [78.4771392, 17.4745555], [78.4767865, 17.4764091], [78.4757256, 17.4763208], [78.4751195, 17.4786451], [78.4754293, 17.4829955], [78.4765303, 17.4860949], [78.4795263, 17.4855398], [78.4791743, 17.4867217], [78.4796061, 17.4868784], [78.4798425, 17.4893771], [78.4843369, 17.4902085], [78.4868032, 17.4877987], [78.4857195, 17.4863226], [78.4847379, 17.4868701], [78.4847969, 17.4838052], [78.4856941, 17.4824826], [78.4880423, 17.4807429], [78.4880397, 17.4799678], [78.4906302, 17.4792206], [78.4935624, 17.4799061], [78.4946674, 17.4829636], [78.4953661, 17.4835839], [78.4958248, 17.4817727], [78.4969728, 17.4820793], [78.496867, 17.4788663], [78.496779, 17.4778947], [78.4945145, 17.473408]]], [[[78.4032763, 17.5133718], [78.4040005, 17.5137299], [78.4067096, 17.514088], [78.4137368, 17.513567], [78.412707, 17.5106911], [78.4127499, 17.5093712], [78.4167088, 17.5081946], [78.4174277, 17.5073862], [78.4173204, 17.5042655], [78.4194983, 17.5038051], [78.4204523, 17.5027394], [78.4265955, 17.5013698], [78.427207, 17.5004898], [78.427207, 17.4989908], [78.4274752, 17.498735], [78.4291436, 17.499262], [78.4330059, 17.497768], [78.4314877, 17.4943196], [78.4301627, 17.4940178], [78.4286821, 17.4945703], [78.4267026, 17.493721], [78.4262547, 17.4915824], [78.4266973, 17.4909019], [78.4285212, 17.4908712], [78.4281778, 17.489674], [78.4343684, 17.4853454], [78.4360206, 17.4831044], [78.4448397, 17.4807507], [78.4452796, 17.4824187], [78.4459019, 17.4830123], [78.4480262, 17.4830225], [78.4491907, 17.482125], [78.4501532, 17.4827744], [78.4557992, 17.4820606], [78.4562284, 17.4831095], [78.4576285, 17.4830276], [78.4601927, 17.4846138], [78.4603697, 17.485765], [78.4644306, 17.4861078], [78.4649617, 17.4817024], [78.4630305, 17.4801111], [78.4635508, 17.4753474], [78.4633792, 17.4620227], [78.462691, 17.4622501], [78.4596348, 17.4577652], [78.4550858, 17.4599349], [78.4546781, 17.459505], [78.4550214, 17.4563323], [78.4537339, 17.4547971], [78.4540772, 17.453139], [78.4538847, 17.4505046], [78.4529375, 17.4497815], [78.4516447, 17.4474728], [78.4503114, 17.455882], [78.4491205, 17.4597097], [78.4468138, 17.4611298], [78.4312516, 17.4621506], [78.4315574, 17.461488], [78.4287089, 17.4613217], [78.4289664, 17.4591366], [78.4280491, 17.4583588], [78.4279203, 17.4570027], [78.4270298, 17.4565626], [78.42659, 17.4547254], [78.4253508, 17.4547971], [78.425442, 17.4530418], [78.4268099, 17.4528525], [78.4266007, 17.4503142], [78.424691, 17.4505854], [78.4240794, 17.4545105], [78.4174705, 17.453835], [78.4105504, 17.4554316], [78.4052718, 17.4504831], [78.4043974, 17.4484002], [78.4054971, 17.4479038], [78.406173, 17.44578], [78.4054649, 17.4451096], [78.4066933, 17.4434207], [78.4065807, 17.4420645], [78.402155, 17.4405138], [78.4000468, 17.4393674], [78.3992261, 17.438523], [78.3973324, 17.4387124], [78.3961469, 17.4394749], [78.3953798, 17.4370695], [78.3972788, 17.4371258], [78.3986199, 17.4346846], [78.3979171, 17.4335432], [78.3992529, 17.4321256], [78.3987594, 17.4311889], [78.3962917, 17.4306464], [78.393352, 17.4304724], [78.393352, 17.429674], [78.3951867, 17.4285941], [78.3943981, 17.4267464], [78.3963239, 17.4263165], [78.3982766, 17.4247145], [78.3985502, 17.4192737], [78.3989847, 17.4181016], [78.3984429, 17.4182142], [78.3976704, 17.4175795], [78.3982229, 17.4152045], [78.3990759, 17.4134233], [78.3983374, 17.4133385], [78.3971842, 17.4112197], [78.3949491, 17.4128553], [78.3948217, 17.4102793], [78.391485, 17.4103919], [78.3910988, 17.4095525], [78.3882986, 17.4096958], [78.387966, 17.4110471], [78.3882235, 17.4136269], [78.3814214, 17.4178241], [78.3779882, 17.4174044], [78.3763896, 17.4146097], [78.3756064, 17.415403], [78.374909, 17.4151573], [78.3747266, 17.4156845], [78.3743833, 17.4156999], [78.3719371, 17.4121732], [78.3687185, 17.4128284], [78.3678494, 17.4136806], [78.3659826, 17.4130536], [78.3657037, 17.4121835], [78.3536337, 17.4164114], [78.3518098, 17.4134836], [78.3500288, 17.4136678], [78.3483337, 17.4125213], [78.3436774, 17.4149372], [78.3421753, 17.4120299], [78.3352659, 17.4155924], [78.327627, 17.4157153], [78.3165978, 17.4187044], [78.294196, 17.4325851], [78.2893894, 17.4273032], [78.2829092, 17.4237818], [78.2787786, 17.4274874], [78.2729529, 17.4336496], [78.2717512, 17.4405281], [78.2718371, 17.4415926], [78.2832526, 17.453752], [78.2834242, 17.4557171], [78.287072, 17.4562084], [78.2899473, 17.463045], [78.2965134, 17.4729516], [78.2950221, 17.4765846], [78.2977365, 17.4780224], [78.2953334, 17.4787859], [78.2950652, 17.4841482], [78.3128402, 17.485724], [78.3143878, 17.4913163], [78.315171, 17.4929536], [78.3160159, 17.4932784], [78.3152461, 17.4941559], [78.3149242, 17.4941559], [78.3149296, 17.4960899], [78.3107615, 17.503406], [78.3075136, 17.5051346], [78.3060918, 17.5026395], [78.3036706, 17.5036789], [78.3035086, 17.5034374], [78.2988525, 17.5057388], [78.3001264, 17.5081119], [78.2952261, 17.5089926], [78.2942176, 17.5074169], [78.2931447, 17.5072327], [78.2913637, 17.5103841], [78.2891321, 17.5112845], [78.2880163, 17.5105478], [78.2909132, 17.5026282], [78.2850982, 17.5026999], [78.2850338, 17.5069359], [78.2817293, 17.508], [78.2831025, 17.5140879], [78.2813645, 17.5153566], [78.2799912, 17.5149882], [78.2778884, 17.5183032], [78.2715798, 17.5202267], [78.2691766, 17.5228049], [78.2671166, 17.5233369], [78.2649709, 17.5197765], [78.2638122, 17.51949], [78.263147, 17.5177098], [78.2629324, 17.5178735], [78.26172, 17.5129317], [78.2616449, 17.5111616], [78.2611943, 17.5106194], [78.2609797, 17.5082763], [78.2573748, 17.5074168], [78.2517529, 17.5111821], [78.2516671, 17.5119597], [78.2528258, 17.5127373], [78.2521821, 17.5143743], [78.2525683, 17.5155612], [78.25171, 17.5165843], [78.2508517, 17.5165025], [78.2508088, 17.5169527], [78.2517959, 17.5169936], [78.2523967, 17.518426], [78.251195, 17.5198993], [78.2524396, 17.5213725], [78.2517529, 17.5234597], [78.2519246, 17.5258741], [78.2495213, 17.5265289], [78.2464744, 17.5260788], [78.246131, 17.5269791], [78.245659, 17.5271837], [78.2450581, 17.5262015], [78.2448436, 17.5271837], [78.2447148, 17.5256695], [78.243599, 17.5262425], [78.2448436, 17.5294754], [78.2436849, 17.5300483], [78.2422686, 17.5294344], [78.2392646, 17.5347543], [78.2387067, 17.5409742], [78.246646, 17.5389691], [78.2491351, 17.5394602], [78.2492638, 17.5412606], [78.2494784, 17.5406059], [78.2505942, 17.5431839], [78.251238, 17.5432657], [78.251195, 17.5440022], [78.2519675, 17.5455162], [78.2514525, 17.5480941], [78.2490493, 17.5492807], [78.2492638, 17.5514085], [78.2508088, 17.5515312], [78.2517529, 17.5499763], [78.2535554, 17.5495263], [78.2573319, 17.5500582], [78.2587911, 17.5521041], [78.2621814, 17.5523496], [78.2626534, 17.5515721], [78.2621385, 17.5489943], [78.2641555, 17.5475622], [78.2654, 17.5482987], [78.2661296, 17.5499354], [78.2685328, 17.5512857], [78.2733823, 17.5519404], [78.2778455, 17.5541499], [78.279605, 17.5541499], [78.2811499, 17.5512448], [78.2804633, 17.5479304], [78.2801629, 17.5487488], [78.2803775, 17.5389691], [78.2853127, 17.5363502], [78.2854415, 17.5339359], [78.2884456, 17.5303347], [78.2869435, 17.5272246], [78.2874584, 17.5222934], [78.2879305, 17.5219558], [78.2884562, 17.5197254], [78.2896042, 17.5195617], [78.290484, 17.5177098], [78.2898617, 17.5160114], [78.2909131, 17.5143233], [78.2938528, 17.5132285], [78.2996035, 17.5129829], [78.3015668, 17.5104762], [78.3059228, 17.510732], [78.3066201, 17.5082764], [78.3081436, 17.5079899], [78.316319, 17.5083992], [78.3165979, 17.5062095], [78.3208895, 17.505923], [78.3225846, 17.5061686], [78.3225846, 17.5084401], [78.3241939, 17.5085015], [78.3275574, 17.5079899], [78.3313554, 17.5054217], [78.3346438, 17.5071099], [78.3347726, 17.5113868], [78.3341503, 17.5122463], [78.3351374, 17.5125941], [78.3371115, 17.515991], [78.3338727, 17.5170742], [78.3367252, 17.5172597], [78.3369827, 17.5182214], [78.3415532, 17.5179963], [78.3415592, 17.5191908], [78.3421768, 17.5208649], [78.350206, 17.5206935], [78.35135, 17.5213074], [78.3602603, 17.5195419], [78.3624664, 17.5211309], [78.3660217, 17.5189107], [78.3706672, 17.5190987], [78.3709348, 17.514691], [78.3721679, 17.5146021], [78.3732269, 17.5129268], [78.3732636, 17.5074284], [78.3764912, 17.506575], [78.376756, 17.507634], [78.3791368, 17.507546], [78.3792259, 17.5094863], [78.3855767, 17.5075461], [78.3869, 17.5086041], [78.3881352, 17.5116931], [78.3893696, 17.5116918], [78.3928971, 17.5086041], [78.3963675, 17.5084675], [78.4002186, 17.5070384], [78.4014524, 17.5081741], [78.4032763, 17.5133718]]], [[[78.2888077, 17.4804667], [78.2889847, 17.4794996], [78.2878394, 17.4794996], [78.2876623, 17.480198], [78.2839609, 17.4803208], [78.2839502, 17.4812009], [78.2837571, 17.4802697], [78.2837678, 17.4812623], [78.2807852, 17.4812214], [78.2807423, 17.4845165], [78.2839609, 17.4838513], [78.2888077, 17.4804667]]]]}}