{"type": "Feature", "properties": {"osm_id": 2022214, "id": 2022214, "name": "Ranga Reddy", "name_local": "Ranga Reddy", "boundary": "administrative", "admin_level": "5", "type_tags": {"official_name": "Ranga Reddy District", "wikidata": "Q15388"}, "last_edit": "2025-12-16T18:41:25Z", "version": 83}, "geometry": {"type": "Polygon", "coordinates": [[[78.6157867, 16.7942637], [78.6007619, 16.7939113], [78.5912512, 16.7957276], [78.5877901, 16.7994981], [78.5859159, 16.800863], [78.585352, 16.8011811], [78.5845779, 16.800974], [78.5837849, 16.8011996], [78.5829404, 16.8019493], [78.583015, 16.8024564], [78.5802409, 16.803419], [78.5746705, 16.8062454], [78.5734238, 16.8063538], [78.5667709, 16.8098755], [78.56583, 16.811936], [78.5657368, 16.8134646], [78.5637346, 16.8144796], [78.563058, 16.8143136], [78.5621839, 16.8133888], [78.5611613, 16.8137569], [78.5602982, 16.8136805], [78.5566951, 16.8166996], [78.5548959, 16.8197215], [78.5504159, 16.8189163], [78.5462826, 16.8207279], [78.5428334, 16.8197683], [78.5422571, 16.8198726], [78.5388029, 16.8223581], [78.538614, 16.8219399], [78.5376018, 16.8217835], [78.5374384, 16.8220297], [78.5364056, 16.8209985], [78.5354122, 16.8207727], [78.5296047, 16.8161047], [78.5272495, 16.8157156], [78.5237484, 16.8173712], [78.5223286, 16.8185643], [78.5212123, 16.8188576], [78.5200635, 16.8196902], [78.5166279, 16.8206422], [78.5136122, 16.8219019], [78.5063009, 16.8227416], [78.4945446, 16.8210984], [78.4844956, 16.8206664], [78.4823712, 16.8200108], [78.4803671, 16.8184299], [78.4801558, 16.8166831], [78.4789408, 16.8163477], [78.4765058, 16.8114773], [78.4750996, 16.8051862], [78.4731551, 16.7995522], [78.4739617, 16.7904362], [78.4735909, 16.7893479], [78.4738007, 16.7879134], [78.4727679, 16.7836749], [78.4734679, 16.7793146], [78.4733368, 16.7785541], [78.4738063, 16.7778276], [78.4737667, 16.7772788], [78.4718518, 16.7773325], [78.4716802, 16.7768407], [78.4710599, 16.777142], [78.4690794, 16.7761723], [78.4663597, 16.7759692], [78.4661085, 16.7756423], [78.4634892, 16.7752301], [78.4623222, 16.7755323], [78.4603753, 16.7767736], [78.4566842, 16.7783736], [78.4530006, 16.7790156], [78.4427607, 16.7796148], [78.4409576, 16.7791542], [78.4351148, 16.7794927], [78.4313651, 16.7837052], [78.4294469, 16.7848518], [78.4271382, 16.7870929], [78.4258289, 16.7878833], [78.4241019, 16.7902351], [78.4175526, 16.7951779], [78.4159338, 16.7956659], [78.4147579, 16.7963989], [78.4085662, 16.7977143], [78.3988755, 16.7972859], [78.3980147, 16.7954772], [78.3963316, 16.7939312], [78.3941004, 16.7910022], [78.3927157, 16.7863849], [78.3899544, 16.7816962], [78.3890964, 16.7830533], [78.3851408, 16.7838533], [78.3837845, 16.7836386], [78.3814166, 16.7838847], [78.3795023, 16.7848025], [78.3783717, 16.7857569], [78.3767157, 16.7888849], [78.3766446, 16.7899432], [78.3756152, 16.7913654], [78.3743401, 16.7921705], [78.3703914, 16.7938086], [78.368991, 16.7936729], [78.3678833, 16.7942121], [78.3650606, 16.7944182], [78.3613283, 16.7958148], [78.3572446, 16.7960006], [78.3567236, 16.7965313], [78.3550204, 16.7950408], [78.3481673, 16.7931143], [78.3476611, 16.7922638], [78.347675, 16.7912522], [78.3463841, 16.7892275], [78.3479753, 16.7861252], [78.3485554, 16.7856593], [78.3457326, 16.786327], [78.3450673, 16.7866043], [78.3408321, 16.7904686], [78.3371764, 16.7927003], [78.3364859, 16.7934616], [78.3320382, 16.7951924], [78.332354, 16.7973782], [78.3319643, 16.797696], [78.3329776, 16.797848], [78.3325726, 16.7999522], [78.3330792, 16.8007929], [78.3335129, 16.803278], [78.3339764, 16.8039191], [78.3349578, 16.8117564], [78.335037, 16.8145767], [78.3344973, 16.8169248], [78.332794, 16.8185366], [78.3311629, 16.8208619], [78.3280331, 16.8235902], [78.3240697, 16.8248276], [78.3229539, 16.8255345], [78.323029, 16.8276876], [78.3236619, 16.830375], [78.3233142, 16.830501], [78.3236991, 16.8388067], [78.3255539, 16.8443119], [78.326082, 16.848327], [78.3305091, 16.8521827], [78.3260694, 16.8532956], [78.3214357, 16.8564603], [78.3199566, 16.8568769], [78.3210243, 16.859367], [78.3203614, 16.8604444], [78.3201071, 16.8641414], [78.3180676, 16.8689034], [78.3176435, 16.8702676], [78.3178686, 16.8710053], [78.3165027, 16.8726266], [78.3161045, 16.8738064], [78.3023086, 16.8795293], [78.3022532, 16.882063], [78.3024267, 16.8831414], [78.3028653, 16.8836212], [78.3025173, 16.8839776], [78.3017426, 16.8873885], [78.3023683, 16.8961014], [78.3017077, 16.8986511], [78.3017299, 16.9000008], [78.3027734, 16.9017563], [78.3019957, 16.9031562], [78.3021056, 16.9037041], [78.3013472, 16.9046845], [78.3012451, 16.9061027], [78.30151, 16.9131395], [78.3010896, 16.9179612], [78.3016463, 16.9198618], [78.296915, 16.9203942], [78.2898094, 16.9206584], [78.2881714, 16.9211514], [78.2865505, 16.9209852], [78.2849201, 16.9215301], [78.2803325, 16.9222261], [78.2793086, 16.922806], [78.2770148, 16.9233423], [78.2715713, 16.9336219], [78.2725272, 16.9375559], [78.2725904, 16.9405285], [78.27334, 16.9462054], [78.2782478, 16.9567023], [78.2693959, 16.9637412], [78.2634115, 16.9642845], [78.2606887, 16.9621105], [78.2586744, 16.9623808], [78.2500859, 16.9623468], [78.2425687, 16.9634756], [78.240805, 16.964073], [78.2378937, 16.9580783], [78.2341222, 16.9472201], [78.2341137, 16.9408297], [78.2310772, 16.9407593], [78.2230234, 16.9397221], [78.2200347, 16.9398045], [78.2179451, 16.942974], [78.2143828, 16.9437661], [78.2135472, 16.9445764], [78.2133311, 16.9444198], [78.2110899, 16.9468026], [78.2113417, 16.9483763], [78.2121234, 16.9497953], [78.212203, 16.9520357], [78.2114718, 16.9527351], [78.2089856, 16.9537835], [78.2064905, 16.9541269], [78.204052, 16.9540617], [78.2006139, 16.9552766], [78.2005317, 16.9565099], [78.1924406, 16.9634508], [78.1904238, 16.965859], [78.1874203, 16.9684524], [78.1858045, 16.9706009], [78.1841966, 16.9716597], [78.1830482, 16.971989], [78.18132, 16.9735693], [78.1812143, 16.9755458], [78.1818039, 16.979753], [78.1828881, 16.9816576], [78.1839495, 16.9825577], [78.1855238, 16.9848199], [78.1857412, 16.9891566], [78.1852732, 16.9905255], [78.1823478, 16.9919695], [78.1770732, 16.9979323], [78.1755794, 17.0022585], [78.1756819, 17.0026709], [78.1739811, 17.0055895], [78.1726504, 17.0061123], [78.1717363, 17.0060717], [78.1710999, 17.0053622], [78.1696112, 17.0049613], [78.165941, 17.0058305], [78.1660336, 17.0069634], [78.1653997, 17.0082469], [78.1639284, 17.0097886], [78.1622927, 17.0094834], [78.1603811, 17.0114591], [78.1557767, 17.0111666], [78.1541565, 17.0107868], [78.1509326, 17.0107985], [78.1422975, 17.0097567], [78.1384464, 17.0105696], [78.1362075, 16.990768], [78.1301036, 16.9927326], [78.1236588, 16.9960136], [78.1196372, 16.9962044], [78.1195208, 16.9924097], [78.119063, 16.9913532], [78.1187797, 16.9880809], [78.1182162, 16.9867779], [78.1186561, 16.9863637], [78.1183003, 16.9858571], [78.1182984, 16.9845533], [78.1214566, 16.9836754], [78.1229578, 16.9828334], [78.1208049, 16.9815006], [78.1193975, 16.9812677], [78.1079322, 16.981115], [78.1063201, 16.9806931], [78.1043347, 16.979617], [78.1015715, 16.9800714], [78.1005137, 16.9794527], [78.0973148, 16.9806266], [78.0970859, 16.9809494], [78.0942568, 16.9815892], [78.0938662, 16.9822282], [78.0915333, 16.9833911], [78.0891486, 16.9865229], [78.0873523, 16.9912859], [78.0872237, 16.9923609], [78.0857774, 16.994259], [78.0853073, 16.9962174], [78.0828177, 16.9975463], [78.0785733, 16.9992682], [78.0745905, 17.000001], [78.0732349, 17.0007157], [78.0728069, 17.0005451], [78.0711294, 17.0008881], [78.0705383, 17.0021233], [78.0694851, 17.003293], [78.0681814, 17.0036611], [78.0633597, 17.0028475], [78.0608984, 17.0012214], [78.0590911, 17.0009692], [78.0592366, 16.9987506], [78.0540463, 17.0026818], [78.0502099, 17.0039822], [78.0459344, 17.0048968], [78.0425454, 17.0071259], [78.041134, 17.0074935], [78.0411891, 17.0085097], [78.0414755, 17.0087834], [78.0394415, 17.0078174], [78.0336356, 17.009015], [78.0327853, 17.0096039], [78.0299846, 17.0144286], [78.0273756, 17.0132596], [78.0253093, 17.0107919], [78.0176876, 17.0058702], [78.0143421, 16.9998058], [78.0126928, 16.9991328], [78.0133531, 16.9984754], [78.010221, 16.9970098], [78.0092005, 16.9952286], [78.0082446, 16.991804], [78.0113368, 16.9896378], [78.0112733, 16.9894237], [78.0127448, 16.9887444], [78.0132313, 16.9878268], [78.0141308, 16.9873141], [78.0102493, 16.9797219], [78.0011145, 16.9804693], [77.9999601, 16.980167], [77.9999575, 16.9808325], [77.998407, 16.9839619], [77.9956193, 16.9853909], [77.9963545, 16.9901279], [77.9943171, 16.9907202], [77.993186, 16.9947316], [77.9904796, 16.9977141], [77.989366, 16.9978077], [77.9884729, 16.9986567], [77.9860494, 17.0017107], [77.9832707, 17.0030951], [77.9826644, 17.0029927], [77.9823462, 17.0036513], [77.9778791, 17.0047401], [77.9776183, 17.0050959], [77.9773649, 17.0056425], [77.9780132, 17.0077146], [77.9778478, 17.0087377], [77.9782062, 17.0104971], [77.9760172, 17.0110758], [77.9760612, 17.0114881], [77.9734724, 17.0122885], [77.9704562, 17.0127237], [77.9687884, 17.0126379], [77.9679001, 17.0133328], [77.964634, 17.0119888], [77.9583444, 17.0112058], [77.9553433, 17.0125679], [77.9508795, 17.0139309], [77.9521613, 17.016629], [77.9498766, 17.0183112], [77.9487349, 17.0182649], [77.9493673, 17.0204934], [77.9446206, 17.0210691], [77.9424942, 17.0219576], [77.9399151, 17.0236048], [77.9392918, 17.025522], [77.938671, 17.0257174], [77.9384345, 17.0272241], [77.9372131, 17.0276804], [77.9361084, 17.0272957], [77.9358664, 17.0280344], [77.9352508, 17.0278496], [77.9346333, 17.0282325], [77.9342304, 17.0294214], [77.9344551, 17.0296767], [77.9338254, 17.0307413], [77.9341369, 17.0317371], [77.9335662, 17.0321548], [77.9338511, 17.0325255], [77.9327619, 17.032756], [77.9327315, 17.0340357], [77.9322136, 17.0348346], [77.9325436, 17.0351547], [77.9325778, 17.0361049], [77.9313917, 17.0376315], [77.9309676, 17.0387182], [77.9300743, 17.039606], [77.9315155, 17.04192], [77.9311279, 17.0418786], [77.9316315, 17.0435162], [77.9311106, 17.0450761], [77.9315345, 17.045784], [77.9308354, 17.0473813], [77.9320672, 17.0472841], [77.9322486, 17.0484851], [77.9314541, 17.0485506], [77.9291657, 17.0501376], [77.9282192, 17.0496221], [77.9265714, 17.0501559], [77.9260736, 17.0499716], [77.9255223, 17.0504775], [77.9248417, 17.0505434], [77.922378, 17.0517908], [77.9222791, 17.0554306], [77.9225701, 17.056512], [77.9221285, 17.0587434], [77.9219062, 17.0632096], [77.9224129, 17.0635599], [77.9225634, 17.0642163], [77.9233803, 17.0644718], [77.9232189, 17.0647715], [77.9236507, 17.0654053], [77.9249303, 17.0657841], [77.9256587, 17.0654545], [77.9276961, 17.0668398], [77.9292549, 17.0668388], [77.9302494, 17.0663584], [77.9305886, 17.0680691], [77.9327377, 17.0693598], [77.9352733, 17.0701716], [77.9351841, 17.070699], [77.9366834, 17.0707567], [77.9366369, 17.0712254], [77.9374052, 17.071134], [77.9395001, 17.0716924], [77.9390384, 17.0721315], [77.9391373, 17.0730898], [77.9381921, 17.074105], [77.9402061, 17.0752384], [77.9425063, 17.0757807], [77.9484903, 17.0750276], [77.9491964, 17.0772723], [77.949073, 17.0797779], [77.9475422, 17.0811785], [77.9471499, 17.0812197], [77.9456706, 17.0841512], [77.9454743, 17.0873072], [77.9457878, 17.0912748], [77.9471763, 17.0921568], [77.9517885, 17.0938857], [77.9519716, 17.0937085], [77.9532476, 17.0960753], [77.9543794, 17.0991473], [77.9581146, 17.0991531], [77.9612129, 17.0978042], [77.9613786, 17.0991603], [77.9657847, 17.0999968], [77.9679441, 17.0999543], [77.9689022, 17.1005945], [77.9700361, 17.1008168], [77.9711961, 17.1005807], [77.9738697, 17.1010791], [77.9752164, 17.1033509], [77.9752957, 17.0999424], [77.9766405, 17.0997961], [77.9779136, 17.1007936], [77.9818763, 17.1017098], [77.9831526, 17.1035341], [77.9864702, 17.1036575], [77.9895654, 17.1033002], [77.9898852, 17.1035923], [77.9914343, 17.1070504], [77.991969, 17.1091089], [77.9928466, 17.1144244], [77.9926893, 17.1169752], [77.9933835, 17.1203572], [77.9933077, 17.122339], [77.9915349, 17.1224523], [77.991308, 17.1312047], [77.9949117, 17.1314809], [77.9951534, 17.1311766], [77.997458, 17.1324489], [77.9988412, 17.1337191], [78.0033994, 17.1429917], [78.0033932, 17.144434], [78.0039683, 17.1465285], [78.003779, 17.1479838], [78.0073672, 17.1475863], [78.0088134, 17.1482184], [78.0101426, 17.1480015], [78.0101999, 17.1484149], [78.0109108, 17.1485941], [78.0117145, 17.1515335], [78.0130719, 17.1520075], [78.0133137, 17.1526972], [78.0151034, 17.1613353], [78.0164889, 17.1660676], [78.0220124, 17.1664202], [78.0228068, 17.1669637], [78.0237629, 17.1670401], [78.0237908, 17.1678237], [78.0242303, 17.1681942], [78.0337367, 17.1683726], [78.0358919, 17.1681456], [78.0392514, 17.1670344], [78.0417071, 17.1666451], [78.0445219, 17.1681677], [78.0432298, 17.175202], [78.0436218, 17.1823895], [78.0440523, 17.1848014], [78.0445743, 17.1859231], [78.0466666, 17.1889984], [78.0476508, 17.1915055], [78.0484471, 17.1915641], [78.0488501, 17.1928952], [78.0490418, 17.1939672], [78.04864, 17.1980929], [78.0486828, 17.2026165], [78.0503502, 17.2062824], [78.0513009, 17.2072946], [78.0520463, 17.207454], [78.0530378, 17.2082054], [78.0555097, 17.2106439], [78.0580967, 17.2147123], [78.0576054, 17.2177057], [78.0560568, 17.2229581], [78.0555104, 17.2232407], [78.0551704, 17.2258966], [78.0537301, 17.2298272], [78.0540811, 17.2307904], [78.053516, 17.2309949], [78.0526929, 17.2320157], [78.0552325, 17.2326805], [78.0560259, 17.2324862], [78.0602509, 17.2332027], [78.0606636, 17.2351535], [78.0601686, 17.2356584], [78.060649, 17.2379541], [78.0613519, 17.2391818], [78.0611976, 17.2402798], [78.0586614, 17.2414278], [78.0585975, 17.2421548], [78.0579803, 17.2423447], [78.058016, 17.243449], [78.0575191, 17.2434669], [78.056547, 17.2453064], [78.0570838, 17.2469086], [78.0599563, 17.2494736], [78.0598962, 17.2498874], [78.0605721, 17.2498255], [78.060498, 17.2505188], [78.0579996, 17.253093], [78.0576975, 17.2538309], [78.0567652, 17.2539632], [78.0560627, 17.254942], [78.0561298, 17.2554485], [78.0548548, 17.2582048], [78.0540189, 17.2585441], [78.0522332, 17.2618443], [78.0494927, 17.2640295], [78.0484367, 17.2661407], [78.0485922, 17.2665389], [78.0480726, 17.2670854], [78.0486064, 17.267993], [78.0479633, 17.270012], [78.0467579, 17.2722622], [78.0430028, 17.2752618], [78.0436946, 17.2774129], [78.0447496, 17.2791266], [78.0453266, 17.2813985], [78.0454696, 17.2841971], [78.046038, 17.2853971], [78.0462432, 17.2889984], [78.0455561, 17.2927691], [78.0460086, 17.2948135], [78.0463349, 17.2948463], [78.0464147, 17.2960675], [78.0437068, 17.2969293], [78.041899, 17.2985889], [78.0369762, 17.3001085], [78.0369852, 17.3005103], [78.0346554, 17.3027109], [78.0313949, 17.3038953], [78.0324513, 17.3095924], [78.0241405, 17.3108253], [78.0195499, 17.3106938], [78.0180814, 17.3101022], [78.015068, 17.3119019], [78.0130628, 17.3213315], [78.0109577, 17.3210115], [78.0091586, 17.3216401], [78.0041267, 17.3284233], [78.0040583, 17.3288803], [78.0049008, 17.3306053], [78.0053354, 17.332609], [78.0055376, 17.3345639], [78.0052788, 17.3361071], [78.0081608, 17.3415711], [78.0099714, 17.342568], [78.0114209, 17.3428339], [78.0140989, 17.3446213], [78.0174914, 17.3442083], [78.017652, 17.3493332], [78.0194477, 17.3535829], [78.0198893, 17.3536931], [78.0215176, 17.3628524], [78.0237556, 17.3615479], [78.025255, 17.3613825], [78.0266021, 17.3617251], [78.027317, 17.3623839], [78.0274987, 17.3631747], [78.0272425, 17.3641914], [78.0252159, 17.3674105], [78.0244178, 17.369162], [78.0243269, 17.3701833], [78.0255411, 17.3714124], [78.027735, 17.374831], [78.0294297, 17.3761956], [78.0324584, 17.3778268], [78.0330995, 17.3785545], [78.0335528, 17.3811009], [78.0333576, 17.3815574], [78.0336994, 17.3847551], [78.0341644, 17.3862661], [78.0350821, 17.3866127], [78.0340201, 17.3893785], [78.0407933, 17.3952625], [78.0449788, 17.397409], [78.0487177, 17.4028156], [78.0500721, 17.4065937], [78.0511134, 17.4122244], [78.0539942, 17.4115846], [78.0575499, 17.4116438], [78.0580875, 17.410513], [78.0637475, 17.4101551], [78.0666174, 17.4092273], [78.070099, 17.4094974], [78.071169, 17.4108404], [78.0725452, 17.4174605], [78.0718907, 17.417646], [78.0719309, 17.4239701], [78.071067, 17.4279431], [78.0724812, 17.4293621], [78.0731311, 17.4295647], [78.0720275, 17.4345131], [78.0721928, 17.4352783], [78.0725666, 17.4354075], [78.0715406, 17.4367067], [78.0717511, 17.4389183], [78.0712156, 17.4392749], [78.0707622, 17.4404853], [78.0693362, 17.4418963], [78.0684706, 17.443873], [78.067202, 17.4442735], [78.0672119, 17.4449256], [78.0659554, 17.4454107], [78.0651653, 17.4452777], [78.0640082, 17.4466713], [78.0627975, 17.4495463], [78.0630591, 17.4508064], [78.0651228, 17.4519636], [78.0648325, 17.4520504], [78.0657739, 17.4522997], [78.0664611, 17.4533511], [78.0706288, 17.4559956], [78.0705929, 17.4566021], [78.0683961, 17.4576492], [78.0683307, 17.4566876], [78.0666792, 17.4562292], [78.0661386, 17.458149], [78.064304, 17.458942], [78.0638744, 17.4661111], [78.0631538, 17.4681436], [78.0631233, 17.4692728], [78.0620073, 17.4695441], [78.0594003, 17.4693173], [78.0570407, 17.4703382], [78.0568375, 17.4700129], [78.0553139, 17.4702073], [78.0547658, 17.4710524], [78.0480544, 17.4717185], [78.0486663, 17.4724144], [78.0493682, 17.4761634], [78.0522367, 17.4817398], [78.0528173, 17.4835862], [78.0533663, 17.4838722], [78.0549217, 17.4835461], [78.0565648, 17.4836592], [78.0632558, 17.4853527], [78.0640642, 17.4883172], [78.0644888, 17.4918364], [78.0650076, 17.4923913], [78.0656387, 17.4941959], [78.0653094, 17.4985612], [78.0659074, 17.4999779], [78.0660062, 17.5016095], [78.0639142, 17.5039977], [78.0629483, 17.5039712], [78.0629456, 17.5041998], [78.0597216, 17.5047262], [78.0579174, 17.505363], [78.0576276, 17.5095829], [78.0608366, 17.509048], [78.064131, 17.5078489], [78.0669857, 17.5081677], [78.069351, 17.5102901], [78.070694, 17.5109298], [78.0712987, 17.513817], [78.071044, 17.5163695], [78.0715276, 17.5190742], [78.0816543, 17.5168191], [78.0839787, 17.4984134], [78.0846067, 17.49849], [78.0898598, 17.4961485], [78.091493, 17.4961679], [78.0925285, 17.497322], [78.0948634, 17.497147], [78.099145, 17.4953275], [78.1036084, 17.4941289], [78.1047335, 17.4927841], [78.1067546, 17.4917881], [78.1068536, 17.492042], [78.1090832, 17.4919519], [78.1091531, 17.4916188], [78.1097419, 17.4913905], [78.1099094, 17.4905107], [78.1102624, 17.4845232], [78.1181712, 17.4835169], [78.1216875, 17.4848324], [78.1239701, 17.4865934], [78.1262282, 17.4866924], [78.1286703, 17.4882028], [78.1308948, 17.4901831], [78.1324987, 17.4904348], [78.1357628, 17.4896556], [78.1373144, 17.4887569], [78.1405785, 17.4876435], [78.1421361, 17.4867821], [78.1443416, 17.4849143], [78.1451258, 17.4838629], [78.1448642, 17.4823264], [78.1447506, 17.478092], [78.1450559, 17.4745004], [78.1447545, 17.4709042], [78.146541, 17.4698837], [78.1515112, 17.4681173], [78.1578199, 17.4653061], [78.1642947, 17.464249], [78.1655482, 17.4636183], [78.1699378, 17.4637151], [78.1698334, 17.4648585], [78.1715844, 17.4669458], [78.1725863, 17.4676325], [78.1791042, 17.4697877], [78.1791279, 17.4705717], [78.1805301, 17.4707818], [78.1819326, 17.4726853], [78.182804, 17.4729043], [78.1845021, 17.4743109], [78.1889568, 17.4765223], [78.1920948, 17.4788288], [78.1932774, 17.4812651], [78.193801, 17.4812256], [78.1941087, 17.4826189], [78.1910785, 17.4857696], [78.1912486, 17.4871734], [78.1944834, 17.4881762], [78.1971242, 17.4885909], [78.2025028, 17.4880384], [78.2035361, 17.4886768], [78.2039025, 17.4892767], [78.2044303, 17.4892678], [78.2045946, 17.4896557], [78.2057311, 17.4892666], [78.207556, 17.489319], [78.2086083, 17.4882282], [78.2120401, 17.4875148], [78.2139364, 17.4863021], [78.2135806, 17.484075], [78.2122291, 17.4841377], [78.2114217, 17.4830587], [78.2096263, 17.4819504], [78.206398, 17.4790348], [78.2065317, 17.4754887], [78.2070873, 17.4728217], [78.2070519, 17.4704904], [78.208747, 17.4589652], [78.2100751, 17.4555293], [78.2139379, 17.4563622], [78.2147732, 17.4551793], [78.2182935, 17.4557954], [78.2184181, 17.452777], [78.2174744, 17.4475931], [78.2163095, 17.4453794], [78.2168615, 17.4415237], [78.2179627, 17.438153], [78.2214484, 17.438068], [78.2277931, 17.4399426], [78.2275567, 17.4383095], [78.2295783, 17.4364194], [78.2323418, 17.432199], [78.2329912, 17.4279036], [78.2358383, 17.4276381], [78.242569, 17.4289944], [78.2494084, 17.4274947], [78.2531706, 17.4283661], [78.254326, 17.4280627], [78.257187, 17.4280304], [78.2573668, 17.4282501], [78.2595615, 17.427856], [78.2661064, 17.4305366], [78.2682369, 17.4306284], [78.2712806, 17.4318039], [78.2756763, 17.4350554], [78.2795135, 17.4343778], [78.2883542, 17.4315721], [78.2897304, 17.4370455], [78.2894877, 17.4413077], [78.2909215, 17.445305], [78.2902445, 17.4452552], [78.2930659, 17.4516809], [78.2947441, 17.4542786], [78.2978034, 17.4574412], [78.3014307, 17.4597415], [78.3006343, 17.4699042], [78.3005722, 17.4750245], [78.2997123, 17.4766615], [78.2986175, 17.481568], [78.299394, 17.4862181], [78.2985235, 17.4916872], [78.3032237, 17.4903486], [78.3074388, 17.4900797], [78.3148762, 17.4923204], [78.3159715, 17.4928938], [78.3166185, 17.4942042], [78.3161327, 17.4929877], [78.3167001, 17.4931513], [78.3177405, 17.4953506], [78.3178096, 17.4957229], [78.3170098, 17.4971952], [78.3171836, 17.4976273], [78.3164833, 17.4988245], [78.3155683, 17.5000229], [78.3147271, 17.5004905], [78.3147289, 17.5008767], [78.3153362, 17.5014733], [78.3145671, 17.5020642], [78.3148094, 17.5027936], [78.3137824, 17.5039519], [78.3104299, 17.5055802], [78.3089325, 17.5076408], [78.3081213, 17.5079251], [78.307665, 17.5100095], [78.3079869, 17.5100682], [78.3079195, 17.5106457], [78.3092471, 17.5103588], [78.3108412, 17.5090686], [78.3119726, 17.5092441], [78.312975, 17.5107398], [78.3133404, 17.5092627], [78.3145294, 17.5089213], [78.3152505, 17.5090759], [78.315231, 17.508816], [78.3165201, 17.508438], [78.3215207, 17.5087484], [78.329301, 17.5074637], [78.3340489, 17.5060718], [78.3348273, 17.5041475], [78.3366406, 17.5030394], [78.3386103, 17.5048157], [78.3386774, 17.5055399], [78.3392107, 17.5054563], [78.3402897, 17.5120517], [78.3420224, 17.5159585], [78.3441555, 17.5182755], [78.3451903, 17.5184832], [78.3455449, 17.5197685], [78.3479887, 17.5226541], [78.3525333, 17.5205037], [78.3637916, 17.5196695], [78.3715347, 17.5186986], [78.3727578, 17.5167774], [78.3734458, 17.5139375], [78.3745045, 17.5118772], [78.3751657, 17.5112664], [78.377096, 17.5106299], [78.3765776, 17.5076751], [78.3777883, 17.506109], [78.3777426, 17.5042819], [78.3772828, 17.5033475], [78.3786484, 17.4978789], [78.3768332, 17.4972425], [78.3766579, 17.4964548], [78.3724839, 17.4907976], [78.3705137, 17.4916828], [78.3675054, 17.4915068], [78.367881, 17.4900525], [78.3688967, 17.4897225], [78.3680492, 17.489331], [78.3673543, 17.4805002], [78.3666642, 17.4783706], [78.3635733, 17.4750272], [78.3695561, 17.4735848], [78.369568, 17.4769458], [78.3709726, 17.4773141], [78.3739664, 17.4772144], [78.3781227, 17.4765108], [78.3797239, 17.4747398], [78.3813788, 17.4738429], [78.3826488, 17.4721264], [78.3843751, 17.4705654], [78.3850508, 17.4687864], [78.3853841, 17.4664962], [78.3908009, 17.4610966], [78.3916424, 17.4599701], [78.3914611, 17.4588149], [78.3955732, 17.4563337], [78.3976753, 17.4554686], [78.4005297, 17.4528887], [78.4049775, 17.4501655], [78.405177, 17.4474564], [78.4059164, 17.4439934], [78.4072461, 17.4412444], [78.4058964, 17.4404973], [78.4015781, 17.4403968], [78.3971182, 17.4381567], [78.3970729, 17.4367214], [78.3978438, 17.4324414], [78.4019453, 17.4308049], [78.4026436, 17.4286204], [78.4028294, 17.4243675], [78.4033934, 17.4221817], [78.404356, 17.4203871], [78.4045058, 17.4190995], [78.403804, 17.4149452], [78.3985087, 17.4085742], [78.3979985, 17.4070147], [78.3986923, 17.4055523], [78.3970906, 17.4047063], [78.3961981, 17.4035765], [78.3950223, 17.4028458], [78.3931558, 17.4021235], [78.3924621, 17.4003388], [78.3920542, 17.3969816], [78.3910795, 17.3970811], [78.389611, 17.396567], [78.3891368, 17.3971113], [78.3883843, 17.3930094], [78.3911355, 17.3921675], [78.3927916, 17.3920806], [78.3928798, 17.3924955], [78.3931178, 17.3924629], [78.3927117, 17.3907806], [78.3947323, 17.3900433], [78.3947271, 17.3882037], [78.3961864, 17.3864425], [78.3972118, 17.3836071], [78.3970191, 17.3834114], [78.397757, 17.3822601], [78.397265, 17.3794778], [78.3890824, 17.3821986], [78.383841, 17.3848938], [78.3835906, 17.3830433], [78.382251, 17.379338], [78.3819883, 17.3758703], [78.3822098, 17.3743074], [78.3826195, 17.3741388], [78.382679, 17.3734516], [78.3860897, 17.3725972], [78.3877026, 17.3715055], [78.3886849, 17.3713966], [78.3885257, 17.3710335], [78.3896857, 17.3705479], [78.3966272, 17.3701076], [78.3990399, 17.3704405], [78.3991927, 17.3688065], [78.400967, 17.3683142], [78.4006829, 17.3696608], [78.4024109, 17.3704532], [78.4030319, 17.3725757], [78.4060604, 17.3715225], [78.4080854, 17.3723016], [78.4113623, 17.3724876], [78.412048, 17.3718417], [78.4138164, 17.3715742], [78.4191509, 17.3717937], [78.4195303, 17.3701471], [78.4201161, 17.3695133], [78.4233594, 17.3695135], [78.4242931, 17.3697357], [78.4249205, 17.3704415], [78.4311698, 17.3720833], [78.4340769, 17.3721166], [78.4364522, 17.3710971], [78.4389527, 17.3672858], [78.4401424, 17.3666019], [78.4396099, 17.3655491], [78.4377215, 17.3639563], [78.4374663, 17.3625573], [78.4356115, 17.3582609], [78.4317757, 17.3525458], [78.4296922, 17.3520856], [78.4297226, 17.3496431], [78.4302728, 17.3480386], [78.4246744, 17.3471243], [78.4226777, 17.3489529], [78.4224732, 17.350527], [78.4186084, 17.3490038], [78.416332, 17.3465131], [78.415243, 17.3442674], [78.4209313, 17.3406129], [78.4215465, 17.3403777], [78.4224393, 17.3406182], [78.4262497, 17.3382993], [78.4273987, 17.3384707], [78.428461, 17.3390357], [78.4293467, 17.340547], [78.4305668, 17.3416666], [78.4323639, 17.3426344], [78.43376, 17.3428087], [78.4360821, 17.3412561], [78.4379183, 17.3390649], [78.4398221, 17.3380603], [78.4398192, 17.3382988], [78.4448408, 17.3377762], [78.445538, 17.3374043], [78.4458475, 17.3363622], [78.445498, 17.3326392], [78.4442827, 17.3312745], [78.4443671, 17.3269234], [78.4452072, 17.326179], [78.4495389, 17.3250723], [78.4492694, 17.3287452], [78.45181, 17.3279547], [78.4535581, 17.3280532], [78.4534485, 17.3295174], [78.4550977, 17.3281902], [78.4570615, 17.3275816], [78.4566536, 17.3300478], [78.4560177, 17.3302634], [78.4556797, 17.331066], [78.4559781, 17.3321371], [78.4553534, 17.334122], [78.4569371, 17.3349507], [78.4595154, 17.3341184], [78.4622083, 17.3336946], [78.4612457, 17.3330858], [78.4599586, 17.3296817], [78.4594617, 17.3277026], [78.4592061, 17.32387], [78.4609066, 17.3216071], [78.4624216, 17.3206772], [78.4623781, 17.3191355], [78.4636552, 17.3201606], [78.4639466, 17.3197924], [78.4638697, 17.3192231], [78.4645671, 17.3190405], [78.4645622, 17.3185238], [78.462847, 17.3180289], [78.4629543, 17.3166068], [78.4626522, 17.3158859], [78.4608718, 17.314658], [78.4602071, 17.3138677], [78.4602396, 17.3130196], [78.458612, 17.3125932], [78.4580599, 17.3131522], [78.4576384, 17.3131422], [78.4583684, 17.3140127], [78.4576976, 17.3147659], [78.4568798, 17.314978], [78.4559471, 17.3146709], [78.455863, 17.3132856], [78.452836, 17.3124069], [78.4541841, 17.3110584], [78.4541013, 17.3103818], [78.4531797, 17.3104694], [78.4531675, 17.3097965], [78.453261, 17.3090796], [78.4541509, 17.308021], [78.4540254, 17.3066263], [78.4543033, 17.3062912], [78.4544078, 17.3039357], [78.4540566, 17.3038862], [78.4561024, 17.3033174], [78.4564841, 17.3017183], [78.4539161, 17.3018656], [78.4555339, 17.2993788], [78.4591437, 17.2962864], [78.4676322, 17.2934654], [78.4717276, 17.2931507], [78.4716854, 17.2939931], [78.470546, 17.2966185], [78.4698095, 17.2994202], [78.4716217, 17.3039184], [78.4707062, 17.3062593], [78.4722428, 17.3076276], [78.4734903, 17.3093327], [78.4731352, 17.3096824], [78.4733585, 17.3103793], [78.4742038, 17.3101091], [78.4773897, 17.3115519], [78.4789292, 17.3138033], [78.4806507, 17.3153951], [78.4823935, 17.3158559], [78.4844605, 17.3156159], [78.4853917, 17.3173599], [78.4878145, 17.3161335], [78.4878389, 17.3154568], [78.4889894, 17.3156057], [78.4886583, 17.3162756], [78.4924628, 17.3180089], [78.4926137, 17.3195215], [78.4935238, 17.3204145], [78.4946831, 17.320957], [78.497629, 17.3208711], [78.5015665, 17.3199125], [78.5044626, 17.3188251], [78.5057648, 17.3176017], [78.5062561, 17.3176072], [78.5066123, 17.3186124], [78.506395, 17.3214956], [78.5057741, 17.3240436], [78.5057221, 17.3305973], [78.5061646, 17.3338008], [78.5168606, 17.3340158], [78.5199469, 17.332683], [78.5215289, 17.3324923], [78.5208236, 17.3357477], [78.5208054, 17.3372724], [78.5196083, 17.3404243], [78.518502, 17.3410575], [78.5186149, 17.3427815], [78.5095704, 17.3415927], [78.5077311, 17.341665], [78.5065705, 17.3422071], [78.5065085, 17.3475785], [78.507102, 17.3490344], [78.5082045, 17.3495488], [78.5140312, 17.3503429], [78.5189343, 17.3545947], [78.520406, 17.3552574], [78.5210548, 17.357586], [78.5200073, 17.3621549], [78.5191759, 17.3634807], [78.517322, 17.3652257], [78.5150992, 17.3656663], [78.5106786, 17.365462], [78.5104651, 17.3702196], [78.5109307, 17.3759989], [78.5105874, 17.3785382], [78.5097858, 17.3808963], [78.511289, 17.3804632], [78.5131822, 17.3786865], [78.5173327, 17.3760354], [78.5210942, 17.374638], [78.5223133, 17.3744714], [78.5238093, 17.3746671], [78.5252044, 17.3754906], [78.5262412, 17.377661], [78.5292501, 17.3793036], [78.5305113, 17.3778298], [78.5270596, 17.377265], [78.5262714, 17.3738565], [78.5252364, 17.3717717], [78.5260197, 17.3713097], [78.5262617, 17.3704607], [78.5288008, 17.3710206], [78.5289705, 17.3707874], [78.5296808, 17.3709303], [78.5295426, 17.3714136], [78.5281588, 17.3709861], [78.5284926, 17.3714926], [78.5318356, 17.3712635], [78.5307025, 17.3694221], [78.5313244, 17.3689681], [78.5322771, 17.3703759], [78.5320826, 17.3704985], [78.5326351, 17.3721442], [78.5343947, 17.3736442], [78.5350594, 17.3736413], [78.5352838, 17.3731886], [78.5369862, 17.3730902], [78.5394698, 17.3718735], [78.5403239, 17.3709491], [78.5419715, 17.3720057], [78.5432496, 17.372335], [78.5451204, 17.3726887], [78.5481709, 17.3725559], [78.5505387, 17.371727], [78.5536273, 17.3696349], [78.5558322, 17.366764], [78.556817, 17.362466], [78.5656767, 17.3616221], [78.5802333, 17.3614635], [78.5833188, 17.3626443], [78.5836471, 17.363335], [78.5834897, 17.3674677], [78.582647, 17.3692234], [78.5825946, 17.3707981], [78.5836212, 17.3708053], [78.5834418, 17.3714097], [78.5845279, 17.3739409], [78.5841867, 17.3756653], [78.5847198, 17.3761596], [78.5863583, 17.3764518], [78.585788, 17.3799595], [78.5839437, 17.383388], [78.583833, 17.3854276], [78.585414, 17.3885385], [78.5945999, 17.3879743], [78.5975705, 17.3882996], [78.5982489, 17.3888593], [78.5981817, 17.3886381], [78.6017831, 17.388315], [78.6047399, 17.3876111], [78.6118843, 17.3874907], [78.6183272, 17.3864759], [78.6184139, 17.3874204], [78.6335521, 17.3853268], [78.634143, 17.3847617], [78.6360099, 17.38468], [78.6359411, 17.3837364], [78.6371972, 17.3840251], [78.6370817, 17.3837451], [78.6375823, 17.3835692], [78.6452165, 17.3859964], [78.6458888, 17.3853265], [78.6499824, 17.3847151], [78.6524692, 17.3834735], [78.6544581, 17.381733], [78.6572897, 17.3799776], [78.6579366, 17.3792087], [78.6603615, 17.3780316], [78.6622214, 17.3778668], [78.669644, 17.3810098], [78.6723872, 17.382627], [78.6740626, 17.3850885], [78.674037, 17.3892981], [78.6733354, 17.3921455], [78.6742818, 17.3959175], [78.6755077, 17.3986342], [78.6784697, 17.4015862], [78.6805518, 17.4030247], [78.6838894, 17.404095], [78.6838601, 17.4044001], [78.6843986, 17.4046031], [78.6855961, 17.4046702], [78.6887768, 17.4042998], [78.6913099, 17.4033912], [78.6911349, 17.4042773], [78.6919087, 17.4038379], [78.6955913, 17.4005835], [78.698729, 17.3958808], [78.7024206, 17.3944614], [78.7022732, 17.3938767], [78.7058195, 17.3947411], [78.7074689, 17.3964093], [78.7114237, 17.3992395], [78.7158846, 17.4000829], [78.7179838, 17.3994269], [78.7200081, 17.3983211], [78.7220886, 17.3958845], [78.7248063, 17.3892306], [78.7262871, 17.3869627], [78.7278427, 17.385557], [78.7291548, 17.3848072], [78.7334282, 17.3843762], [78.737398, 17.3846147], [78.7372547, 17.3813838], [78.7375503, 17.3813383], [78.7372741, 17.379797], [78.7364894, 17.3794722], [78.7361485, 17.3797978], [78.7359292, 17.3783501], [78.7338704, 17.3726063], [78.733884, 17.3639001], [78.7314119, 17.3530553], [78.7323224, 17.3527472], [78.731502, 17.3517754], [78.7294712, 17.3514841], [78.7229309, 17.3538497], [78.7210325, 17.3549286], [78.715613, 17.3566433], [78.7132666, 17.3520222], [78.7094449, 17.3487429], [78.7102352, 17.3462366], [78.7101876, 17.3415815], [78.7139748, 17.3403414], [78.7137403, 17.3381475], [78.7130177, 17.3375124], [78.712237, 17.3350022], [78.7132109, 17.3344757], [78.7144005, 17.3343204], [78.7151259, 17.3337675], [78.7191061, 17.3327791], [78.7204752, 17.3316059], [78.7209155, 17.3315694], [78.7226009, 17.3293402], [78.7253243, 17.3284617], [78.7272702, 17.3271058], [78.7311205, 17.3267047], [78.7376866, 17.3281546], [78.7356972, 17.3285443], [78.7357369, 17.3294065], [78.7377089, 17.3289977], [78.7380964, 17.3282295], [78.7471528, 17.3308694], [78.7488775, 17.3312755], [78.7501055, 17.3311704], [78.7539016, 17.332776], [78.7543567, 17.3319651], [78.756034, 17.3328022], [78.7565024, 17.331956], [78.7564415, 17.3298542], [78.7551651, 17.3240865], [78.7564391, 17.3234264], [78.7575493, 17.3159502], [78.7587643, 17.3149787], [78.760448, 17.3075548], [78.7626542, 17.3040957], [78.7624616, 17.3035446], [78.7585172, 17.302365], [78.754573, 17.3022525], [78.7544274, 17.3025356], [78.7519787, 17.3021339], [78.7478774, 17.2989261], [78.7491276, 17.2992839], [78.7489494, 17.298282], [78.7494015, 17.2985257], [78.7497345, 17.296533], [78.7482805, 17.2961755], [78.7475705, 17.2952693], [78.7432923, 17.2964584], [78.742439, 17.2956318], [78.7425724, 17.2953834], [78.7421053, 17.2955947], [78.741729, 17.2951066], [78.7414068, 17.2952301], [78.7418633, 17.2941329], [78.7415172, 17.2934786], [78.7454234, 17.2874547], [78.7480385, 17.2853472], [78.7502483, 17.2847606], [78.7521181, 17.2822451], [78.7524822, 17.279954], [78.7519669, 17.2786161], [78.7537526, 17.2734871], [78.7536537, 17.2723675], [78.7509824, 17.2692023], [78.7538575, 17.2635927], [78.7540928, 17.2621127], [78.7574696, 17.259468], [78.7594668, 17.2574033], [78.7631083, 17.2548924], [78.7659343, 17.2522185], [78.7688485, 17.2506469], [78.7754517, 17.2485666], [78.7758319, 17.2488932], [78.7769503, 17.2479217], [78.7773635, 17.2467873], [78.7780355, 17.2460425], [78.7856867, 17.2429603], [78.7897607, 17.2429323], [78.7913402, 17.2434552], [78.7924406, 17.2434059], [78.7929597, 17.2430284], [78.7981482, 17.2423101], [78.8022906, 17.2403637], [78.8076304, 17.237178], [78.8166494, 17.2312519], [78.8167378, 17.2228383], [78.8173732, 17.2119409], [78.8160437, 17.2131709], [78.8105109, 17.2108168], [78.8073638, 17.2090431], [78.8030415, 17.2088372], [78.8063246, 17.2036136], [78.805995, 17.2021236], [78.8022816, 17.1987508], [78.7964214, 17.1979965], [78.7859137, 17.205649], [78.780677, 17.2072591], [78.7733016, 17.2106972], [78.7695041, 17.2120997], [78.7672742, 17.2127893], [78.7591565, 17.2143419], [78.7619014, 17.2099368], [78.7648926, 17.2067994], [78.7680314, 17.2003255], [78.7703063, 17.1966532], [78.7725337, 17.1917176], [78.772417, 17.1887545], [78.775039, 17.1888012], [78.7773426, 17.1882363], [78.77832, 17.187441], [78.7804738, 17.1875484], [78.7821258, 17.1822274], [78.7822924, 17.1781425], [78.7839029, 17.1758302], [78.7853907, 17.1731227], [78.7858972, 17.1713759], [78.7872779, 17.1694221], [78.7891597, 17.1641972], [78.786665, 17.1605306], [78.784872, 17.159571], [78.7779435, 17.1630516], [78.7780765, 17.1626127], [78.776572, 17.1602075], [78.7748842, 17.1577025], [78.7740029, 17.157079], [78.7750537, 17.1527373], [78.7803664, 17.1481949], [78.7802961, 17.1445439], [78.7823596, 17.1427373], [78.7821276, 17.1421491], [78.7835293, 17.1404011], [78.7848587, 17.1396902], [78.7851953, 17.1386678], [78.7861017, 17.1375291], [78.7879885, 17.1368141], [78.788467, 17.1369882], [78.7885595, 17.1375864], [78.7890561, 17.137605], [78.7923899, 17.1349423], [78.7947925, 17.1340682], [78.7963535, 17.1330442], [78.7997157, 17.1321026], [78.8060764, 17.1288689], [78.8194912, 17.1206022], [78.8312128, 17.1153807], [78.8339792, 17.1133826], [78.8336605, 17.1117589], [78.8335301, 17.1037365], [78.8327235, 17.1035328], [78.8323774, 17.1040552], [78.8269804, 17.1046657], [78.8240609, 17.1063825], [78.8182502, 17.1085116], [78.8154929, 17.0946628], [78.8193383, 17.0926677], [78.8234176, 17.0918683], [78.8243676, 17.0906309], [78.8282209, 17.0876368], [78.8278712, 17.087609], [78.8359334, 17.0820306], [78.8346184, 17.0797737], [78.8375373, 17.0764499], [78.8384471, 17.0742985], [78.8415382, 17.0739344], [78.8439764, 17.0720143], [78.8432152, 17.069894], [78.8415874, 17.0623677], [78.8385562, 17.0535888], [78.8369248, 17.0459371], [78.8367494, 17.0415546], [78.8364582, 17.0401427], [78.8360626, 17.0396329], [78.8378045, 17.0387221], [78.8378456, 17.0381996], [78.8367086, 17.0387814], [78.835258, 17.038372], [78.8342125, 17.0371405], [78.8252431, 17.0328452], [78.8133979, 17.0302566], [78.8043925, 17.0344592], [78.8025948, 17.0349457], [78.8021827, 17.0309202], [78.802218, 17.0275704], [78.8036117, 17.0223668], [78.8200653, 17.0183947], [78.8200709, 17.0101065], [78.8194083, 17.0100286], [78.8182671, 17.006914], [78.8064947, 17.0048331], [78.8068542, 17.0038517], [78.8063998, 17.0033798], [78.8039801, 17.0033574], [78.8032943, 17.0038783], [78.8023331, 17.0038676], [78.7996488, 17.0002824], [78.7965469, 16.9947603], [78.7926172, 16.9910566], [78.7912265, 16.9838685], [78.7908071, 16.9799719], [78.7894448, 16.9772589], [78.786033, 16.9776821], [78.7838443, 16.9785738], [78.783786, 16.9783566], [78.7815679, 16.9789594], [78.7787635, 16.9791417], [78.7786149, 16.9795951], [78.7779602, 16.979373], [78.7760892, 16.9802076], [78.7760427, 16.9806716], [78.7753209, 16.9809032], [78.7755164, 16.9815496], [78.7751316, 16.9817581], [78.7746201, 16.9817635], [78.7741828, 16.9810815], [78.7684103, 16.9811907], [78.7669087, 16.9806549], [78.7644569, 16.9804035], [78.7637847, 16.9814953], [78.7591964, 16.9833301], [78.7580935, 16.9800621], [78.7566291, 16.9712902], [78.7581555, 16.9712741], [78.7594774, 16.9701477], [78.7592972, 16.9696152], [78.7595086, 16.969465], [78.7538085, 16.9694267], [78.7441001, 16.9713903], [78.7441146, 16.971004], [78.7332193, 16.9734307], [78.7291633, 16.9737486], [78.728364, 16.973145], [78.7195692, 16.9695452], [78.7166417, 16.9695121], [78.7142245, 16.9691121], [78.7097309, 16.9662108], [78.7064406, 16.9701709], [78.7060399, 16.9698954], [78.7052626, 16.9709427], [78.7028309, 16.969393], [78.6997292, 16.9634558], [78.7046162, 16.9603872], [78.7031997, 16.9501767], [78.698286, 16.9455001], [78.6977984, 16.9421556], [78.6963293, 16.937868], [78.6947901, 16.9361073], [78.7077808, 16.9346132], [78.7060274, 16.9279684], [78.708256, 16.9287897], [78.7132363, 16.9274207], [78.7143072, 16.9274962], [78.7145393, 16.927793], [78.7195584, 16.9276995], [78.7276804, 16.9240015], [78.7288537, 16.9231295], [78.7311233, 16.9226866], [78.7322318, 16.9229027], [78.7326238, 16.921731], [78.7343576, 16.920824], [78.7348217, 16.9197785], [78.7395855, 16.918628], [78.7429428, 16.9168481], [78.7429959, 16.9162894], [78.7451616, 16.9147262], [78.7450527, 16.9121354], [78.7442948, 16.9109396], [78.7427587, 16.9109066], [78.7422047, 16.9106163], [78.7393404, 16.9064246], [78.7380038, 16.9053514], [78.7373591, 16.904114], [78.7354176, 16.9021377], [78.731595, 16.9007197], [78.7305133, 16.8985367], [78.7285087, 16.8961824], [78.7272876, 16.8913478], [78.7281923, 16.8807065], [78.7270956, 16.87578], [78.7270506, 16.8737824], [78.7260926, 16.8706261], [78.7292212, 16.8649926], [78.7322329, 16.862812], [78.732423, 16.8632017], [78.7345471, 16.8617732], [78.7427818, 16.8591156], [78.7452703, 16.8575044], [78.7489783, 16.8532395], [78.7504134, 16.8554488], [78.7509172, 16.8567933], [78.7526635, 16.8636001], [78.7575478, 16.8683516], [78.7593044, 16.8708729], [78.7609745, 16.872456], [78.7641934, 16.8745148], [78.7650345, 16.8747172], [78.7673476, 16.8765494], [78.7703306, 16.881486], [78.771315, 16.8795547], [78.7733198, 16.8774205], [78.7731492, 16.8772553], [78.77669, 16.8726549], [78.7784858, 16.8711745], [78.7801559, 16.8686041], [78.7805531, 16.8692103], [78.7810405, 16.8682598], [78.7807705, 16.8680438], [78.7807063, 16.864772], [78.7810804, 16.8601074], [78.7806208, 16.8587333], [78.7794976, 16.8572567], [78.7792931, 16.8557606], [78.7795653, 16.8537417], [78.7788945, 16.8514281], [78.7793438, 16.8498534], [78.7764013, 16.8442138], [78.7868506, 16.8413318], [78.7899039, 16.8392441], [78.7874248, 16.8316542], [78.7951731, 16.8292494], [78.8023056, 16.8260113], [78.8016615, 16.8237974], [78.8015225, 16.8192616], [78.8009844, 16.815265], [78.7988027, 16.8099027], [78.7976558, 16.8079061], [78.7934429, 16.808141], [78.7914191, 16.8023931], [78.7925616, 16.7972168], [78.793309, 16.791793], [78.7931404, 16.7905252], [78.792378, 16.7905123], [78.7946141, 16.7872575], [78.795149, 16.78556], [78.7945127, 16.7837387], [78.7937958, 16.7788469], [78.7919227, 16.7736021], [78.7894168, 16.7723564], [78.783071, 16.7721618], [78.7703148, 16.7711607], [78.765126, 16.772735], [78.7614855, 16.774769], [78.7554637, 16.7795197], [78.752377, 16.7799747], [78.7516683, 16.7767981], [78.7508299, 16.7746335], [78.7475843, 16.7777346], [78.746612, 16.7774624], [78.7461626, 16.7710808], [78.7447807, 16.7642791], [78.74406, 16.7642668], [78.7433341, 16.7618512], [78.7420856, 16.7600293], [78.7411817, 16.7559637], [78.7399375, 16.7560551], [78.7354305, 16.7541605], [78.7316844, 16.7547838], [78.7294233, 16.7555346], [78.7273923, 16.7569808], [78.7234249, 16.7532506], [78.7226867, 16.7504361], [78.7218424, 16.7504343], [78.720663, 16.7512548], [78.7145324, 16.7531555], [78.7110767, 16.7557879], [78.7082791, 16.7574614], [78.7058595, 16.751562], [78.698139, 16.744225], [78.6966359, 16.7471691], [78.6953242, 16.7519381], [78.6940765, 16.7518821], [78.6935683, 16.7523511], [78.6943067, 16.7536441], [78.6945003, 16.7554219], [78.6951818, 16.7571978], [78.6949194, 16.7591085], [78.6951708, 16.760989], [78.6963076, 16.7634563], [78.6963564, 16.7651841], [78.6914493, 16.7654544], [78.6885332, 16.7666132], [78.684137, 16.7672565], [78.6809222, 16.7683132], [78.6803369, 16.7680546], [78.6781017, 16.7682176], [78.6775199, 16.7658608], [78.6755956, 16.7660616], [78.6750119, 16.7650996], [78.672016, 16.7645296], [78.6707655, 16.7643812], [78.6699667, 16.7655362], [78.6668043, 16.7653005], [78.6661875, 16.7661961], [78.6645168, 16.7666591], [78.6620277, 16.7635368], [78.6611796, 16.7642688], [78.6561436, 16.7643198], [78.65578, 16.7677274], [78.6558989, 16.7710586], [78.6576835, 16.7746278], [78.660063, 16.7773642], [78.6652726, 16.7817731], [78.6707101, 16.7830681], [78.6735524, 16.7835637], [78.6766066, 16.7835663], [78.6778572, 16.7840022], [78.6796159, 16.7853554], [78.6804391, 16.7866278], [78.6813933, 16.7872459], [78.6822498, 16.7886736], [78.6835318, 16.7898625], [78.6840429, 16.8034719], [78.6826953, 16.8090679], [78.6830814, 16.8111877], [78.6820729, 16.8115237], [78.6820013, 16.812527], [78.6798129, 16.8167022], [78.6785403, 16.8206116], [78.6762148, 16.8243756], [78.6742223, 16.8269015], [78.6729898, 16.8273743], [78.6691706, 16.8306248], [78.6674602, 16.8309594], [78.6659656, 16.8190724], [78.6633768, 16.8084124], [78.6566762, 16.7902905], [78.6485804, 16.7761598], [78.6458547, 16.7752531], [78.6395807, 16.7756331], [78.6345769, 16.7753615], [78.632634, 16.7758471], [78.63287, 16.7766379], [78.6317909, 16.7776565], [78.6245344, 16.7795096], [78.6194393, 16.7832624], [78.6157508, 16.7854208], [78.6159093, 16.7907672], [78.6162444, 16.7916383], [78.6154385, 16.7922129], [78.6157867, 16.7942637]]]}}