{"type": "Feature", "properties": {"osm_id": 7255986, "id": 7255986, "name": "Hyderabad", "name_local": "Hyderabad", "boundary": "administrative", "admin_level": "5", "type_tags": {"official_name": "Hyderabad District", "source": "Government Of Telangana (2023-10-09, GODL, https://data.telangana.gov.in/telangana-district-and-mandal-shape-files)", "wikidata": "Q15340"}, "last_edit": "2026-01-18T19:28:29Z", "version": 42}, "geometry": {"type": "Polygon", "coordinates": [[[78.4622083, 17.3336946], [78.4569371, 17.3349507], [78.4553534, 17.334122], [78.4559781, 17.3321371], [78.4556797, 17.331066], [78.4560177, 17.3302634], [78.4566536, 17.3300478], [78.4570615, 17.3275816], [78.4550977, 17.3281902], [78.4534485, 17.3295174], [78.4535581, 17.3280532], [78.45181, 17.3279547], [78.4492694, 17.3287452], [78.4495389, 17.3250723], [78.4452072, 17.326179], [78.4443671, 17.3269234], [78.4442827, 17.3312745], [78.445498, 17.3326392], [78.4458475, 17.3363622], [78.445538, 17.3374043], [78.4448408, 17.3377762], [78.4398192, 17.3382988], [78.4398221, 17.3380603], [78.4379183, 17.3390649], [78.4360821, 17.3412561], [78.43376, 17.3428087], [78.4323639, 17.3426344], [78.4305668, 17.3416666], [78.4293467, 17.340547], [78.428461, 17.3390357], [78.4273987, 17.3384707], [78.4262497, 17.3382993], [78.4224393, 17.3406182], [78.4215465, 17.3403777], [78.4209313, 17.3406129], [78.415243, 17.3442674], [78.416332, 17.3465131], [78.4186084, 17.3490038], [78.4224732, 17.350527], [78.4226777, 17.3489529], [78.4246744, 17.3471243], [78.4302728, 17.3480386], [78.4297226, 17.3496431], [78.4296922, 17.3520856], [78.4317757, 17.3525458], [78.4356115, 17.3582609], [78.4374663, 17.3625573], [78.4377215, 17.3639563], [78.4396099, 17.3655491], [78.4401424, 17.3666019], [78.4389527, 17.3672858], [78.4364522, 17.3710971], [78.4340769, 17.3721166], [78.4311698, 17.3720833], [78.4249205, 17.3704415], [78.4242931, 17.3697357], [78.4233594, 17.3695135], [78.4201161, 17.3695133], [78.4195303, 17.3701471], [78.4191509, 17.3717937], [78.4138164, 17.3715742], [78.412048, 17.3718417], [78.4113623, 17.3724876], [78.4080854, 17.3723016], [78.4060604, 17.3715225], [78.4030319, 17.3725757], [78.4024109, 17.3704532], [78.4006829, 17.3696608], [78.400967, 17.3683142], [78.3991927, 17.3688065], [78.3990399, 17.3704405], [78.3966272, 17.3701076], [78.3903808, 17.3704079], [78.3885257, 17.3710335], [78.3886849, 17.3713966], [78.3877026, 17.3715055], [78.3860897, 17.3725972], [78.382679, 17.3734516], [78.3826195, 17.3741388], [78.3820498, 17.3747829], [78.3821604, 17.3786813], [78.3835906, 17.3830433], [78.383841, 17.3848938], [78.3890824, 17.3821986], [78.3963442, 17.3797345], [78.397265, 17.3794778], [78.3973282, 17.3804786], [78.3975481, 17.380514], [78.397757, 17.3822601], [78.3970191, 17.3834114], [78.3972118, 17.3836071], [78.3961864, 17.3864425], [78.3947271, 17.3882037], [78.3947323, 17.3900433], [78.3927117, 17.3907806], [78.3931178, 17.3924629], [78.3928798, 17.3924955], [78.3927916, 17.3920806], [78.3911355, 17.3921675], [78.3883843, 17.3930094], [78.3891368, 17.3971113], [78.389611, 17.396567], [78.3910795, 17.3970811], [78.3920542, 17.3969816], [78.3924621, 17.4003388], [78.3931558, 17.4021235], [78.3950223, 17.4028458], [78.3961981, 17.4035765], [78.3970906, 17.4047063], [78.3986923, 17.4055523], [78.3979985, 17.4070147], [78.3985087, 17.4085742], [78.403804, 17.4149452], [78.4045058, 17.4190995], [78.404356, 17.4203871], [78.4033934, 17.4221817], [78.4028294, 17.4243675], [78.4026436, 17.4286204], [78.4019453, 17.4308049], [78.3978438, 17.4324414], [78.3970729, 17.4367214], [78.3971182, 17.4381567], [78.4015781, 17.4403968], [78.4058964, 17.4404973], [78.4072461, 17.4412444], [78.4059164, 17.4439934], [78.405177, 17.4474564], [78.4049775, 17.4501655], [78.4069672, 17.4521421], [78.4076388, 17.4532393], [78.4139815, 17.451842], [78.4197391, 17.4510842], [78.4248349, 17.4518422], [78.4256947, 17.4545527], [78.4301952, 17.4538847], [78.4361489, 17.4546165], [78.440447, 17.453915], [78.4428611, 17.4527823], [78.4436618, 17.4528204], [78.4490394, 17.4509709], [78.4502142, 17.4503014], [78.4526054, 17.4497861], [78.4523955, 17.447757], [78.4527448, 17.446884], [78.4545735, 17.4460494], [78.4550054, 17.4452583], [78.4553728, 17.4422576], [78.457489, 17.4407339], [78.4647361, 17.4380801], [78.4656105, 17.4369568], [78.4654952, 17.4365517], [78.4667524, 17.4366086], [78.4681272, 17.437478], [78.4698594, 17.4378167], [78.4698594, 17.4382159], [78.4721231, 17.4382262], [78.4722841, 17.4386254], [78.4749126, 17.4384616], [78.479247, 17.4375404], [78.479054, 17.4386458], [78.4783137, 17.4388915], [78.4777129, 17.4400072], [78.4788394, 17.4420031], [78.4783673, 17.4415835], [78.4774013, 17.4438331], [78.4683551, 17.444735], [78.4691731, 17.4491352], [78.4694366, 17.4490167], [78.4695719, 17.4502607], [78.4706597, 17.4525408], [78.4684901, 17.4528738], [78.4645799, 17.4551228], [78.4651742, 17.458007], [78.46543, 17.4636641], [78.4667634, 17.4762585], [78.4716841, 17.4744665], [78.4771447, 17.4731056], [78.4785857, 17.4717693], [78.4794158, 17.4721643], [78.481267, 17.4716056], [78.4838923, 17.4697237], [78.4882106, 17.4685393], [78.4901025, 17.469514], [78.4922752, 17.4700645], [78.4929274, 17.4723951], [78.4943454, 17.4720537], [78.4966306, 17.4720781], [78.4984949, 17.4736463], [78.4953702, 17.4750292], [78.4971123, 17.4806153], [78.4993873, 17.4807076], [78.4985582, 17.4823748], [78.4992333, 17.4827788], [78.4991841, 17.4833113], [78.5015953, 17.4817769], [78.5032956, 17.4811203], [78.5037626, 17.4829559], [78.5046334, 17.4842853], [78.5065727, 17.4843058], [78.5094121, 17.4829176], [78.5166927, 17.4837914], [78.515112, 17.4796101], [78.5150646, 17.4755664], [78.5146255, 17.4730454], [78.5132432, 17.4710543], [78.5134331, 17.4626999], [78.5144807, 17.4611833], [78.5152592, 17.4586769], [78.5150628, 17.451306], [78.5135127, 17.4476062], [78.5113075, 17.4438991], [78.5060407, 17.4376419], [78.5056922, 17.435392], [78.5062975, 17.4316256], [78.5086657, 17.4293143], [78.513829, 17.4282921], [78.5178465, 17.4291436], [78.5196261, 17.4291621], [78.5213024, 17.4299889], [78.5282223, 17.4309615], [78.5279827, 17.4330353], [78.5281252, 17.4403287], [78.5291201, 17.4412236], [78.5302064, 17.4414752], [78.5321346, 17.4413359], [78.5346406, 17.4419252], [78.5378371, 17.4420258], [78.5397195, 17.4412371], [78.5428802, 17.4368159], [78.5472794, 17.4373297], [78.5509243, 17.4389926], [78.5538902, 17.4384846], [78.5562026, 17.4385651], [78.5563157, 17.4370147], [78.5501381, 17.4368604], [78.5487416, 17.4356404], [78.5485166, 17.4341969], [78.5478238, 17.4327817], [78.5463583, 17.4329028], [78.5449792, 17.4308945], [78.5451743, 17.4291225], [78.5443655, 17.4274098], [78.5435143, 17.4272782], [78.5408022, 17.4240307], [78.5390256, 17.4209484], [78.5360799, 17.4230215], [78.5291113, 17.4244414], [78.526705, 17.4207612], [78.5279524, 17.4194549], [78.5274382, 17.4164462], [78.5260562, 17.4153529], [78.526316, 17.4115715], [78.5328957, 17.4114065], [78.5359881, 17.4072155], [78.5361866, 17.4059844], [78.5359793, 17.4041696], [78.5340207, 17.4044439], [78.5341784, 17.4036597], [78.5281497, 17.4048006], [78.524302, 17.4061385], [78.5236348, 17.4037934], [78.5214337, 17.4034219], [78.5214904, 17.401914], [78.5228112, 17.4017696], [78.5238859, 17.4021867], [78.5252178, 17.4032621], [78.5264927, 17.4022258], [78.5288433, 17.4018099], [78.5288704, 17.3979274], [78.5282273, 17.3965106], [78.528379, 17.3957695], [78.5277033, 17.3931039], [78.527441, 17.3895555], [78.5265433, 17.3852635], [78.5162188, 17.3833236], [78.5156001, 17.3823718], [78.5155777, 17.3773127], [78.5131822, 17.3786865], [78.511289, 17.3804632], [78.5097858, 17.3808963], [78.5105874, 17.3785382], [78.5109307, 17.3759989], [78.5104651, 17.3702196], [78.5106786, 17.365462], [78.5150992, 17.3656663], [78.517322, 17.3652257], [78.5191759, 17.3634807], [78.5200073, 17.3621549], [78.5210548, 17.357586], [78.520406, 17.3552574], [78.5189343, 17.3545947], [78.5140312, 17.3503429], [78.5082045, 17.3495488], [78.507102, 17.3490344], [78.5065085, 17.3475785], [78.5065705, 17.3422071], [78.5077311, 17.341665], [78.5095704, 17.3415927], [78.5186149, 17.3427815], [78.518502, 17.3410575], [78.5196083, 17.3404243], [78.5208054, 17.3372724], [78.5208236, 17.3357477], [78.5215289, 17.3324923], [78.5199469, 17.332683], [78.5168606, 17.3340158], [78.5061646, 17.3338008], [78.5057221, 17.3305973], [78.5057741, 17.3240436], [78.506395, 17.3214956], [78.5066123, 17.3186124], [78.5062561, 17.3176072], [78.5057648, 17.3176017], [78.5044626, 17.3188251], [78.5015665, 17.3199125], [78.497629, 17.3208711], [78.4946831, 17.320957], [78.4935238, 17.3204145], [78.4926137, 17.3195215], [78.4924628, 17.3180089], [78.4886583, 17.3162756], [78.4889894, 17.3156057], [78.4878389, 17.3154568], [78.4878145, 17.3161335], [78.4853917, 17.3173599], [78.4844605, 17.3156159], [78.4823935, 17.3158559], [78.4806507, 17.3153951], [78.4789292, 17.3138033], [78.4773897, 17.3115519], [78.4742038, 17.3101091], [78.4733585, 17.3103793], [78.4731352, 17.3096824], [78.4734903, 17.3093327], [78.4722428, 17.3076276], [78.4707062, 17.3062593], [78.4716217, 17.3039184], [78.4698095, 17.2994202], [78.470546, 17.2966185], [78.4716854, 17.2939931], [78.4717276, 17.2931507], [78.4714068, 17.293134], [78.4676322, 17.2934654], [78.4591437, 17.2962864], [78.4555339, 17.2993788], [78.4539161, 17.3018656], [78.4564841, 17.3017183], [78.4561024, 17.3033174], [78.4540566, 17.3038862], [78.4544078, 17.3039357], [78.4543033, 17.3062912], [78.4540254, 17.3066263], [78.4541509, 17.308021], [78.453261, 17.3090796], [78.4531675, 17.3097965], [78.4531797, 17.3104694], [78.4541013, 17.3103818], [78.4541841, 17.3110584], [78.452836, 17.3124069], [78.455863, 17.3132856], [78.4559471, 17.3146709], [78.4568798, 17.314978], [78.4576976, 17.3147659], [78.4583684, 17.3140127], [78.4576384, 17.3131422], [78.4580599, 17.3131522], [78.458612, 17.3125932], [78.4602396, 17.3130196], [78.4602071, 17.3138677], [78.4608718, 17.314658], [78.4626522, 17.3158859], [78.4629543, 17.3166068], [78.462847, 17.3180289], [78.4645622, 17.3185238], [78.4645671, 17.3190405], [78.4638697, 17.3192231], [78.4639466, 17.3197924], [78.4636552, 17.3201606], [78.4623781, 17.3191355], [78.4624216, 17.3206772], [78.4609066, 17.3216071], [78.4592061, 17.32387], [78.4594617, 17.3277026], [78.4599586, 17.3296817], [78.4612457, 17.3330858], [78.4622083, 17.3336946]]]}}