{"type": "Feature", "properties": {"osm_id": 7664883, "id": 7664883, "name": "Medchal\u2013Malkajgiri", "name_local": "Medchal\u2013Malkajgiri", "boundary": "administrative", "admin_level": "5", "type_tags": {"official_name": "Medchal\u2013Malkajgiri District", "source": "Government Of Telangana (2023-10-09, GODL, https://data.telangana.gov.in/telangana-district-and-mandal-shape-files)", "wikidata": "Q27614841"}, "last_edit": "2025-12-16T18:41:25Z", "version": 52}, "geometry": {"type": "Polygon", "coordinates": [[[78.5155777, 17.3773127], [78.5156001, 17.3823718], [78.5162188, 17.3833236], [78.5265433, 17.3852635], [78.527441, 17.3895555], [78.5277033, 17.3931039], [78.528379, 17.3957695], [78.5282273, 17.3965106], [78.5288874, 17.3980504], [78.5288166, 17.4019444], [78.5264927, 17.4022258], [78.5252178, 17.4032621], [78.5238859, 17.4021867], [78.5228112, 17.4017696], [78.521789, 17.4017923], [78.5214904, 17.401914], [78.5214337, 17.4034219], [78.5236348, 17.4037934], [78.524302, 17.4061385], [78.5281497, 17.4048006], [78.5341784, 17.4036597], [78.5340207, 17.4044439], [78.5359793, 17.4041696], [78.5361866, 17.4059844], [78.5359881, 17.4072155], [78.5328957, 17.4114065], [78.526316, 17.4115715], [78.5260562, 17.4153529], [78.5274382, 17.4164462], [78.5279524, 17.4194549], [78.526705, 17.4207612], [78.5273744, 17.4214722], [78.5279991, 17.4229958], [78.5292457, 17.4244299], [78.5360799, 17.4230215], [78.5390256, 17.4209484], [78.5408022, 17.4240307], [78.5435143, 17.4272782], [78.5443655, 17.4274098], [78.5451743, 17.4291225], [78.5449792, 17.4308945], [78.5463583, 17.4329028], [78.5478238, 17.4327817], [78.5485166, 17.4341969], [78.5487416, 17.4356404], [78.5501381, 17.4368604], [78.5563157, 17.4370147], [78.5562026, 17.4385651], [78.5538902, 17.4384846], [78.5509243, 17.4389926], [78.5472794, 17.4373297], [78.5428802, 17.4368159], [78.5397195, 17.4412371], [78.5378371, 17.4420258], [78.5346406, 17.4419252], [78.5321346, 17.4413359], [78.5302064, 17.4414752], [78.5291201, 17.4412236], [78.5281252, 17.4403287], [78.5279827, 17.4330353], [78.5282223, 17.4309615], [78.5213024, 17.4299889], [78.5196261, 17.4291621], [78.5178465, 17.4291436], [78.513829, 17.4282921], [78.5086657, 17.4293143], [78.5062975, 17.4316256], [78.5056922, 17.435392], [78.5060407, 17.4376419], [78.5113075, 17.4438991], [78.5135127, 17.4476062], [78.5150628, 17.451306], [78.5152592, 17.4586769], [78.5144807, 17.4611833], [78.5134331, 17.4626999], [78.5132432, 17.4710543], [78.5146255, 17.4730454], [78.5150646, 17.4755664], [78.515112, 17.4796101], [78.5166927, 17.4837914], [78.5094121, 17.4829176], [78.5065727, 17.4843058], [78.5046334, 17.4842853], [78.5037626, 17.4829559], [78.5032956, 17.4811203], [78.5015953, 17.4817769], [78.4991841, 17.4833113], [78.4992333, 17.4827788], [78.4985582, 17.4823748], [78.4993873, 17.4807076], [78.4971123, 17.4806153], [78.4953702, 17.4750292], [78.4984949, 17.4736463], [78.4966306, 17.4720781], [78.4943454, 17.4720537], [78.4929274, 17.4723951], [78.4922752, 17.4700645], [78.4901025, 17.469514], [78.4882106, 17.4685393], [78.4838923, 17.4697237], [78.481267, 17.4716056], [78.4794158, 17.4721643], [78.4785857, 17.4717693], [78.4771447, 17.4731056], [78.4716841, 17.4744665], [78.4667634, 17.4762585], [78.46543, 17.4636641], [78.4651742, 17.458007], [78.4645799, 17.4551228], [78.4684901, 17.4528738], [78.4706597, 17.4525408], [78.4695719, 17.4502607], [78.4694366, 17.4490167], [78.4691731, 17.4491352], [78.4683551, 17.444735], [78.4774013, 17.4438331], [78.4783673, 17.4415835], [78.4788394, 17.4420031], [78.4777129, 17.4400072], [78.4783137, 17.4388915], [78.479054, 17.4386458], [78.479247, 17.4375404], [78.4749126, 17.4384616], [78.4722841, 17.4386254], [78.4721231, 17.4382262], [78.4698594, 17.4382159], [78.4698594, 17.4378167], [78.4681272, 17.437478], [78.4663854, 17.4365565], [78.4654952, 17.4365517], [78.4656105, 17.4369568], [78.4647361, 17.4380801], [78.457489, 17.4407339], [78.4553728, 17.4422576], [78.4550054, 17.4452583], [78.4545735, 17.4460494], [78.4527448, 17.446884], [78.4523955, 17.447757], [78.4526054, 17.4497861], [78.4502142, 17.4503014], [78.4490394, 17.4509709], [78.4436618, 17.4528204], [78.4428611, 17.4527823], [78.440447, 17.453915], [78.4361489, 17.4546165], [78.4301952, 17.4538847], [78.4256947, 17.4545527], [78.4248349, 17.4518422], [78.4197391, 17.4510842], [78.4139815, 17.451842], [78.4076388, 17.4532393], [78.4069672, 17.4521421], [78.4049775, 17.4501655], [78.4005297, 17.4528887], [78.3976753, 17.4554686], [78.3955732, 17.4563337], [78.3914611, 17.4588149], [78.3916424, 17.4599701], [78.3908009, 17.4610966], [78.3853841, 17.4664962], [78.3850508, 17.4687864], [78.3843751, 17.4705654], [78.3826488, 17.4721264], [78.3813788, 17.4738429], [78.3797239, 17.4747398], [78.3781227, 17.4765108], [78.3739664, 17.4772144], [78.3709726, 17.4773141], [78.369568, 17.4769458], [78.3695561, 17.4735848], [78.3635733, 17.4750272], [78.3666642, 17.4783706], [78.3673543, 17.4805002], [78.3680492, 17.489331], [78.3688967, 17.4897225], [78.367881, 17.4900525], [78.3675054, 17.4915068], [78.3705137, 17.4916828], [78.3724839, 17.4907976], [78.3766579, 17.4964548], [78.3768332, 17.4972425], [78.3786484, 17.4978789], [78.3772828, 17.5033475], [78.3777426, 17.5042819], [78.3777883, 17.506109], [78.3765776, 17.5076751], [78.377096, 17.5106299], [78.3751657, 17.5112664], [78.3745045, 17.5118772], [78.3734458, 17.5139375], [78.3727578, 17.5167774], [78.3715347, 17.5186986], [78.3637916, 17.5196695], [78.3525333, 17.5205037], [78.3479887, 17.5226541], [78.3482928, 17.5243486], [78.3502314, 17.5287499], [78.3502549, 17.5301914], [78.3502245, 17.5315602], [78.3497868, 17.5328664], [78.3489464, 17.5336225], [78.3481913, 17.5350836], [78.35054, 17.5364724], [78.3514481, 17.5378929], [78.3536058, 17.5399017], [78.3553734, 17.5407939], [78.3564306, 17.5418958], [78.3582832, 17.5445397], [78.3586898, 17.5466725], [78.3593357, 17.5475218], [78.3598182, 17.5495824], [78.3611056, 17.5522975], [78.3628251, 17.5518743], [78.3621305, 17.5559701], [78.3612882, 17.5563214], [78.3611248, 17.5570294], [78.3598545, 17.5568885], [78.3588444, 17.557311], [78.3587634, 17.5576564], [78.3575973, 17.5577561], [78.3578173, 17.5593503], [78.3574166, 17.5598538], [78.3560986, 17.55988], [78.355503, 17.5608689], [78.3557102, 17.5619077], [78.3571665, 17.5618051], [78.3573229, 17.5623678], [78.3582726, 17.563031], [78.3596741, 17.5633015], [78.3606209, 17.5626499], [78.3610111, 17.562872], [78.3612434, 17.5631372], [78.360047, 17.5646214], [78.3597342, 17.5645382], [78.3598956, 17.5647818], [78.3595716, 17.5650871], [78.3595607, 17.5663072], [78.3600143, 17.5674207], [78.3619325, 17.5685797], [78.3662175, 17.569946], [78.3698092, 17.5719021], [78.3763913, 17.5789772], [78.3788032, 17.5805605], [78.3801915, 17.5809695], [78.3810626, 17.583427], [78.3810042, 17.5843582], [78.3819682, 17.5880157], [78.3834773, 17.5907485], [78.3843194, 17.5914617], [78.3837719, 17.5945888], [78.3841653, 17.5955172], [78.3858019, 17.5953886], [78.3884294, 17.5941645], [78.3892085, 17.5941273], [78.3894324, 17.5986839], [78.3891934, 17.6005447], [78.3874519, 17.6065497], [78.3811276, 17.6089456], [78.3766369, 17.6121026], [78.3744294, 17.6126858], [78.3723536, 17.6142419], [78.3725275, 17.6146601], [78.3771568, 17.6156722], [78.3787616, 17.6165026], [78.3794994, 17.6174781], [78.3812378, 17.6186702], [78.3844183, 17.6191251], [78.3864576, 17.6200661], [78.3871617, 17.6198161], [78.3887833, 17.6201731], [78.3912086, 17.6195635], [78.3922725, 17.6245849], [78.3916644, 17.6264687], [78.3912408, 17.6266702], [78.3912877, 17.627989], [78.390531, 17.6298676], [78.3894583, 17.6303667], [78.3886236, 17.6303806], [78.388327, 17.6310552], [78.3885072, 17.6351008], [78.3876597, 17.6353067], [78.386889, 17.6359494], [78.3869488, 17.6366097], [78.3859527, 17.6373568], [78.385556, 17.6399825], [78.3848079, 17.6406826], [78.3807722, 17.6423406], [78.3820754, 17.6438556], [78.3814304, 17.6440523], [78.3846048, 17.652074], [78.3849463, 17.6543127], [78.3857046, 17.6556663], [78.3853657, 17.6556583], [78.3863214, 17.6567718], [78.3876022, 17.6613113], [78.3881538, 17.6613226], [78.3885028, 17.6625782], [78.3884763, 17.6646163], [78.3891154, 17.6662399], [78.3898211, 17.6670627], [78.3899758, 17.6684586], [78.3925586, 17.6724158], [78.3945152, 17.6766079], [78.3980118, 17.6752115], [78.3974316, 17.6739861], [78.4014486, 17.6729904], [78.4029142, 17.6721572], [78.4060949, 17.6711851], [78.4076595, 17.6709414], [78.4090499, 17.6700042], [78.4102653, 17.6703496], [78.4131074, 17.6702199], [78.4131087, 17.6709341], [78.4138817, 17.6706942], [78.4142812, 17.6712737], [78.4160529, 17.6716137], [78.4171366, 17.6711762], [78.4193806, 17.6712193], [78.4193595, 17.6715425], [78.4207226, 17.6715792], [78.4234816, 17.6729424], [78.4222729, 17.6734673], [78.4249152, 17.6773118], [78.4276236, 17.678546], [78.4304243, 17.6868715], [78.4308529, 17.686874], [78.4316984, 17.6880429], [78.4359647, 17.6914506], [78.4369523, 17.6936815], [78.4374649, 17.6941368], [78.441583, 17.6964444], [78.4430237, 17.6961815], [78.4455691, 17.6983888], [78.4456119, 17.698969], [78.4459458, 17.6989376], [78.4453604, 17.7009264], [78.447361, 17.706358], [78.4488657, 17.7085452], [78.4510624, 17.7080239], [78.4574568, 17.7055608], [78.4587872, 17.7033224], [78.4586799, 17.7013805], [78.4596455, 17.6975476], [78.4608016, 17.6979256], [78.4600049, 17.6968296], [78.4626228, 17.6956746], [78.4636688, 17.6958075], [78.4666595, 17.6953756], [78.4698164, 17.6942998], [78.4696689, 17.6937811], [78.4699586, 17.6936738], [78.46939, 17.692092], [78.4815297, 17.6930426], [78.4928958, 17.6945699], [78.4932634, 17.694404], [78.4936578, 17.6916923], [78.4945068, 17.688927], [78.4961719, 17.685756], [78.4992069, 17.6869889], [78.501471, 17.6874146], [78.5029281, 17.686547], [78.5076549, 17.6846709], [78.5079593, 17.6851252], [78.5084464, 17.6849975], [78.5088169, 17.6856809], [78.508619, 17.6860359], [78.5098394, 17.687825], [78.5134711, 17.6957198], [78.5173203, 17.6999409], [78.5188604, 17.702374], [78.5187886, 17.7011671], [78.519431, 17.7002997], [78.518672, 17.6983676], [78.5201633, 17.6983889], [78.5224992, 17.6971672], [78.5250015, 17.6976682], [78.528043, 17.6975532], [78.5315326, 17.6971286], [78.5328136, 17.6964607], [78.5353428, 17.6966751], [78.537088, 17.6961915], [78.5396699, 17.6949497], [78.5436033, 17.6922298], [78.5547794, 17.6892279], [78.5543424, 17.6883489], [78.5547199, 17.6874022], [78.5550683, 17.687531], [78.5555085, 17.6886178], [78.5561218, 17.6870077], [78.5586529, 17.6866791], [78.5611746, 17.6854081], [78.5622076, 17.6843847], [78.5654767, 17.6832852], [78.5671887, 17.6846632], [78.5749075, 17.6835461], [78.5734758, 17.6866052], [78.5725657, 17.6919134], [78.575541, 17.696326], [78.5761598, 17.6958412], [78.5772456, 17.6960137], [78.5799138, 17.6968429], [78.5812417, 17.697696], [78.5829909, 17.6961208], [78.5830124, 17.6965055], [78.586258, 17.6966355], [78.5874315, 17.6966286], [78.5887578, 17.6960617], [78.5912171, 17.696091], [78.5925176, 17.6969314], [78.5955634, 17.6957934], [78.5951168, 17.6938781], [78.5998067, 17.6934604], [78.6000284, 17.693142], [78.5998566, 17.6889051], [78.6065166, 17.6857794], [78.6094979, 17.6831283], [78.6123093, 17.6816556], [78.6137781, 17.6804727], [78.6160049, 17.6727959], [78.6222786, 17.6718333], [78.6249545, 17.6717989], [78.6312855, 17.6699994], [78.6337125, 17.6699245], [78.6347733, 17.6694158], [78.6376524, 17.670742], [78.6392202, 17.672005], [78.6438013, 17.6743512], [78.6465621, 17.6753202], [78.6512047, 17.6782192], [78.6530274, 17.6820001], [78.6539778, 17.6832505], [78.6550978, 17.6879397], [78.6568108, 17.6915727], [78.6586773, 17.6945149], [78.6588331, 17.6975268], [78.6616516, 17.6971913], [78.6647092, 17.6962514], [78.6686555, 17.6958706], [78.6703888, 17.6984512], [78.6746218, 17.6966109], [78.6791272, 17.6951201], [78.6848136, 17.6948152], [78.6862182, 17.6943698], [78.6850752, 17.6913115], [78.6851531, 17.6896155], [78.6856059, 17.6883526], [78.6865457, 17.6880187], [78.6881123, 17.6884136], [78.6978779, 17.6881618], [78.699625, 17.6879101], [78.7033939, 17.6865749], [78.7067738, 17.6830082], [78.7115719, 17.6786844], [78.7130709, 17.6781133], [78.7134992, 17.6764953], [78.7165925, 17.6714984], [78.7179607, 17.6699518], [78.7203402, 17.668881], [78.7246493, 17.6681015], [78.7245999, 17.667631], [78.7236667, 17.6648158], [78.717456, 17.6557989], [78.7139414, 17.6538216], [78.7110037, 17.6505602], [78.7099986, 17.6457887], [78.7114607, 17.6392154], [78.7082761, 17.6388286], [78.7031744, 17.6375808], [78.699026, 17.6370966], [78.6980093, 17.6365673], [78.7020683, 17.6320006], [78.6982404, 17.6288101], [78.6888731, 17.6241114], [78.6855188, 17.6221027], [78.6854688, 17.619505], [78.6886666, 17.6202712], [78.6916994, 17.6191377], [78.693494, 17.6176173], [78.693329, 17.6173161], [78.6944473, 17.6165891], [78.6976045, 17.6126817], [78.6987652, 17.6117699], [78.7005294, 17.6111426], [78.7010794, 17.6115956], [78.7015755, 17.6113776], [78.7011131, 17.6100136], [78.699663, 17.6100467], [78.6997919, 17.6093241], [78.6991503, 17.6077944], [78.6975209, 17.6084392], [78.6963099, 17.6049017], [78.6875813, 17.5956857], [78.6875836, 17.5947293], [78.6892089, 17.5945719], [78.6904767, 17.5935828], [78.6913085, 17.5924162], [78.6914086, 17.5902202], [78.6909765, 17.5889951], [78.6911955, 17.5857567], [78.6905545, 17.5845764], [78.6908464, 17.5842881], [78.6894116, 17.5832457], [78.6881555, 17.5817463], [78.687698, 17.5817874], [78.6876482, 17.5812114], [78.6826057, 17.5774065], [78.6850748, 17.5738245], [78.6882333, 17.5706116], [78.6931913, 17.5700718], [78.6987328, 17.5655424], [78.7040788, 17.558695], [78.7005295, 17.5566838], [78.6999855, 17.5556927], [78.6999895, 17.5544057], [78.699486, 17.5534862], [78.6952518, 17.55098], [78.6949743, 17.5467122], [78.696699, 17.5461914], [78.6989846, 17.5437348], [78.6995863, 17.5411214], [78.7003588, 17.540982], [78.7009915, 17.5350182], [78.7028268, 17.533189], [78.7044305, 17.5307192], [78.7050727, 17.5287462], [78.708028, 17.5276497], [78.7086306, 17.526685], [78.7111744, 17.5252933], [78.7126509, 17.5236507], [78.7118804, 17.5232664], [78.7125624, 17.5214108], [78.7130677, 17.5177866], [78.7125441, 17.5177258], [78.7112679, 17.5163422], [78.7101908, 17.5143547], [78.7108807, 17.5119672], [78.7088118, 17.5072176], [78.7090708, 17.498933], [78.7076893, 17.4906619], [78.7080303, 17.4876295], [78.7076282, 17.4848298], [78.7101721, 17.4838165], [78.7095582, 17.4762764], [78.7170392, 17.468629], [78.718597, 17.4702573], [78.7187283, 17.4700553], [78.719969, 17.471701], [78.7248111, 17.4709525], [78.7306389, 17.4716915], [78.7388636, 17.4710584], [78.7412903, 17.4705137], [78.7470464, 17.4699995], [78.7513363, 17.4710092], [78.7514046, 17.4692976], [78.7529977, 17.4654145], [78.7563938, 17.4636466], [78.7563842, 17.4632883], [78.7573461, 17.4629595], [78.7600508, 17.4603808], [78.7598426, 17.4604312], [78.7596203, 17.4584442], [78.7581693, 17.4545737], [78.756297, 17.452121], [78.7540735, 17.4481041], [78.751327, 17.4407593], [78.7514777, 17.4400701], [78.7512764, 17.4401063], [78.7522864, 17.4387717], [78.7590088, 17.4313353], [78.759581, 17.4279039], [78.7590645, 17.4246737], [78.759203, 17.4238782], [78.7587245, 17.4224111], [78.7564557, 17.4169342], [78.755281, 17.41585], [78.7554926, 17.4134487], [78.7563627, 17.4118964], [78.7554328, 17.4096549], [78.7539445, 17.4084203], [78.753674, 17.4062652], [78.7530762, 17.4051767], [78.7507454, 17.4036189], [78.7490672, 17.4017475], [78.7433902, 17.4012128], [78.7421057, 17.4022206], [78.740392, 17.3984646], [78.7393864, 17.3975347], [78.7378045, 17.394634], [78.7374484, 17.3928625], [78.7377303, 17.3923759], [78.7375748, 17.3914686], [78.7379658, 17.3907427], [78.7372977, 17.3883016], [78.7376662, 17.3880459], [78.7371463, 17.3875617], [78.737308, 17.3846011], [78.7334282, 17.3843762], [78.7291548, 17.3848072], [78.7278427, 17.385557], [78.7262871, 17.3869627], [78.7248063, 17.3892306], [78.7220886, 17.3958845], [78.7200081, 17.3983211], [78.7179838, 17.3994269], [78.7158846, 17.4000829], [78.7114237, 17.3992395], [78.7074689, 17.3964093], [78.7058195, 17.3947411], [78.7022732, 17.3938767], [78.7024206, 17.3944614], [78.698729, 17.3958808], [78.6955913, 17.4005835], [78.6919087, 17.4038379], [78.6911349, 17.4042773], [78.6913099, 17.4033912], [78.6887768, 17.4042998], [78.6855961, 17.4046702], [78.6843986, 17.4046031], [78.6838601, 17.4044001], [78.6838894, 17.404095], [78.6805518, 17.4030247], [78.6784697, 17.4015862], [78.6755077, 17.3986342], [78.6742818, 17.3959175], [78.6733354, 17.3921455], [78.674037, 17.3892981], [78.6740626, 17.3850885], [78.6723872, 17.382627], [78.669644, 17.3810098], [78.6622214, 17.3778668], [78.6603615, 17.3780316], [78.6579366, 17.3792087], [78.6572897, 17.3799776], [78.6544581, 17.381733], [78.6524692, 17.3834735], [78.6499824, 17.3847151], [78.6458888, 17.3853265], [78.6452165, 17.3859964], [78.6375823, 17.3835692], [78.6370817, 17.3837451], [78.6371972, 17.3840251], [78.6359411, 17.3837364], [78.6360099, 17.38468], [78.634143, 17.3847617], [78.6335521, 17.3853268], [78.6184139, 17.3874204], [78.6183272, 17.3864759], [78.6118843, 17.3874907], [78.6047399, 17.3876111], [78.6017831, 17.388315], [78.5981817, 17.3886381], [78.5982489, 17.3888593], [78.5975705, 17.3882996], [78.5945999, 17.3879743], [78.585414, 17.3885385], [78.583833, 17.3854276], [78.5839437, 17.383388], [78.585788, 17.3799595], [78.5863583, 17.3764518], [78.5847198, 17.3761596], [78.5841867, 17.3756653], [78.5845279, 17.3739409], [78.5834418, 17.3714097], [78.5836212, 17.3708053], [78.5825946, 17.3707981], [78.582647, 17.3692234], [78.5834897, 17.3674677], [78.5836471, 17.363335], [78.5833188, 17.3626443], [78.5802333, 17.3614635], [78.5656767, 17.3616221], [78.556817, 17.362466], [78.5558322, 17.366764], [78.5536273, 17.3696349], [78.5505387, 17.371727], [78.5481709, 17.3725559], [78.5451204, 17.3726887], [78.5432496, 17.372335], [78.5419715, 17.3720057], [78.5403239, 17.3709491], [78.5394698, 17.3718735], [78.5369862, 17.3730902], [78.5352838, 17.3731886], [78.5350594, 17.3736413], [78.5343947, 17.3736442], [78.5326351, 17.3721442], [78.5320826, 17.3704985], [78.5322771, 17.3703759], [78.5313244, 17.3689681], [78.5307025, 17.3694221], [78.5318356, 17.3712635], [78.5284926, 17.3714926], [78.5281588, 17.3709861], [78.5295426, 17.3714136], [78.5296808, 17.3709303], [78.5289705, 17.3707874], [78.5288008, 17.3710206], [78.5262617, 17.3704607], [78.5260197, 17.3713097], [78.5252364, 17.3717717], [78.5262714, 17.3738565], [78.5270596, 17.377265], [78.5305113, 17.3778298], [78.5292501, 17.3793036], [78.5262412, 17.377661], [78.5252044, 17.3754906], [78.5238093, 17.3746671], [78.5210942, 17.374638], [78.5173327, 17.3760354], [78.5155777, 17.3773127]]]}}