{"type": "Feature", "properties": {"osm_id": 7858677, "id": 7858677, "name": "Ward 140 Malkajgiri", "name_local": "Ward 140 Malkajgiri", "boundary": "administrative", "admin_level": "10", "type_tags": {"source": "OpenCity (2023-10-09, Public Domain, https://data.opencity.in/dataset/hyderabad-wards-info)"}, "last_edit": "2023-10-09T14:54:37Z", "version": 2}, "geometry": {"type": "Polygon", "coordinates": [[[78.5363794, 17.4483688], [78.5365471, 17.4487866], [78.5357612, 17.4500225], [78.5336101, 17.4503961], [78.5324407, 17.450263], [78.5351497, 17.4547203], [78.5327513, 17.4559948], [78.5321382, 17.4571624], [78.5330683, 17.4611003], [78.533138, 17.462624], [78.5311478, 17.4701487], [78.534168, 17.4702561], [78.5348305, 17.4725485], [78.5354716, 17.4725063], [78.5352543, 17.4738149], [78.5375047, 17.4753065], [78.5406482, 17.4708497], [78.5389772, 17.4707576], [78.5385883, 17.4648679], [78.5367731, 17.4622185], [78.5353966, 17.4609267], [78.5353818, 17.4604078], [78.5365149, 17.4586198], [78.5374832, 17.458607], [78.5388941, 17.4614701], [78.5402727, 17.4606974], [78.541532, 17.4548828], [78.5451436, 17.4507543], [78.5446179, 17.4490629], [78.5454038, 17.4486203], [78.5454118, 17.4473997], [78.5407341, 17.447566], [78.5402083, 17.449155], [78.5363794, 17.4483688]]]}}