{"type": "Feature", "properties": {"osm_id": 7858246, "id": 7858246, "name": "Ward 127 Rangareddy Nagar", "name_local": "Ward 127 Rangareddy Nagar", "boundary": "administrative", "admin_level": "10", "type_tags": {"source": "OpenCity (2023-10-09, Public Domain, https://data.opencity.in/dataset/hyderabad-wards-info)"}, "last_edit": "2023-10-09T14:54:37Z", "version": 2}, "geometry": {"type": "Polygon", "coordinates": [[[78.4330059, 17.497768], [78.4355916, 17.4963508], [78.4380431, 17.497062], [78.4420289, 17.4962587], [78.4434612, 17.4951792], [78.4451402, 17.4951025], [78.4455265, 17.4942864], [78.4459127, 17.4887224], [78.450215, 17.487612], [78.4491907, 17.482125], [78.4480262, 17.4830225], [78.4459019, 17.4830123], [78.4452796, 17.4824187], [78.4448397, 17.4807507], [78.4445071, 17.4807303], [78.4360206, 17.4831044], [78.4343684, 17.4853454], [78.4281778, 17.489674], [78.4285212, 17.4908712], [78.4266973, 17.4909019], [78.4262547, 17.4915824], [78.4267026, 17.493721], [78.4286821, 17.4945703], [78.4301627, 17.4940178], [78.4314877, 17.4943196], [78.4330059, 17.497768]]]}}