{"type": "Feature", "properties": {"osm_id": 7867620, "id": 7867620, "name": "Greater Hyderabad Municipal Corporation East Zone", "name_local": "Greater Hyderabad Municipal Corporation East Zone", "boundary": "administrative", "admin_level": "9", "type_tags": {"source": "OpenCity (2023-10-09, Public Domain, https://data.opencity.in/dataset/hyderabad-wards-info)"}, "last_edit": "2023-10-11T12:07:12Z", "version": 5}, "geometry": {"type": "MultiPolygon", "coordinates": [[[[78.5092462, 17.3116328], [78.5092448, 17.3097737], [78.5064339, 17.3097942], [78.506391, 17.3124369], [78.5087835, 17.3127134], [78.5090732, 17.3145571], [78.510028, 17.3144547], [78.5100388, 17.3119759], [78.5102131, 17.3125162], [78.5102212, 17.311894], [78.5092462, 17.3116328]]], [[[78.5052002, 17.3186848], [78.5076571, 17.3187667], [78.5081721, 17.3168411], [78.5056328, 17.3162476], [78.5052002, 17.3186848]]], [[[78.496821, 17.3169436], [78.4937096, 17.3179268], [78.4936399, 17.318864], [78.4966278, 17.3198217], [78.496821, 17.3169436]]], [[[78.5156365, 17.3312084], [78.5156902, 17.3309498], [78.5148909, 17.3302456], [78.5148989, 17.3289475], [78.5181498, 17.3274317], [78.5182906, 17.3267135], [78.5127961, 17.3270527], [78.5126673, 17.3303506], [78.5156365, 17.3312084]]], [[[78.5170232, 17.3315796], [78.5171842, 17.3337713], [78.5185038, 17.3335255], [78.5189544, 17.3317435], [78.5170232, 17.3315796]]], [[[78.5283797, 17.333418], [78.5282188, 17.3321071], [78.5275858, 17.3320968], [78.5273229, 17.3328854], [78.5266148, 17.3328906], [78.526529, 17.3320098], [78.5259979, 17.3321071], [78.526352, 17.3349184], [78.5283797, 17.333418]]], [[[78.5247748, 17.3369411], [78.525558, 17.3380984], [78.5259228, 17.3371049], [78.5272639, 17.336598], [78.526132, 17.3360706], [78.5247748, 17.3369411]]], [[[78.539125, 17.4988015], [78.5389963, 17.4964685], [78.5417858, 17.4953327], [78.5418931, 17.4958136], [78.5434648, 17.4968062], [78.5447684, 17.4954197], [78.5458413, 17.4964941], [78.5466137, 17.499088], [78.5479334, 17.497369], [78.5505941, 17.4976811], [78.5525522, 17.4998913], [78.5555308, 17.5024263], [78.5564451, 17.5039265], [78.5566774, 17.5068644], [78.5540961, 17.5073314], [78.5563448, 17.507949], [78.562353, 17.5072123], [78.5636619, 17.5066598], [78.5637477, 17.5052068], [78.5664836, 17.5044497], [78.5686119, 17.5047285], [78.5690531, 17.5056161], [78.5708073, 17.5056929], [78.5710862, 17.5070179], [78.5743371, 17.507903], [78.5754958, 17.5071049], [78.5758552, 17.5055189], [78.5776147, 17.5055189], [78.5784677, 17.5040199], [78.5821906, 17.502787], [78.5824695, 17.5019991], [78.5837784, 17.5019019], [78.5861924, 17.5004182], [78.5883727, 17.496773], [78.5881877, 17.4877502], [78.5874152, 17.4865836], [78.5884666, 17.4846291], [78.5882735, 17.4814466], [78.5895717, 17.4787961], [78.5937345, 17.4771178], [78.5984981, 17.4783254], [78.6035407, 17.4761252], [78.6048496, 17.4782742], [78.6180031, 17.4763913], [78.6181963, 17.4743855], [78.6160666, 17.4702408], [78.6159754, 17.4668789], [78.6148381, 17.4658248], [78.6151144, 17.46398], [78.6163294, 17.4629233], [78.6158896, 17.4608048], [78.6146557, 17.4587784], [78.6131537, 17.4592082], [78.6121023, 17.4584713], [78.6120164, 17.4546231], [78.6109489, 17.454618], [78.6109543, 17.4535587], [78.6107665, 17.4545668], [78.6106753, 17.4488096], [78.6084652, 17.4454525], [78.5951507, 17.4453399], [78.5840034, 17.4401812], [78.5775876, 17.4331799], [78.5783601, 17.431972], [78.5773623, 17.4298275], [78.5759407, 17.4299146], [78.5733712, 17.4274527], [78.5696911, 17.4268744], [78.5676312, 17.4272532], [78.5649919, 17.4260146], [78.5619235, 17.4250933], [78.563726, 17.4222884], [78.5666549, 17.4163818], [78.5670519, 17.4116829], [78.5688973, 17.4099119], [78.5776842, 17.4049672], [78.5819006, 17.403923], [78.5802591, 17.3953538], [78.581939, 17.3894447], [78.5875654, 17.3867843], [78.5879409, 17.3855557], [78.5876298, 17.3837332], [78.5809565, 17.3821769], [78.5811067, 17.3782041], [78.5855484, 17.3762177], [78.5843253, 17.3731152], [78.5816646, 17.3713438], [78.5810637, 17.3697772], [78.5799909, 17.3695826], [78.5796422, 17.3683538], [78.5808706, 17.366695], [78.5778451, 17.3661421], [78.5773086, 17.3655072], [78.5798836, 17.3601005], [78.585189, 17.3567929], [78.5858113, 17.3543352], [78.5859145, 17.3467469], [78.5982741, 17.3450264], [78.6025013, 17.3464192], [78.6104192, 17.3465831], [78.620397, 17.34093], [78.6212303, 17.3385126], [78.6223912, 17.3389227], [78.6198378, 17.3336586], [78.6168551, 17.3300945], [78.6166835, 17.3244614], [78.618958, 17.3235601], [78.6188078, 17.3200777], [78.6199665, 17.3199139], [78.6214471, 17.3156735], [78.6208034, 17.3115149], [78.6171985, 17.311474], [78.6131644, 17.3087903], [78.605783, 17.3066803], [78.6018133, 17.3042219], [78.593123, 17.3025676], [78.5756779, 17.3023576], [78.5709572, 17.3042219], [78.5655713, 17.3100195], [78.5581899, 17.3104292], [78.5579753, 17.3126007], [78.5527182, 17.3143829], [78.5423115, 17.32189], [78.5397687, 17.322566], [78.537108, 17.3242355], [78.5365823, 17.3261712], [78.5353699, 17.3259971], [78.535091, 17.3247783], [78.5333207, 17.3245018], [78.533664, 17.3265399], [78.5350588, 17.3268267], [78.5343614, 17.3298993], [78.5354128, 17.3301553], [78.5352519, 17.3328182], [78.5345867, 17.3343544], [78.5373977, 17.3348255], [78.5363033, 17.3366332], [78.5361209, 17.3374909], [78.5337496, 17.3371407], [78.5280633, 17.3382263], [78.523788, 17.3396952], [78.52257, 17.3374275], [78.5193085, 17.336936], [78.5175543, 17.3382161], [78.5179996, 17.3397114], [78.5216366, 17.3386053], [78.5189892, 17.3413439], [78.5159612, 17.3423842], [78.506949, 17.3435517], [78.507582, 17.3441252], [78.508558, 17.3484865], [78.5097439, 17.3485416], [78.5100389, 17.3507408], [78.5138154, 17.3492456], [78.5143653, 17.3509815], [78.5171038, 17.3503439], [78.516562, 17.3465011], [78.5185576, 17.3450674], [78.5188821, 17.3438103], [78.5262823, 17.3439204], [78.5252738, 17.3446577], [78.5253597, 17.3452108], [78.5248661, 17.3462246], [78.5252095, 17.3541406], [78.5265828, 17.3543455], [78.5280204, 17.3517648], [78.5276127, 17.3489794], [78.5281063, 17.3489384], [78.5301662, 17.3511094], [78.5308427, 17.3509597], [78.5300804, 17.3529118], [78.530531, 17.3556357], [78.5302574, 17.3565727], [78.5245335, 17.3591174], [78.5221839, 17.3620256], [78.5233212, 17.362128], [78.5246516, 17.3652819], [78.5239649, 17.3664902], [78.5229135, 17.3668179], [78.5231442, 17.3685842], [78.5244906, 17.3685586], [78.5247374, 17.3698488], [78.5234929, 17.3698284], [78.52485, 17.3754907], [78.5283865, 17.3809623], [78.5281974, 17.3829909], [78.5271192, 17.3836513], [78.5268188, 17.3863338], [78.5273713, 17.3881102], [78.5283852, 17.3949034], [78.5294419, 17.3952515], [78.5282081, 17.3973707], [78.5299784, 17.3980823], [78.5326123, 17.4010769], [78.5339427, 17.411038], [78.5353509, 17.4159825], [78.5345542, 17.4199544], [78.532446, 17.4214541], [78.5325319, 17.4225239], [78.5329664, 17.4232046], [78.5331702, 17.4254848], [78.5358738, 17.4247248], [78.5381913, 17.4266902], [78.5408306, 17.4241925], [78.5438132, 17.4273453], [78.54465, 17.4274067], [78.5458731, 17.4315831], [78.5471391, 17.4312555], [78.5467958, 17.4339579], [78.5485982, 17.4345106], [78.5487485, 17.4376427], [78.5499823, 17.4373459], [78.5510659, 17.4385742], [78.553791, 17.437479], [78.5560763, 17.4386458], [78.557471, 17.4386561], [78.5530937, 17.4413071], [78.5577178, 17.4442959], [78.557353, 17.4466295], [78.560235, 17.4481005], [78.5631494, 17.4617027], [78.5638332, 17.4635988], [78.5643697, 17.4642282], [78.5651233, 17.4642923], [78.5644367, 17.4676286], [78.5658743, 17.4694298], [78.5619951, 17.4719099], [78.5591795, 17.4718655], [78.5567977, 17.4731959], [78.5555317, 17.4747514], [78.5548665, 17.4767981], [78.5538875, 17.4772945], [78.5542335, 17.4779059], [78.553968, 17.4787041], [78.5545017, 17.4804412], [78.5506049, 17.4821067], [78.541818, 17.4871977], [78.5411957, 17.4886303], [78.5407665, 17.4890396], [78.5391894, 17.489234], [78.5388461, 17.4904108], [78.5341361, 17.4945448], [78.5359815, 17.4951076], [78.5365126, 17.4982643], [78.5379985, 17.4979522], [78.539125, 17.4988015]]]]}}