{"type": "Feature", "properties": {"osm_id": 7867623, "id": 7867623, "name": "Greater Hyderabad Municipal Corporation South Zone", "name_local": "Greater Hyderabad Municipal Corporation South Zone", "boundary": "administrative", "admin_level": "9", "type_tags": {"source": "OpenCity (2023-10-09, Public Domain, https://data.opencity.in/dataset/hyderabad-wards-info)"}, "last_edit": "2023-10-11T12:43:23Z", "version": 8}, "geometry": {"type": "Polygon", "coordinates": [[[78.507582, 17.3441252], [78.5047174, 17.3421999], [78.5055515, 17.3401926], [78.5050124, 17.3364238], [78.5066754, 17.3357171], [78.5071367, 17.3349286], [78.508215, 17.323765], [78.5096956, 17.3222389], [78.5097814, 17.3188794], [78.5090626, 17.3168309], [78.5081721, 17.3168411], [78.5076571, 17.3187667], [78.5052002, 17.3186848], [78.5060692, 17.3137888], [78.4978295, 17.3133996], [78.4962416, 17.3140142], [78.4952116, 17.3158169], [78.4949434, 17.3174557], [78.496821, 17.3169436], [78.4966278, 17.3198217], [78.4936399, 17.318864], [78.4937096, 17.3179268], [78.4926582, 17.3180293], [78.4897722, 17.3173328], [78.4897613, 17.3142805], [78.4832597, 17.3125187], [78.4831631, 17.3131845], [78.4786677, 17.3143214], [78.4770155, 17.3117608], [78.4709215, 17.308483], [78.470428, 17.3099375], [78.4681964, 17.3116993], [78.4675098, 17.3140244], [78.4662698, 17.3165227], [78.4659272, 17.3157861], [78.4650421, 17.3150589], [78.4631324, 17.3143214], [78.4615445, 17.3145314], [78.4623384, 17.3084625], [78.4594846, 17.3088518], [78.4591627, 17.304058], [78.4565449, 17.3022142], [78.4541738, 17.3040529], [78.4514057, 17.3041758], [78.4511697, 17.3022091], [78.4484231, 17.3006316], [78.4402048, 17.3012872], [78.4398615, 17.3024754], [78.4331882, 17.3023525], [78.4324586, 17.2987878], [78.4296262, 17.2916377], [78.4225666, 17.2942601], [78.408308, 17.3013538], [78.3963347, 17.3002884], [78.3964849, 17.3033], [78.3954334, 17.3041604], [78.3759069, 17.3129899], [78.3755851, 17.3211429], [78.3759499, 17.3242361], [78.3751559, 17.3279539], [78.3813572, 17.3282919], [78.3823872, 17.3285787], [78.3825159, 17.3294595], [78.3861208, 17.3297872], [78.3889961, 17.3312211], [78.3950901, 17.3310982], [78.3966351, 17.3321224], [78.3992761, 17.3436801], [78.4006786, 17.3470755], [78.400932, 17.3495155], [78.3979909, 17.3506104], [78.398372, 17.3519967], [78.3983785, 17.354028], [78.4007442, 17.3548063], [78.401506, 17.3573254], [78.404274, 17.3581241], [78.4070957, 17.3573356], [78.408941, 17.3581446], [78.4092093, 17.3589229], [78.4099027, 17.3593601], [78.4100085, 17.3608275], [78.4075463, 17.3629677], [78.4074283, 17.3660192], [78.4076858, 17.3678214], [78.4101534, 17.3720811], [78.4122133, 17.3714871], [78.4171808, 17.3711697], [78.4257103, 17.3718761], [78.4338641, 17.3747843], [78.4367073, 17.3735247], [78.4490991, 17.3598956], [78.4522319, 17.3603462], [78.4538734, 17.3613191], [78.4550221, 17.3624342], [78.4564752, 17.3653997], [78.4582508, 17.3674886], [78.4763503, 17.3713131], [78.4812399, 17.3732356], [78.4818241, 17.3736879], [78.4802437, 17.3749509], [78.4810925, 17.3763611], [78.480792, 17.3768935], [78.4815216, 17.3786751], [78.4841609, 17.3805591], [78.4880124, 17.3807365], [78.4880193, 17.3794226], [78.491832, 17.3798628], [78.4948522, 17.3807281], [78.5002542, 17.3849925], [78.5030651, 17.3860266], [78.5109078, 17.3858731], [78.5185844, 17.3786495], [78.5251827, 17.3763099], [78.5234929, 17.3698284], [78.5247374, 17.3698488], [78.5244906, 17.3685586], [78.5231442, 17.3685842], [78.5229135, 17.3668179], [78.5239649, 17.3664902], [78.5246516, 17.3652819], [78.5233212, 17.362128], [78.5221839, 17.3620256], [78.5245335, 17.3591174], [78.5302574, 17.3565727], [78.530531, 17.3556357], [78.5300804, 17.3529118], [78.5308427, 17.3509597], [78.5301662, 17.3511094], [78.5281063, 17.3489384], [78.5276127, 17.3489794], [78.5280204, 17.3517648], [78.5265828, 17.3543455], [78.5252095, 17.3541406], [78.5248661, 17.3462246], [78.5253597, 17.3452108], [78.5252738, 17.3446577], [78.5262823, 17.3439204], [78.5188821, 17.3438103], [78.5185576, 17.3450674], [78.516562, 17.3465011], [78.5171038, 17.3503439], [78.5143653, 17.3509815], [78.5138154, 17.3492456], [78.5100389, 17.3507408], [78.5097439, 17.3485416], [78.508558, 17.3484865], [78.507582, 17.3441252]]]}}