{"type": "Feature", "properties": {"osm_id": 7868416, "id": 7868416, "name": "Greater Hyderabad Municipal Corporation Central Zone", "name_local": "Greater Hyderabad Municipal Corporation Central Zone", "boundary": "administrative", "admin_level": "9", "type_tags": {"source": "OpenCity (2023-10-09, Public Domain, https://data.opencity.in/dataset/hyderabad-wards-info)"}, "last_edit": "2023-10-11T12:43:23Z", "version": 6}, "geometry": {"type": "Polygon", "coordinates": [[[78.4101534, 17.3720811], [78.4031368, 17.3732074], [78.4014631, 17.3731869], [78.3984375, 17.3711186], [78.3889533, 17.3710776], [78.3753491, 17.3763714], [78.3756173, 17.3772519], [78.3778918, 17.3783987], [78.3780742, 17.3806103], [78.3796406, 17.3820233], [78.3788628, 17.3835233], [78.3790398, 17.3839687], [78.3797425, 17.3842298], [78.3800912, 17.3852895], [78.3797479, 17.3876853], [78.381486, 17.3874396], [78.382752, 17.3939308], [78.3835566, 17.3924462], [78.3828271, 17.3884635], [78.3846832, 17.3854533], [78.3875156, 17.385996], [78.3895541, 17.3882894], [78.3929873, 17.3900709], [78.393792, 17.3925588], [78.3928103, 17.392866], [78.3920512, 17.3922824], [78.3910346, 17.3923541], [78.3910561, 17.3932141], [78.3923436, 17.394197], [78.391099, 17.3962036], [78.3916462, 17.4023054], [78.3903963, 17.401855], [78.3905733, 17.4031142], [78.3909488, 17.4030426], [78.3906323, 17.4043069], [78.3893288, 17.4060012], [78.38725, 17.4070365], [78.3869255, 17.4078952], [78.3898974, 17.4078133], [78.390441, 17.4095949], [78.3910988, 17.4095525], [78.391485, 17.4103919], [78.3948217, 17.4102793], [78.3949491, 17.4128553], [78.3971842, 17.4112197], [78.3983374, 17.4133385], [78.3990759, 17.4134233], [78.3982229, 17.4152045], [78.3976704, 17.4175795], [78.3984429, 17.4182142], [78.3989847, 17.4181016], [78.3985502, 17.4192737], [78.3982766, 17.4247145], [78.3963239, 17.4263165], [78.3943981, 17.4267464], [78.3951867, 17.4285941], [78.393352, 17.429674], [78.393352, 17.4304724], [78.3962917, 17.4306464], [78.3987594, 17.4311889], [78.3992529, 17.4321256], [78.3979171, 17.4335432], [78.3986199, 17.4346846], [78.3972788, 17.4371258], [78.3953798, 17.4370695], [78.3961469, 17.4394749], [78.3973324, 17.4387124], [78.3992261, 17.438523], [78.4000468, 17.4393674], [78.402155, 17.4405138], [78.4065807, 17.4420645], [78.4066933, 17.4434207], [78.4054649, 17.4451096], [78.406173, 17.44578], [78.4054971, 17.4479038], [78.4043974, 17.4484002], [78.4052718, 17.4504831], [78.4105504, 17.4554316], [78.4174705, 17.453835], [78.4240794, 17.4545105], [78.424691, 17.4505854], [78.4266007, 17.4503142], [78.4268099, 17.4528525], [78.425442, 17.4530418], [78.4253508, 17.4547971], [78.42659, 17.4547254], [78.4270298, 17.4565626], [78.4279203, 17.4570027], [78.4280491, 17.4583588], [78.4289664, 17.4591366], [78.4287089, 17.4613217], [78.4315574, 17.461488], [78.4312516, 17.4621506], [78.4468138, 17.4611298], [78.4491205, 17.4597097], [78.4503114, 17.455882], [78.4510839, 17.4498741], [78.4519958, 17.4459693], [78.4522641, 17.4458875], [78.4535032, 17.4429806], [78.4534121, 17.4426326], [78.4539431, 17.4419929], [78.4538466, 17.4416653], [78.4556007, 17.4397411], [78.457599, 17.4385115], [78.4609705, 17.4381417], [78.4625638, 17.4372384], [78.4646344, 17.4352271], [78.4639817, 17.4319339], [78.4669894, 17.4365526], [78.467979, 17.4370427], [78.4719461, 17.4375916], [78.4735501, 17.4368341], [78.4743413, 17.4360754], [78.4728205, 17.4343263], [78.4732523, 17.4330967], [78.4723511, 17.4311519], [78.4723833, 17.4285724], [78.4739604, 17.4284905], [78.4775332, 17.4301385], [78.4773481, 17.4308051], [78.4787214, 17.4317571], [78.4779382, 17.4333641], [78.4783941, 17.4343365], [78.4793248, 17.4341613], [78.4829244, 17.4332247], [78.4854295, 17.4319196], [78.4864273, 17.4306708], [78.4865024, 17.4288334], [78.4856012, 17.4275487], [78.4846115, 17.427683], [78.4841957, 17.4267656], [78.4835949, 17.4266121], [78.4836379, 17.4260158], [78.4846464, 17.4256332], [78.4843326, 17.4248322], [78.4847456, 17.4255564], [78.4860438, 17.4248604], [78.4863389, 17.425431], [78.4887743, 17.4249909], [78.4945464, 17.4233735], [78.4962234, 17.4220667], [78.4992456, 17.4209986], [78.5013699, 17.4204049], [78.5023999, 17.4207324], [78.5053182, 17.4197702], [78.5078931, 17.4211419], [78.5087943, 17.4210191], [78.5098833, 17.4177203], [78.510067, 17.4155519], [78.5122195, 17.4144291], [78.5134587, 17.4120003], [78.5140541, 17.411665], [78.5139388, 17.411276], [78.5178602, 17.4105671], [78.5168838, 17.408018], [78.5154462, 17.4065028], [78.5134443, 17.4055165], [78.5145664, 17.4052308], [78.5163474, 17.4054586], [78.5218835, 17.4032677], [78.5225916, 17.4011792], [78.5215187, 17.398415], [78.524394, 17.3971864], [78.5252094, 17.3957736], [78.5265398, 17.3966745], [78.5276771, 17.3968179], [78.5282081, 17.3973707], [78.5294419, 17.3952515], [78.5283852, 17.3949034], [78.5273713, 17.3881102], [78.5268188, 17.3863338], [78.5271192, 17.3836513], [78.5281974, 17.3829909], [78.5283865, 17.3809623], [78.5251827, 17.3763099], [78.5185844, 17.3786495], [78.5109078, 17.3858731], [78.5030651, 17.3860266], [78.5002542, 17.3849925], [78.4948522, 17.3807281], [78.491832, 17.3798628], [78.4880193, 17.3794226], [78.4880124, 17.3807365], [78.4841609, 17.3805591], [78.4815216, 17.3786751], [78.480792, 17.3768935], [78.4810925, 17.3763611], [78.4802437, 17.3749509], [78.4818241, 17.3736879], [78.4793597, 17.3723166], [78.4744942, 17.3708625], [78.4582508, 17.3674886], [78.4564752, 17.3653997], [78.4550221, 17.3624342], [78.4538734, 17.3613191], [78.4522319, 17.3603462], [78.4490991, 17.3598956], [78.4367073, 17.3735247], [78.4338641, 17.3747843], [78.4257103, 17.3718761], [78.4171808, 17.3711697], [78.4122133, 17.3714871], [78.4101534, 17.3720811]]]}}