{"type": "Feature", "properties": {"osm_id": 7868233, "id": 7868233, "name": "Greater Hyderabad Municipal Corporation North Zone", "name_local": "Greater Hyderabad Municipal Corporation North Zone", "boundary": "administrative", "admin_level": "9", "type_tags": {"source": "OpenCity (2023-10-09, Public Domain, https://data.opencity.in/dataset/hyderabad-wards-info)"}, "last_edit": "2023-10-09T14:54:37Z", "version": 3}, "geometry": {"type": "MultiPolygon", "coordinates": [[[[78.5290074, 17.476422], [78.5284442, 17.4771946], [78.5258746, 17.4766625], [78.5235974, 17.4782563], [78.5232836, 17.4793129], [78.5236859, 17.4810168], [78.5256922, 17.4840561], [78.5257888, 17.4852226], [78.5272157, 17.4850385], [78.5276771, 17.4854478], [78.5276127, 17.4865427], [78.5307831, 17.4895154], [78.5346401, 17.4924215], [78.5339749, 17.493368], [78.5341361, 17.4945448], [78.5388461, 17.4904108], [78.5391894, 17.489234], [78.5407665, 17.4890396], [78.5411957, 17.4886303], [78.541818, 17.4871977], [78.5506049, 17.4821067], [78.5545017, 17.4804412], [78.553968, 17.4787041], [78.5542335, 17.4779059], [78.5538875, 17.4772945], [78.5548665, 17.4767981], [78.5555317, 17.4747514], [78.5567977, 17.4731959], [78.5591795, 17.4718655], [78.5619951, 17.4719099], [78.5658743, 17.4694298], [78.5644367, 17.4676286], [78.5651233, 17.4642923], [78.5643697, 17.4642282], [78.5638332, 17.4635988], [78.5631494, 17.4617027], [78.560235, 17.4481005], [78.557353, 17.4466295], [78.5577178, 17.4442959], [78.5530937, 17.4413071], [78.557471, 17.4386561], [78.5560763, 17.4386458], [78.553791, 17.437479], [78.5510659, 17.4385742], [78.5499823, 17.4373459], [78.5487485, 17.4376427], [78.5485982, 17.4345106], [78.5467958, 17.4339579], [78.5471391, 17.4312555], [78.5458731, 17.4315831], [78.54465, 17.4274067], [78.5438132, 17.4273453], [78.5408306, 17.4241925], [78.5381913, 17.4266902], [78.5358738, 17.4247248], [78.5331702, 17.4254848], [78.5310844, 17.4267575], [78.5280633, 17.4241105], [78.525188, 17.4252161], [78.5243082, 17.426035], [78.5217655, 17.4243972], [78.5244584, 17.4225239], [78.5242867, 17.4210191], [78.5248554, 17.4209065], [78.5238147, 17.41933], [78.5227311, 17.4194426], [78.520464, 17.4206522], [78.5178602, 17.4105671], [78.5139388, 17.411276], [78.5140541, 17.411665], [78.5134587, 17.4120003], [78.5122195, 17.4144291], [78.510067, 17.4155519], [78.5098833, 17.4177203], [78.5087943, 17.4210191], [78.5078931, 17.4211419], [78.5053182, 17.4197702], [78.5023999, 17.4207324], [78.5013699, 17.4204049], [78.4992456, 17.4209986], [78.4962234, 17.4220667], [78.4945464, 17.4233735], [78.4887743, 17.4249909], [78.4863389, 17.425431], [78.4860438, 17.4248604], [78.4847456, 17.4255564], [78.4843326, 17.4248322], [78.4846464, 17.4256332], [78.4836379, 17.4260158], [78.4835949, 17.4266121], [78.4841957, 17.4267656], [78.4846115, 17.427683], [78.4856012, 17.4275487], [78.4866526, 17.4294629], [78.4864273, 17.4306708], [78.4854295, 17.4319196], [78.4829244, 17.4332247], [78.4783941, 17.4343365], [78.4779382, 17.4333641], [78.4787214, 17.4317571], [78.4773481, 17.4308051], [78.4775332, 17.4301385], [78.4739604, 17.4284905], [78.4723833, 17.4285724], [78.4723511, 17.4311519], [78.4732523, 17.4330967], [78.4728205, 17.4343263], [78.4743413, 17.4360754], [78.4726783, 17.43736], [78.4711951, 17.4376837], [78.467979, 17.4370427], [78.4669894, 17.4365526], [78.4639817, 17.4319339], [78.4646344, 17.4352271], [78.4625638, 17.4372384], [78.4609705, 17.4381417], [78.457599, 17.4385115], [78.4556007, 17.4397411], [78.4538466, 17.4416653], [78.4539431, 17.4419929], [78.4534121, 17.4426326], [78.4535032, 17.4429806], [78.4522641, 17.4458875], [78.4519958, 17.4459693], [78.4516447, 17.4474728], [78.4529375, 17.4497815], [78.4538847, 17.4505046], [78.4540772, 17.453139], [78.4537339, 17.4547971], [78.4550214, 17.4563323], [78.4546351, 17.4587477], [78.4546781, 17.459505], [78.4550858, 17.4599349], [78.4607506, 17.4574786], [78.4659004, 17.4543263], [78.468132, 17.4509897], [78.4685773, 17.4466807], [78.4699935, 17.4464197], [78.4707499, 17.4440093], [78.477509, 17.4433337], [78.5014451, 17.4428015], [78.5017347, 17.4461792], [78.505404, 17.4510306], [78.5068671, 17.4506507], [78.5087085, 17.4480829], [78.5181713, 17.4456674], [78.5184073, 17.4461178], [78.519617, 17.44567], [78.5199845, 17.4468854], [78.5215992, 17.4465118], [78.5225621, 17.449132], [78.5235143, 17.4493316], [78.5245228, 17.4519518], [78.5252631, 17.4551911], [78.5272479, 17.4566291], [78.5298443, 17.4591775], [78.5321188, 17.4605899], [78.5331205, 17.4622415], [78.5311478, 17.4701487], [78.5290074, 17.476422]]], [[[78.4007497, 17.517426], [78.3986321, 17.5173377], [78.3979267, 17.5195374], [78.3977496, 17.5190105], [78.3976598, 17.5197178], [78.3964263, 17.5198952], [78.3966003, 17.5226285], [78.3951895, 17.5250993], [78.393619, 17.5406789], [78.395337, 17.5401559], [78.4006639, 17.5437262], [78.4023215, 17.5453067], [78.4083725, 17.5458846], [78.4136297, 17.5503243], [78.4164513, 17.5591469], [78.4195359, 17.5608321], [78.421223, 17.5606583], [78.4262441, 17.5580038], [78.4280009, 17.5559785], [78.4337355, 17.5536846], [78.4397115, 17.5534749], [78.4422005, 17.552452], [78.4430052, 17.5499662], [78.4436168, 17.5452504], [78.4443356, 17.5346112], [78.4565021, 17.5322377], [78.459077, 17.5328311], [78.4604074, 17.5320331], [78.4585191, 17.5303348], [78.4610726, 17.5292299], [78.4651066, 17.5290253], [78.4786142, 17.5247591], [78.4840967, 17.5247489], [78.4888603, 17.5316137], [78.4909953, 17.5316239], [78.4930445, 17.5272554], [78.5005492, 17.5274191], [78.5064232, 17.5368337], [78.5065133, 17.5462698], [78.5140108, 17.544065], [78.515598, 17.544859], [78.5178083, 17.5435392], [78.5172718, 17.5425618], [78.51798, 17.5422241], [78.5178775, 17.5418787], [78.5161442, 17.5406332], [78.5172889, 17.5389183], [78.5171141, 17.537941], [78.519098, 17.5378592], [78.5191216, 17.5368127], [78.521244, 17.5370081], [78.5219639, 17.5367893], [78.5221259, 17.5360386], [78.5163917, 17.5267752], [78.5136317, 17.5273884], [78.5134268, 17.5254263], [78.5136297, 17.524119], [78.5157241, 17.5176733], [78.5161925, 17.5148676], [78.5159746, 17.5130162], [78.5144685, 17.5079611], [78.5150012, 17.503709], [78.5140868, 17.5023433], [78.5140521, 17.5010595], [78.5131673, 17.4977142], [78.5125299, 17.4931875], [78.5126221, 17.4913214], [78.5094091, 17.4916564], [78.5087852, 17.4895607], [78.5071014, 17.4900013], [78.5048209, 17.4884306], [78.5038657, 17.4854054], [78.5017119, 17.4846763], [78.4998585, 17.4831286], [78.5018504, 17.4818481], [78.4997341, 17.4799179], [78.4981335, 17.4794951], [78.4977801, 17.478262], [78.4976024, 17.4784359], [78.4975159, 17.4766802], [78.4983072, 17.476317], [78.4985737, 17.4737601], [78.5002491, 17.4717335], [78.4998085, 17.4716446], [78.4956632, 17.473849], [78.4952563, 17.474733], [78.496779, 17.4778947], [78.4969728, 17.4820793], [78.4958248, 17.4817727], [78.4953661, 17.4835839], [78.4946674, 17.4829636], [78.4935624, 17.4799061], [78.4906302, 17.4792206], [78.4880397, 17.4799678], [78.4880423, 17.4807429], [78.4856941, 17.4824826], [78.4847969, 17.4838052], [78.4847379, 17.4868701], [78.4857195, 17.4863226], [78.4868032, 17.4877987], [78.4906776, 17.4861218], [78.4907098, 17.48989], [78.49224, 17.4928767], [78.4935462, 17.4969544], [78.4926611, 17.5025233], [78.4919047, 17.5047642], [78.4897657, 17.5045263], [78.4817792, 17.5007098], [78.4789146, 17.4945653], [78.4741403, 17.4958955], [78.4702565, 17.4958239], [78.4676921, 17.4931327], [78.4649563, 17.4892954], [78.4603697, 17.485765], [78.4601927, 17.4846138], [78.4576285, 17.4830276], [78.4562284, 17.4831095], [78.4557992, 17.4820606], [78.4501532, 17.4827744], [78.4491907, 17.482125], [78.4480262, 17.4830225], [78.4459019, 17.4830123], [78.4452796, 17.4824187], [78.4448397, 17.4807507], [78.4445071, 17.4807303], [78.4360206, 17.4831044], [78.4343684, 17.4853454], [78.4281778, 17.489674], [78.4285212, 17.4908712], [78.4266973, 17.4909019], [78.4262547, 17.4915824], [78.4267026, 17.493721], [78.4286821, 17.4945703], [78.4301627, 17.4940178], [78.4314877, 17.4943196], [78.4330059, 17.497768], [78.4291436, 17.499262], [78.4274752, 17.498735], [78.427207, 17.4989908], [78.427207, 17.5004898], [78.4265955, 17.5013698], [78.4204523, 17.5027394], [78.4194983, 17.5038051], [78.4173204, 17.5042655], [78.4174277, 17.5073862], [78.4167088, 17.5081946], [78.4127499, 17.5093712], [78.412707, 17.5106911], [78.4137368, 17.513567], [78.4082706, 17.514001], [78.4007497, 17.517426]]], [[[78.5387921, 17.5171881], [78.5368609, 17.5172801], [78.5381699, 17.5237053], [78.5359865, 17.5230658], [78.5351014, 17.5240327], [78.5334974, 17.5248358], [78.5322797, 17.5322275], [78.5322609, 17.5334704], [78.5330629, 17.5373631], [78.5365874, 17.5380843], [78.5442531, 17.5353375], [78.5459322, 17.5359564], [78.5483193, 17.5404321], [78.5497785, 17.5411584], [78.5522461, 17.539051], [78.5471821, 17.5338336], [78.5473564, 17.5308387], [78.5480618, 17.5295982], [78.5497141, 17.5290867], [78.5486627, 17.5269587], [78.5473108, 17.526529], [78.5473591, 17.5232551], [78.5455862, 17.5198891], [78.5459432, 17.5189274], [78.5449669, 17.5183084], [78.5447094, 17.5167226], [78.5457608, 17.5155715], [78.5475954, 17.5152288], [78.5480729, 17.5081741], [78.5510662, 17.5077239], [78.5514837, 17.5072172], [78.5533407, 17.5074681], [78.5566774, 17.5068644], [78.5564451, 17.5039265], [78.5555308, 17.5024263], [78.5525522, 17.4998913], [78.5505941, 17.4976811], [78.5479334, 17.497369], [78.5466137, 17.499088], [78.5458413, 17.4964941], [78.5447684, 17.4954197], [78.5434648, 17.4968062], [78.5418931, 17.4958136], [78.5417858, 17.4953327], [78.5389963, 17.4964685], [78.539125, 17.4988015], [78.5379985, 17.4979522], [78.5356274, 17.4982899], [78.5308638, 17.5016256], [78.5305741, 17.5071202], [78.5312822, 17.5093098], [78.5304239, 17.510466], [78.5317221, 17.5119701], [78.533031, 17.5111822], [78.5403803, 17.5103842], [78.539747, 17.515592], [78.5387814, 17.5156841], [78.5387921, 17.5171881]]]]}}