{"type": "Feature", "properties": {"osm_id": 9766644, "id": 9766644, "name": "Sangareddy mandal", "name_local": "Sangareddy mandal", "boundary": "administrative", "admin_level": "6", "type_tags": {"wikidata": "Q2341381"}, "last_edit": "2025-12-16T18:09:53Z", "version": 5}, "geometry": {"type": "Polygon", "coordinates": [[[78.160995, 17.6380388], [78.1628471, 17.6342348], [78.1645734, 17.6283288], [78.1663823, 17.628075], [78.1653414, 17.6233559], [78.1635319, 17.6196384], [78.1616272, 17.6166369], [78.158604, 17.6132734], [78.1529697, 17.6041834], [78.1519357, 17.603379], [78.1485199, 17.6043122], [78.1393802, 17.6046706], [78.1354557, 17.605371], [78.1275139, 17.6033241], [78.1243497, 17.6040357], [78.1191284, 17.6060705], [78.1145964, 17.6070904], [78.1072676, 17.6099545], [78.1058552, 17.6094274], [78.1047361, 17.6084647], [78.1041441, 17.6070733], [78.1031152, 17.6058306], [78.1028119, 17.6047067], [78.0990255, 17.6045075], [78.0992723, 17.6036531], [78.0990566, 17.6012456], [78.0999079, 17.5998984], [78.0939159, 17.591966], [78.091072, 17.5856161], [78.0912033, 17.5830649], [78.0908253, 17.5815614], [78.0910833, 17.5810989], [78.0897713, 17.5741479], [78.0902082, 17.569485], [78.0927313, 17.5612447], [78.0894822, 17.5535535], [78.0847106, 17.5547223], [78.0810205, 17.554922], [78.0787989, 17.5547194], [78.0754592, 17.5552167], [78.0736086, 17.5565107], [78.0705088, 17.5578427], [78.0674303, 17.5604062], [78.0633364, 17.5606], [78.0575413, 17.5624415], [78.0584976, 17.5657984], [78.0586081, 17.5686207], [78.0605335, 17.5727051], [78.0635953, 17.5766373], [78.0650921, 17.5778844], [78.0681094, 17.5787522], [78.0732435, 17.5785612], [78.0732601, 17.5893368], [78.0739856, 17.5918871], [78.0670067, 17.5936965], [78.069189, 17.6034157], [78.0655019, 17.6037404], [78.0652678, 17.6040034], [78.0658175, 17.6062673], [78.0607888, 17.6067656], [78.0574269, 17.6066926], [78.0556384, 17.6072001], [78.0526766, 17.6086594], [78.0505844, 17.6091312], [78.047753, 17.6091676], [78.0448167, 17.6149276], [78.0434263, 17.61595], [78.0425739, 17.6171302], [78.0437198, 17.6181724], [78.0440538, 17.6189447], [78.0439521, 17.6217662], [78.0434337, 17.6229729], [78.0417527, 17.6243725], [78.0410513, 17.6244649], [78.0404325, 17.6254166], [78.0405182, 17.6284287], [78.0416532, 17.6313442], [78.0408574, 17.634923], [78.0416051, 17.6360077], [78.0431864, 17.6367555], [78.044848, 17.6370801], [78.0457945, 17.6385728], [78.0457331, 17.6416992], [78.0462466, 17.6422733], [78.0497999, 17.6436813], [78.0496121, 17.6438189], [78.0508517, 17.6453848], [78.0529652, 17.6502248], [78.0537395, 17.6506924], [78.0547012, 17.6525104], [78.0515893, 17.6549868], [78.0494894, 17.6574095], [78.0491895, 17.6588404], [78.0502775, 17.6585409], [78.0506769, 17.6590118], [78.0505108, 17.660607], [78.0503213, 17.6612854], [78.0494794, 17.6621352], [78.0477243, 17.6629906], [78.0470404, 17.6663164], [78.0477144, 17.6673329], [78.0494229, 17.6660167], [78.0526019, 17.6618669], [78.0570562, 17.6589544], [78.0589217, 17.6589925], [78.0600829, 17.6598301], [78.061187, 17.6613149], [78.0621958, 17.6632755], [78.0658697, 17.6682248], [78.0672022, 17.6706804], [78.0691957, 17.6732419], [78.0697044, 17.6732518], [78.0705355, 17.6720387], [78.0709697, 17.6725465], [78.0715503, 17.6726588], [78.072495, 17.6720801], [78.0724138, 17.6717], [78.0730745, 17.6713958], [78.0737071, 17.6697689], [78.0728003, 17.6657193], [78.0731633, 17.6586086], [78.0733203, 17.658118], [78.0763528, 17.6551727], [78.0778805, 17.6548443], [78.0792796, 17.6549585], [78.0853187, 17.656429], [78.0906724, 17.6572428], [78.0934279, 17.6565433], [78.0969542, 17.6550299], [78.1043353, 17.6525886], [78.1074334, 17.6518605], [78.1134296, 17.6495048], [78.1164991, 17.6488624], [78.1189833, 17.6496761], [78.1201682, 17.6509753], [78.1223526, 17.6559151], [78.1226238, 17.6580138], [78.1220242, 17.6639101], [78.1226667, 17.6659088], [78.1241229, 17.6669225], [78.1270352, 17.6669017], [78.1279775, 17.6664306], [78.1315467, 17.6628185], [78.1322748, 17.6614622], [78.133988, 17.653453], [78.1356013, 17.6505548], [78.1368005, 17.6498695], [78.1406696, 17.6481706], [78.1423257, 17.6479421], [78.1435249, 17.6482848], [78.1447384, 17.6491842], [78.1461518, 17.6511401], [78.1489078, 17.6567478], [78.1499051, 17.6562085], [78.1511626, 17.6549186], [78.153371, 17.6545055], [78.1544233, 17.6536683], [78.1550981, 17.6523821], [78.1520886, 17.6471494], [78.1527306, 17.6444785], [78.1534142, 17.6442111], [78.1539588, 17.6443931], [78.1591873, 17.6474693], [78.1602504, 17.6474019], [78.1610504, 17.646841], [78.1614992, 17.6460876], [78.1610981, 17.6448614], [78.1608144, 17.6408221], [78.160995, 17.6380388]]]}}