{"type": "Feature", "properties": {"osm_id": 9821551, "id": 9821551, "name": "Medchal mandal", "name_local": "Medchal mandal", "boundary": "administrative", "admin_level": "6", "type_tags": {"wikidata": "Q59125870"}, "last_edit": "2025-12-16T18:09:53Z", "version": 10}, "geometry": {"type": "Polygon", "coordinates": [[[78.5548499, 17.6873455], [78.5510168, 17.68409], [78.550425, 17.6830903], [78.5494353, 17.6795437], [78.5495994, 17.6745804], [78.5481224, 17.6730554], [78.549616, 17.6694637], [78.5511834, 17.6679908], [78.5512977, 17.6639227], [78.5571328, 17.6580823], [78.5576716, 17.6571772], [78.560503, 17.6546277], [78.5606803, 17.6531491], [78.5602493, 17.6483217], [78.5595796, 17.6440565], [78.5572522, 17.6433677], [78.55458, 17.6385653], [78.5537644, 17.6334784], [78.5540561, 17.6322651], [78.5525443, 17.6259457], [78.5475281, 17.6132659], [78.5481216, 17.6129436], [78.5474254, 17.6114987], [78.547766, 17.6112396], [78.5450656, 17.6032233], [78.5437676, 17.6010585], [78.5420925, 17.5959271], [78.541122, 17.5913454], [78.5407979, 17.5873934], [78.5398149, 17.586544], [78.5351741, 17.5862335], [78.5342019, 17.5856196], [78.5242739, 17.5859806], [78.524225, 17.5844936], [78.5224248, 17.5853691], [78.5199954, 17.5851423], [78.5166584, 17.5855943], [78.513595, 17.5866981], [78.5033405, 17.5919214], [78.5020715, 17.5918732], [78.4995568, 17.5869841], [78.4977433, 17.5841729], [78.4963549, 17.5752893], [78.4957532, 17.5671497], [78.4945855, 17.5628588], [78.4939367, 17.5617702], [78.4941443, 17.5602496], [78.4930285, 17.5597114], [78.4914485, 17.5596958], [78.4908704, 17.5576933], [78.4859025, 17.5577657], [78.4821639, 17.5563942], [78.4814728, 17.5558951], [78.4811964, 17.5549394], [78.4778623, 17.5495451], [78.476668, 17.5492343], [78.4752575, 17.5499265], [78.473966, 17.5501192], [78.4741274, 17.5513523], [78.4724788, 17.5518059], [78.470644, 17.5512928], [78.4687875, 17.5515264], [78.4675426, 17.5511085], [78.4674783, 17.5508413], [78.4655326, 17.5521205], [78.4612845, 17.5536473], [78.4561794, 17.5564002], [78.4493938, 17.5592627], [78.4432641, 17.5612824], [78.444361, 17.5695729], [78.4425745, 17.5720501], [78.4429387, 17.577126], [78.4437663, 17.5791531], [78.4467399, 17.5818202], [78.4429207, 17.5837413], [78.4370041, 17.5857668], [78.4390964, 17.586832], [78.4408657, 17.5883142], [78.4415279, 17.5893635], [78.4418854, 17.591824], [78.4441049, 17.5983491], [78.4464575, 17.6004892], [78.4472181, 17.6019725], [78.4480557, 17.6052646], [78.4478642, 17.6078706], [78.445249, 17.6093348], [78.4453394, 17.6110383], [78.4457253, 17.61141], [78.444336, 17.6129518], [78.4420708, 17.6137266], [78.4429081, 17.6165925], [78.4404724, 17.6159202], [78.4383808, 17.61608], [78.4350945, 17.6181013], [78.4340769, 17.6176099], [78.4339737, 17.617168], [78.4326965, 17.617484], [78.4315415, 17.6172689], [78.4295499, 17.6178275], [78.4271991, 17.617692], [78.4281878, 17.6221221], [78.4273768, 17.6275248], [78.4275514, 17.6318886], [78.428307, 17.6361611], [78.4293287, 17.6388912], [78.4246211, 17.6381764], [78.4219393, 17.634622], [78.4213321, 17.626513], [78.4183746, 17.6341265], [78.413198, 17.6346258], [78.4134287, 17.6328088], [78.4142897, 17.6328217], [78.4145798, 17.6322032], [78.4145309, 17.6313904], [78.4135087, 17.6312086], [78.4137639, 17.6300318], [78.4143083, 17.6298158], [78.4143937, 17.62821], [78.4139818, 17.6267995], [78.4135711, 17.6266533], [78.4134512, 17.6261918], [78.4111305, 17.6265738], [78.4088848, 17.6262042], [78.4084652, 17.6287663], [78.4048657, 17.6288487], [78.4045214, 17.6305358], [78.404818, 17.6314018], [78.405408, 17.631294], [78.4054489, 17.6321615], [78.4060263, 17.6322632], [78.4067923, 17.6343929], [78.4075407, 17.6342523], [78.4074867, 17.6335346], [78.4082926, 17.6335148], [78.4098041, 17.6342619], [78.4100381, 17.6354264], [78.4109529, 17.63545], [78.4109091, 17.6360063], [78.4123682, 17.6382699], [78.412083, 17.6393876], [78.4109625, 17.639617], [78.4107689, 17.6392613], [78.409524, 17.6389211], [78.4095262, 17.6381814], [78.4070536, 17.6380137], [78.4058206, 17.6374733], [78.4053599, 17.6376367], [78.4047516, 17.637104], [78.402886, 17.6367029], [78.4024906, 17.6358608], [78.4013542, 17.6354257], [78.3997249, 17.6354951], [78.3987225, 17.6359107], [78.3983944, 17.6354646], [78.3952907, 17.6346339], [78.3895165, 17.6360337], [78.3879896, 17.6357239], [78.3877802, 17.635293], [78.386889, 17.6359494], [78.3869488, 17.6366097], [78.3859527, 17.6373568], [78.385556, 17.6399825], [78.3848079, 17.6406826], [78.3807722, 17.6423406], [78.3820754, 17.6438556], [78.3814304, 17.6440523], [78.3846048, 17.652074], [78.3849463, 17.6543127], [78.3857046, 17.6556663], [78.3853657, 17.6556583], [78.3863214, 17.6567718], [78.3876022, 17.6613113], [78.3881538, 17.6613226], [78.3885028, 17.6625782], [78.3884763, 17.6646163], [78.3891154, 17.6662399], [78.3898211, 17.6670627], [78.3899758, 17.6684586], [78.3925586, 17.6724158], [78.3945152, 17.6766079], [78.3980118, 17.6752115], [78.3974316, 17.6739861], [78.4014486, 17.6729904], [78.4029142, 17.6721572], [78.4060949, 17.6711851], [78.4076595, 17.6709414], [78.4090499, 17.6700042], [78.4102653, 17.6703496], [78.4131074, 17.6702199], [78.4131087, 17.6709341], [78.4138817, 17.6706942], [78.4142812, 17.6712737], [78.4160529, 17.6716137], [78.4171366, 17.6711762], [78.4193806, 17.6712193], [78.4193595, 17.6715425], [78.4207226, 17.6715792], [78.4234816, 17.6729424], [78.4222729, 17.6734673], [78.4249152, 17.6773118], [78.4276236, 17.678546], [78.4304243, 17.6868715], [78.4308529, 17.686874], [78.4316984, 17.6880429], [78.4359647, 17.6914506], [78.4369523, 17.6936815], [78.4374649, 17.6941368], [78.441583, 17.6964444], [78.4430237, 17.6961815], [78.4455691, 17.6983888], [78.4456119, 17.698969], [78.4459458, 17.6989376], [78.4453604, 17.7009264], [78.447361, 17.706358], [78.4488657, 17.7085452], [78.4510624, 17.7080239], [78.4574568, 17.7055608], [78.4587872, 17.7033224], [78.4586799, 17.7013805], [78.4596455, 17.6975476], [78.4608016, 17.6979256], [78.4600049, 17.6968296], [78.4626228, 17.6956746], [78.4636688, 17.6958075], [78.4666595, 17.6953756], [78.4698164, 17.6942998], [78.4696689, 17.6937811], [78.4699586, 17.6936738], [78.46939, 17.692092], [78.4815297, 17.6930426], [78.4869718, 17.6939294], [78.4932634, 17.694404], [78.4936578, 17.6916923], [78.4945068, 17.688927], [78.4961719, 17.685756], [78.4992069, 17.6869889], [78.501471, 17.6874146], [78.5064911, 17.6850292], [78.5076549, 17.6846709], [78.5079593, 17.6851252], [78.5084464, 17.6849975], [78.5088169, 17.6856809], [78.508619, 17.6860359], [78.5098394, 17.687825], [78.5134711, 17.6957198], [78.5173203, 17.6999409], [78.5188604, 17.702374], [78.5187886, 17.7011671], [78.519431, 17.7002997], [78.518672, 17.6983676], [78.5201633, 17.6983889], [78.5224992, 17.6971672], [78.5250015, 17.6976682], [78.528043, 17.6975532], [78.5315326, 17.6971286], [78.5328136, 17.6964607], [78.5353428, 17.6966751], [78.537088, 17.6961915], [78.5396699, 17.6949497], [78.5436033, 17.6922298], [78.5505087, 17.6902259], [78.5536621, 17.6897278], [78.5548484, 17.6891954], [78.5543424, 17.6883489], [78.5548499, 17.6873455]]]}}