{"type": "Feature", "properties": {"osm_id": 9822017, "id": 9822017, "name": "Malkajgiri mandal", "name_local": "Malkajgiri mandal", "boundary": "administrative", "admin_level": "6", "type_tags": {"wikidata": "Q30593441"}, "last_edit": "2025-12-16T18:09:53Z", "version": 4}, "geometry": {"type": "Polygon", "coordinates": [[[78.5134331, 17.4626999], [78.5132432, 17.4710543], [78.5146255, 17.4730454], [78.5150646, 17.4755664], [78.515112, 17.4796101], [78.5166927, 17.4837914], [78.5094121, 17.4829176], [78.5065727, 17.4843058], [78.5046334, 17.4842853], [78.5060335, 17.4863129], [78.5042787, 17.4870405], [78.5038157, 17.4866842], [78.5038812, 17.4879974], [78.5094568, 17.4909776], [78.5134105, 17.4912692], [78.515534, 17.4906263], [78.5181628, 17.4943655], [78.5186647, 17.4924479], [78.5193727, 17.491232], [78.5205679, 17.4920379], [78.5200984, 17.4928604], [78.5205885, 17.4930551], [78.5203798, 17.4944486], [78.5218084, 17.4982666], [78.5190879, 17.5012183], [78.5174991, 17.5017163], [78.5171, 17.5030092], [78.5159247, 17.502938], [78.5158196, 17.5038217], [78.516827, 17.5039427], [78.5166694, 17.5075789], [78.5171597, 17.5091097], [78.5212775, 17.5073211], [78.528326, 17.5056541], [78.527893, 17.5081707], [78.530467, 17.5076439], [78.5307409, 17.5026979], [78.5348556, 17.4995855], [78.5369075, 17.4987609], [78.5382189, 17.4984325], [78.538709, 17.5001642], [78.5393968, 17.499984], [78.5386318, 17.497319], [78.5415349, 17.4962992], [78.5408784, 17.4943343], [78.5399371, 17.4892404], [78.5415896, 17.4876599], [78.5520276, 17.4825204], [78.5527681, 17.4784022], [78.5551406, 17.4754063], [78.5565605, 17.474106], [78.5595459, 17.472398], [78.5599684, 17.4711852], [78.5602119, 17.468268], [78.5590034, 17.4567346], [78.5584858, 17.4426549], [78.5617193, 17.4414548], [78.5610718, 17.4366121], [78.5596684, 17.4364133], [78.5563157, 17.4370147], [78.5562026, 17.4385651], [78.5538902, 17.4384846], [78.5509243, 17.4389926], [78.5472794, 17.4373297], [78.5428802, 17.4368159], [78.5397195, 17.4412371], [78.5378371, 17.4420258], [78.5346406, 17.4419252], [78.5321346, 17.4413359], [78.5302064, 17.4414752], [78.5291201, 17.4412236], [78.5281252, 17.4403287], [78.5279827, 17.4330353], [78.5282223, 17.4309615], [78.5213024, 17.4299889], [78.5196261, 17.4291621], [78.5178465, 17.4291436], [78.513829, 17.4282921], [78.5086657, 17.4293143], [78.5062975, 17.4316256], [78.5056922, 17.435392], [78.5060407, 17.4376419], [78.5113075, 17.4438991], [78.5135127, 17.4476062], [78.5150628, 17.451306], [78.5152592, 17.4586769], [78.5144807, 17.4611833], [78.5134331, 17.4626999]]]}}