{"type": "Feature", "properties": {"osm_id": 9823232, "id": 9823232, "name": "Secunderabad mandal", "name_local": "Secunderabad mandal", "boundary": "administrative", "admin_level": "6", "type_tags": {"source": "Government Of Telangana (2023-10-09, GODL, https://data.telangana.gov.in/telangana-district-and-mandal-shape-files)", "wikidata": "Q61607258"}, "last_edit": "2025-12-16T18:09:53Z", "version": 8}, "geometry": {"type": "Polygon", "coordinates": [[[78.4961499, 17.4270009], [78.4935798, 17.4261661], [78.4908339, 17.4266273], [78.4905263, 17.4272924], [78.4906299, 17.4281642], [78.4901808, 17.4290025], [78.4896207, 17.4282862], [78.4887501, 17.4282613], [78.4882343, 17.4273724], [78.4875518, 17.427266], [78.4865654, 17.4285517], [78.4859517, 17.4284606], [78.4855502, 17.4289671], [78.4858599, 17.4296195], [78.485638, 17.4308554], [78.4842454, 17.4308166], [78.4838034, 17.4300273], [78.4812269, 17.4311244], [78.4813345, 17.4320377], [78.4793798, 17.4341699], [78.469632, 17.4377743], [78.4698594, 17.4382159], [78.4721231, 17.4382262], [78.4722841, 17.4386254], [78.4749126, 17.4384616], [78.479247, 17.4375404], [78.479054, 17.4386458], [78.4783137, 17.4388915], [78.4777129, 17.4400072], [78.4788394, 17.4420031], [78.4783673, 17.4415835], [78.4774013, 17.4438331], [78.4900736, 17.4438638], [78.4961254, 17.4417269], [78.4970473, 17.43849], [78.4997788, 17.4351623], [78.500057, 17.4343725], [78.4988732, 17.4335231], [78.4977321, 17.4299723], [78.4961499, 17.4270009]]]}}